<?xml version="1.0" encoding="UTF-8"?>
<gpx version="1.1" creator="CellGPX" xmlns="http://www.topografix.com/GPX/1/1">
  <trk><name>CellGPX</name><trkseg>
    <trkpt lat="45.6025799" lon="10.4537096">
      <ele>261.0</ele>
      <time>2026-09-27T11:48:38.969+02:00</time>
      <extensions>
        <activity type="ON_FOOT" conf="85" state="moving" tsMs="1790502535586"/>
        <radio op="vodafone IT" rat="LTE" rsrp="-125" rsrq="-13"/>
        <radio op="I TIM" rat="LTE" rsrp="-125" rsrq="-14"/>
      </extensions>
    </trkpt>
    <trkpt lat="45.6025596" lon="10.4536678">
      <ele>261.0</ele>
      <time>2026-09-27T11:49:19.893+02:00</time>
      <extensions>
        <activity type="UNKNOWN" conf="40" state="unknown" tsMs="1790502553366"/>
        <radio op="vodafone IT" rat="LTE" rsrp="-124" rsrq="-13"/>
        <radio op="I TIM" rat="LTE" rsrp="-124" rsrq="-16"/>
      </extensions>
    </trkpt>
    <trkpt lat="45.6025585" lon="10.4536631">
      <ele>261.0</ele>
      <time>2026-09-27T11:49:57.986+02:00</time>
      <extensions>
        <activity type="UNKNOWN" conf="40" state="unknown" tsMs="1790502584958"/>
        <radio op="vodafone IT" rat="LTE" q="7.00" rsrp="-118" sinr="5" rsrq="-10"/>
        <radio op="I TIM" rat="LTE" q="3.00" rsrp="-119" sinr="0" rsrq="-14"/>
      </extensions>
    </trkpt>
    <trkpt lat="45.6025579" lon="10.4536679">
      <ele>259.2496787533926</ele>
      <time>2026-09-27T11:50:29.731+02:00</time>
      <extensions>
        <activity type="UNKNOWN" conf="40" state="unknown" tsMs="1790502610665"/>
        <radio op="vodafone IT" rat="LTE" q="4.00" rsrp="-120" sinr="3" rsrq="-13"/>
        <radio op="I TIM" rat="LTE" q="2.50" rsrp="-120" sinr="0" rsrq="-13"/>
      </extensions>
    </trkpt>
    <trkpt lat="45.60256" lon="10.4536632">
      <ele>261.0</ele>
      <time>2026-09-27T11:51:37.825+02:00</time>
      <extensions>
        <activity type="UNKNOWN" conf="40" state="unknown" tsMs="1790502707366"/>
        <radio op="vodafone IT" rat="OTHER"/>
        <radio op="I TIM" rat="LTE" rsrp="-128" rsrq="-14"/>
      </extensions>
    </trkpt>
    <trkpt lat="45.6028277" lon="10.4536087">
      <ele>261.0</ele>
      <time>2026-09-27T11:52:15.659+02:00</time>
      <extensions>
        <activity type="UNKNOWN" conf="40" state="unknown" tsMs="1790502720360"/>
        <radio op="vodafone IT" rat="WCDMA"/>
        <radio op="I TIM" rat="LTE" q="36.10" rsrp="-106" sinr="14" rsrq="-12"/>
      </extensions>
    </trkpt>
    <trkpt lat="45.6025596" lon="10.4536659">
      <ele>261.0</ele>
      <time>2026-09-27T11:52:46.742+02:00</time>
      <extensions>
        <activity type="UNKNOWN" conf="40" state="unknown" tsMs="1790502746398"/>
        <radio op="vodafone IT" rat="LTE" q="16.00" rsrp="-109" sinr="5" rsrq="-11"/>
        <radio op="I TIM" rat="LTE" q="22.80" rsrp="-106" sinr="7" rsrq="-10"/>
      </extensions>
    </trkpt>
    <trkpt lat="45.6026256" lon="10.4538271">
      <ele>261.0</ele>
      <time>2026-09-27T11:53:23.568+02:00</time>
      <extensions>
        <activity type="UNKNOWN" conf="40" state="unknown" tsMs="1790502794669"/>
        <radio op="vodafone IT" rat="LTE" q="31.20" rsrp="-101" sinr="8" rsrq="-8"/>
        <radio op="I TIM" rat="LTE" rsrp="-116" rsrq="-14"/>
      </extensions>
    </trkpt>
    <trkpt lat="45.6025573" lon="10.4536658">
      <ele>261.0</ele>
      <time>2026-09-27T11:53:58.539+02:00</time>
      <extensions>
        <activity type="UNKNOWN" conf="40" state="unknown" tsMs="1790502837900"/>
        <radio op="vodafone IT" rat="LTE" q="25.20" rsrp="-104" sinr="7" rsrq="-8"/>
        <radio op="I TIM" rat="LTE" q="6.30" rsrp="-116" sinr="2" rsrq="-13"/>
      </extensions>
    </trkpt>
    <trkpt lat="45.6027013" lon="10.4535804">
      <ele>261.0</ele>
      <time>2026-09-27T11:54:29.552+02:00</time>
      <extensions>
        <activity type="UNKNOWN" conf="40" state="unknown" tsMs="1790502854378"/>
        <radio op="vodafone IT" rat="LTE" q="20.00" rsrp="-100" sinr="3" rsrq="-10"/>
        <radio op="I TIM" rat="LTE" q="9.90" rsrp="-114" sinr="4" rsrq="-12"/>
      </extensions>
    </trkpt>
    <trkpt lat="45.6026874" lon="10.4535086">
      <ele>261.0</ele>
      <time>2026-09-27T11:55:19.334+02:00</time>
      <extensions>
        <activity type="STILL" conf="39" state="still" tsMs="1790502912208"/>
        <radio op="vodafone IT" rat="LTE" q="6.60" rsrp="-114" sinr="1" rsrq="-12"/>
        <radio op="I TIM" rat="LTE" q="7.80" rsrp="-112" sinr="1" rsrq="-11"/>
      </extensions>
    </trkpt>
    <trkpt lat="45.6025905" lon="10.4538459">
      <ele>261.0</ele>
      <time>2026-09-27T11:55:53.281+02:00</time>
      <extensions>
        <activity type="STILL" conf="99" state="still" tsMs="1790502943667"/>
        <radio op="vodafone IT" rat="LTE" q="8.00" rsrp="-115" sinr="3" rsrq="-11"/>
        <radio op="I TIM" rat="LTE" q="6.00" rsrp="-113" sinr="0" rsrq="-11"/>
      </extensions>
    </trkpt>
    <trkpt lat="45.602648" lon="10.4536298">
      <ele>261.0</ele>
      <time>2026-09-27T11:56:34.366+02:00</time>
      <extensions>
        <activity type="STILL" conf="97" state="still" tsMs="1790502986918"/>
        <radio op="vodafone IT" rat="LTE" q="7.00" rsrp="-115" sinr="2" rsrq="-11"/>
        <radio op="I TIM" rat="LTE" q="9.60" rsrp="-113" sinr="3" rsrq="-14"/>
      </extensions>
    </trkpt>
    <trkpt lat="45.6026969" lon="10.453785">
      <ele>261.0</ele>
      <time>2026-09-27T11:57:25.516+02:00</time>
      <extensions>
        <activity type="UNKNOWN" conf="40" state="unknown" tsMs="1790503044906"/>
        <radio op="vodafone IT" rat="LTE" rsrp="-116" rsrq="-14"/>
        <radio op="I TIM" rat="LTE" q="7.20" rsrp="-113" sinr="1" rsrq="-14"/>
      </extensions>
    </trkpt>
    <trkpt lat="45.6028397" lon="10.4536231">
      <ele>261.0</ele>
      <time>2026-09-27T11:58:05.743+02:00</time>
      <extensions>
        <activity type="UNKNOWN" conf="40" state="unknown" tsMs="1790503069564"/>
        <radio op="vodafone IT" rat="LTE" rsrp="-114" rsrq="-15"/>
        <radio op="I TIM" rat="LTE" q="8.40" rsrp="-111" sinr="1" rsrq="-12"/>
      </extensions>
    </trkpt>
    <trkpt lat="45.6025763" lon="10.4536942">
      <ele>261.0</ele>
      <time>2026-09-27T11:58:54.244+02:00</time>
      <extensions>
        <activity type="UNKNOWN" conf="40" state="unknown" tsMs="1790503133603"/>
        <radio op="vodafone IT" rat="LTE" q="6.50" rsrp="-112" sinr="0" rsrq="-12"/>
        <radio op="I TIM" rat="LTE" q="4.50" rsrp="-116" sinr="0" rsrq="-12"/>
      </extensions>
    </trkpt>
    <trkpt lat="45.6025676" lon="10.4536564">
      <ele>261.0</ele>
      <time>2026-09-27T11:59:30.205+02:00</time>
      <extensions>
        <activity type="UNKNOWN" conf="40" state="unknown" tsMs="1790503157995"/>
        <radio op="vodafone IT" rat="LTE" q="17.60" rsrp="-109" sinr="6" rsrq="-8"/>
        <radio op="I TIM" rat="LTE" q="10.40" rsrp="-117" sinr="8" rsrq="-9"/>
      </extensions>
    </trkpt>
    <trkpt lat="45.6026035" lon="10.4535841">
      <ele>261.0</ele>
      <time>2026-09-27T12:00:01.62+02:00</time>
      <extensions>
        <activity type="UNKNOWN" conf="40" state="unknown" tsMs="1790503183960"/>
        <radio op="vodafone IT" rat="LTE" rsrp="-120" rsrq="-13"/>
        <radio op="I TIM" rat="LTE" q="14.30" rsrp="-114" sinr="8" rsrq="-12"/>
      </extensions>
    </trkpt>
    <trkpt lat="45.6021903" lon="10.4534356">
      <ele>260.6000061035156</ele>
      <time>2026-09-27T12:00:33.343+02:00</time>
      <extensions>
        <activity type="ON_FOOT" conf="96" state="moving" tsMs="1790503222859"/>
        <radio op="vodafone IT" rat="LTE" q="8.50" rsrp="-108" sinr="0" rsrq="-10"/>
        <radio op="I TIM" rat="LTE" q="16.00" rsrp="-105" sinr="3" rsrq="-12"/>
      </extensions>
    </trkpt>
    <trkpt lat="45.6019931" lon="10.4534734">
      <ele>260.6000061035156</ele>
      <time>2026-09-27T12:00:59.937+02:00</time>
      <extensions>
        <activity type="ON_FOOT" conf="96" state="moving" tsMs="1790503258336"/>
        <radio op="vodafone IT" rat="LTE" q="52.80" rsrp="-101" sinr="17" rsrq="-8"/>
        <radio op="I TIM" rat="LTE" q="21.60" rsrp="-101" sinr="4" rsrq="-11"/>
      </extensions>
    </trkpt>
    <trkpt lat="45.6011459" lon="10.4535221">
      <ele>260.3000183105469</ele>
      <time>2026-09-27T12:01:35.615+02:00</time>
      <extensions>
        <activity type="ON_FOOT" conf="97" state="moving" tsMs="1790503280747"/>
        <radio op="vodafone IT" rat="LTE" q="62.10" rsrp="-98" sinr="18" rsrq="-6"/>
        <radio op="I TIM" rat="LTE" q="60.90" rsrp="-96" sinr="16" rsrq="-11"/>
      </extensions>
    </trkpt>
    <trkpt lat="45.6011337" lon="10.4525431">
      <ele>260.1000061035156</ele>
      <time>2026-09-27T12:02:06.992+02:00</time>
      <extensions>
        <activity type="ON_FOOT" conf="96" state="moving" tsMs="1790503319792"/>
        <radio op="vodafone IT" rat="LTE" q="55.10" rsrp="-96" sinr="14" rsrq="-7"/>
        <radio op="I TIM" rat="LTE" q="40.50" rsrp="-98" sinr="10" rsrq="-8"/>
      </extensions>
    </trkpt>
    <trkpt lat="45.6006368" lon="10.4522746">
      <ele>260.1000061035156</ele>
      <time>2026-09-27T12:02:38.376+02:00</time>
      <extensions>
        <activity type="ON_FOOT" conf="96" state="moving" tsMs="1790503351843"/>
        <radio op="vodafone IT" rat="LTE" q="47.60" rsrp="-97" sinr="12" rsrq="-8"/>
        <radio op="I TIM" rat="LTE" q="59.80" rsrp="-99" sinr="18" rsrq="-10"/>
      </extensions>
    </trkpt>
    <trkpt lat="45.5996295" lon="10.4509104">
      <ele>258.5</ele>
      <time>2026-09-27T12:03:55.751+02:00</time>
      <extensions>
        <activity type="ON_FOOT" conf="96" state="moving" tsMs="1790503425562"/>
        <radio op="vodafone IT" rat="LTE" q="36.00" rsrp="-101" sinr="10" rsrq="-9"/>
        <radio op="I TIM" rat="LTE" q="37.80" rsrp="-98" sinr="9" rsrq="-10"/>
      </extensions>
    </trkpt>
    <trkpt lat="45.5993787" lon="10.4503286">
      <ele>260.1000061035156</ele>
      <time>2026-09-27T12:04:30.771+02:00</time>
      <extensions>
        <activity type="ON_FOOT" conf="96" state="moving" tsMs="1790503451695"/>
        <radio op="vodafone IT" rat="LTE" rsrp="-100" rsrq="-11"/>
        <radio op="I TIM" rat="LTE" q="58.80" rsrp="-97" sinr="16" rsrq="-11"/>
      </extensions>
    </trkpt>
    <trkpt lat="45.5989322" lon="10.450205">
      <ele>258.0</ele>
      <time>2026-09-27T12:05:01.487+02:00</time>
      <extensions>
        <activity type="ON_FOOT" conf="98" state="moving" tsMs="1790503487982"/>
        <radio op="vodafone IT" rat="LTE" q="39.00" rsrp="-99" sinr="10" rsrq="-10"/>
        <radio op="I TIM" rat="LTE" q="44.80" rsrp="-93" sinr="9" rsrq="-12"/>
      </extensions>
    </trkpt>
    <trkpt lat="45.5980446" lon="10.4487844">
      <ele>257.9000244140625</ele>
      <time>2026-09-27T12:06:08.826+02:00</time>
      <extensions>
        <activity type="ON_FOOT" conf="90" state="moving" tsMs="1790503567633"/>
        <radio op="vodafone IT" rat="LTE" q="19.20" rsrp="-101" sinr="3" rsrq="-12"/>
        <radio op="I TIM" rat="LTE" q="68.40" rsrp="-89" sinr="14" rsrq="-12"/>
      </extensions>
    </trkpt>
    <trkpt lat="45.5975802" lon="10.4485369">
      <ele>257.8000183105469</ele>
      <time>2026-09-27T12:06:40.113+02:00</time>
      <extensions>
        <activity type="ON_FOOT" conf="96" state="moving" tsMs="1790503599802"/>
        <radio op="vodafone IT" rat="LTE" q="22.50" rsrp="-100" sinr="4" rsrq="-10"/>
        <radio op="I TIM" rat="LTE" q="36.00" rsrp="-95" sinr="7" rsrq="-10"/>
      </extensions>
    </trkpt>
    <trkpt lat="45.5971387" lon="10.4475006">
      <ele>257.3999938964844</ele>
      <time>2026-09-27T12:07:43.484+02:00</time>
      <extensions>
        <activity type="ON_FOOT" conf="94" state="moving" tsMs="1790503657343"/>
        <radio op="vodafone IT" rat="LTE" q="15.40" rsrp="-103" sinr="2" rsrq="-13"/>
        <radio op="I TIM" rat="LTE" q="23.10" rsrp="-92" sinr="2" rsrq="-12"/>
      </extensions>
    </trkpt>
    <trkpt lat="45.5964418" lon="10.4462241">
      <ele>257.0</ele>
      <time>2026-09-27T12:08:44.728+02:00</time>
      <extensions>
        <activity type="ON_FOOT" conf="95" state="moving" tsMs="1790503719925"/>
        <radio op="vodafone IT" rat="LTE" q="20.30" rsrp="-96" sinr="2" rsrq="-12"/>
        <radio op="I TIM" rat="LTE" q="27.20" rsrp="-91" sinr="3" rsrq="-11"/>
      </extensions>
    </trkpt>
    <trkpt lat="45.5962121" lon="10.4451464">
      <ele>257.1000061035156</ele>
      <time>2026-09-27T12:09:16.542+02:00</time>
      <extensions>
        <activity type="ON_FOOT" conf="94" state="moving" tsMs="1790503737316"/>
        <radio op="vodafone IT" rat="LTE" q="15.00" rsrp="-100" sinr="1" rsrq="-13"/>
        <radio op="I TIM" rat="LTE" rsrp="-101" rsrq="-15"/>
      </extensions>
    </trkpt>
    <trkpt lat="45.5958782" lon="10.4447375">
      <ele>256.8999938964844</ele>
      <time>2026-09-27T12:09:47.925+02:00</time>
      <extensions>
        <activity type="ON_FOOT" conf="98" state="moving" tsMs="1790503776651"/>
        <radio op="vodafone IT" rat="LTE" q="19.80" rsrp="-107" sinr="6" rsrq="-9"/>
        <radio op="I TIM" rat="LTE" q="45.00" rsrp="-100" sinr="13" rsrq="-9"/>
      </extensions>
    </trkpt>
    <trkpt lat="45.5954418" lon="10.4440941">
      <ele>257.0</ele>
      <time>2026-09-27T12:10:19.341+02:00</time>
      <extensions>
        <activity type="ON_FOOT" conf="91" state="moving" tsMs="1790503802932"/>
        <radio op="vodafone IT" rat="LTE" q="33.80" rsrp="-99" sinr="8" rsrq="-9"/>
        <radio op="I TIM" rat="LTE" q="67.20" rsrp="-93" sinr="16" rsrq="-10"/>
      </extensions>
    </trkpt>
    <trkpt lat="45.5955061" lon="10.4441718">
      <ele>257.0</ele>
      <time>2026-09-27T12:10:27.874+02:00</time>
      <extensions>
        <activity type="ON_FOOT" conf="97" state="moving" tsMs="1790503815976"/>
        <radio op="vodafone IT" rat="LTE" q="12.50" rsrp="-100" sinr="0" rsrq="-12"/>
        <radio op="I TIM" rat="LTE" q="57.00" rsrp="-87" sinr="10" rsrq="-5"/>
      </extensions>
    </trkpt>
    <trkpt lat="45.5955061" lon="10.4441718">
      <ele>256.79998779296875</ele>
      <time>2026-09-27T12:11:00.812+02:00</time>
      <extensions>
        <activity type="ON_FOOT" conf="93" state="moving" tsMs="1790503841987"/>
        <radio op="vodafone IT" rat="LTE" q="97.50" rsrp="-86" sinr="29" rsrq="-6"/>
        <radio op="I TIM" rat="LTE" q="68.00" rsrp="-85" sinr="12" rsrq="-7"/>
      </extensions>
    </trkpt>
    <trkpt lat="45.5955262" lon="10.4432933">
      <ele>256.79998779296875</ele>
      <time>2026-09-27T12:11:32.125+02:00</time>
      <extensions>
        <activity type="ON_FOOT" conf="87" state="moving" tsMs="1790503880986"/>
        <radio op="vodafone IT" rat="LTE" q="21.00" rsrp="-110" sinr="9" rsrq="-8"/>
        <radio op="I TIM" rat="LTE" q="36.10" rsrp="-106" sinr="14" rsrq="-10"/>
      </extensions>
    </trkpt>
    <trkpt lat="45.5957641" lon="10.4432427">
      <ele>256.79998779296875</ele>
      <time>2026-09-27T12:12:03.507+02:00</time>
      <extensions>
        <activity type="ON_FOOT" conf="95" state="moving" tsMs="1790503903811"/>
        <radio op="vodafone IT" rat="LTE" q="5.60" rsrp="-118" sinr="3" rsrq="-9"/>
        <radio op="I TIM" rat="LTE" rsrp="-122" rsrq="-12"/>
      </extensions>
    </trkpt>
    <trkpt lat="45.5957857" lon="10.4432013">
      <ele>256.8999938964844</ele>
      <time>2026-09-27T12:12:34.77+02:00</time>
      <extensions>
        <activity type="UNKNOWN" conf="40" state="unknown" tsMs="1790503940355"/>
        <radio op="vodafone IT" rat="LTE" q="4.80" rsrp="-119" sinr="3" rsrq="-12"/>
        <radio op="I TIM" rat="LTE" q="2.40" rsrp="-121" sinr="1" rsrq="-14"/>
      </extensions>
    </trkpt>
    <trkpt lat="45.5957931" lon="10.4431748">
      <ele>256.79998779296875</ele>
      <time>2026-09-27T12:13:16.848+02:00</time>
      <extensions>
        <activity type="UNKNOWN" conf="40" state="unknown" tsMs="1790503993402"/>
        <radio op="vodafone IT" rat="LTE" q="1.00" rsrp="-123" sinr="0" rsrq="-13"/>
        <radio op="I TIM" rat="LTE" q="9.00" rsrp="-116" sinr="5" rsrq="-9"/>
      </extensions>
    </trkpt>
    <trkpt lat="45.5957635" lon="10.4432116">
      <ele>256.79998779296875</ele>
      <time>2026-09-27T12:14:37.972+02:00</time>
      <extensions>
        <activity type="UNKNOWN" conf="40" state="unknown" tsMs="1790504074929"/>
        <radio op="vodafone IT" rat="LTE" q="4.20" rsrp="-118" sinr="1" rsrq="-10"/>
        <radio op="I TIM" rat="LTE" q="9.90" rsrp="-116" sinr="6" rsrq="-11"/>
      </extensions>
    </trkpt>
    <trkpt lat="45.5957371" lon="10.4430874">
      <ele>256.79998779296875</ele>
      <time>2026-09-27T12:15:51.89+02:00</time>
      <extensions>
        <activity type="IN_VEHICLE" conf="79" state="moving" tsMs="1790504150962"/>
        <radio op="vodafone IT" rat="LTE" q="23.80" rsrp="-108" sinr="9" rsrq="-12"/>
        <radio op="I TIM" rat="LTE" q="12.60" rsrp="-116" sinr="9" rsrq="-13"/>
      </extensions>
    </trkpt>
    <trkpt lat="45.5957694" lon="10.4432175">
      <ele>256.79998779296875</ele>
      <time>2026-09-27T12:16:22.38+02:00</time>
      <extensions>
        <activity type="STILL" conf="99" state="still" tsMs="1790504180947"/>
        <radio op="vodafone IT" rat="LTE" q="13.20" rsrp="-103" sinr="1" rsrq="-10"/>
        <radio op="I TIM" rat="LTE" q="12.80" rsrp="-109" sinr="3" rsrq="-9"/>
      </extensions>
    </trkpt>
    <trkpt lat="45.5954561" lon="10.4431706">
      <ele>256.79998779296875</ele>
      <time>2026-09-27T12:16:54.702+02:00</time>
      <extensions>
        <activity type="UNKNOWN" conf="40" state="unknown" tsMs="1790504199535"/>
        <radio op="vodafone IT" rat="LTE" q="13.30" rsrp="-106" sinr="2" rsrq="-11"/>
        <radio op="I TIM" rat="LTE" q="12.80" rsrp="-109" sinr="3" rsrq="-10"/>
      </extensions>
    </trkpt>
    <trkpt lat="45.5957542" lon="10.4432109">
      <ele>256.79998779296875</ele>
      <time>2026-09-27T12:17:29.785+02:00</time>
      <extensions>
        <activity type="UNKNOWN" conf="40" state="unknown" tsMs="1790504238248"/>
        <radio op="vodafone IT" rat="LTE" rsrp="-106" rsrq="-13"/>
        <radio op="I TIM" rat="LTE" q="11.20" rsrp="-109" sinr="2" rsrq="-10"/>
      </extensions>
    </trkpt>
    <trkpt lat="45.5957665" lon="10.4432329">
      <ele>256.79998779296875</ele>
      <time>2026-09-27T12:18:05.751+02:00</time>
      <extensions>
        <activity type="UNKNOWN" conf="40" state="unknown" tsMs="1790504270065"/>
        <radio op="vodafone IT" rat="LTE" q="5.60" rsrp="-117" sinr="2" rsrq="-12"/>
        <radio op="I TIM" rat="LTE" rsrp="-119" rsrq="-12"/>
      </extensions>
    </trkpt>
    <trkpt lat="45.5957693" lon="10.4432793">
      <ele>256.79998779296875</ele>
      <time>2026-09-27T12:18:58.525+02:00</time>
      <extensions>
        <activity type="STILL" conf="37" state="still" tsMs="1790504331937"/>
        <radio op="vodafone IT" rat="LTE" q="24.20" rsrp="-103" sinr="6" rsrq="-11"/>
        <radio op="I TIM" rat="LTE" q="11.70" rsrp="-116" sinr="8" rsrq="-12"/>
      </extensions>
    </trkpt>
    <trkpt lat="45.5954903" lon="10.4432199">
      <ele>256.79998779296875</ele>
      <time>2026-09-27T12:19:45.778+02:00</time>
      <extensions>
        <activity type="ON_FOOT" conf="93" state="moving" tsMs="1790504379429"/>
        <radio op="vodafone IT" rat="LTE" q="49.50" rsrp="-92" sinr="10" rsrq="-7"/>
        <radio op="I TIM" rat="LTE" q="50.40" rsrp="-101" sinr="16" rsrq="-7"/>
      </extensions>
    </trkpt>
    <trkpt lat="45.5954718" lon="10.4431281">
      <ele>256.79998779296875</ele>
      <time>2026-09-27T12:20:25.666+02:00</time>
      <extensions>
        <activity type="UNKNOWN" conf="40" state="unknown" tsMs="1790504423656"/>
        <radio op="vodafone IT" rat="LTE" q="39.20" rsrp="-97" sinr="9" rsrq="-8"/>
        <radio op="I TIM" rat="LTE" q="31.50" rsrp="-104" sinr="10" rsrq="-11"/>
      </extensions>
    </trkpt>
    <trkpt lat="45.5951996" lon="10.4432671">
      <ele>257.0</ele>
      <time>2026-09-27T12:21:11.906+02:00</time>
      <extensions>
        <activity type="UNKNOWN" conf="40" state="unknown" tsMs="1790504454473"/>
        <radio op="vodafone IT" rat="LTE" q="19.80" rsrp="-92" sinr="1" rsrq="-12"/>
        <radio op="I TIM" rat="LTE" q="18.00" rsrp="-89" sinr="0" rsrq="-10"/>
      </extensions>
    </trkpt>
    <trkpt lat="45.595364" lon="10.4423479">
      <ele>257.0</ele>
      <time>2026-09-27T12:21:43.079+02:00</time>
      <extensions>
        <activity type="ON_FOOT" conf="94" state="moving" tsMs="1790504491652"/>
        <radio op="vodafone IT" rat="LTE" q="84.00" rsrp="-85" sinr="16" rsrq="-11"/>
        <radio op="I TIM" rat="LTE" q="88.00" rsrp="-78" sinr="17" rsrq="-6"/>
      </extensions>
    </trkpt>
    <trkpt lat="45.5955059" lon="10.4424685">
      <ele>257.0</ele>
      <time>2026-09-27T12:22:38.405+02:00</time>
      <extensions>
        <activity type="ON_FOOT" conf="85" state="moving" tsMs="1790504553359"/>
        <radio op="vodafone IT" rat="LTE" q="54.60" rsrp="-99" sinr="16" rsrq="-7"/>
        <radio op="I TIM" rat="LTE" q="25.20" rsrp="-97" sinr="4" rsrq="-9"/>
      </extensions>
    </trkpt>
    <trkpt lat="45.5954592" lon="10.4424894">
      <ele>257.9570841728601</ele>
      <time>2026-09-27T12:23:14.613+02:00</time>
      <extensions>
        <activity type="UNKNOWN" conf="40" state="unknown" tsMs="1790504590582"/>
        <radio op="vodafone IT" rat="LTE" q="32.30" rsrp="-106" sinr="12" rsrq="-8"/>
        <radio op="I TIM" rat="LTE" q="43.20" rsrp="-98" sinr="11" rsrq="-9"/>
      </extensions>
    </trkpt>
    <trkpt lat="45.5957009" lon="10.442497">
      <ele>255.90000915527344</ele>
      <time>2026-09-27T12:23:57.816+02:00</time>
      <extensions>
        <activity type="UNKNOWN" conf="40" state="unknown" tsMs="1790504630366"/>
        <radio op="vodafone IT" rat="LTE" q="10.80" rsrp="-113" sinr="4" rsrq="-8"/>
        <radio op="I TIM" rat="LTE" q="45.60" rsrp="-106" sinr="19" rsrq="-7"/>
      </extensions>
    </trkpt>
    <trkpt lat="45.5956843" lon="10.4423786">
      <ele>255.90000915527344</ele>
      <time>2026-09-27T12:25:03.567+02:00</time>
      <extensions>
        <activity type="ON_FOOT" conf="83" state="moving" tsMs="1790504696958"/>
        <radio op="vodafone IT" rat="LTE" q="14.40" rsrp="-113" sinr="7" rsrq="-9"/>
        <radio op="I TIM" rat="LTE" q="16.50" rsrp="-114" sinr="10" rsrq="-9"/>
      </extensions>
    </trkpt>
    <trkpt lat="45.5956213" lon="10.4424953">
      <ele>255.90000915527344</ele>
      <time>2026-09-27T12:25:49.682+02:00</time>
      <extensions>
        <activity type="ON_FOOT" conf="83" state="moving" tsMs="1790504748481"/>
        <radio op="vodafone IT" rat="LTE" q="19.50" rsrp="-112" sinr="10" rsrq="-9"/>
        <radio op="I TIM" rat="LTE" q="24.70" rsrp="-106" sinr="8" rsrq="-8"/>
      </extensions>
    </trkpt>
    <trkpt lat="45.5954376" lon="10.4426508">
      <ele>255.90000915527344</ele>
      <time>2026-09-27T12:26:40.554+02:00</time>
      <extensions>
        <activity type="ON_FOOT" conf="86" state="moving" tsMs="1790504793951"/>
        <radio op="vodafone IT" rat="LTE" q="21.00" rsrp="-110" sinr="9" rsrq="-11"/>
        <radio op="I TIM" rat="LTE" q="35.70" rsrp="-104" sinr="12" rsrq="-7"/>
      </extensions>
    </trkpt>
    <trkpt lat="45.5954611" lon="10.4424871">
      <ele>255.90000915527344</ele>
      <time>2026-09-27T12:27:17.961+02:00</time>
      <extensions>
        <activity type="ON_FOOT" conf="83" state="moving" tsMs="1790504832948"/>
        <radio op="vodafone IT" rat="LTE" q="36.00" rsrp="-107" sinr="15" rsrq="-8"/>
        <radio op="I TIM" rat="LTE" q="48.30" rsrp="-104" sinr="18" rsrq="-7"/>
      </extensions>
    </trkpt>
    <trkpt lat="45.5956598" lon="10.4424703">
      <ele>255.90000915527344</ele>
      <time>2026-09-27T12:28:15.47+02:00</time>
      <extensions>
        <activity type="UNKNOWN" conf="40" state="unknown" tsMs="1790504889672"/>
        <radio op="vodafone IT" rat="LTE" q="16.80" rsrp="-111" sinr="7" rsrq="-8"/>
        <radio op="I TIM" rat="LTE" q="16.80" rsrp="-111" sinr="7" rsrq="-11"/>
      </extensions>
    </trkpt>
    <trkpt lat="45.595705" lon="10.442377">
      <ele>255.90000915527344</ele>
      <time>2026-09-27T12:29:20.422+02:00</time>
      <extensions>
        <activity type="UNKNOWN" conf="40" state="unknown" tsMs="1790504957954"/>
        <radio op="vodafone IT" rat="LTE" q="15.60" rsrp="-112" sinr="7" rsrq="-9"/>
        <radio op="I TIM" rat="LTE" q="14.40" rsrp="-109" sinr="4" rsrq="-10"/>
      </extensions>
    </trkpt>
    <trkpt lat="45.5956854" lon="10.442409">
      <ele>255.90000915527344</ele>
      <time>2026-09-27T12:30:50.232+02:00</time>
      <extensions>
        <activity type="UNKNOWN" conf="40" state="unknown" tsMs="1790505043946"/>
        <radio op="vodafone IT" rat="LTE" q="11.00" rsrp="-114" sinr="5" rsrq="-11"/>
        <radio op="I TIM" rat="LTE" q="22.40" rsrp="-111" sinr="11" rsrq="-7"/>
      </extensions>
    </trkpt>
    <trkpt lat="45.5955408" lon="10.4424873">
      <ele>255.90000915527344</ele>
      <time>2026-09-27T12:32:51.545+02:00</time>
      <extensions>
        <activity type="ON_FOOT" conf="96" state="moving" tsMs="1790505174562"/>
        <radio op="vodafone IT" rat="LTE" rsrp="-103" rsrq="-13"/>
        <radio op="I TIM" rat="LTE" q="15.00" rsrp="-110" sinr="5" rsrq="-8"/>
      </extensions>
    </trkpt>
    <trkpt lat="45.5957005" lon="10.4423965">
      <ele>255.90000915527344</ele>
      <time>2026-09-27T12:33:27.269+02:00</time>
      <extensions>
        <activity type="UNKNOWN" conf="40" state="unknown" tsMs="1790505193413"/>
        <radio op="vodafone IT" rat="LTE" q="14.40" rsrp="-109" sinr="4" rsrq="-14"/>
        <radio op="I TIM" rat="LTE" q="11.20" rsrp="-111" sinr="3" rsrq="-7"/>
      </extensions>
    </trkpt>
    <trkpt lat="45.5957048" lon="10.4423816">
      <ele>258.8262023885398</ele>
      <time>2026-09-27T12:33:58.6+02:00</time>
      <extensions>
        <activity type="ON_FOOT" conf="89" state="moving" tsMs="1790505219460"/>
        <radio op="vodafone IT" rat="LTE" q="12.80" rsrp="-109" sinr="3" rsrq="-12"/>
        <radio op="I TIM" rat="LTE" q="14.00" rsrp="-111" sinr="5" rsrq="-10"/>
      </extensions>
    </trkpt>
    <trkpt lat="45.5956671" lon="10.4423596">
      <ele>255.90000915527344</ele>
      <time>2026-09-27T12:34:29.926+02:00</time>
      <extensions>
        <activity type="UNKNOWN" conf="40" state="unknown" tsMs="1790505258617"/>
        <radio op="vodafone IT" rat="LTE" rsrp="-109" rsrq="-10"/>
        <radio op="I TIM" rat="LTE" q="24.00" rsrp="-110" sinr="11" rsrq="-7"/>
      </extensions>
    </trkpt>
    <trkpt lat="45.5955994" lon="10.4424499">
      <ele>255.90000915527344</ele>
      <time>2026-09-27T12:35:01.277+02:00</time>
      <extensions>
        <activity type="ON_FOOT" conf="92" state="moving" tsMs="1790505284652"/>
        <radio op="vodafone IT" rat="LTE" rsrp="-104" rsrq="-15"/>
        <radio op="I TIM" rat="LTE" q="43.70" rsrp="-106" sinr="18" rsrq="-10"/>
      </extensions>
    </trkpt>
    <trkpt lat="45.5955681" lon="10.4424422">
      <ele>255.90000915527344</ele>
      <time>2026-09-27T12:35:32.562+02:00</time>
      <extensions>
        <activity type="UNKNOWN" conf="40" state="unknown" tsMs="1790505323621"/>
        <radio op="vodafone IT" rat="LTE" q="15.20" rsrp="-106" sinr="3" rsrq="-13"/>
        <radio op="I TIM" rat="LTE" q="27.00" rsrp="-107" sinr="10" rsrq="-9"/>
      </extensions>
    </trkpt>
    <trkpt lat="45.595467" lon="10.4425102">
      <ele>255.90000915527344</ele>
      <time>2026-09-27T12:36:03.896+02:00</time>
      <extensions>
        <activity type="UNKNOWN" conf="40" state="unknown" tsMs="1790505344967"/>
        <radio op="vodafone IT" rat="LTE" q="37.50" rsrp="-100" sinr="10" rsrq="-9"/>
        <radio op="I TIM" rat="LTE" q="32.00" rsrp="-105" sinr="11" rsrq="-9"/>
      </extensions>
    </trkpt>
    <trkpt lat="45.5955199" lon="10.4425384">
      <ele>255.90000915527344</ele>
      <time>2026-09-27T12:36:42.194+02:00</time>
      <extensions>
        <activity type="ON_FOOT" conf="81" state="moving" tsMs="1790505391983"/>
        <radio op="vodafone IT" rat="LTE" q="66.70" rsrp="-96" sinr="18" rsrq="-8"/>
        <radio op="I TIM" rat="LTE" q="36.00" rsrp="-101" sinr="10" rsrq="-7"/>
      </extensions>
    </trkpt>
    <trkpt lat="45.5954435" lon="10.4425851">
      <ele>255.90000915527344</ele>
      <time>2026-09-27T12:37:12.983+02:00</time>
      <extensions>
        <activity type="UNKNOWN" conf="40" state="unknown" tsMs="1790505430145"/>
        <radio op="vodafone IT" rat="LTE" q="58.80" rsrp="-97" sinr="16" rsrq="-7"/>
        <radio op="I TIM" rat="LTE" q="33.00" rsrp="-95" sinr="6" rsrq="-9"/>
      </extensions>
    </trkpt>
    <trkpt lat="45.5954508" lon="10.4425772">
      <ele>255.90000915527344</ele>
      <time>2026-09-27T12:37:54.321+02:00</time>
      <extensions>
        <activity type="UNKNOWN" conf="40" state="unknown" tsMs="1790505470522"/>
        <radio op="vodafone IT" rat="LTE" q="50.40" rsrp="-97" sinr="13" rsrq="-7"/>
        <radio op="I TIM" rat="LTE" q="52.70" rsrp="-94" sinr="12" rsrq="-9"/>
      </extensions>
    </trkpt>
    <trkpt lat="45.5954372" lon="10.4426294">
      <ele>255.90000915527344</ele>
      <time>2026-09-27T12:38:29.575+02:00</time>
      <extensions>
        <activity type="STILL" conf="98" state="still" tsMs="1790505499200"/>
        <radio op="vodafone IT" rat="LTE" q="33.60" rsrp="-101" sinr="9" rsrq="-12"/>
        <radio op="I TIM" rat="LTE" q="63.00" rsrp="-95" sinr="16" rsrq="-10"/>
      </extensions>
    </trkpt>
    <trkpt lat="45.5954494" lon="10.4426136">
      <ele>255.90000915527344</ele>
      <time>2026-09-27T12:39:05.302+02:00</time>
      <extensions>
        <activity type="UNKNOWN" conf="40" state="unknown" tsMs="1790505527564"/>
        <radio op="vodafone IT" rat="LTE" q="32.50" rsrp="-100" sinr="8" rsrq="-6"/>
        <radio op="I TIM" rat="LTE" q="60.80" rsrp="-93" sinr="14" rsrq="-9"/>
      </extensions>
    </trkpt>
    <trkpt lat="45.5953006" lon="10.4437225">
      <ele>256.79998779296875</ele>
      <time>2026-09-27T12:39:47.548+02:00</time>
      <extensions>
        <activity type="ON_FOOT" conf="96" state="moving" tsMs="1790505590487"/>
        <radio op="vodafone IT" rat="LTE" q="37.20" rsrp="-94" sinr="7" rsrq="-12"/>
        <radio op="I TIM" rat="LTE" q="47.60" rsrp="-91" sinr="9" rsrq="-7"/>
      </extensions>
    </trkpt>
    <trkpt lat="45.5956245" lon="10.4443714">
      <ele>256.8999938964844</ele>
      <time>2026-09-27T12:40:52.864+02:00</time>
      <extensions>
        <activity type="ON_FOOT" conf="96" state="moving" tsMs="1790505651961"/>
        <radio op="vodafone IT" rat="LTE" rsrp="-101" rsrq="-14"/>
        <radio op="I TIM" rat="LTE" q="23.40" rsrp="-99" sinr="4" rsrq="-9"/>
      </extensions>
    </trkpt>
    <trkpt lat="45.5962276" lon="10.445307">
      <ele>257.1000061035156</ele>
      <time>2026-09-27T12:41:40.497+02:00</time>
      <extensions>
        <activity type="ON_FOOT" conf="96" state="moving" tsMs="1790505698588"/>
        <radio op="vodafone IT" rat="LTE" q="20.80" rsrp="-109" sinr="8" rsrq="-12"/>
        <radio op="I TIM" rat="LTE" q="39.00" rsrp="-99" sinr="10" rsrq="-8"/>
      </extensions>
    </trkpt>
    <trkpt lat="45.5961896" lon="10.4450557">
      <ele>257.1000061035156</ele>
      <time>2026-09-27T12:41:48.569+02:00</time>
      <extensions>
        <activity type="ON_FOOT" conf="96" state="moving" tsMs="1790505703306"/>
        <radio op="vodafone IT" rat="LTE" q="21.00" rsrp="-104" sinr="5" rsrq="-10"/>
        <radio op="I TIM" rat="LTE" rsrp="-104" rsrq="-13"/>
      </extensions>
    </trkpt>
    <trkpt lat="45.5961896" lon="10.4450557">
      <ele>257.0</ele>
      <time>2026-09-27T12:42:22.098+02:00</time>
      <extensions>
        <activity type="ON_FOOT" conf="97" state="moving" tsMs="1790505729500"/>
        <radio op="vodafone IT" rat="LTE" q="29.70" rsrp="-98" sinr="6" rsrq="-12"/>
        <radio op="I TIM" rat="LTE" q="37.20" rsrp="-94" sinr="7" rsrq="-13"/>
      </extensions>
    </trkpt>
    <trkpt lat="45.5966809" lon="10.4464453">
      <ele>257.20001220703125</ele>
      <time>2026-09-27T12:42:53.401+02:00</time>
      <extensions>
        <activity type="ON_FOOT" conf="91" state="moving" tsMs="1790505755670"/>
        <radio op="vodafone IT" rat="LTE" q="15.60" rsrp="-99" sinr="1" rsrq="-11"/>
        <radio op="I TIM" rat="LTE" q="26.00" rsrp="-99" sinr="5" rsrq="-12"/>
      </extensions>
    </trkpt>
    <trkpt lat="45.5969648" lon="10.446306">
      <ele>257.20001220703125</ele>
      <time>2026-09-27T12:43:02.076+02:00</time>
      <extensions>
        <activity type="ON_FOOT" conf="92" state="moving" tsMs="1790505768675"/>
        <radio op="vodafone IT" rat="LTE" q="24.30" rsrp="-98" sinr="4" rsrq="-11"/>
        <radio op="I TIM" rat="LTE" q="44.20" rsrp="-99" sinr="12" rsrq="-9"/>
      </extensions>
    </trkpt>
    <trkpt lat="45.5969648" lon="10.446306">
      <ele>257.3999938964844</ele>
      <time>2026-09-27T12:43:34.932+02:00</time>
      <extensions>
        <activity type="ON_FOOT" conf="94" state="moving" tsMs="1790505794861"/>
        <radio op="vodafone IT" rat="LTE" q="18.50" rsrp="-88" sinr="0" rsrq="-9"/>
        <radio op="I TIM" rat="LTE" q="54.60" rsrp="-86" sinr="9" rsrq="-10"/>
      </extensions>
    </trkpt>
    <trkpt lat="45.597843" lon="10.4471398">
      <ele>257.70001220703125</ele>
      <time>2026-09-27T12:44:06.016+02:00</time>
      <extensions>
        <activity type="ON_FOOT" conf="95" state="moving" tsMs="1790505831154"/>
        <radio op="vodafone IT" rat="LTE" rsrp="-101" rsrq="-13"/>
        <radio op="I TIM" rat="LTE" q="84.00" rsrp="-81" sinr="16" rsrq="-11"/>
      </extensions>
    </trkpt>
    <trkpt lat="45.5978034" lon="10.4483119">
      <ele>257.8000183105469</ele>
      <time>2026-09-27T12:44:37.261+02:00</time>
      <extensions>
        <activity type="ON_FOOT" conf="96" state="moving" tsMs="1790505863036"/>
        <radio op="vodafone IT" rat="LTE" q="29.00" rsrp="-96" sinr="5" rsrq="-10"/>
        <radio op="I TIM" rat="LTE" q="84.00" rsrp="-85" sinr="16" rsrq="-12"/>
      </extensions>
    </trkpt>
    <trkpt lat="45.5981679" lon="10.4482617">
      <ele>257.70001220703125</ele>
      <time>2026-09-27T12:45:08.46+02:00</time>
      <extensions>
        <activity type="ON_FOOT" conf="97" state="moving" tsMs="1790505898539"/>
        <radio op="vodafone IT" rat="LTE" rsrp="-96" rsrq="-15"/>
        <radio op="I TIM" rat="LTE" q="92.00" rsrp="-79" sinr="18" rsrq="-12"/>
      </extensions>
    </trkpt>
    <trkpt lat="45.5986824" lon="10.4487041">
      <ele>257.9000244140625</ele>
      <time>2026-09-27T12:45:39.707+02:00</time>
      <extensions>
        <activity type="ON_FOOT" conf="97" state="moving" tsMs="1790505926904"/>
        <radio op="vodafone IT" rat="LTE" q="46.50" rsrp="-94" sinr="10" rsrq="-11"/>
        <radio op="I TIM" rat="LTE" q="92.00" rsrp="-83" sinr="18" rsrq="-11"/>
      </extensions>
    </trkpt>
    <trkpt lat="45.5988415" lon="10.448996">
      <ele>258.3000183105469</ele>
      <time>2026-09-27T12:46:11.019+02:00</time>
      <extensions>
        <activity type="ON_FOOT" conf="97" state="moving" tsMs="1790505965839"/>
        <radio op="vodafone IT" rat="LTE" q="21.00" rsrp="-95" sinr="2" rsrq="-9"/>
        <radio op="I TIM" rat="LTE" q="46.80" rsrp="-89" sinr="8" rsrq="-10"/>
      </extensions>
    </trkpt>
    <trkpt lat="45.5991559" lon="10.4499307">
      <ele>258.3000183105469</ele>
      <time>2026-09-27T12:46:42.265+02:00</time>
      <extensions>
        <activity type="ON_FOOT" conf="97" state="moving" tsMs="1790505992840"/>
        <radio op="vodafone IT" rat="LTE" q="26.40" rsrp="-92" sinr="3" rsrq="-10"/>
        <radio op="I TIM" rat="LTE" q="36.00" rsrp="-89" sinr="5" rsrq="-9"/>
      </extensions>
    </trkpt>
    <trkpt lat="45.599224" lon="10.4503342">
      <ele>258.3000183105469</ele>
      <time>2026-09-27T12:47:13.563+02:00</time>
      <extensions>
        <activity type="ON_FOOT" conf="95" state="moving" tsMs="1790506024654"/>
        <radio op="vodafone IT" rat="LTE" q="14.40" rsrp="-101" sinr="1" rsrq="-9"/>
        <radio op="I TIM" rat="LTE" q="60.80" rsrp="-93" sinr="14" rsrq="-10"/>
      </extensions>
    </trkpt>
    <trkpt lat="45.5997066" lon="10.4509585">
      <ele>258.5</ele>
      <time>2026-09-27T12:47:44.843+02:00</time>
      <extensions>
        <activity type="ON_FOOT" conf="98" state="moving" tsMs="1790506058862"/>
        <radio op="vodafone IT" rat="LTE" q="26.40" rsrp="-101" sinr="6" rsrq="-9"/>
        <radio op="I TIM" rat="LTE" q="52.80" rsrp="-92" sinr="11" rsrq="-12"/>
      </extensions>
    </trkpt>
    <trkpt lat="45.6000872" lon="10.451109">
      <ele>258.70001220703125</ele>
      <time>2026-09-27T12:48:16.106+02:00</time>
      <extensions>
        <activity type="ON_FOOT" conf="96" state="moving" tsMs="1790506086601"/>
        <radio op="vodafone IT" rat="LTE" q="39.20" rsrp="-97" sinr="9" rsrq="-8"/>
        <radio op="I TIM" rat="LTE" q="27.90" rsrp="-94" sinr="4" rsrq="-11"/>
      </extensions>
    </trkpt>
    <trkpt lat="45.6004997" lon="10.4515087">
      <ele>259.20001220703125</ele>
      <time>2026-09-27T12:48:47.22+02:00</time>
      <extensions>
        <activity type="ON_FOOT" conf="96" state="moving" tsMs="1790506115008"/>
        <radio op="vodafone IT" rat="LTE" q="43.50" rsrp="-96" sinr="10" rsrq="-7"/>
        <radio op="I TIM" rat="LTE" q="81.40" rsrp="-88" sinr="17" rsrq="-8"/>
      </extensions>
    </trkpt>
    <trkpt lat="45.6006757" lon="10.4522176">
      <ele>260.1000061035156</ele>
      <time>2026-09-27T12:49:18.303+02:00</time>
      <extensions>
        <activity type="ON_FOOT" conf="98" state="moving" tsMs="1790506143470"/>
        <radio op="vodafone IT" rat="LTE" q="40.80" rsrp="-101" sinr="12" rsrq="-8"/>
        <radio op="I TIM" rat="LTE" q="74.80" rsrp="-91" sinr="17" rsrq="-10"/>
      </extensions>
    </trkpt>
    <trkpt lat="45.6010351" lon="10.4528036">
      <ele>260.70001220703125</ele>
      <time>2026-09-27T12:49:49.599+02:00</time>
      <extensions>
        <activity type="ON_FOOT" conf="97" state="moving" tsMs="1790506175416"/>
        <radio op="vodafone IT" rat="LTE" q="42.50" rsrp="-100" sinr="12" rsrq="-6"/>
        <radio op="I TIM" rat="LTE" q="40.80" rsrp="-91" sinr="7" rsrq="-11"/>
      </extensions>
    </trkpt>
    <trkpt lat="45.6012584" lon="10.4531855">
      <ele>260.3000183105469</ele>
      <time>2026-09-27T12:50:20.831+02:00</time>
      <extensions>
        <activity type="ON_FOOT" conf="97" state="moving" tsMs="1790506207487"/>
        <radio op="vodafone IT" rat="LTE" q="56.00" rsrp="-97" sinr="15" rsrq="-6"/>
        <radio op="I TIM" rat="LTE" q="92.50" rsrp="-88" sinr="21" rsrq="-9"/>
      </extensions>
    </trkpt>
    <trkpt lat="45.6014962" lon="10.4532897">
      <ele>260.5</ele>
      <time>2026-09-27T12:50:52+02:00</time>
      <extensions>
        <activity type="ON_FOOT" conf="98" state="moving" tsMs="1790506233288"/>
        <radio op="vodafone IT" rat="LTE" q="79.20" rsrp="-92" sinr="19" rsrq="-5"/>
        <radio op="I TIM" rat="LTE" q="85.00" rsrp="-91" sinr="21" rsrq="-11"/>
      </extensions>
    </trkpt>
    <trkpt lat="45.6021976" lon="10.4533802">
      <ele>260.6000061035156</ele>
      <time>2026-09-27T12:51:23.212+02:00</time>
      <extensions>
        <activity type="ON_FOOT" conf="91" state="moving" tsMs="1790506268756"/>
        <radio op="vodafone IT" rat="LTE" q="33.60" rsrp="-101" sinr="9" rsrq="-8"/>
        <radio op="I TIM" rat="LTE" q="33.00" rsrp="-95" sinr="6" rsrq="-11"/>
      </extensions>
    </trkpt>
    <trkpt lat="45.6021943" lon="10.453445">
      <ele>260.6000061035156</ele>
      <time>2026-09-27T12:51:29.568+02:00</time>
      <extensions>
        <activity type="ON_FOOT" conf="97" state="moving" tsMs="1790506281654"/>
        <radio op="vodafone IT" rat="LTE" rsrp="-108" rsrq="-10"/>
        <radio op="I TIM" rat="LTE" rsrp="-100" rsrq="-13"/>
      </extensions>
    </trkpt>
    <trkpt lat="45.602624" lon="10.4535691">
      <ele>260.9000244140625</ele>
      <time>2026-09-27T12:52:04.658+02:00</time>
      <extensions>
        <activity type="ON_FOOT" conf="96" state="moving" tsMs="1790506313670"/>
        <radio op="vodafone IT" rat="LTE" q="5.00" rsrp="-115" sinr="0" rsrq="-9"/>
        <radio op="I TIM" rat="LTE" q="26.00" rsrp="-105" sinr="8" rsrq="-11"/>
      </extensions>
    </trkpt>
    <trkpt lat="45.6025651" lon="10.4536804">
      <ele>261.0</ele>
      <time>2026-09-27T12:52:35.883+02:00</time>
      <extensions>
        <activity type="ON_BICYCLE" conf="80" state="moving" tsMs="1790506336237"/>
        <radio op="vodafone IT" rat="LTE" q="9.90" rsrp="-114" sinr="4" rsrq="-13"/>
        <radio op="I TIM" rat="LTE" q="5.60" rsrp="-117" sinr="2" rsrq="-12"/>
      </extensions>
    </trkpt>
    <trkpt lat="45.6025837" lon="10.453702">
      <ele>261.0</ele>
      <time>2026-09-27T12:53:07.241+02:00</time>
      <extensions>
        <activity type="UNKNOWN" conf="40" state="unknown" tsMs="1790506372683"/>
        <radio op="vodafone IT" rat="LTE" q="16.50" rsrp="-110" sinr="6" rsrq="-8"/>
        <radio op="I TIM" rat="LTE" q="6.50" rsrp="-120" sinr="8" rsrq="-12"/>
      </extensions>
    </trkpt>
    <trkpt lat="45.6025646" lon="10.4536739">
      <ele>261.0</ele>
      <time>2026-09-27T12:53:38.476+02:00</time>
      <extensions>
        <activity type="UNKNOWN" conf="40" state="unknown" tsMs="1790506408390"/>
        <radio op="vodafone IT" rat="LTE" q="15.60" rsrp="-112" sinr="7" rsrq="-13"/>
        <radio op="I TIM" rat="LTE" q="7.80" rsrp="-112" sinr="1" rsrq="-15"/>
      </extensions>
    </trkpt>
    <trkpt lat="45.6025668" lon="10.4536832">
      <ele>261.0</ele>
      <time>2026-09-27T12:54:09.624+02:00</time>
      <extensions>
        <activity type="UNKNOWN" conf="40" state="unknown" tsMs="1790506430913"/>
        <radio op="vodafone IT" rat="LTE" q="2.50" rsrp="-120" sinr="0" rsrq="-13"/>
        <radio op="I TIM" rat="LTE" rsrp="-115" rsrq="-12"/>
      </extensions>
    </trkpt>
    <trkpt lat="45.6025676" lon="10.4536848">
      <ele>261.0</ele>
      <time>2026-09-27T12:54:40.651+02:00</time>
      <extensions>
        <activity type="STILL" conf="54" state="still" tsMs="1790506466530"/>
        <radio op="vodafone IT" rat="LTE" q="7.70" rsrp="-114" sinr="2" rsrq="-13"/>
        <radio op="I TIM" rat="LTE" q="7.70" rsrp="-118" sinr="6" rsrq="-10"/>
      </extensions>
    </trkpt>
    <trkpt lat="45.6025612" lon="10.4536653">
      <ele>261.0</ele>
      <time>2026-09-27T12:55:12.294+02:00</time>
      <extensions>
        <activity type="UNKNOWN" conf="40" state="unknown" tsMs="1790506492507"/>
        <radio op="vodafone IT" rat="LTE" rsrp="-114" rsrq="-13"/>
        <radio op="I TIM" rat="LTE" q="3.60" rsrp="-121" sinr="4" rsrq="-13"/>
      </extensions>
    </trkpt>
    <trkpt lat="45.6027692" lon="10.4534941">
      <ele>260.9000244140625</ele>
      <time>2026-09-27T14:41:19.648+02:00</time>
      <extensions>
        <activity type="ON_FOOT" conf="96" state="moving" tsMs="1790512872042"/>
        <radio op="vodafone IT" rat="LTE" rsrp="-115" rsrq="-13"/>
        <radio op="I TIM" rat="LTE" rsrp="-111" rsrq="-16"/>
      </extensions>
    </trkpt>
    <trkpt lat="45.6029004" lon="10.453421">
      <ele>260.8000183105469</ele>
      <time>2026-09-27T14:41:29.626+02:00</time>
      <extensions>
        <activity type="ON_FOOT" conf="97" state="moving" tsMs="1790512881073"/>
        <radio op="vodafone IT" rat="LTE" q="7.20" rsrp="-117" sinr="4" rsrq="-12"/>
        <radio op="I TIM" rat="LTE" q="23.80" rsrp="-108" sinr="9" rsrq="-13"/>
      </extensions>
    </trkpt>
    <trkpt lat="45.6029637" lon="10.4534503">
      <ele>260.8000183105469</ele>
      <time>2026-09-27T14:41:37.923+02:00</time>
      <extensions>
        <activity type="ON_FOOT" conf="92" state="moving" tsMs="1790512891189"/>
        <radio op="vodafone IT" rat="LTE" q="47.50" rsrp="-100" sinr="14" rsrq="-7"/>
        <radio op="I TIM" rat="LTE" q="44.80" rsrp="-97" sinr="11" rsrq="-11"/>
      </extensions>
    </trkpt>
    <trkpt lat="45.6029651" lon="10.4535014">
      <ele>261.0</ele>
      <time>2026-09-27T14:42:10.602+02:00</time>
      <extensions>
        <activity type="ON_FOOT" conf="97" state="moving" tsMs="1790512922657"/>
        <radio op="vodafone IT" rat="LTE" q="36.40" rsrp="-99" sinr="9" rsrq="-7"/>
        <radio op="I TIM" rat="LTE" q="37.70" rsrp="-96" sinr="8" rsrq="-8"/>
      </extensions>
    </trkpt>
    <trkpt lat="45.6033923" lon="10.4548137">
      <ele>260.8000183105469</ele>
      <time>2026-09-27T14:42:41.889+02:00</time>
      <extensions>
        <activity type="ON_FOOT" conf="96" state="moving" tsMs="1790512951118"/>
        <radio op="vodafone IT" rat="LTE" q="33.60" rsrp="-101" sinr="9" rsrq="-6"/>
        <radio op="I TIM" rat="LTE" q="64.00" rsrp="-93" sinr="15" rsrq="-11"/>
      </extensions>
    </trkpt>
    <trkpt lat="45.6035068" lon="10.455311">
      <ele>260.5</ele>
      <time>2026-09-27T14:43:13.094+02:00</time>
      <extensions>
        <activity type="ON_FOOT" conf="96" state="moving" tsMs="1790512979660"/>
        <radio op="vodafone IT" rat="LTE" q="56.10" rsrp="-92" sinr="12" rsrq="-11"/>
        <radio op="I TIM" rat="LTE" q="70.30" rsrp="-88" sinr="14" rsrq="-12"/>
      </extensions>
    </trkpt>
    <trkpt lat="45.6035961" lon="10.4555133">
      <ele>260.4000244140625</ele>
      <time>2026-09-27T14:43:44.372+02:00</time>
      <extensions>
        <activity type="ON_FOOT" conf="97" state="moving" tsMs="1790513011393"/>
        <radio op="vodafone IT" rat="LTE" q="25.20" rsrp="-104" sinr="7" rsrq="-7"/>
        <radio op="I TIM" rat="LTE" q="40.00" rsrp="-100" sinr="11" rsrq="-12"/>
      </extensions>
    </trkpt>
    <trkpt lat="45.6032996" lon="10.4560026">
      <ele>260.8000183105469</ele>
      <time>2026-09-27T14:44:15.472+02:00</time>
      <extensions>
        <activity type="ON_FOOT" conf="97" state="moving" tsMs="1790513046873"/>
        <radio op="vodafone IT" rat="LTE" q="40.00" rsrp="-105" sinr="15" rsrq="-8"/>
        <radio op="I TIM" rat="LTE" q="55.20" rsrp="-102" sinr="19" rsrq="-11"/>
      </extensions>
    </trkpt>
    <trkpt lat="45.6035806" lon="10.4566686">
      <ele>261.3000183105469</ele>
      <time>2026-09-27T14:44:59.6+02:00</time>
      <extensions>
        <activity type="ON_FOOT" conf="97" state="moving" tsMs="1790513090025"/>
        <radio op="vodafone IT" rat="LTE" q="75.00" rsrp="-95" sinr="20" rsrq="-5"/>
        <radio op="I TIM" rat="LTE" q="82.50" rsrp="-92" sinr="20" rsrq="-13"/>
      </extensions>
    </trkpt>
    <trkpt lat="45.6034566" lon="10.4571044">
      <ele>261.3000183105469</ele>
      <time>2026-09-27T14:45:32.761+02:00</time>
      <extensions>
        <activity type="ON_FOOT" conf="96" state="moving" tsMs="1790513115774"/>
        <radio op="vodafone IT" rat="LTE" q="59.40" rsrp="-92" sinr="13" rsrq="-7"/>
        <radio op="I TIM" rat="LTE" q="74.80" rsrp="-91" sinr="17" rsrq="-12"/>
      </extensions>
    </trkpt>
    <trkpt lat="45.6039297" lon="10.4578609">
      <ele>263.3000183105469</ele>
      <time>2026-09-27T14:46:03.978+02:00</time>
      <extensions>
        <activity type="ON_FOOT" conf="95" state="moving" tsMs="1790513154497"/>
        <radio op="vodafone IT" rat="LTE" q="23.80" rsrp="-91" sinr="2" rsrq="-8"/>
        <radio op="I TIM" rat="LTE" q="85.80" rsrp="-86" sinr="17" rsrq="-12"/>
      </extensions>
    </trkpt>
    <trkpt lat="45.6038894" lon="10.4579117">
      <ele>263.3000183105469</ele>
      <time>2026-09-27T14:46:09.6+02:00</time>
      <extensions>
        <activity type="ON_FOOT" conf="89" state="moving" tsMs="1790513166767"/>
        <radio op="vodafone IT" rat="LTE" q="86.40" rsrp="-89" sinr="19" rsrq="-8"/>
        <radio op="I TIM" rat="LTE" q="87.40" rsrp="-87" sinr="18" rsrq="-12"/>
      </extensions>
    </trkpt>
    <trkpt lat="45.6038894" lon="10.4579117">
      <ele>263.70001220703125</ele>
      <time>2026-09-27T14:46:45.24+02:00</time>
      <extensions>
        <activity type="ON_FOOT" conf="96" state="moving" tsMs="1790513192600"/>
        <radio op="vodafone IT" rat="LTE" q="77.50" rsrp="-94" sinr="21" rsrq="-8"/>
        <radio op="I TIM" rat="LTE" q="64.60" rsrp="-91" sinr="14" rsrq="-12"/>
      </extensions>
    </trkpt>
    <trkpt lat="45.6043517" lon="10.4590145">
      <ele>263.8000183105469</ele>
      <time>2026-09-27T14:47:11.371+02:00</time>
      <extensions>
        <activity type="ON_FOOT" conf="96" state="moving" tsMs="1790513228023"/>
        <radio op="vodafone IT" rat="LTE" q="62.50" rsrp="-100" sinr="20" rsrq="-10"/>
        <radio op="I TIM" rat="LTE" q="52.00" rsrp="-99" sinr="15" rsrq="-12"/>
      </extensions>
    </trkpt>
    <trkpt lat="45.6047015" lon="10.459055">
      <ele>263.8000183105469</ele>
      <time>2026-09-27T14:47:58.404+02:00</time>
      <extensions>
        <activity type="ON_FOOT" conf="95" state="moving" tsMs="1790513277527"/>
        <radio op="vodafone IT" rat="LTE" q="48.00" rsrp="-105" sinr="19" rsrq="-12"/>
        <radio op="I TIM" rat="LTE" rsrp="-122" rsrq="-14"/>
      </extensions>
    </trkpt>
    <trkpt lat="45.6047044" lon="10.4589892">
      <ele>265.5542435528961</ele>
      <time>2026-09-27T14:48:52.298+02:00</time>
      <extensions>
        <activity type="UNKNOWN" conf="40" state="unknown" tsMs="1790513330180"/>
        <radio op="vodafone IT" rat="LTE" q="28.50" rsrp="-110" sinr="14" rsrq="-8"/>
        <radio op="I TIM" rat="LTE" q="30.00" rsrp="-110" sinr="15" rsrq="-10"/>
      </extensions>
    </trkpt>
    <trkpt lat="45.6047501" lon="10.4591828">
      <ele>263.8000183105469</ele>
      <time>2026-09-27T14:49:28.73+02:00</time>
      <extensions>
        <activity type="UNKNOWN" conf="40" state="unknown" tsMs="1790513362156"/>
        <radio op="vodafone IT" rat="LTE" q="45.00" rsrp="-107" sinr="21" rsrq="-6"/>
        <radio op="I TIM" rat="LTE" q="45.00" rsrp="-107" sinr="22" rsrq="-12"/>
      </extensions>
    </trkpt>
    <trkpt lat="45.6047974" lon="10.4593535">
      <ele>263.70001220703125</ele>
      <time>2026-09-27T14:50:13.709+02:00</time>
      <extensions>
        <activity type="UNKNOWN" conf="40" state="unknown" tsMs="1790513407431"/>
        <radio op="vodafone IT" rat="LTE" q="41.40" rsrp="-107" sinr="18" rsrq="-9"/>
        <radio op="I TIM" rat="LTE" q="34.50" rsrp="-110" sinr="18" rsrq="-13"/>
      </extensions>
    </trkpt>
    <trkpt lat="45.6047868" lon="10.4593362">
      <ele>263.70001220703125</ele>
      <time>2026-09-27T14:50:55.005+02:00</time>
      <extensions>
        <activity type="STILL" conf="68" state="still" tsMs="1790513449136"/>
        <radio op="vodafone IT" rat="LTE" q="45.00" rsrp="-107" sinr="20" rsrq="-12"/>
        <radio op="I TIM" rat="LTE" q="41.40" rsrp="-107" sinr="18" rsrq="-8"/>
      </extensions>
    </trkpt>
    <trkpt lat="45.6047814" lon="10.4593302">
      <ele>263.70001220703125</ele>
      <time>2026-09-27T14:51:36.15+02:00</time>
      <extensions>
        <activity type="UNKNOWN" conf="40" state="unknown" tsMs="1790513479774"/>
        <radio op="vodafone IT" rat="LTE" q="48.00" rsrp="-105" sinr="19" rsrq="-11"/>
        <radio op="I TIM" rat="LTE" q="31.50" rsrp="-104" sinr="10" rsrq="-12"/>
      </extensions>
    </trkpt>
    <trkpt lat="45.6046943" lon="10.4591569">
      <ele>265.85836649728304</ele>
      <time>2026-09-27T14:52:07.358+02:00</time>
      <extensions>
        <activity type="UNKNOWN" conf="40" state="unknown" tsMs="1790513519415"/>
        <radio op="vodafone IT" rat="LTE" q="47.50" rsrp="-106" sinr="20" rsrq="-12"/>
        <radio op="I TIM" rat="LTE" q="32.20" rsrp="-102" sinr="9" rsrq="-12"/>
      </extensions>
    </trkpt>
    <trkpt lat="45.6047807" lon="10.4593668">
      <ele>263.70001220703125</ele>
      <time>2026-09-27T14:52:38.606+02:00</time>
      <extensions>
        <activity type="UNKNOWN" conf="40" state="unknown" tsMs="1790513543208"/>
        <radio op="vodafone IT" rat="LTE" q="38.00" rsrp="-106" sinr="15" rsrq="-12"/>
        <radio op="I TIM" rat="LTE" q="57.50" rsrp="-102" sinr="24" rsrq="-11"/>
      </extensions>
    </trkpt>
    <trkpt lat="45.6048066" lon="10.4593757">
      <ele>263.70001220703125</ele>
      <time>2026-09-27T14:53:09.846+02:00</time>
      <extensions>
        <activity type="STILL" conf="96" state="still" tsMs="1790513582428"/>
        <radio op="vodafone IT" rat="LTE" q="33.00" rsrp="-110" sinr="17" rsrq="-10"/>
        <radio op="I TIM" rat="LTE" q="36.10" rsrp="-106" sinr="14" rsrq="-13"/>
      </extensions>
    </trkpt>
    <trkpt lat="45.6047458" lon="10.459246">
      <ele>263.9000244140625</ele>
      <time>2026-09-27T14:53:41.151+02:00</time>
      <extensions>
        <activity type="UNKNOWN" conf="40" state="unknown" tsMs="1790513604912"/>
        <radio op="vodafone IT" rat="LTE" q="28.90" rsrp="-108" sinr="12" rsrq="-11"/>
        <radio op="I TIM" rat="LTE" q="25.20" rsrp="-107" sinr="9" rsrq="-11"/>
      </extensions>
    </trkpt>
    <trkpt lat="45.6047404" lon="10.4591885">
      <ele>263.9000244140625</ele>
      <time>2026-09-27T14:54:12.487+02:00</time>
      <extensions>
        <activity type="UNKNOWN" conf="40" state="unknown" tsMs="1790513644080"/>
        <radio op="vodafone IT" rat="LTE" q="43.70" rsrp="-106" sinr="18" rsrq="-11"/>
        <radio op="I TIM" rat="LTE" q="36.80" rsrp="-109" sinr="18" rsrq="-9"/>
      </extensions>
    </trkpt>
    <trkpt lat="45.6047923" lon="10.4593444">
      <ele>263.70001220703125</ele>
      <time>2026-09-27T14:54:43.767+02:00</time>
      <extensions>
        <activity type="STILL" conf="53" state="still" tsMs="1790513668289"/>
        <radio op="vodafone IT" rat="LTE" q="35.70" rsrp="-108" sinr="16" rsrq="-11"/>
        <radio op="I TIM" rat="LTE" q="55.00" rsrp="-103" sinr="21" rsrq="-7"/>
      </extensions>
    </trkpt>
    <trkpt lat="45.6047927" lon="10.4593513">
      <ele>263.70001220703125</ele>
      <time>2026-09-27T14:55:23.368+02:00</time>
      <extensions>
        <activity type="UNKNOWN" conf="40" state="unknown" tsMs="1790513721707"/>
        <radio op="vodafone IT" rat="LTE" q="28.90" rsrp="-108" sinr="12" rsrq="-10"/>
        <radio op="I TIM" rat="LTE" q="22.10" rsrp="-108" sinr="8" rsrq="-12"/>
      </extensions>
    </trkpt>
    <trkpt lat="45.6047162" lon="10.4591409">
      <ele>263.8000183105469</ele>
      <time>2026-09-27T14:55:53.677+02:00</time>
      <extensions>
        <activity type="UNKNOWN" conf="40" state="unknown" tsMs="1790513748126"/>
        <radio op="vodafone IT" rat="LTE" q="41.40" rsrp="-107" sinr="18" rsrq="-11"/>
        <radio op="I TIM" rat="LTE" q="47.50" rsrp="-106" sinr="20" rsrq="-10"/>
      </extensions>
    </trkpt>
    <trkpt lat="45.6047891" lon="10.4594041">
      <ele>263.70001220703125</ele>
      <time>2026-09-27T14:56:32.899+02:00</time>
      <extensions>
        <activity type="UNKNOWN" conf="40" state="unknown" tsMs="1790513788139"/>
        <radio op="vodafone IT" rat="LTE" q="30.80" rsrp="-111" sinr="17" rsrq="-12"/>
        <radio op="I TIM" rat="LTE" q="36.10" rsrp="-106" sinr="14" rsrq="-10"/>
      </extensions>
    </trkpt>
    <trkpt lat="45.6048166" lon="10.4593557">
      <ele>263.70001220703125</ele>
      <time>2026-09-27T14:57:17.955+02:00</time>
      <extensions>
        <activity type="UNKNOWN" conf="40" state="unknown" tsMs="1790513836784"/>
        <radio op="vodafone IT" rat="LTE" q="30.40" rsrp="-109" sinr="14" rsrq="-11"/>
        <radio op="I TIM" rat="LTE" q="33.00" rsrp="-110" sinr="17" rsrq="-10"/>
      </extensions>
    </trkpt>
    <trkpt lat="45.6046919" lon="10.4595211">
      <ele>263.70001220703125</ele>
      <time>2026-09-27T14:57:48.106+02:00</time>
      <extensions>
        <activity type="UNKNOWN" conf="40" state="unknown" tsMs="1790513860174"/>
        <radio op="vodafone IT" rat="LTE" q="46.20" rsrp="-103" sinr="16" rsrq="-11"/>
        <radio op="I TIM" rat="LTE" q="47.50" rsrp="-100" sinr="14" rsrq="-12"/>
      </extensions>
    </trkpt>
    <trkpt lat="45.6048258" lon="10.4592743">
      <ele>263.8000183105469</ele>
      <time>2026-09-27T14:58:23.722+02:00</time>
      <extensions>
        <activity type="ON_FOOT" conf="89" state="moving" tsMs="1790513886071"/>
        <radio op="vodafone IT" rat="LTE" q="57.50" rsrp="-102" sinr="23" rsrq="-11"/>
        <radio op="I TIM" rat="LTE" q="62.40" rsrp="-99" sinr="19" rsrq="-13"/>
      </extensions>
    </trkpt>
    <trkpt lat="45.6047677" lon="10.4592126">
      <ele>263.8000183105469</ele>
      <time>2026-09-27T14:58:55.025+02:00</time>
      <extensions>
        <activity type="STILL" conf="98" state="still" tsMs="1790513924972"/>
        <radio op="vodafone IT" rat="LTE" q="75.00" rsrp="-95" sinr="22" rsrq="-12"/>
        <radio op="I TIM" rat="LTE" q="67.50" rsrp="-98" sinr="22" rsrq="-11"/>
      </extensions>
    </trkpt>
    <trkpt lat="45.6047981" lon="10.4593239">
      <ele>263.8000183105469</ele>
      <time>2026-09-27T14:59:26.304+02:00</time>
      <extensions>
        <activity type="UNKNOWN" conf="40" state="unknown" tsMs="1790513953311"/>
        <radio op="vodafone IT" rat="LTE" q="60.00" rsrp="-101" sinr="24" rsrq="-11"/>
        <radio op="I TIM" rat="LTE" q="60.00" rsrp="-101" sinr="21" rsrq="-11"/>
      </extensions>
    </trkpt>
    <trkpt lat="45.6047505" lon="10.4592501">
      <ele>263.8000183105469</ele>
      <time>2026-09-27T14:59:57.427+02:00</time>
      <extensions>
        <activity type="STILL" conf="39" state="still" tsMs="1790513988500"/>
        <radio op="vodafone IT" rat="LTE" q="57.50" rsrp="-102" sinr="20" rsrq="-11"/>
        <radio op="I TIM" rat="LTE" q="34.50" rsrp="-102" sinr="10" rsrq="-12"/>
      </extensions>
    </trkpt>
    <trkpt lat="45.6047844" lon="10.4593965">
      <ele>263.9000244140625</ele>
      <time>2026-09-27T15:00:28.663+02:00</time>
      <extensions>
        <activity type="UNKNOWN" conf="40" state="unknown" tsMs="1790514013174"/>
        <radio op="vodafone IT" rat="LTE" q="55.00" rsrp="-103" sinr="21" rsrq="-7"/>
        <radio op="I TIM" rat="LTE" q="55.20" rsrp="-101" sinr="18" rsrq="-11"/>
      </extensions>
    </trkpt>
    <trkpt lat="45.6047673" lon="10.459325">
      <ele>263.9000244140625</ele>
      <time>2026-09-27T15:00:59.845+02:00</time>
      <extensions>
        <activity type="STILL" conf="98" state="still" tsMs="1790514052040"/>
        <radio op="vodafone IT" rat="LTE" q="48.40" rsrp="-103" sinr="17" rsrq="-11"/>
        <radio op="I TIM" rat="LTE" q="60.00" rsrp="-101" sinr="24" rsrq="-12"/>
      </extensions>
    </trkpt>
    <trkpt lat="45.6047088" lon="10.4592103">
      <ele>263.8000183105469</ele>
      <time>2026-09-27T15:01:31.077+02:00</time>
      <extensions>
        <activity type="ON_FOOT" conf="91" state="moving" tsMs="1790514074471"/>
        <radio op="vodafone IT" rat="LTE" q="52.50" rsrp="-104" sinr="20" rsrq="-12"/>
        <radio op="I TIM" rat="LTE" q="57.50" rsrp="-102" sinr="20" rsrq="-11"/>
      </extensions>
    </trkpt>
    <trkpt lat="45.6048054" lon="10.4592482">
      <ele>263.8000183105469</ele>
      <time>2026-09-27T15:02:02.229+02:00</time>
      <extensions>
        <activity type="ON_FOOT" conf="86" state="moving" tsMs="1790514113253"/>
        <radio op="vodafone IT" rat="LTE" q="65.00" rsrp="-99" sinr="21" rsrq="-7"/>
        <radio op="I TIM" rat="LTE" q="57.50" rsrp="-102" sinr="21" rsrq="-12"/>
      </extensions>
    </trkpt>
    <trkpt lat="45.604728" lon="10.4591841">
      <ele>263.9000244140625</ele>
      <time>2026-09-27T15:02:33.43+02:00</time>
      <extensions>
        <activity type="STILL" conf="97" state="still" tsMs="1790514137963"/>
        <radio op="vodafone IT" rat="LTE" q="17.00" rsrp="-115" sinr="12" rsrq="-10"/>
        <radio op="I TIM" rat="LTE" q="34.00" rsrp="-108" sinr="15" rsrq="-10"/>
      </extensions>
    </trkpt>
    <trkpt lat="45.6049348" lon="10.4594746">
      <ele>263.8000183105469</ele>
      <time>2026-09-27T15:03:11.896+02:00</time>
      <extensions>
        <activity type="UNKNOWN" conf="40" state="unknown" tsMs="1790514178422"/>
        <radio op="vodafone IT" rat="LTE" q="16.50" rsrp="-110" sinr="6" rsrq="-12"/>
        <radio op="I TIM" rat="LTE" q="25.50" rsrp="-110" sinr="12" rsrq="-13"/>
      </extensions>
    </trkpt>
    <trkpt lat="45.6046726" lon="10.4592065">
      <ele>263.8000183105469</ele>
      <time>2026-09-27T15:04:10.294+02:00</time>
      <extensions>
        <activity type="ON_FOOT" conf="85" state="moving" tsMs="1790514249136"/>
        <radio op="vodafone IT" rat="LTE" q="42.50" rsrp="-108" sinr="26" rsrq="-12"/>
        <radio op="I TIM" rat="LTE" q="55.00" rsrp="-103" sinr="22" rsrq="-9"/>
      </extensions>
    </trkpt>
    <trkpt lat="45.6046879" lon="10.4590578">
      <ele>263.8000183105469</ele>
      <time>2026-09-27T15:05:01.814+02:00</time>
      <extensions>
        <activity type="STILL" conf="41" state="still" tsMs="1790514300583"/>
        <radio op="vodafone IT" rat="LTE" q="40.80" rsrp="-108" sinr="19" rsrq="-12"/>
        <radio op="I TIM" rat="LTE" q="50.00" rsrp="-105" sinr="23" rsrq="-10"/>
      </extensions>
    </trkpt>
    <trkpt lat="45.6047036" lon="10.4590604">
      <ele>263.8000183105469</ele>
      <time>2026-09-27T15:05:50.449+02:00</time>
      <extensions>
        <activity type="UNKNOWN" conf="40" state="unknown" tsMs="1790514353285"/>
        <radio op="vodafone IT" rat="LTE" q="50.60" rsrp="-102" sinr="17" rsrq="-6"/>
        <radio op="I TIM" rat="LTE" q="48.00" rsrp="-101" sinr="15" rsrq="-12"/>
      </extensions>
    </trkpt>
    <trkpt lat="45.6047149" lon="10.4590446">
      <ele>263.8000183105469</ele>
      <time>2026-09-27T15:06:20.459+02:00</time>
      <extensions>
        <activity type="UNKNOWN" conf="40" state="unknown" tsMs="1790514366278"/>
        <radio op="vodafone IT" rat="LTE" q="52.90" rsrp="-102" sinr="18" rsrq="-7"/>
        <radio op="I TIM" rat="LTE" q="60.00" rsrp="-101" sinr="21" rsrq="-8"/>
      </extensions>
    </trkpt>
    <trkpt lat="45.6046683" lon="10.4590516">
      <ele>263.8000183105469</ele>
      <time>2026-09-27T15:06:59.572+02:00</time>
      <extensions>
        <activity type="UNKNOWN" conf="40" state="unknown" tsMs="1790514418898"/>
        <radio op="vodafone IT" rat="LTE" q="32.40" rsrp="-107" sinr="13" rsrq="-11"/>
        <radio op="I TIM" rat="LTE" q="41.40" rsrp="-107" sinr="18" rsrq="-12"/>
      </extensions>
    </trkpt>
    <trkpt lat="45.60467" lon="10.4591525">
      <ele>263.8000183105469</ele>
      <time>2026-09-27T15:07:47.162+02:00</time>
      <extensions>
        <activity type="ON_FOOT" conf="91" state="moving" tsMs="1790514464464"/>
        <radio op="vodafone IT" rat="LTE" q="47.50" rsrp="-106" sinr="23" rsrq="-9"/>
        <radio op="I TIM" rat="LTE" q="50.40" rsrp="-104" sinr="19" rsrq="-11"/>
      </extensions>
    </trkpt>
    <trkpt lat="45.6047769" lon="10.4593927">
      <ele>263.8000183105469</ele>
      <time>2026-09-27T15:08:20.236+02:00</time>
      <extensions>
        <activity type="ON_FOOT" conf="76" state="moving" tsMs="1790514497103"/>
        <radio op="vodafone IT" rat="LTE" q="34.50" rsrp="-110" sinr="18" rsrq="-10"/>
        <radio op="I TIM" rat="LTE" q="52.50" rsrp="-104" sinr="21" rsrq="-8"/>
      </extensions>
    </trkpt>
    <trkpt lat="45.6046134" lon="10.4589882">
      <ele>263.8000183105469</ele>
      <time>2026-09-27T15:09:07.013+02:00</time>
      <extensions>
        <activity type="ON_FOOT" conf="97" state="moving" tsMs="1790514546142"/>
        <radio op="vodafone IT" rat="LTE" q="52.50" rsrp="-104" sinr="24" rsrq="-7"/>
        <radio op="I TIM" rat="LTE" q="57.50" rsrp="-102" sinr="21" rsrq="-8"/>
      </extensions>
    </trkpt>
    <trkpt lat="45.604163" lon="10.458524">
      <ele>263.70001220703125</ele>
      <time>2026-09-27T15:09:57.47+02:00</time>
      <extensions>
        <activity type="ON_FOOT" conf="96" state="moving" tsMs="1790514595787"/>
        <radio op="vodafone IT" rat="LTE" q="77.50" rsrp="-94" sinr="24" rsrq="-8"/>
        <radio op="I TIM" rat="LTE" q="5.00" rsrp="-115" sinr="0" rsrq="-13"/>
      </extensions>
    </trkpt>
    <trkpt lat="45.6035287" lon="10.4579868">
      <ele>262.8000183105469</ele>
      <time>2026-09-27T15:10:41.092+02:00</time>
      <extensions>
        <activity type="ON_FOOT" conf="97" state="moving" tsMs="1790514640470"/>
        <radio op="vodafone IT" rat="LTE" q="85.00" rsrp="-91" sinr="24" rsrq="-11"/>
        <radio op="I TIM" rat="LTE" q="85.00" rsrp="-91" sinr="22" rsrq="-10"/>
      </extensions>
    </trkpt>
    <trkpt lat="45.6035116" lon="10.4569588">
      <ele>262.8000183105469</ele>
      <time>2026-09-27T15:11:23.551+02:00</time>
      <extensions>
        <activity type="ON_FOOT" conf="94" state="moving" tsMs="1790514681639"/>
        <radio op="vodafone IT" rat="LTE" q="69.60" rsrp="-96" sinr="19" rsrq="-7"/>
        <radio op="I TIM" rat="LTE" q="79.20" rsrp="-92" sinr="19" rsrq="-12"/>
      </extensions>
    </trkpt>
    <trkpt lat="45.6033577" lon="10.4562746">
      <ele>261.3000183105469</ele>
      <time>2026-09-27T15:11:59.176+02:00</time>
      <extensions>
        <activity type="ON_FOOT" conf="95" state="moving" tsMs="1790514705497"/>
        <radio op="vodafone IT" rat="LTE" q="70.00" rsrp="-97" sinr="23" rsrq="-4"/>
        <radio op="I TIM" rat="LTE" q="67.50" rsrp="-98" sinr="22" rsrq="-12"/>
      </extensions>
    </trkpt>
    <trkpt lat="45.6031674" lon="10.4555786">
      <ele>261.1000061035156</ele>
      <time>2026-09-27T15:12:43.604+02:00</time>
      <extensions>
        <activity type="ON_FOOT" conf="97" state="moving" tsMs="1790514772960"/>
        <radio op="vodafone IT" rat="LTE" q="39.90" rsrp="-104" sinr="14" rsrq="-6"/>
        <radio op="I TIM" rat="LTE" q="37.50" rsrp="-100" sinr="10" rsrq="-12"/>
      </extensions>
    </trkpt>
    <trkpt lat="45.6033071" lon="10.4549218">
      <ele>261.3000183105469</ele>
      <time>2026-09-27T15:13:26.226+02:00</time>
      <extensions>
        <activity type="ON_FOOT" conf="97" state="moving" tsMs="1790514798087"/>
        <radio op="vodafone IT" rat="LTE" q="20.70" rsrp="-102" sinr="4" rsrq="-11"/>
        <radio op="I TIM" rat="LTE" q="25.50" rsrp="-110" sinr="12" rsrq="-10"/>
      </extensions>
    </trkpt>
    <trkpt lat="45.6033563" lon="10.4548775">
      <ele>261.3000183105469</ele>
      <time>2026-09-27T15:13:33.601+02:00</time>
      <extensions>
        <activity type="ON_FOOT" conf="96" state="moving" tsMs="1790514804209"/>
        <radio op="vodafone IT" rat="LTE" q="46.40" rsrp="-96" sinr="11" rsrq="-7"/>
        <radio op="I TIM" rat="LTE" q="57.50" rsrp="-100" sinr="18" rsrq="-12"/>
      </extensions>
    </trkpt>
    <trkpt lat="45.6033563" lon="10.4548775">
      <ele>260.70001220703125</ele>
      <time>2026-09-27T15:14:07.612+02:00</time>
      <extensions>
        <activity type="ON_FOOT" conf="96" state="moving" tsMs="1790514836520"/>
        <radio op="vodafone IT" rat="LTE" q="19.20" rsrp="-109" sinr="7" rsrq="-11"/>
        <radio op="I TIM" rat="LTE" q="48.00" rsrp="-101" sinr="15" rsrq="-9"/>
      </extensions>
    </trkpt>
    <trkpt lat="45.60291" lon="10.4534514">
      <ele>260.70001220703125</ele>
      <time>2026-09-27T15:14:39.013+02:00</time>
      <extensions>
        <activity type="ON_FOOT" conf="95" state="moving" tsMs="1790514862609"/>
        <radio op="vodafone IT" rat="LTE" q="28.50" rsrp="-106" sinr="10" rsrq="-7"/>
        <radio op="I TIM" rat="LTE" q="35.70" rsrp="-104" sinr="12" rsrq="-11"/>
      </extensions>
    </trkpt>
    <trkpt lat="45.6029518" lon="10.4534951">
      <ele>260.70001220703125</ele>
      <time>2026-09-27T15:14:45.604+02:00</time>
      <extensions>
        <activity type="ON_FOOT" conf="98" state="moving" tsMs="1790514875668"/>
        <radio op="vodafone IT" rat="LTE" q="22.50" rsrp="-110" sinr="10" rsrq="-12"/>
        <radio op="I TIM" rat="LTE" q="17.00" rsrp="-108" sinr="5" rsrq="-12"/>
      </extensions>
    </trkpt>
    <trkpt lat="45.6025689" lon="10.4536801">
      <ele>261.0</ele>
      <time>2026-09-27T15:15:20.422+02:00</time>
      <extensions>
        <activity type="ON_FOOT" conf="95" state="moving" tsMs="1790514901624"/>
        <radio op="vodafone IT" rat="LTE" q="6.00" rsrp="-115" sinr="1" rsrq="-12"/>
        <radio op="I TIM" rat="LTE" q="10.40" rsrp="-117" sinr="8" rsrq="-10"/>
      </extensions>
    </trkpt>
    <trkpt lat="45.6025849" lon="10.4536639">
      <ele>261.0</ele>
      <time>2026-09-27T15:15:51.673+02:00</time>
      <extensions>
        <activity type="STILL" conf="44" state="still" tsMs="1790514940640"/>
        <radio op="vodafone IT" rat="LTE" q="11.00" rsrp="-115" sinr="6" rsrq="-11"/>
        <radio op="I TIM" rat="LTE" q="32.30" rsrp="-106" sinr="12" rsrq="-11"/>
      </extensions>
    </trkpt>
    <trkpt lat="45.6022782" lon="10.4535566">
      <ele>260.6000061035156</ele>
      <time>2026-09-27T15:16:22.902+02:00</time>
      <extensions>
        <activity type="ON_FOOT" conf="96" state="moving" tsMs="1790514966665"/>
        <radio op="vodafone IT" rat="LTE" q="21.60" rsrp="-107" sinr="7" rsrq="-8"/>
        <radio op="I TIM" rat="LTE" rsrp="-107" rsrq="-14"/>
      </extensions>
    </trkpt>
    <trkpt lat="45.6018431" lon="10.4534166">
      <ele>260.5</ele>
      <time>2026-09-27T15:16:54.303+02:00</time>
      <extensions>
        <activity type="ON_FOOT" conf="96" state="moving" tsMs="1790515009086"/>
        <radio op="vodafone IT" rat="LTE" q="65.00" rsrp="-99" sinr="23" rsrq="-8"/>
        <radio op="I TIM" rat="LTE" q="56.00" rsrp="-97" sinr="15" rsrq="-12"/>
      </extensions>
    </trkpt>
    <trkpt lat="45.6012971" lon="10.4536431">
      <ele>260.3000183105469</ele>
      <time>2026-09-27T15:17:25.607+02:00</time>
      <extensions>
        <activity type="ON_FOOT" conf="95" state="moving" tsMs="1790515030100"/>
        <radio op="vodafone IT" rat="LTE" q="43.70" rsrp="-102" sinr="14" rsrq="-7"/>
        <radio op="I TIM" rat="LTE" q="25.00" rsrp="-100" sinr="5" rsrq="-11"/>
      </extensions>
    </trkpt>
    <trkpt lat="45.6010425" lon="10.4531942">
      <ele>258.41259074822824</ele>
      <time>2026-09-27T15:17:56.864+02:00</time>
      <extensions>
        <activity type="ON_FOOT" conf="96" state="moving" tsMs="1790515065745"/>
        <radio op="vodafone IT" rat="LTE" q="58.80" rsrp="-97" sinr="16" rsrq="-8"/>
        <radio op="I TIM" rat="LTE" q="57.00" rsrp="-95" sinr="14" rsrq="-10"/>
      </extensions>
    </trkpt>
    <trkpt lat="45.600858" lon="10.4526232">
      <ele>259.5</ele>
      <time>2026-09-27T15:18:28.072+02:00</time>
      <extensions>
        <activity type="ON_FOOT" conf="96" state="moving" tsMs="1790515091605"/>
        <radio op="vodafone IT" rat="LTE" q="34.50" rsrp="-102" sinr="10" rsrq="-12"/>
        <radio op="I TIM" rat="LTE" q="23.00" rsrp="-102" sinr="5" rsrq="-13"/>
      </extensions>
    </trkpt>
    <trkpt lat="45.6005985" lon="10.4521996">
      <ele>259.20001220703125</ele>
      <time>2026-09-27T15:18:59.269+02:00</time>
      <extensions>
        <activity type="ON_FOOT" conf="96" state="moving" tsMs="1790515124286"/>
        <radio op="vodafone IT" rat="LTE" q="28.80" rsrp="-101" sinr="7" rsrq="-10"/>
        <radio op="I TIM" rat="LTE" q="24.20" rsrp="-103" sinr="6" rsrq="-11"/>
      </extensions>
    </trkpt>
    <trkpt lat="45.6004465" lon="10.4519516">
      <ele>259.20001220703125</ele>
      <time>2026-09-27T15:19:07.603+02:00</time>
      <extensions>
        <activity type="ON_FOOT" conf="94" state="moving" tsMs="1790515133810"/>
        <radio op="vodafone IT" rat="LTE" q="36.80" rsrp="-102" sinr="11" rsrq="-9"/>
        <radio op="I TIM" rat="LTE" q="42.50" rsrp="-100" sinr="12" rsrq="-12"/>
      </extensions>
    </trkpt>
    <trkpt lat="45.6004465" lon="10.4519516">
      <ele>258.70001220703125</ele>
      <time>2026-09-27T15:19:40.786+02:00</time>
      <extensions>
        <activity type="ON_FOOT" conf="96" state="moving" tsMs="1790515169337"/>
        <radio op="vodafone IT" rat="LTE" q="32.20" rsrp="-102" sinr="9" rsrq="-9"/>
        <radio op="I TIM" rat="LTE" q="23.40" rsrp="-99" sinr="4" rsrq="-12"/>
      </extensions>
    </trkpt>
    <trkpt lat="45.5998002" lon="10.4509049">
      <ele>258.5</ele>
      <time>2026-09-27T15:20:12.126+02:00</time>
      <extensions>
        <activity type="ON_FOOT" conf="96" state="moving" tsMs="1790515195380"/>
        <radio op="vodafone IT" rat="LTE" q="56.10" rsrp="-92" sinr="12" rsrq="-9"/>
        <radio op="I TIM" rat="LTE" q="37.70" rsrp="-96" sinr="8" rsrq="-11"/>
      </extensions>
    </trkpt>
    <trkpt lat="45.5998002" lon="10.4509049">
      <ele>258.5</ele>
      <time>2026-09-27T15:20:43.235+02:00</time>
      <extensions>
        <activity type="ON_FOOT" conf="97" state="moving" tsMs="1790515234288"/>
        <radio op="vodafone IT" rat="LTE" q="29.90" rsrp="-102" sinr="8" rsrq="-10"/>
        <radio op="I TIM" rat="LTE" q="16.80" rsrp="-101" sinr="2" rsrq="-13"/>
      </extensions>
    </trkpt>
    <trkpt lat="45.5992788" lon="10.449773">
      <ele>258.0</ele>
      <time>2026-09-27T15:21:14.615+02:00</time>
      <extensions>
        <activity type="ON_FOOT" conf="98" state="moving" tsMs="1790515266300"/>
        <radio op="vodafone IT" rat="LTE" q="15.60" rsrp="-99" sinr="1" rsrq="-11"/>
        <radio op="I TIM" rat="LTE" rsrp="-93" rsrq="-13"/>
      </extensions>
    </trkpt>
    <trkpt lat="45.5991262" lon="10.4492452">
      <ele>258.3000183105469</ele>
      <time>2026-09-27T15:21:45.897+02:00</time>
      <extensions>
        <activity type="ON_FOOT" conf="95" state="moving" tsMs="1790515286987"/>
        <radio op="vodafone IT" rat="LTE" q="36.00" rsrp="-95" sinr="7" rsrq="-9"/>
        <radio op="I TIM" rat="LTE" q="49.30" rsrp="-96" sinr="12" rsrq="-11"/>
      </extensions>
    </trkpt>
    <trkpt lat="45.5976651" lon="10.4484299">
      <ele>257.70001220703125</ele>
      <time>2026-09-27T15:22:17.299+02:00</time>
      <extensions>
        <activity type="ON_FOOT" conf="92" state="moving" tsMs="1790515326082"/>
        <radio op="vodafone IT" rat="LTE" q="23.20" rsrp="-96" sinr="3" rsrq="-11"/>
        <radio op="I TIM" rat="LTE" q="42.00" rsrp="-90" sinr="7" rsrq="-11"/>
      </extensions>
    </trkpt>
    <trkpt lat="45.597878" lon="10.4486786">
      <ele>257.8000183105469</ele>
      <time>2026-09-27T15:22:48.626+02:00</time>
      <extensions>
        <activity type="ON_FOOT" conf="97" state="moving" tsMs="1790515352060"/>
        <radio op="vodafone IT" rat="LTE" rsrp="-94" rsrq="-11"/>
        <radio op="I TIM" rat="LTE" q="68.40" rsrp="-89" sinr="14" rsrq="-10"/>
      </extensions>
    </trkpt>
    <trkpt lat="45.5977298" lon="10.4482477">
      <ele>257.6000061035156</ele>
      <time>2026-09-27T15:23:25.27+02:00</time>
      <extensions>
        <activity type="ON_FOOT" conf="96" state="moving" tsMs="1790515404259"/>
        <radio op="vodafone IT" rat="LTE" q="27.90" rsrp="-94" sinr="4" rsrq="-11"/>
        <radio op="I TIM" rat="LTE" q="42.00" rsrp="-95" sinr="9" rsrq="-10"/>
      </extensions>
    </trkpt>
    <trkpt lat="45.5972342" lon="10.4470101">
      <ele>257.8000183105469</ele>
      <time>2026-09-27T15:24:07.992+02:00</time>
      <extensions>
        <activity type="ON_FOOT" conf="96" state="moving" tsMs="1790515444822"/>
        <radio op="vodafone IT" rat="LTE" q="21.60" rsrp="-101" sinr="4" rsrq="-10"/>
        <radio op="I TIM" rat="LTE" q="27.00" rsrp="-95" sinr="4" rsrq="-14"/>
      </extensions>
    </trkpt>
    <trkpt lat="45.5965882" lon="10.4459902">
      <ele>257.1000061035156</ele>
      <time>2026-09-27T15:24:41.885+02:00</time>
      <extensions>
        <activity type="ON_FOOT" conf="97" state="moving" tsMs="1790515480443"/>
        <radio op="vodafone IT" rat="LTE" q="22.40" rsrp="-97" sinr="3" rsrq="-13"/>
        <radio op="I TIM" rat="LTE" q="36.30" rsrp="-92" sinr="6" rsrq="-13"/>
      </extensions>
    </trkpt>
    <trkpt lat="45.5965447" lon="10.4458796">
      <ele>257.1000061035156</ele>
      <time>2026-09-27T15:25:21.551+02:00</time>
      <extensions>
        <activity type="ON_FOOT" conf="95" state="moving" tsMs="1790515516203"/>
        <radio op="vodafone IT" rat="LTE" rsrp="-100" rsrq="-13"/>
        <radio op="I TIM" rat="LTE" rsrp="-94" rsrq="-12"/>
      </extensions>
    </trkpt>
    <trkpt lat="45.5961654" lon="10.4452546">
      <ele>257.3999938964844</ele>
      <time>2026-09-27T15:26:02.076+02:00</time>
      <extensions>
        <activity type="ON_FOOT" conf="98" state="moving" tsMs="1790515541310"/>
        <radio op="vodafone IT" rat="LTE" q="23.40" rsrp="-99" sinr="4" rsrq="-13"/>
        <radio op="I TIM" rat="LTE" rsrp="-98" rsrq="-13"/>
      </extensions>
    </trkpt>
    <trkpt lat="45.5958642" lon="10.4447919">
      <ele>256.79998779296875</ele>
      <time>2026-09-27T15:26:46.011+02:00</time>
      <extensions>
        <activity type="ON_FOOT" conf="96" state="moving" tsMs="1790515605212"/>
        <radio op="vodafone IT" rat="LTE" q="16.80" rsrp="-101" sinr="2" rsrq="-13"/>
        <radio op="I TIM" rat="LTE" q="27.00" rsrp="-98" sinr="5" rsrq="-11"/>
      </extensions>
    </trkpt>
    <trkpt lat="45.5954235" lon="10.4441413">
      <ele>257.0</ele>
      <time>2026-09-27T15:27:20.684+02:00</time>
      <extensions>
        <activity type="ON_FOOT" conf="94" state="moving" tsMs="1790515635152"/>
        <radio op="vodafone IT" rat="LTE" q="26.10" rsrp="-96" sinr="4" rsrq="-9"/>
        <radio op="I TIM" rat="LTE" q="65.10" rsrp="-94" sinr="16" rsrq="-9"/>
      </extensions>
    </trkpt>
    <trkpt lat="45.5954881" lon="10.4441513">
      <ele>257.0</ele>
      <time>2026-09-27T15:27:26.109+02:00</time>
      <extensions>
        <activity type="ON_FOOT" conf="96" state="moving" tsMs="1790515654132"/>
        <radio op="vodafone IT" rat="LTE" q="16.80" rsrp="-97" sinr="1" rsrq="-14"/>
        <radio op="I TIM" rat="LTE" q="31.50" rsrp="-90" sinr="4" rsrq="-10"/>
      </extensions>
    </trkpt>
    <trkpt lat="45.5954881" lon="10.4441513">
      <ele>256.79998779296875</ele>
      <time>2026-09-27T15:27:56.849+02:00</time>
      <extensions>
        <activity type="ON_FOOT" conf="96" state="moving" tsMs="1790515671320"/>
        <radio op="vodafone IT" rat="LTE" q="36.30" rsrp="-92" sinr="6" rsrq="-12"/>
        <radio op="I TIM" rat="LTE" q="60.80" rsrp="-87" sinr="11" rsrq="-11"/>
      </extensions>
    </trkpt>
    <trkpt lat="45.5955014" lon="10.443291">
      <ele>256.79998779296875</ele>
      <time>2026-09-27T15:28:31.742+02:00</time>
      <extensions>
        <activity type="ON_FOOT" conf="96" state="moving" tsMs="1790515706288"/>
        <radio op="vodafone IT" rat="LTE" q="36.40" rsrp="-99" sinr="9" rsrq="-11"/>
        <radio op="I TIM" rat="LTE" q="36.00" rsrp="-107" sinr="15" rsrq="-12"/>
      </extensions>
    </trkpt>
    <trkpt lat="45.5957548" lon="10.4431343">
      <ele>256.79998779296875</ele>
      <time>2026-09-27T15:29:29.117+02:00</time>
      <extensions>
        <activity type="UNKNOWN" conf="40" state="unknown" tsMs="1790515767956"/>
        <radio op="vodafone IT" rat="LTE" q="6.40" rsrp="-117" sinr="3" rsrq="-12"/>
        <radio op="I TIM" rat="LTE" q="13.20" rsrp="-113" sinr="6" rsrq="-11"/>
      </extensions>
    </trkpt>
    <trkpt lat="45.5957486" lon="10.4432611">
      <ele>256.79998779296875</ele>
      <time>2026-09-27T15:30:06.461+02:00</time>
      <extensions>
        <activity type="UNKNOWN" conf="40" state="unknown" tsMs="1790515797162"/>
        <radio op="vodafone IT" rat="LTE" q="9.00" rsrp="-110" sinr="1" rsrq="-13"/>
        <radio op="I TIM" rat="LTE" q="13.00" rsrp="-112" sinr="5" rsrq="-11"/>
      </extensions>
    </trkpt>
    <trkpt lat="45.5957069" lon="10.4431371">
      <ele>256.79998779296875</ele>
      <time>2026-09-27T15:30:51.517+02:00</time>
      <extensions>
        <activity type="UNKNOWN" conf="40" state="unknown" tsMs="1790515836216"/>
        <radio op="vodafone IT" rat="LTE" q="11.20" rsrp="-109" sinr="2" rsrq="-13"/>
        <radio op="I TIM" rat="LTE" q="6.00" rsrp="-119" sinr="5" rsrq="-13"/>
      </extensions>
    </trkpt>
    <trkpt lat="45.5955716" lon="10.4431497">
      <ele>256.79998779296875</ele>
      <time>2026-09-27T15:31:24.737+02:00</time>
      <extensions>
        <activity type="UNKNOWN" conf="40" state="unknown" tsMs="1790515878803"/>
        <radio op="vodafone IT" rat="LTE" q="14.40" rsrp="-109" sinr="4" rsrq="-13"/>
        <radio op="I TIM" rat="LTE" q="17.60" rsrp="-114" sinr="11" rsrq="-13"/>
      </extensions>
    </trkpt>
    <trkpt lat="45.5957155" lon="10.443216">
      <ele>256.79998779296875</ele>
      <time>2026-09-27T15:31:57.754+02:00</time>
      <extensions>
        <activity type="STILL" conf="44" state="still" tsMs="1790515910467"/>
        <radio op="vodafone IT" rat="LTE" q="23.40" rsrp="-107" sinr="8" rsrq="-13"/>
        <radio op="I TIM" rat="LTE" q="8.00" rsrp="-117" sinr="5" rsrq="-13"/>
      </extensions>
    </trkpt>
    <trkpt lat="45.5957057" lon="10.443196">
      <ele>256.79998779296875</ele>
      <time>2026-09-27T15:32:37.628+02:00</time>
      <extensions>
        <activity type="UNKNOWN" conf="40" state="unknown" tsMs="1790515944984"/>
        <radio op="vodafone IT" rat="LTE" q="21.00" rsrp="-110" sinr="9" rsrq="-13"/>
        <radio op="I TIM" rat="LTE" q="8.10" rsrp="-116" sinr="4" rsrq="-11"/>
      </extensions>
    </trkpt>
    <trkpt lat="45.5957185" lon="10.4432023">
      <ele>256.79998779296875</ele>
      <time>2026-09-27T15:33:08.922+02:00</time>
      <extensions>
        <activity type="STILL" conf="40" state="still" tsMs="1790515971069"/>
        <radio op="vodafone IT" rat="LTE" q="19.20" rsrp="-109" sinr="7" rsrq="-9"/>
        <radio op="I TIM" rat="LTE" q="7.00" rsrp="-118" sinr="5" rsrq="-13"/>
      </extensions>
    </trkpt>
    <trkpt lat="45.5957091" lon="10.4431973">
      <ele>256.79998779296875</ele>
      <time>2026-09-27T15:33:40.251+02:00</time>
      <extensions>
        <activity type="STILL" conf="100" state="still" tsMs="1790516010134"/>
        <radio op="vodafone IT" rat="LTE" q="28.80" rsrp="-107" sinr="11" rsrq="-11"/>
        <radio op="I TIM" rat="LTE" q="4.80" rsrp="-119" sinr="3" rsrq="-12"/>
      </extensions>
    </trkpt>
    <trkpt lat="45.5956949" lon="10.4432168">
      <ele>256.79998779296875</ele>
      <time>2026-09-27T15:34:11.609+02:00</time>
      <extensions>
        <activity type="STILL" conf="96" state="still" tsMs="1790516042100"/>
        <radio op="vodafone IT" rat="LTE" q="18.20" rsrp="-111" sinr="8" rsrq="-13"/>
        <radio op="I TIM" rat="LTE" q="9.90" rsrp="-114" sinr="4" rsrq="-10"/>
      </extensions>
    </trkpt>
    <trkpt lat="45.5955961" lon="10.4432226">
      <ele>256.79998779296875</ele>
      <time>2026-09-27T15:51:34.79+02:00</time>
      <extensions>
        <activity type="ON_FOOT" conf="91" state="moving" tsMs="1790517088484"/>
        <radio op="vodafone IT" rat="LTE" q="32.20" rsrp="-102" sinr="9" rsrq="-9"/>
        <radio op="I TIM" rat="LTE" q="19.50" rsrp="-110" sinr="8" rsrq="-11"/>
      </extensions>
    </trkpt>
    <trkpt lat="45.595508" lon="10.443256">
      <ele>256.79998779296875</ele>
      <time>2026-09-27T15:52:22.796+02:00</time>
      <extensions>
        <activity type="ON_FOOT" conf="90" state="moving" tsMs="1790517136754"/>
        <radio op="vodafone IT" rat="LTE" q="32.00" rsrp="-109" sinr="15" rsrq="-10"/>
        <radio op="I TIM" rat="LTE" q="52.50" rsrp="-100" sinr="16" rsrq="-12"/>
      </extensions>
    </trkpt>
    <trkpt lat="45.5954897" lon="10.4432205">
      <ele>256.79998779296875</ele>
      <time>2026-09-27T15:52:59.359+02:00</time>
      <extensions>
        <activity type="STILL" conf="42" state="still" tsMs="1790517175459"/>
        <radio op="vodafone IT" rat="LTE" q="25.60" rsrp="-109" sinr="11" rsrq="-9"/>
        <radio op="I TIM" rat="LTE" q="48.00" rsrp="-101" sinr="15" rsrq="-11"/>
      </extensions>
    </trkpt>
    <trkpt lat="45.595484" lon="10.4432445">
      <ele>256.79998779296875</ele>
      <time>2026-09-27T15:53:33.411+02:00</time>
      <extensions>
        <activity type="UNKNOWN" conf="40" state="unknown" tsMs="1790517196266"/>
        <radio op="vodafone IT" rat="LTE" q="14.40" rsrp="-107" sinr="3" rsrq="-10"/>
        <radio op="I TIM" rat="LTE" q="36.00" rsrp="-101" sinr="10" rsrq="-12"/>
      </extensions>
    </trkpt>
    <trkpt lat="45.5954874" lon="10.4431759">
      <ele>256.79998779296875</ele>
      <time>2026-09-27T15:54:08.705+02:00</time>
      <extensions>
        <activity type="STILL" conf="97" state="still" tsMs="1790517241699"/>
        <radio op="vodafone IT" rat="LTE" q="18.20" rsrp="-111" sinr="8" rsrq="-9"/>
        <radio op="I TIM" rat="LTE" q="48.30" rsrp="-104" sinr="18" rsrq="-11"/>
      </extensions>
    </trkpt>
    <trkpt lat="45.595262" lon="10.4439766">
      <ele>256.79998779296875</ele>
      <time>2026-09-27T15:54:40.142+02:00</time>
      <extensions>
        <activity type="ON_FOOT" conf="98" state="moving" tsMs="1790517264162"/>
        <radio op="vodafone IT" rat="LTE" q="54.60" rsrp="-86" sinr="9" rsrq="-9"/>
        <radio op="I TIM" rat="LTE" q="51.80" rsrp="-88" sinr="9" rsrq="-12"/>
      </extensions>
    </trkpt>
    <trkpt lat="45.5954373" lon="10.4443073">
      <ele>256.8999938964844</ele>
      <time>2026-09-27T15:55:11.297+02:00</time>
      <extensions>
        <activity type="ON_FOOT" conf="98" state="moving" tsMs="1790517299642"/>
        <radio op="vodafone IT" rat="LTE" rsrp="-100" rsrq="-12"/>
        <radio op="I TIM" rat="LTE" q="25.20" rsrp="-97" sinr="4" rsrq="-12"/>
      </extensions>
    </trkpt>
    <trkpt lat="45.5958011" lon="10.4446359">
      <ele>256.8999938964844</ele>
      <time>2026-09-27T15:55:44.253+02:00</time>
      <extensions>
        <activity type="ON_FOOT" conf="93" state="moving" tsMs="1790517342912"/>
        <radio op="vodafone IT" rat="LTE" q="30.00" rsrp="-105" sinr="10" rsrq="-10"/>
        <radio op="I TIM" rat="LTE" rsrp="-108" rsrq="-16"/>
      </extensions>
    </trkpt>
    <trkpt lat="45.5960823" lon="10.4452856">
      <ele>256.8999938964844</ele>
      <time>2026-09-27T15:56:22.428+02:00</time>
      <extensions>
        <activity type="ON_FOOT" conf="96" state="moving" tsMs="1790517381408"/>
        <radio op="vodafone IT" rat="LTE" q="37.80" rsrp="-98" sinr="9" rsrq="-9"/>
        <radio op="I TIM" rat="LTE" rsrp="-106" rsrq="-15"/>
      </extensions>
    </trkpt>
    <trkpt lat="45.5962235" lon="10.4452488">
      <ele>256.8999938964844</ele>
      <time>2026-09-27T15:56:30.615+02:00</time>
      <extensions>
        <activity type="ON_FOOT" conf="97" state="moving" tsMs="1790517385210"/>
        <radio op="vodafone IT" rat="LTE" q="46.40" rsrp="-96" sinr="11" rsrq="-8"/>
        <radio op="I TIM" rat="LTE" q="27.50" rsrp="-100" sinr="6" rsrq="-13"/>
      </extensions>
    </trkpt>
    <trkpt lat="45.5962235" lon="10.4452488">
      <ele>257.0</ele>
      <time>2026-09-27T15:57:03.171+02:00</time>
      <extensions>
        <activity type="ON_FOOT" conf="96" state="moving" tsMs="1790517419269"/>
        <radio op="vodafone IT" rat="LTE" q="21.60" rsrp="-98" sinr="3" rsrq="-12"/>
        <radio op="I TIM" rat="LTE" q="20.30" rsrp="-96" sinr="2" rsrq="-14"/>
      </extensions>
    </trkpt>
    <trkpt lat="45.5967842" lon="10.4464852">
      <ele>257.0</ele>
      <time>2026-09-27T15:57:36.245+02:00</time>
      <extensions>
        <activity type="ON_FOOT" conf="98" state="moving" tsMs="1790517443256"/>
        <radio op="vodafone IT" rat="LTE" q="13.80" rsrp="-102" sinr="1" rsrq="-11"/>
        <radio op="I TIM" rat="LTE" q="20.30" rsrp="-96" sinr="2" rsrq="-13"/>
      </extensions>
    </trkpt>
    <trkpt lat="45.5970137" lon="10.4465035">
      <ele>257.0</ele>
      <time>2026-09-27T15:57:42.603+02:00</time>
      <extensions>
        <activity type="ON_FOOT" conf="96" state="moving" tsMs="1790517456200"/>
        <radio op="vodafone IT" rat="LTE" q="35.00" rsrp="-100" sinr="9" rsrq="-13"/>
        <radio op="I TIM" rat="LTE" q="29.00" rsrp="-96" sinr="5" rsrq="-13"/>
      </extensions>
    </trkpt>
    <trkpt lat="45.5970137" lon="10.4465035">
      <ele>257.70001220703125</ele>
      <time>2026-09-27T15:58:17.701+02:00</time>
      <extensions>
        <activity type="ON_FOOT" conf="96" state="moving" tsMs="1790517488313"/>
        <radio op="vodafone IT" rat="LTE" q="24.00" rsrp="-101" sinr="5" rsrq="-13"/>
        <radio op="I TIM" rat="LTE" q="64.00" rsrp="-83" sinr="11" rsrq="-11"/>
      </extensions>
    </trkpt>
    <trkpt lat="45.5977275" lon="10.4478409">
      <ele>257.70001220703125</ele>
      <time>2026-09-27T15:59:04.611+02:00</time>
      <extensions>
        <activity type="ON_FOOT" conf="96" state="moving" tsMs="1790517543436"/>
        <radio op="vodafone IT" rat="LTE" q="16.80" rsrp="-101" sinr="2" rsrq="-12"/>
        <radio op="I TIM" rat="LTE" q="27.00" rsrp="-95" sinr="4" rsrq="-13"/>
      </extensions>
    </trkpt>
    <trkpt lat="45.5979012" lon="10.4477061">
      <ele>257.8000183105469</ele>
      <time>2026-09-27T15:59:37.892+02:00</time>
      <extensions>
        <activity type="ON_FOOT" conf="93" state="moving" tsMs="1790517556414"/>
        <radio op="vodafone IT" rat="LTE" q="12.00" rsrp="-101" sinr="0" rsrq="-13"/>
        <radio op="I TIM" rat="LTE" q="44.40" rsrp="-88" sinr="7" rsrq="-12"/>
      </extensions>
    </trkpt>
    <trkpt lat="45.598863" lon="10.4489688">
      <ele>257.9000244140625</ele>
      <time>2026-09-27T16:00:12.785+02:00</time>
      <extensions>
        <activity type="ON_FOOT" conf="96" state="moving" tsMs="1790517612199"/>
        <radio op="vodafone IT" rat="LTE" rsrp="-97" rsrq="-8"/>
        <radio op="I TIM" rat="LTE" q="57.00" rsrp="-87" sinr="10" rsrq="-11"/>
      </extensions>
    </trkpt>
    <trkpt lat="45.5983644" lon="10.4494659">
      <ele>258.0</ele>
      <time>2026-09-27T16:00:56.907+02:00</time>
      <extensions>
        <activity type="ON_FOOT" conf="92" state="moving" tsMs="1790517656159"/>
        <radio op="vodafone IT" rat="LTE" q="43.20" rsrp="-98" sinr="11" rsrq="-11"/>
        <radio op="I TIM" rat="LTE" q="32.40" rsrp="-98" sinr="7" rsrq="-12"/>
      </extensions>
    </trkpt>
    <trkpt lat="45.59938" lon="10.4504292">
      <ele>258.3000183105469</ele>
      <time>2026-09-27T16:01:28.197+02:00</time>
      <extensions>
        <activity type="ON_FOOT" conf="98" state="moving" tsMs="1790517672879"/>
        <radio op="vodafone IT" rat="LTE" q="22.00" rsrp="-103" sinr="5" rsrq="-11"/>
        <radio op="I TIM" rat="LTE" q="24.30" rsrp="-98" sinr="4" rsrq="-12"/>
      </extensions>
    </trkpt>
    <trkpt lat="45.5996905" lon="10.4507199">
      <ele>258.6000061035156</ele>
      <time>2026-09-27T16:01:59.658+02:00</time>
      <extensions>
        <activity type="ON_FOOT" conf="97" state="moving" tsMs="1790517708726"/>
        <radio op="vodafone IT" rat="LTE" q="22.00" rsrp="-105" sinr="6" rsrq="-11"/>
        <radio op="I TIM" rat="LTE" q="34.50" rsrp="-102" sinr="10" rsrq="-12"/>
      </extensions>
    </trkpt>
    <trkpt lat="45.600099" lon="10.4515258">
      <ele>258.70001220703125</ele>
      <time>2026-09-27T16:02:46.357+02:00</time>
      <extensions>
        <activity type="ON_FOOT" conf="96" state="moving" tsMs="1790517765559"/>
        <radio op="vodafone IT" rat="LTE" q="29.90" rsrp="-102" sinr="8" rsrq="-12"/>
        <radio op="I TIM" rat="LTE" q="48.00" rsrp="-101" sinr="15" rsrq="-12"/>
      </extensions>
    </trkpt>
    <trkpt lat="45.6006533" lon="10.4521548">
      <ele>259.5</ele>
      <time>2026-09-27T16:03:23.026+02:00</time>
      <extensions>
        <activity type="ON_FOOT" conf="96" state="moving" tsMs="1790517797858"/>
        <radio op="vodafone IT" rat="LTE" q="46.20" rsrp="-103" sinr="16" rsrq="-10"/>
        <radio op="I TIM" rat="LTE" q="59.80" rsrp="-99" sinr="18" rsrq="-12"/>
      </extensions>
    </trkpt>
    <trkpt lat="45.6008982" lon="10.4526624">
      <ele>259.8000183105469</ele>
      <time>2026-09-27T16:03:54.355+02:00</time>
      <extensions>
        <activity type="ON_FOOT" conf="98" state="moving" tsMs="1790517819094"/>
        <radio op="vodafone IT" rat="LTE" q="52.80" rsrp="-101" sinr="17" rsrq="-6"/>
        <radio op="I TIM" rat="LTE" q="30.80" rsrp="-97" sinr="6" rsrq="-14"/>
      </extensions>
    </trkpt>
    <trkpt lat="45.6010256" lon="10.4531926">
      <ele>260.6000061035156</ele>
      <time>2026-09-27T16:04:25.478+02:00</time>
      <extensions>
        <activity type="ON_FOOT" conf="92" state="moving" tsMs="1790517854733"/>
        <radio op="vodafone IT" rat="LTE" q="42.00" rsrp="-90" sinr="7" rsrq="-6"/>
        <radio op="I TIM" rat="LTE" q="92.50" rsrp="-88" sinr="20" rsrq="-12"/>
      </extensions>
    </trkpt>
    <trkpt lat="45.6015322" lon="10.4537186">
      <ele>260.6000061035156</ele>
      <time>2026-09-27T16:04:57.08+02:00</time>
      <extensions>
        <activity type="ON_FOOT" conf="96" state="moving" tsMs="1790517880650"/>
        <radio op="vodafone IT" rat="LTE" q="28.80" rsrp="-101" sinr="7" rsrq="-8"/>
        <radio op="I TIM" rat="LTE" q="57.00" rsrp="-95" sinr="14" rsrq="-12"/>
      </extensions>
    </trkpt>
    <trkpt lat="45.6020568" lon="10.4534047">
      <ele>260.6000061035156</ele>
      <time>2026-09-27T16:05:28.356+02:00</time>
      <extensions>
        <activity type="ON_FOOT" conf="97" state="moving" tsMs="1790517913884"/>
        <radio op="vodafone IT" rat="LTE" q="72.50" rsrp="-96" sinr="20" rsrq="-8"/>
        <radio op="I TIM" rat="LTE" q="48.00" rsrp="-95" sinr="11" rsrq="-11"/>
      </extensions>
    </trkpt>
    <trkpt lat="45.6020004" lon="10.4533273">
      <ele>260.6000061035156</ele>
      <time>2026-09-27T16:05:36.613+02:00</time>
      <extensions>
        <activity type="ON_FOOT" conf="95" state="moving" tsMs="1790517926960"/>
        <radio op="vodafone IT" rat="LTE" q="42.00" rsrp="-97" sinr="10" rsrq="-7"/>
        <radio op="I TIM" rat="LTE" q="55.80" rsrp="-94" sinr="13" rsrq="-12"/>
      </extensions>
    </trkpt>
    <trkpt lat="45.6020004" lon="10.4533273">
      <ele>260.9000244140625</ele>
      <time>2026-09-27T16:06:09.909+02:00</time>
      <extensions>
        <activity type="ON_FOOT" conf="96" state="moving" tsMs="1790517953134"/>
        <radio op="vodafone IT" rat="LTE" q="11.70" rsrp="-112" sinr="4" rsrq="-10"/>
        <radio op="I TIM" rat="LTE" q="13.80" rsrp="-102" sinr="1" rsrq="-12"/>
      </extensions>
    </trkpt>
    <trkpt lat="45.6025644" lon="10.4536824">
      <ele>263.49034363640067</ele>
      <time>2026-09-27T16:06:45.223+02:00</time>
      <extensions>
        <activity type="UNKNOWN" conf="40" state="unknown" tsMs="1790517982687"/>
        <radio op="vodafone IT" rat="LTE" rsrp="-116" rsrq="-13"/>
        <radio op="I TIM" rat="LTE" rsrp="-120" rsrq="-13"/>
      </extensions>
    </trkpt>
    <trkpt lat="45.6025669" lon="10.4536801">
      <ele>261.0</ele>
      <time>2026-09-27T16:07:35.111+02:00</time>
      <extensions>
        <activity type="STILL" conf="97" state="still" tsMs="1790518052918"/>
        <radio op="vodafone IT" rat="LTE" q="12.00" rsrp="-113" sinr="5" rsrq="-14"/>
        <radio op="I TIM" rat="LTE" q="11.20" rsrp="-111" sinr="3" rsrq="-14"/>
      </extensions>
    </trkpt>
    <trkpt lat="45.6025585" lon="10.4536744">
      <ele>261.0</ele>
      <time>2026-09-27T16:08:45.81+02:00</time>
      <extensions>
        <activity type="STILL" conf="97" state="still" tsMs="1790518119209"/>
        <radio op="vodafone IT" rat="LTE" q="7.50" rsrp="-110" sinr="0" rsrq="-12"/>
        <radio op="I TIM" rat="LTE" rsrp="-118" rsrq="-15"/>
      </extensions>
    </trkpt>
    <trkpt lat="45.6025589" lon="10.4536781">
      <ele>261.0</ele>
      <time>2026-09-27T16:09:23.653+02:00</time>
      <extensions>
        <activity type="UNKNOWN" conf="40" state="unknown" tsMs="1790518160106"/>
        <radio op="vodafone IT" rat="LTE" q="6.60" rsrp="-119" sinr="6" rsrq="-10"/>
        <radio op="I TIM" rat="LTE" q="6.30" rsrp="-116" sinr="2" rsrq="-16"/>
      </extensions>
    </trkpt>
    <trkpt lat="45.6025591" lon="10.4536592">
      <ele>261.0</ele>
      <time>2026-09-27T16:26:24.148+02:00</time>
      <extensions>
        <activity type="IN_VEHICLE" conf="71" state="moving" tsMs="1790519186988"/>
        <radio op="vodafone IT" rat="LTE" rsrp="-127" rsrq="-16"/>
        <radio op="I TIM" rat="LTE" q="0.60" rsrp="-124" sinr="1" rsrq="-15"/>
      </extensions>
    </trkpt>
    <trkpt lat="45.6025586" lon="10.4536607">
      <ele>261.0</ele>
      <time>2026-09-27T16:26:45.234+02:00</time>
      <extensions>
        <activity type="UNKNOWN" conf="40" state="unknown" tsMs="1790519199967"/>
        <radio op="vodafone IT" rat="LTE" rsrp="-126" rsrq="-14"/>
        <radio op="I TIM" rat="LTE" q="0.00" rsrp="-125" sinr="0" rsrq="-15"/>
      </extensions>
    </trkpt>
    <trkpt lat="45.6025573" lon="10.4536624">
      <ele>261.0</ele>
      <time>2026-09-27T16:27:16.003+02:00</time>
      <extensions>
        <activity type="STILL" conf="100" state="still" tsMs="1790519222605"/>
        <radio op="vodafone IT" rat="LTE" rsrp="-127" rsrq="-16"/>
        <radio op="I TIM" rat="LTE" q="0.00" rsrp="-125" sinr="2" rsrq="-14"/>
      </extensions>
    </trkpt>
    <trkpt lat="45.6025596" lon="10.4536659">
      <ele>261.0</ele>
      <time>2026-09-27T16:27:47.902+02:00</time>
      <extensions>
        <activity type="UNKNOWN" conf="40" state="unknown" tsMs="1790519248508"/>
        <radio op="vodafone IT" rat="LTE" rsrp="-128" rsrq="-14"/>
        <radio op="I TIM" rat="LTE" q="0.50" rsrp="-124" sinr="0" rsrq="-13"/>
      </extensions>
    </trkpt>
    <trkpt lat="45.6025573" lon="10.4536624">
      <ele>261.0</ele>
      <time>2026-09-27T16:28:23.859+02:00</time>
      <extensions>
        <activity type="UNKNOWN" conf="40" state="unknown" tsMs="1790519296243"/>
        <radio op="vodafone IT" rat="LTE" q="0.00" rsrp="-127" sinr="6" rsrq="-13"/>
        <radio op="I TIM" rat="LTE" q="1.20" rsrp="-123" sinr="1" rsrq="-14"/>
      </extensions>
    </trkpt>
    <trkpt lat="45.6025586" lon="10.4536607">
      <ele>261.0</ele>
      <time>2026-09-27T16:29:22.009+02:00</time>
      <extensions>
        <activity type="STILL" conf="45" state="still" tsMs="1790519360200"/>
        <radio op="vodafone IT" rat="LTE" q="0.00" rsrp="-125" sinr="6" rsrq="-14"/>
        <radio op="I TIM" rat="LTE" q="1.60" rsrp="-123" sinr="3" rsrq="-13"/>
      </extensions>
    </trkpt>
  </trkseg></trk>
</gpx>
