<?xml version="1.0" encoding="UTF-8"?>
<gpx version="1.1" creator="CellGPX" xmlns="http://www.topografix.com/GPX/1/1">
  <trk><name>CellGPX</name><trkseg>
    <trkpt lat="45.6025591" lon="10.453647">
      <ele>262.0</ele>
      <time>2026-04-27T11:41:48.647+02:00</time>
      <extensions>
        <activity type="UNKNOWN" conf="40" state="unknown" tsMs="1777282894305"/>
        <radio op="vodafone IT" rat="LTE" q="19.50" rsrp="-110" sinr="8" rsrq="-9"/>
        <radio op="I TIM" rat="LTE" q="4.20" rsrp="-118" sinr="1" rsrq="-12"/>
      </extensions>
    </trkpt>
    <trkpt lat="45.6022775" lon="10.4536185">
      <ele>261.70001220703125</ele>
      <time>2026-04-27T11:42:49.744+02:00</time>
      <extensions>
        <activity type="ON_FOOT" conf="97" state="moving" tsMs="1777282963909"/>
        <radio op="vodafone IT" rat="LTE" q="33.60" rsrp="-104" sinr="11" rsrq="-9"/>
        <radio op="I TIM" rat="LTE" q="60.00" rsrp="-100" sinr="19" rsrq="-10"/>
      </extensions>
    </trkpt>
    <trkpt lat="45.6022616" lon="10.4534723">
      <ele>261.70001220703125</ele>
      <time>2026-04-27T11:43:22.433+02:00</time>
      <extensions>
        <activity type="ON_FOOT" conf="93" state="moving" tsMs="1777282996750"/>
        <radio op="vodafone IT" rat="LTE" q="26.60" rsrp="-106" sinr="9" rsrq="-7"/>
        <radio op="I TIM" rat="LTE" q="27.60" rsrp="-102" sinr="7" rsrq="-11"/>
      </extensions>
    </trkpt>
    <trkpt lat="45.6022506" lon="10.4534901">
      <ele>261.70001220703125</ele>
      <time>2026-04-27T11:43:53.668+02:00</time>
      <extensions>
        <activity type="STILL" conf="61" state="still" tsMs="1777283029279"/>
        <radio op="vodafone IT" rat="LTE" q="20.80" rsrp="-109" sinr="8" rsrq="-9"/>
        <radio op="I TIM" rat="LTE" rsrp="-103" rsrq="-13"/>
      </extensions>
    </trkpt>
    <trkpt lat="45.6021821" lon="10.4532924">
      <ele>261.70001220703125</ele>
      <time>2026-04-27T11:44:23.051+02:00</time>
      <extensions>
        <activity type="UNKNOWN" conf="40" state="unknown" tsMs="1777283060392"/>
        <radio op="vodafone IT" rat="LTE" rsrp="-106" rsrq="-8"/>
        <radio op="I TIM" rat="LTE" q="20.90" rsrp="-106" sinr="6" rsrq="-12"/>
      </extensions>
    </trkpt>
    <trkpt lat="45.602179" lon="10.4531352">
      <ele>261.70001220703125</ele>
      <time>2026-04-27T11:44:56.475+02:00</time>
      <extensions>
        <activity type="UNKNOWN" conf="40" state="unknown" tsMs="1777283091895"/>
        <radio op="vodafone IT" rat="LTE" rsrp="-106" rsrq="-9"/>
        <radio op="I TIM" rat="LTE" q="22.00" rsrp="-105" sinr="6" rsrq="-12"/>
      </extensions>
    </trkpt>
    <trkpt lat="45.602188" lon="10.453148">
      <ele>261.8000183105469</ele>
      <time>2026-04-27T11:45:27.74+02:00</time>
      <extensions>
        <activity type="UNKNOWN" conf="40" state="unknown" tsMs="1777283123140"/>
        <radio op="vodafone IT" rat="LTE" rsrp="-104" rsrq="-8"/>
        <radio op="I TIM" rat="LTE" q="19.80" rsrp="-103" sinr="4" rsrq="-13"/>
      </extensions>
    </trkpt>
    <trkpt lat="45.6014845" lon="10.4542341">
      <ele>260.9000244140625</ele>
      <time>2026-04-27T11:45:59.081+02:00</time>
      <extensions>
        <activity type="IN_VEHICLE" conf="97" state="moving" tsMs="1777283154501"/>
        <radio op="vodafone IT" rat="LTE" rsrp="-105" rsrq="-10"/>
        <radio op="I TIM" rat="LTE" rsrp="-101" rsrq="-14"/>
      </extensions>
    </trkpt>
    <trkpt lat="45.6034182" lon="10.45799">
      <ele>267.723085312256</ele>
      <time>2026-04-27T11:46:30.365+02:00</time>
      <extensions>
        <activity type="IN_VEHICLE" conf="97" state="moving" tsMs="1777283185032"/>
        <radio op="vodafone IT" rat="LTE" q="100.00" rsrp="-73" sinr="30" rsrq="-11"/>
        <radio op="I TIM" rat="LTE" q="100.00" rsrp="-70" sinr="27" rsrq="-11"/>
      </extensions>
    </trkpt>
    <trkpt lat="45.6034895" lon="10.4594136">
      <ele>267.723085312256</ele>
      <time>2026-04-27T11:46:37.984+02:00</time>
      <extensions>
        <activity type="IN_VEHICLE" conf="97" state="moving" tsMs="1777283195682"/>
        <radio op="vodafone IT" rat="LTE" rsrp="-64" rsrq="-9"/>
        <radio op="I TIM" rat="LTE" q="100.00" rsrp="-70" sinr="25" rsrq="-11"/>
      </extensions>
    </trkpt>
    <trkpt lat="45.6046201" lon="10.4646768">
      <ele>270.5958350951232</ele>
      <time>2026-04-27T11:47:11.798+02:00</time>
      <extensions>
        <activity type="IN_VEHICLE" conf="97" state="moving" tsMs="1777283217067"/>
        <radio op="vodafone IT" rat="LTE" q="100.00" rsrp="-72" sinr="22" rsrq="-5"/>
        <radio op="I TIM" rat="LTE" q="34.00" rsrp="-91" sinr="5" rsrq="-10"/>
      </extensions>
    </trkpt>
    <trkpt lat="45.6045214" lon="10.4652242">
      <ele>270.5958350951232</ele>
      <time>2026-04-27T11:47:17.672+02:00</time>
      <extensions>
        <activity type="IN_VEHICLE" conf="97" state="moving" tsMs="1777283236594"/>
        <radio op="vodafone IT" rat="LTE" q="77.50" rsrp="-94" sinr="23" rsrq="-6"/>
        <radio op="I TIM" rat="LTE" q="28.60" rsrp="-103" sinr="8" rsrq="-11"/>
      </extensions>
    </trkpt>
    <trkpt lat="45.6046331" lon="10.4666905">
      <ele>266.4000244140625</ele>
      <time>2026-04-27T11:47:30.674+02:00</time>
      <extensions>
        <activity type="IN_VEHICLE" conf="97" state="moving" tsMs="1777283251629"/>
        <radio op="vodafone IT" rat="LTE" q="63.00" rsrp="-95" sinr="16" rsrq="-6"/>
        <radio op="I TIM" rat="LTE" q="50.40" rsrp="-97" sinr="13" rsrq="-6"/>
      </extensions>
    </trkpt>
    <trkpt lat="45.6046331" lon="10.4666905">
      <ele>381.1000061035156</ele>
      <time>2026-04-27T11:47:32.409+02:00</time>
      <extensions>
        <activity type="IN_VEHICLE" conf="97" state="moving" tsMs="1777283256987"/>
        <radio op="vodafone IT" rat="LTE" q="90.00" rsrp="-89" sinr="23" rsrq="-7"/>
        <radio op="I TIM" rat="LTE" q="63.00" rsrp="-95" sinr="16" rsrq="-5"/>
      </extensions>
    </trkpt>
    <trkpt lat="45.6070536" lon="10.4725686">
      <ele>260.9000244140625</ele>
      <time>2026-04-27T11:48:38.804+02:00</time>
      <extensions>
        <activity type="IN_VEHICLE" conf="96" state="moving" tsMs="1777283334263"/>
        <radio op="vodafone IT" rat="LTE" rsrp="-136" rsrq="-23"/>
        <radio op="I TIM" rat="LTE" rsrp="-138" rsrq="-22"/>
      </extensions>
    </trkpt>
    <trkpt lat="45.6122246" lon="10.487513">
      <ele>253.2376195099875</ele>
      <time>2026-04-27T11:49:22.674+02:00</time>
      <extensions>
        <activity type="IN_VEHICLE" conf="96" state="moving" tsMs="1777283359405"/>
        <radio op="vodafone IT" rat="LTE" rsrp="-104" rsrq="-16"/>
        <radio op="I TIM" rat="LTE" q="8.40" rsrp="-113" sinr="2" rsrq="-11"/>
      </extensions>
    </trkpt>
    <trkpt lat="45.6122774" lon="10.4898714">
      <ele>381.1000061035156</ele>
      <time>2026-04-27T11:49:34.675+02:00</time>
      <extensions>
        <activity type="IN_VEHICLE" conf="97" state="moving" tsMs="1777283378576"/>
        <radio op="vodafone IT" rat="LTE" rsrp="-96" rsrq="-14"/>
        <radio op="I TIM" rat="LTE" rsrp="-116" rsrq="-12"/>
      </extensions>
    </trkpt>
    <trkpt lat="45.6096802" lon="10.4971857">
      <ele>213.29822641367497</ele>
      <time>2026-04-27T11:50:12.675+02:00</time>
      <extensions>
        <activity type="IN_VEHICLE" conf="97" state="moving" tsMs="1777283419732"/>
        <radio op="vodafone IT" rat="LTE" rsrp="-88" rsrq="-13"/>
        <radio op="I TIM" rat="LTE" q="32.50" rsrp="-100" sinr="8" rsrq="-10"/>
      </extensions>
    </trkpt>
    <trkpt lat="45.6099952" lon="10.4996795">
      <ele>195.01457048181115</ele>
      <time>2026-04-27T11:50:46.48+02:00</time>
      <extensions>
        <activity type="IN_VEHICLE" conf="97" state="moving" tsMs="1777283443246"/>
        <radio op="vodafone IT" rat="LTE" q="58.90" rsrp="-94" sinr="14" rsrq="-11"/>
        <radio op="I TIM" rat="LTE" q="17.40" rsrp="-96" sinr="1" rsrq="-12"/>
      </extensions>
    </trkpt>
    <trkpt lat="45.6099661" lon="10.4996598">
      <ele>197.70001220703125</ele>
      <time>2026-04-27T11:51:14.781+02:00</time>
      <extensions>
        <activity type="STILL" conf="91" state="still" tsMs="1777283476210"/>
        <radio op="vodafone IT" rat="LTE" q="36.40" rsrp="-97" sinr="8" rsrq="-9"/>
        <radio op="I TIM" rat="LTE" q="16.20" rsrp="-98" sinr="1" rsrq="-12"/>
      </extensions>
    </trkpt>
    <trkpt lat="45.6099469" lon="10.4995731">
      <ele>194.40000915527344</ele>
      <time>2026-04-27T11:51:44.794+02:00</time>
      <extensions>
        <activity type="ON_FOOT" conf="96" state="moving" tsMs="1777283504685"/>
        <radio op="vodafone IT" rat="LTE" q="31.20" rsrp="-99" sinr="7" rsrq="-9"/>
        <radio op="I TIM" rat="LTE" q="42.50" rsrp="-100" sinr="12" rsrq="-10"/>
      </extensions>
    </trkpt>
    <trkpt lat="45.6098716" lon="10.499634">
      <ele>196.67739379415283</ele>
      <time>2026-04-27T11:52:18.699+02:00</time>
      <extensions>
        <activity type="UNKNOWN" conf="40" state="unknown" tsMs="1777283532926"/>
        <radio op="vodafone IT" rat="LTE" q="77.50" rsrp="-94" sinr="21" rsrq="-7"/>
        <radio op="I TIM" rat="LTE" q="46.80" rsrp="-89" sinr="8" rsrq="-10"/>
      </extensions>
    </trkpt>
    <trkpt lat="45.6098783" lon="10.4996301">
      <ele>197.3125574953757</ele>
      <time>2026-04-27T11:52:49.849+02:00</time>
      <extensions>
        <activity type="UNKNOWN" conf="40" state="unknown" tsMs="1777283565542"/>
        <radio op="vodafone IT" rat="LTE" q="77.70" rsrp="-88" sinr="16" rsrq="-8"/>
        <radio op="I TIM" rat="LTE" q="41.80" rsrp="-87" sinr="6" rsrq="-11"/>
      </extensions>
    </trkpt>
    <trkpt lat="45.6098704" lon="10.4996361">
      <ele>197.4467234860109</ele>
      <time>2026-04-27T11:53:21.052+02:00</time>
      <extensions>
        <activity type="STILL" conf="40" state="still" tsMs="1777283596582"/>
        <radio op="vodafone IT" rat="LTE" q="66.50" rsrp="-90" sinr="14" rsrq="-8"/>
        <radio op="I TIM" rat="LTE" q="40.70" rsrp="-88" sinr="6" rsrq="-11"/>
      </extensions>
    </trkpt>
    <trkpt lat="45.6098824" lon="10.4996282">
      <ele>197.4634943820118</ele>
      <time>2026-04-27T11:53:52.441+02:00</time>
      <extensions>
        <activity type="STILL" conf="42" state="still" tsMs="1777283627798"/>
        <radio op="vodafone IT" rat="LTE" q="75.60" rsrp="-89" sinr="16" rsrq="-8"/>
        <radio op="I TIM" rat="LTE" q="44.00" rsrp="-84" sinr="6" rsrq="-11"/>
      </extensions>
    </trkpt>
    <trkpt lat="45.6098726" lon="10.4996421">
      <ele>194.00001525878906</ele>
      <time>2026-04-27T11:54:23.799+02:00</time>
      <extensions>
        <activity type="STILL" conf="98" state="still" tsMs="1777283659222"/>
        <radio op="vodafone IT" rat="LTE" q="75.60" rsrp="-89" sinr="16" rsrq="-7"/>
        <radio op="I TIM" rat="LTE" q="44.20" rsrp="-91" sinr="8" rsrq="-12"/>
      </extensions>
    </trkpt>
    <trkpt lat="45.6098834" lon="10.4996362">
      <ele>194.00001525878906</ele>
      <time>2026-04-27T11:54:55.103+02:00</time>
      <extensions>
        <activity type="STILL" conf="91" state="still" tsMs="1777283690509"/>
        <radio op="vodafone IT" rat="LTE" q="43.40" rsrp="-94" sinr="9" rsrq="-9"/>
        <radio op="I TIM" rat="LTE" q="47.60" rsrp="-91" sinr="9" rsrq="-11"/>
      </extensions>
    </trkpt>
    <trkpt lat="45.6098768" lon="10.499643">
      <ele>194.00001525878906</ele>
      <time>2026-04-27T11:55:26.381+02:00</time>
      <extensions>
        <activity type="STILL" conf="99" state="still" tsMs="1777283721790"/>
        <radio op="vodafone IT" rat="LTE" q="68.40" rsrp="-89" sinr="14" rsrq="-8"/>
        <radio op="I TIM" rat="LTE" q="58.50" rsrp="-86" sinr="10" rsrq="-10"/>
      </extensions>
    </trkpt>
    <trkpt lat="45.6101054" lon="10.4998508">
      <ele>192.70194232577057</ele>
      <time>2026-04-27T12:15:24.693+02:00</time>
      <extensions>
        <activity type="ON_FOOT" conf="98" state="moving" tsMs="1777284912411"/>
        <radio op="vodafone IT" rat="LTE" q="45.00" rsrp="-100" sinr="13" rsrq="-11"/>
        <radio op="I TIM" rat="LTE" rsrp="-104" rsrq="-14"/>
      </extensions>
    </trkpt>
    <trkpt lat="45.6101251" lon="10.499854">
      <ele>191.8560743540149</ele>
      <time>2026-04-27T12:15:34.676+02:00</time>
      <extensions>
        <activity type="STILL" conf="36" state="still" tsMs="1777284922969"/>
        <radio op="vodafone IT" rat="LTE" q="25.20" rsrp="-107" sinr="9" rsrq="-12"/>
        <radio op="I TIM" rat="LTE" q="18.70" rsrp="-108" sinr="6" rsrq="-11"/>
      </extensions>
    </trkpt>
    <trkpt lat="45.6101437" lon="10.4998471">
      <ele>192.3728697831438</ele>
      <time>2026-04-27T12:15:44.774+02:00</time>
      <extensions>
        <activity type="STILL" conf="36" state="still" tsMs="1777284922969"/>
        <radio op="vodafone IT" rat="LTE" q="24.70" rsrp="-106" sinr="8" rsrq="-12"/>
        <radio op="I TIM" rat="LTE" q="16.00" rsrp="-109" sinr="5" rsrq="-12"/>
      </extensions>
    </trkpt>
    <trkpt lat="45.6100549" lon="10.4996252">
      <ele>193.08133457812445</ele>
      <time>2026-04-27T12:15:54.761+02:00</time>
      <extensions>
        <activity type="STILL" conf="26" state="still" tsMs="1777284938017"/>
        <radio op="vodafone IT" rat="LTE" q="24.00" rsrp="-105" sinr="7" rsrq="-12"/>
        <radio op="I TIM" rat="LTE" q="17.10" rsrp="-106" sinr="4" rsrq="-11"/>
      </extensions>
    </trkpt>
    <trkpt lat="45.6102023" lon="10.499958">
      <ele>194.40000915527344</ele>
      <time>2026-04-27T12:16:04.672+02:00</time>
      <extensions>
        <activity type="STILL" conf="26" state="still" tsMs="1777284938017"/>
        <radio op="vodafone IT" rat="LTE" q="18.00" rsrp="-110" sinr="7" rsrq="-11"/>
        <radio op="I TIM" rat="LTE" q="25.50" rsrp="-110" sinr="12" rsrq="-11"/>
      </extensions>
    </trkpt>
    <trkpt lat="45.6106213" lon="10.5010881">
      <ele>192.54421365569732</ele>
      <time>2026-04-27T12:16:15.672+02:00</time>
      <extensions>
        <activity type="UNKNOWN" conf="40" state="unknown" tsMs="1777284973685"/>
        <radio op="vodafone IT" rat="LTE" q="19.80" rsrp="-103" sinr="4" rsrq="-9"/>
        <radio op="I TIM" rat="LTE" rsrp="-116" rsrq="-12"/>
      </extensions>
    </trkpt>
    <trkpt lat="45.6112089" lon="10.5001111">
      <ele>192.50858157306345</ele>
      <time>2026-04-27T12:16:25.673+02:00</time>
      <extensions>
        <activity type="UNKNOWN" conf="40" state="unknown" tsMs="1777284984507"/>
        <radio op="vodafone IT" rat="LTE" q="26.40" rsrp="-103" sinr="7" rsrq="-12"/>
        <radio op="I TIM" rat="LTE" q="8.00" rsrp="-117" sinr="5" rsrq="-14"/>
      </extensions>
    </trkpt>
    <trkpt lat="45.6113905" lon="10.4987416">
      <ele>197.50001525878906</ele>
      <time>2026-04-27T12:16:35.673+02:00</time>
      <extensions>
        <activity type="UNKNOWN" conf="40" state="unknown" tsMs="1777284995297"/>
        <radio op="vodafone IT" rat="LTE" rsrp="-110" rsrq="-11"/>
        <radio op="I TIM" rat="LTE" q="2.00" rsrp="-121" sinr="0" rsrq="-12"/>
      </extensions>
    </trkpt>
    <trkpt lat="45.6105055" lon="10.4978563">
      <ele>207.64303414075619</ele>
      <time>2026-04-27T12:16:45.673+02:00</time>
      <extensions>
        <activity type="UNKNOWN" conf="40" state="unknown" tsMs="1777285000688"/>
        <radio op="vodafone IT" rat="LTE" rsrp="-107" rsrq="-14"/>
        <radio op="I TIM" rat="LTE" rsrp="-116" rsrq="-12"/>
      </extensions>
    </trkpt>
    <trkpt lat="45.6107874" lon="10.4969375">
      <ele>211.8589624338158</ele>
      <time>2026-04-27T12:16:55.673+02:00</time>
      <extensions>
        <activity type="UNKNOWN" conf="40" state="unknown" tsMs="1777285011479"/>
        <radio op="vodafone IT" rat="LTE" q="53.20" rsrp="-97" sinr="14" rsrq="-10"/>
        <radio op="I TIM" rat="LTE" rsrp="-120" rsrq="-14"/>
      </extensions>
    </trkpt>
    <trkpt lat="45.6110805" lon="10.4958574">
      <ele>217.5488744840178</ele>
      <time>2026-04-27T12:17:05.672+02:00</time>
      <extensions>
        <activity type="UNKNOWN" conf="40" state="unknown" tsMs="1777285022302"/>
        <radio op="vodafone IT" rat="LTE" q="45.60" rsrp="-101" sinr="14" rsrq="-11"/>
        <radio op="I TIM" rat="LTE" rsrp="-118" rsrq="-13"/>
      </extensions>
    </trkpt>
    <trkpt lat="45.6110927" lon="10.4956488">
      <ele>217.20001220703125</ele>
      <time>2026-04-27T12:17:15.672+02:00</time>
      <extensions>
        <activity type="UNKNOWN" conf="40" state="unknown" tsMs="1777285027706"/>
        <radio op="vodafone IT" rat="LTE" q="60.90" rsrp="-96" sinr="16" rsrq="-10"/>
        <radio op="I TIM" rat="LTE" rsrp="-118" rsrq="-15"/>
      </extensions>
    </trkpt>
    <trkpt lat="45.6110927" lon="10.4956488">
      <ele>216.90000915527344</ele>
      <time>2026-04-27T12:17:26.673+02:00</time>
      <extensions>
        <activity type="UNKNOWN" conf="40" state="unknown" tsMs="1777285031518"/>
        <radio op="vodafone IT" rat="LTE" q="66.70" rsrp="-96" sinr="18" rsrq="-10"/>
        <radio op="I TIM" rat="LTE" q="4.00" rsrp="-117" sinr="0" rsrq="-14"/>
      </extensions>
    </trkpt>
    <trkpt lat="45.6115213" lon="10.4955839">
      <ele>216.90000915527344</ele>
      <time>2026-04-27T12:17:36.673+02:00</time>
      <extensions>
        <activity type="UNKNOWN" conf="40" state="unknown" tsMs="1777285031518"/>
        <radio op="vodafone IT" rat="LTE" q="40.50" rsrp="-98" sinr="10" rsrq="-11"/>
        <radio op="I TIM" rat="LTE" rsrp="-124" rsrq="-15"/>
      </extensions>
    </trkpt>
    <trkpt lat="45.6124207" lon="10.4963408">
      <ele>223.11401268579814</ele>
      <time>2026-04-27T12:17:46.673+02:00</time>
      <extensions>
        <activity type="UNKNOWN" conf="40" state="unknown" tsMs="1777285047110"/>
        <radio op="vodafone IT" rat="LTE" q="64.00" rsrp="-93" sinr="15" rsrq="-11"/>
        <radio op="I TIM" rat="LTE" rsrp="-116" rsrq="-17"/>
      </extensions>
    </trkpt>
    <trkpt lat="45.6133981" lon="10.4972462">
      <ele>227.87586262489296</ele>
      <time>2026-04-27T12:17:56.673+02:00</time>
      <extensions>
        <activity type="IN_VEHICLE" conf="90" state="moving" tsMs="1777285074849"/>
        <radio op="vodafone IT" rat="LTE" q="67.50" rsrp="-98" sinr="22" rsrq="-12"/>
        <radio op="I TIM" rat="LTE" q="6.00" rsrp="-115" sinr="1" rsrq="-14"/>
      </extensions>
    </trkpt>
    <trkpt lat="45.6147354" lon="10.4971879">
      <ele>229.639868188893</ele>
      <time>2026-04-27T12:18:06.673+02:00</time>
      <extensions>
        <activity type="IN_VEHICLE" conf="93" state="moving" tsMs="1777285085651"/>
        <radio op="vodafone IT" rat="LTE" q="77.50" rsrp="-94" sinr="24" rsrq="-9"/>
        <radio op="I TIM" rat="LTE" q="52.50" rsrp="-100" sinr="16" rsrq="-9"/>
      </extensions>
    </trkpt>
    <trkpt lat="45.6156352" lon="10.4958202">
      <ele>230.10303224536986</ele>
      <time>2026-04-27T12:18:16.673+02:00</time>
      <extensions>
        <activity type="IN_VEHICLE" conf="90" state="moving" tsMs="1777285096417"/>
        <radio op="vodafone IT" rat="LTE" q="29.90" rsrp="-112" sinr="18" rsrq="-9"/>
        <radio op="I TIM" rat="LTE" q="44.10" rsrp="-104" sinr="16" rsrq="-12"/>
      </extensions>
    </trkpt>
    <trkpt lat="45.6160575" lon="10.4940043">
      <ele>227.1357298293858</ele>
      <time>2026-04-27T12:18:27.673+02:00</time>
      <extensions>
        <activity type="IN_VEHICLE" conf="94" state="moving" tsMs="1777285101872"/>
        <radio op="vodafone IT" rat="LTE" q="85.00" rsrp="-91" sinr="27" rsrq="-12"/>
        <radio op="I TIM" rat="LTE" q="34.20" rsrp="-106" sinr="13" rsrq="-11"/>
      </extensions>
    </trkpt>
    <trkpt lat="45.6168261" lon="10.4935776">
      <ele>225.91093639557988</ele>
      <time>2026-04-27T12:18:37.673+02:00</time>
      <extensions>
        <activity type="IN_VEHICLE" conf="91" state="moving" tsMs="1777285112651"/>
        <radio op="vodafone IT" rat="LTE" q="37.40" rsrp="-108" sinr="17" rsrq="-10"/>
        <radio op="I TIM" rat="LTE" q="43.70" rsrp="-102" sinr="14" rsrq="-10"/>
      </extensions>
    </trkpt>
    <trkpt lat="45.6176364" lon="10.492698">
      <ele>226.7351352195355</ele>
      <time>2026-04-27T12:18:47.672+02:00</time>
      <extensions>
        <activity type="IN_VEHICLE" conf="95" state="moving" tsMs="1777285123445"/>
        <radio op="vodafone IT" rat="LTE" q="22.40" rsrp="-111" sinr="11" rsrq="-11"/>
        <radio op="I TIM" rat="LTE" q="39.90" rsrp="-104" sinr="14" rsrq="-11"/>
      </extensions>
    </trkpt>
    <trkpt lat="45.6180796" lon="10.4929711">
      <ele>226.00510461460976</ele>
      <time>2026-04-27T12:18:57.673+02:00</time>
      <extensions>
        <activity type="IN_VEHICLE" conf="84" state="moving" tsMs="1777285133226"/>
        <radio op="vodafone IT" rat="LTE" q="14.00" rsrp="-105" sinr="2" rsrq="-13"/>
        <radio op="I TIM" rat="LTE" q="35.70" rsrp="-108" sinr="16" rsrq="-12"/>
      </extensions>
    </trkpt>
    <trkpt lat="45.6176265" lon="10.4935222">
      <ele>226.18955480008182</ele>
      <time>2026-04-27T12:19:07.673+02:00</time>
      <extensions>
        <activity type="UNKNOWN" conf="40" state="unknown" tsMs="1777285143632"/>
        <radio op="vodafone IT" rat="LTE" q="24.00" rsrp="-109" sinr="10" rsrq="-9"/>
        <radio op="I TIM" rat="LTE" q="41.80" rsrp="-103" sinr="14" rsrq="-10"/>
      </extensions>
    </trkpt>
    <trkpt lat="45.6175538" lon="10.4935204">
      <ele>225.8000030517578</ele>
      <time>2026-04-27T12:19:17.673+02:00</time>
      <extensions>
        <activity type="UNKNOWN" conf="40" state="unknown" tsMs="1777285153218"/>
        <radio op="vodafone IT" rat="LTE" q="52.90" rsrp="-102" sinr="18" rsrq="-10"/>
        <radio op="I TIM" rat="LTE" q="28.80" rsrp="-109" sinr="13" rsrq="-12"/>
      </extensions>
    </trkpt>
    <trkpt lat="45.6175538" lon="10.4935204">
      <ele>225.8000030517578</ele>
      <time>2026-04-27T12:19:28.672+02:00</time>
      <extensions>
        <activity type="STILL" conf="27" state="still" tsMs="1777285163246"/>
        <radio op="vodafone IT" rat="LTE" q="50.40" rsrp="-104" sinr="19" rsrq="-7"/>
        <radio op="I TIM" rat="LTE" q="34.00" rsrp="-108" sinr="15" rsrq="-13"/>
      </extensions>
    </trkpt>
    <trkpt lat="45.6175538" lon="10.4935204">
      <ele>225.8000030517578</ele>
      <time>2026-04-27T12:19:38.672+02:00</time>
      <extensions>
        <activity type="UNKNOWN" conf="40" state="unknown" tsMs="1777285173256"/>
        <radio op="vodafone IT" rat="LTE" q="62.50" rsrp="-100" sinr="21" rsrq="-9"/>
        <radio op="I TIM" rat="LTE" q="61.60" rsrp="-97" sinr="17" rsrq="-10"/>
      </extensions>
    </trkpt>
    <trkpt lat="45.6175538" lon="10.4935204">
      <ele>225.8000030517578</ele>
      <time>2026-04-27T12:19:48.673+02:00</time>
      <extensions>
        <activity type="UNKNOWN" conf="40" state="unknown" tsMs="1777285188292"/>
        <radio op="vodafone IT" rat="LTE" q="62.10" rsrp="-98" sinr="18" rsrq="-9"/>
        <radio op="I TIM" rat="LTE" q="25.30" rsrp="-102" sinr="6" rsrq="-8"/>
      </extensions>
    </trkpt>
    <trkpt lat="45.6175538" lon="10.4935204">
      <ele>225.3000030517578</ele>
      <time>2026-04-27T12:19:58.673+02:00</time>
      <extensions>
        <activity type="UNKNOWN" conf="40" state="unknown" tsMs="1777285198314"/>
        <radio op="vodafone IT" rat="LTE" q="77.50" rsrp="-94" sinr="22" rsrq="-8"/>
        <radio op="I TIM" rat="LTE" q="72.50" rsrp="-96" sinr="21" rsrq="-12"/>
      </extensions>
    </trkpt>
    <trkpt lat="45.6175728" lon="10.4935472">
      <ele>225.8000030517578</ele>
      <time>2026-04-27T12:20:09.239+02:00</time>
      <extensions>
        <activity type="ON_FOOT" conf="98" state="moving" tsMs="1777285208348"/>
        <radio op="vodafone IT" rat="LTE" q="90.00" rsrp="-89" sinr="25" rsrq="-10"/>
        <radio op="I TIM" rat="LTE" q="80.00" rsrp="-93" sinr="20" rsrq="-12"/>
      </extensions>
    </trkpt>
    <trkpt lat="45.6176636" lon="10.4941122">
      <ele>225.8000030517578</ele>
      <time>2026-04-27T12:20:39.5+02:00</time>
      <extensions>
        <activity type="ON_FOOT" conf="97" state="moving" tsMs="1777285235963"/>
        <radio op="vodafone IT" rat="LTE" q="97.50" rsrp="-86" sinr="20" rsrq="-12"/>
        <radio op="I TIM" rat="LTE" rsrp="-97" rsrq="-11"/>
      </extensions>
    </trkpt>
    <trkpt lat="45.6177054" lon="10.4940793">
      <ele>225.8000030517578</ele>
      <time>2026-04-27T12:21:05.702+02:00</time>
      <extensions>
        <activity type="UNKNOWN" conf="40" state="unknown" tsMs="1777285269727"/>
        <radio op="vodafone IT" rat="LTE" q="67.50" rsrp="-98" sinr="21" rsrq="-8"/>
        <radio op="I TIM" rat="LTE" q="100.00" rsrp="-82" sinr="23" rsrq="-11"/>
      </extensions>
    </trkpt>
    <trkpt lat="45.6176427" lon="10.4941473">
      <ele>225.8000030517578</ele>
      <time>2026-04-27T12:21:41.161+02:00</time>
      <extensions>
        <activity type="STILL" conf="52" state="still" tsMs="1777285295508"/>
        <radio op="vodafone IT" rat="LTE" q="62.40" rsrp="-99" sinr="19" rsrq="-10"/>
        <radio op="I TIM" rat="LTE" q="93.60" rsrp="-86" sinr="19" rsrq="-11"/>
      </extensions>
    </trkpt>
    <trkpt lat="45.6176656" lon="10.4941049">
      <ele>225.8000030517578</ele>
      <time>2026-04-27T12:22:09.427+02:00</time>
      <extensions>
        <activity type="UNKNOWN" conf="40" state="unknown" tsMs="1777285327963"/>
        <radio op="vodafone IT" rat="LTE" q="12.00" rsrp="-115" sinr="7" rsrq="-8"/>
        <radio op="I TIM" rat="LTE" q="84.00" rsrp="-82" sinr="16" rsrq="-11"/>
      </extensions>
    </trkpt>
    <trkpt lat="45.6176785" lon="10.4940884">
      <ele>225.8000030517578</ele>
      <time>2026-04-27T12:22:44.685+02:00</time>
      <extensions>
        <activity type="STILL" conf="36" state="still" tsMs="1777285359000"/>
        <radio op="vodafone IT" rat="LTE" q="36.00" rsrp="-85" sinr="4" rsrq="-13"/>
        <radio op="I TIM" rat="LTE" q="100.00" rsrp="-82" sinr="26" rsrq="-12"/>
      </extensions>
    </trkpt>
    <trkpt lat="45.6176615" lon="10.4940772">
      <ele>225.8000030517578</ele>
      <time>2026-04-27T12:23:16.194+02:00</time>
      <extensions>
        <activity type="STILL" conf="99" state="still" tsMs="1777285391753"/>
        <radio op="vodafone IT" rat="LTE" q="39.00" rsrp="-86" sinr="5" rsrq="-10"/>
        <radio op="I TIM" rat="LTE" q="100.00" rsrp="-83" sinr="25" rsrq="-11"/>
      </extensions>
    </trkpt>
    <trkpt lat="45.6176427" lon="10.4941">
      <ele>225.8000030517578</ele>
      <time>2026-04-27T12:23:47.744+02:00</time>
      <extensions>
        <activity type="STILL" conf="99" state="still" tsMs="1777285423239"/>
        <radio op="vodafone IT" rat="LTE" q="32.40" rsrp="-89" sinr="4" rsrq="-8"/>
        <radio op="I TIM" rat="LTE" q="100.00" rsrp="-82" sinr="23" rsrq="-12"/>
      </extensions>
    </trkpt>
    <trkpt lat="45.6176946" lon="10.4940802">
      <ele>225.8000030517578</ele>
      <time>2026-04-27T12:36:28.542+02:00</time>
      <extensions>
        <activity type="UNKNOWN" conf="40" state="unknown" tsMs="1777286166648"/>
        <radio op="vodafone IT" rat="LTE" rsrp="-99" rsrq="-11"/>
        <radio op="I TIM" rat="LTE" q="79.20" rsrp="-89" sinr="17" rsrq="-11"/>
      </extensions>
    </trkpt>
    <trkpt lat="45.6177238" lon="10.4940552">
      <ele>225.8000030517578</ele>
      <time>2026-04-27T12:36:59.771+02:00</time>
      <extensions>
        <activity type="STILL" conf="46" state="still" tsMs="1777286214357"/>
        <radio op="vodafone IT" rat="LTE" q="42.90" rsrp="-92" sinr="8" rsrq="-8"/>
        <radio op="I TIM" rat="LTE" q="100.00" rsrp="-83" sinr="22" rsrq="-12"/>
      </extensions>
    </trkpt>
    <trkpt lat="45.6176607" lon="10.4941444">
      <ele>225.8000030517578</ele>
      <time>2026-04-27T12:37:31.014+02:00</time>
      <extensions>
        <activity type="UNKNOWN" conf="40" state="unknown" tsMs="1777286246554"/>
        <radio op="vodafone IT" rat="LTE" q="76.00" rsrp="-85" sinr="14" rsrq="-7"/>
        <radio op="I TIM" rat="LTE" q="100.00" rsrp="-75" sinr="23" rsrq="-12"/>
      </extensions>
    </trkpt>
    <trkpt lat="45.6176425" lon="10.4941458">
      <ele>225.8000030517578</ele>
      <time>2026-04-27T12:38:02.295+02:00</time>
      <extensions>
        <activity type="UNKNOWN" conf="40" state="unknown" tsMs="1777286277691"/>
        <radio op="vodafone IT" rat="LTE" q="29.70" rsrp="-98" sinr="6" rsrq="-9"/>
        <radio op="I TIM" rat="LTE" q="95.00" rsrp="-87" sinr="21" rsrq="-12"/>
      </extensions>
    </trkpt>
    <trkpt lat="45.6176918" lon="10.4940497">
      <ele>225.8000030517578</ele>
      <time>2026-04-27T12:38:33.554+02:00</time>
      <extensions>
        <activity type="UNKNOWN" conf="40" state="unknown" tsMs="1777286309041"/>
        <radio op="vodafone IT" rat="LTE" q="40.80" rsrp="-91" sinr="7" rsrq="-6"/>
        <radio op="I TIM" rat="LTE" q="100.00" rsrp="-84" sinr="25" rsrq="-12"/>
      </extensions>
    </trkpt>
    <trkpt lat="45.6176926" lon="10.4940219">
      <ele>225.8000030517578</ele>
      <time>2026-04-27T12:39:04.843+02:00</time>
      <extensions>
        <activity type="UNKNOWN" conf="40" state="unknown" tsMs="1777286340204"/>
        <radio op="vodafone IT" rat="LTE" q="25.60" rsrp="-93" sinr="3" rsrq="-9"/>
        <radio op="I TIM" rat="LTE" q="96.00" rsrp="-83" sinr="19" rsrq="-12"/>
      </extensions>
    </trkpt>
    <trkpt lat="45.6176592" lon="10.4941088">
      <ele>225.8000030517578</ele>
      <time>2026-04-27T12:55:17.148+02:00</time>
      <extensions>
        <activity type="ON_FOOT" conf="81" state="moving" tsMs="1777287314439"/>
        <radio op="vodafone IT" rat="LTE" q="65.10" rsrp="-94" sinr="16" rsrq="-10"/>
        <radio op="I TIM" rat="LTE" q="92.50" rsrp="-88" sinr="24" rsrq="-11"/>
      </extensions>
    </trkpt>
    <trkpt lat="45.6176937" lon="10.4940864">
      <ele>225.8000030517578</ele>
      <time>2026-04-27T12:55:48.347+02:00</time>
      <extensions>
        <activity type="UNKNOWN" conf="40" state="unknown" tsMs="1777287347288"/>
        <radio op="vodafone IT" rat="LTE" q="56.70" rsrp="-98" sinr="16" rsrq="-11"/>
        <radio op="I TIM" rat="LTE" q="59.50" rsrp="-90" sinr="12" rsrq="-11"/>
      </extensions>
    </trkpt>
    <trkpt lat="45.6176962" lon="10.4940522">
      <ele>225.8000030517578</ele>
      <time>2026-04-27T12:56:19.471+02:00</time>
      <extensions>
        <activity type="UNKNOWN" conf="40" state="unknown" tsMs="1777287378493"/>
        <radio op="vodafone IT" rat="LTE" q="87.50" rsrp="-90" sinr="20" rsrq="-9"/>
        <radio op="I TIM" rat="LTE" q="68.00" rsrp="-85" sinr="12" rsrq="-12"/>
      </extensions>
    </trkpt>
    <trkpt lat="45.6176131" lon="10.4942956">
      <ele>225.8000030517578</ele>
      <time>2026-04-27T12:56:50.624+02:00</time>
      <extensions>
        <activity type="UNKNOWN" conf="40" state="unknown" tsMs="1777287409589"/>
        <radio op="vodafone IT" rat="LTE" q="50.40" rsrp="-101" sinr="16" rsrq="-8"/>
        <radio op="I TIM" rat="LTE" q="100.00" rsrp="-85" sinr="24" rsrq="-11"/>
      </extensions>
    </trkpt>
    <trkpt lat="45.6176357" lon="10.4941525">
      <ele>225.8000030517578</ele>
      <time>2026-04-27T12:57:21.752+02:00</time>
      <extensions>
        <activity type="UNKNOWN" conf="40" state="unknown" tsMs="1777287440706"/>
        <radio op="vodafone IT" rat="LTE" q="40.60" rsrp="-96" sinr="9" rsrq="-10"/>
        <radio op="I TIM" rat="LTE" q="42.00" rsrp="-95" sinr="9" rsrq="-11"/>
      </extensions>
    </trkpt>
    <trkpt lat="45.6176373" lon="10.4941204">
      <ele>225.8000030517578</ele>
      <time>2026-04-27T12:57:52.868+02:00</time>
      <extensions>
        <activity type="UNKNOWN" conf="40" state="unknown" tsMs="1777287471889"/>
        <radio op="vodafone IT" rat="LTE" q="51.30" rsrp="-98" sinr="14" rsrq="-12"/>
        <radio op="I TIM" rat="LTE" q="46.80" rsrp="-89" sinr="8" rsrq="-11"/>
      </extensions>
    </trkpt>
    <trkpt lat="45.617668" lon="10.4940877">
      <ele>225.8000030517578</ele>
      <time>2026-04-27T12:58:24.135+02:00</time>
      <extensions>
        <activity type="ON_FOOT" conf="84" state="moving" tsMs="1777287502991"/>
        <radio op="vodafone IT" rat="LTE" q="52.00" rsrp="-99" sinr="15" rsrq="-12"/>
        <radio op="I TIM" rat="LTE" q="79.80" rsrp="-87" sinr="16" rsrq="-10"/>
      </extensions>
    </trkpt>
    <trkpt lat="45.6176542" lon="10.4940952">
      <ele>225.8000030517578</ele>
      <time>2026-04-27T12:58:55.46+02:00</time>
      <extensions>
        <activity type="UNKNOWN" conf="40" state="unknown" tsMs="1777287534323"/>
        <radio op="vodafone IT" rat="LTE" q="54.60" rsrp="-99" sinr="16" rsrq="-10"/>
        <radio op="I TIM" rat="LTE" q="85.00" rsrp="-91" sinr="20" rsrq="-11"/>
      </extensions>
    </trkpt>
    <trkpt lat="45.6177016" lon="10.494112">
      <ele>225.8000030517578</ele>
      <time>2026-04-27T12:59:22.387+02:00</time>
      <extensions>
        <activity type="ON_FOOT" conf="94" state="moving" tsMs="1777287565639"/>
        <radio op="vodafone IT" rat="LTE" q="42.00" rsrp="-104" sinr="15" rsrq="-11"/>
        <radio op="I TIM" rat="LTE" q="52.80" rsrp="-92" sinr="11" rsrq="-11"/>
      </extensions>
    </trkpt>
    <trkpt lat="45.6176638" lon="10.4941173">
      <ele>225.8000030517578</ele>
      <time>2026-04-27T12:59:57.216+02:00</time>
      <extensions>
        <activity type="ON_FOOT" conf="96" state="moving" tsMs="1777287591536"/>
        <radio op="vodafone IT" rat="LTE" q="71.30" rsrp="-94" sinr="18" rsrq="-6"/>
        <radio op="I TIM" rat="LTE" q="21.00" rsrp="-90" sinr="1" rsrq="-10"/>
      </extensions>
    </trkpt>
    <trkpt lat="45.6176183" lon="10.4943621">
      <ele>225.8000030517578</ele>
      <time>2026-04-27T13:00:28.582+02:00</time>
      <extensions>
        <activity type="UNKNOWN" conf="40" state="unknown" tsMs="1777287624068"/>
        <radio op="vodafone IT" rat="LTE" q="70.00" rsrp="-97" sinr="23" rsrq="-10"/>
        <radio op="I TIM" rat="LTE" q="75.00" rsrp="-95" sinr="24" rsrq="-11"/>
      </extensions>
    </trkpt>
    <trkpt lat="45.6177077" lon="10.4940588">
      <ele>224.1090908014906</ele>
      <time>2026-04-27T13:00:58.456+02:00</time>
      <extensions>
        <activity type="ON_FOOT" conf="82" state="moving" tsMs="1777287655500"/>
        <radio op="vodafone IT" rat="LTE" q="61.60" rsrp="-97" sinr="17" rsrq="-8"/>
        <radio op="I TIM" rat="LTE" q="31.20" rsrp="-99" sinr="7" rsrq="-13"/>
      </extensions>
    </trkpt>
    <trkpt lat="45.617655" lon="10.4940929">
      <ele>225.8000030517578</ele>
      <time>2026-04-27T13:01:28.456+02:00</time>
      <extensions>
        <activity type="UNKNOWN" conf="40" state="unknown" tsMs="1777287687111"/>
        <radio op="vodafone IT" rat="LTE" q="52.90" rsrp="-102" sinr="18" rsrq="-13"/>
        <radio op="I TIM" rat="LTE" q="56.00" rsrp="-90" sinr="11" rsrq="-11"/>
      </extensions>
    </trkpt>
    <trkpt lat="45.6176973" lon="10.4940503">
      <ele>225.8000030517578</ele>
      <time>2026-04-27T13:02:02.28+02:00</time>
      <extensions>
        <activity type="UNKNOWN" conf="40" state="unknown" tsMs="1777287717447"/>
        <radio op="vodafone IT" rat="LTE" q="82.50" rsrp="-92" sinr="28" rsrq="-8"/>
        <radio op="I TIM" rat="LTE" q="80.00" rsrp="-93" sinr="20" rsrq="-12"/>
      </extensions>
    </trkpt>
    <trkpt lat="45.6176914" lon="10.4940907">
      <ele>225.8000030517578</ele>
      <time>2026-04-27T13:02:33.727+02:00</time>
      <extensions>
        <activity type="ON_FOOT" conf="81" state="moving" tsMs="1777287749195"/>
        <radio op="vodafone IT" rat="LTE" q="32.50" rsrp="-100" sinr="8" rsrq="-13"/>
        <radio op="I TIM" rat="LTE" q="97.50" rsrp="-86" sinr="25" rsrq="-11"/>
      </extensions>
    </trkpt>
    <trkpt lat="45.6176616" lon="10.4940771">
      <ele>225.8000030517578</ele>
      <time>2026-04-27T13:03:05.171+02:00</time>
      <extensions>
        <activity type="UNKNOWN" conf="40" state="unknown" tsMs="1777287780652"/>
        <radio op="vodafone IT" rat="LTE" q="44.20" rsrp="-99" sinr="12" rsrq="-13"/>
        <radio op="I TIM" rat="LTE" q="92.00" rsrp="-85" sinr="18" rsrq="-11"/>
      </extensions>
    </trkpt>
    <trkpt lat="45.6176444" lon="10.4941374">
      <ele>225.8000030517578</ele>
      <time>2026-04-27T13:03:36.339+02:00</time>
      <extensions>
        <activity type="UNKNOWN" conf="40" state="unknown" tsMs="1777287811870"/>
        <radio op="vodafone IT" rat="LTE" q="51.00" rsrp="-95" sinr="12" rsrq="-12"/>
        <radio op="I TIM" rat="LTE" q="97.50" rsrp="-86" sinr="21" rsrq="-11"/>
      </extensions>
    </trkpt>
    <trkpt lat="45.6176564" lon="10.4940997">
      <ele>225.8000030517578</ele>
      <time>2026-04-27T13:04:07.628+02:00</time>
      <extensions>
        <activity type="ON_FOOT" conf="87" state="moving" tsMs="1777287843170"/>
        <radio op="vodafone IT" rat="LTE" q="85.00" rsrp="-91" sinr="28" rsrq="-9"/>
        <radio op="I TIM" rat="LTE" q="100.00" rsrp="-83" sinr="20" rsrq="-11"/>
      </extensions>
    </trkpt>
    <trkpt lat="45.6176648" lon="10.4940826">
      <ele>225.8000030517578</ele>
      <time>2026-04-27T13:04:39.124+02:00</time>
      <extensions>
        <activity type="STILL" conf="99" state="still" tsMs="1777287874659"/>
        <radio op="vodafone IT" rat="LTE" q="82.50" rsrp="-92" sinr="27" rsrq="-8"/>
        <radio op="I TIM" rat="LTE" q="92.00" rsrp="-83" sinr="18" rsrq="-11"/>
      </extensions>
    </trkpt>
    <trkpt lat="45.6176656" lon="10.4940968">
      <ele>225.8000030517578</ele>
      <time>2026-04-27T13:05:10.566+02:00</time>
      <extensions>
        <activity type="STILL" conf="99" state="still" tsMs="1777287906104"/>
        <radio op="vodafone IT" rat="LTE" q="82.50" rsrp="-92" sinr="27" rsrq="-8"/>
        <radio op="I TIM" rat="LTE" q="100.00" rsrp="-82" sinr="23" rsrq="-10"/>
      </extensions>
    </trkpt>
    <trkpt lat="45.6176823" lon="10.4940649">
      <ele>225.8000030517578</ele>
      <time>2026-04-27T13:05:42.017+02:00</time>
      <extensions>
        <activity type="STILL" conf="99" state="still" tsMs="1777287937617"/>
        <radio op="vodafone IT" rat="LTE" q="87.50" rsrp="-90" sinr="29" rsrq="-11"/>
        <radio op="I TIM" rat="LTE" q="100.00" rsrp="-83" sinr="21" rsrq="-10"/>
      </extensions>
    </trkpt>
    <trkpt lat="45.617711" lon="10.4941538">
      <ele>225.8000030517578</ele>
      <time>2026-04-27T13:06:08.49+02:00</time>
      <extensions>
        <activity type="STILL" conf="99" state="still" tsMs="1777287968977"/>
        <radio op="vodafone IT" rat="LTE" q="85.00" rsrp="-91" sinr="27" rsrq="-12"/>
        <radio op="I TIM" rat="LTE" q="100.00" rsrp="-84" sinr="23" rsrq="-11"/>
      </extensions>
    </trkpt>
    <trkpt lat="45.6176848" lon="10.4940851">
      <ele>225.8000030517578</ele>
      <time>2026-04-27T13:06:44.199+02:00</time>
      <extensions>
        <activity type="STILL" conf="99" state="still" tsMs="1777287999509"/>
        <radio op="vodafone IT" rat="LTE" q="87.50" rsrp="-90" sinr="28" rsrq="-13"/>
        <radio op="I TIM" rat="LTE" rsrp="-82" rsrq="-11"/>
      </extensions>
    </trkpt>
    <trkpt lat="45.6177131" lon="10.4940666">
      <ele>225.8000030517578</ele>
      <time>2026-04-27T13:24:33.493+02:00</time>
      <extensions>
        <activity type="ON_FOOT" conf="97" state="moving" tsMs="1777289076107"/>
        <radio op="vodafone IT" rat="LTE" q="52.80" rsrp="-92" sinr="11" rsrq="-11"/>
        <radio op="I TIM" rat="LTE" q="39.20" rsrp="-97" sinr="9" rsrq="-12"/>
      </extensions>
    </trkpt>
    <trkpt lat="45.617735" lon="10.4939399">
      <ele>225.8000030517578</ele>
      <time>2026-04-27T13:25:20.095+02:00</time>
      <extensions>
        <activity type="ON_FOOT" conf="86" state="moving" tsMs="1777289115778"/>
        <radio op="vodafone IT" rat="LTE" q="82.50" rsrp="-92" sinr="22" rsrq="-13"/>
        <radio op="I TIM" rat="LTE" rsrp="-101" rsrq="-12"/>
      </extensions>
    </trkpt>
    <trkpt lat="45.6176806" lon="10.4940304">
      <ele>225.8000030517578</ele>
      <time>2026-04-27T13:25:51.564+02:00</time>
      <extensions>
        <activity type="IN_VEHICLE" conf="87" state="moving" tsMs="1777289147076"/>
        <radio op="vodafone IT" rat="LTE" q="80.00" rsrp="-93" sinr="22" rsrq="-9"/>
        <radio op="I TIM" rat="LTE" q="51.30" rsrp="-98" sinr="14" rsrq="-11"/>
      </extensions>
    </trkpt>
    <trkpt lat="45.6177297" lon="10.4934226">
      <ele>228.3228275278919</ele>
      <time>2026-04-27T13:26:23.028+02:00</time>
      <extensions>
        <activity type="IN_VEHICLE" conf="96" state="moving" tsMs="1777289177559"/>
        <radio op="vodafone IT" rat="LTE" q="44.00" rsrp="-105" sinr="17" rsrq="-12"/>
        <radio op="I TIM" rat="LTE" q="97.50" rsrp="-86" sinr="26" rsrq="-11"/>
      </extensions>
    </trkpt>
    <trkpt lat="45.6162234" lon="10.4938324">
      <ele>230.11623146509905</ele>
      <time>2026-04-27T13:26:59.67+02:00</time>
      <extensions>
        <activity type="IN_VEHICLE" conf="97" state="moving" tsMs="1777289224525"/>
        <radio op="vodafone IT" rat="LTE" q="100.00" rsrp="-84" sinr="26" rsrq="-9"/>
        <radio op="I TIM" rat="LTE" q="54.40" rsrp="-93" sinr="12" rsrq="-12"/>
      </extensions>
    </trkpt>
    <trkpt lat="45.6113542" lon="10.4954512">
      <ele>217.20001220703125</ele>
      <time>2026-04-27T13:27:54.669+02:00</time>
      <extensions>
        <activity type="IN_VEHICLE" conf="96" state="moving" tsMs="1777289284834"/>
        <radio op="vodafone IT" rat="LTE" q="66.70" rsrp="-96" sinr="18" rsrq="-11"/>
        <radio op="I TIM" rat="LTE" rsrp="-114" rsrq="-16"/>
      </extensions>
    </trkpt>
    <trkpt lat="45.6110286" lon="10.495433">
      <ele>219.5984661957428</ele>
      <time>2026-04-27T13:28:29.379+02:00</time>
      <extensions>
        <activity type="STILL" conf="99" state="still" tsMs="1777289306345"/>
        <radio op="vodafone IT" rat="LTE" q="56.00" rsrp="-97" sinr="15" rsrq="-11"/>
        <radio op="I TIM" rat="LTE" rsrp="-114" rsrq="-15"/>
      </extensions>
    </trkpt>
    <trkpt lat="45.6111813" lon="10.4951192">
      <ele>219.5984661957428</ele>
      <time>2026-04-27T13:28:35.67+02:00</time>
      <extensions>
        <activity type="STILL" conf="99" state="still" tsMs="1777289306345"/>
        <radio op="vodafone IT" rat="LTE" q="33.60" rsrp="-104" sinr="11" rsrq="-12"/>
        <radio op="I TIM" rat="LTE" rsrp="-115" rsrq="-14"/>
      </extensions>
    </trkpt>
    <trkpt lat="45.6120844" lon="10.491124">
      <ele>230.8000030517578</ele>
      <time>2026-04-27T13:29:11.062+02:00</time>
      <extensions>
        <activity type="IN_VEHICLE" conf="97" state="moving" tsMs="1777289347400"/>
        <radio op="vodafone IT" rat="LTE" rsrp="-101" rsrq="-15"/>
        <radio op="I TIM" rat="LTE" q="26.60" rsrp="-106" sinr="9" rsrq="-13"/>
      </extensions>
    </trkpt>
    <trkpt lat="45.6062344" lon="10.4685169">
      <ele>255.83213243342894</ele>
      <time>2026-04-27T13:30:45.647+02:00</time>
      <extensions>
        <activity type="IN_VEHICLE" conf="96" state="moving" tsMs="1777289443680"/>
        <radio op="vodafone IT" rat="LTE" q="55.20" rsrp="-102" sinr="19" rsrq="-7"/>
        <radio op="I TIM" rat="LTE" rsrp="-91" rsrq="-6"/>
      </extensions>
    </trkpt>
    <trkpt lat="45.6062344" lon="10.4685169">
      <ele>258.9805434277912</ele>
      <time>2026-04-27T13:30:52.987+02:00</time>
      <extensions>
        <activity type="IN_VEHICLE" conf="96" state="moving" tsMs="1777289443680"/>
        <radio op="vodafone IT" rat="LTE" q="57.80" rsrp="-91" sinr="12" rsrq="-4"/>
        <radio op="I TIM" rat="LTE" rsrp="-79" rsrq="-8"/>
      </extensions>
    </trkpt>
    <trkpt lat="45.6064435" lon="10.4687121">
      <ele>266.75296574300216</ele>
      <time>2026-04-27T13:31:31.548+02:00</time>
      <extensions>
        <activity type="IN_VEHICLE" conf="97" state="moving" tsMs="1777289485591"/>
        <radio op="vodafone IT" rat="LTE" q="100.00" rsrp="-81" sinr="29" rsrq="-5"/>
        <radio op="I TIM" rat="LTE" q="100.00" rsrp="-74" sinr="25" rsrq="-10"/>
      </extensions>
    </trkpt>
    <trkpt lat="45.6046451" lon="10.4646835">
      <ele>266.9000244140625</ele>
      <time>2026-04-27T13:32:03.128+02:00</time>
      <extensions>
        <activity type="IN_VEHICLE" conf="96" state="moving" tsMs="1777289518518"/>
        <radio op="vodafone IT" rat="LTE" q="100.00" rsrp="-74" sinr="29" rsrq="-11"/>
        <radio op="I TIM" rat="LTE" q="52.80" rsrp="-92" sinr="11" rsrq="-13"/>
      </extensions>
    </trkpt>
    <trkpt lat="45.6051983" lon="10.4646165">
      <ele>266.9000244140625</ele>
      <time>2026-04-27T13:32:09.67+02:00</time>
      <extensions>
        <activity type="IN_VEHICLE" conf="96" state="moving" tsMs="1777289528680"/>
        <radio op="vodafone IT" rat="LTE" q="100.00" rsrp="-68" sinr="28" rsrq="-8"/>
        <radio op="I TIM" rat="LTE" q="95.00" rsrp="-87" sinr="23" rsrq="-12"/>
      </extensions>
    </trkpt>
    <trkpt lat="45.6031638" lon="10.4581641">
      <ele>263.9000244140625</ele>
      <time>2026-04-27T13:32:44.741+02:00</time>
      <extensions>
        <activity type="IN_VEHICLE" conf="97" state="moving" tsMs="1777289560931"/>
        <radio op="vodafone IT" rat="LTE" q="100.00" rsrp="-80" sinr="26" rsrq="-10"/>
        <radio op="I TIM" rat="LTE" q="10.00" rsrp="-105" sinr="0" rsrq="-16"/>
      </extensions>
    </trkpt>
    <trkpt lat="45.6033432" lon="10.4579976">
      <ele>263.9000244140625</ele>
      <time>2026-04-27T13:32:50.67+02:00</time>
      <extensions>
        <activity type="IN_VEHICLE" conf="97" state="moving" tsMs="1777289560931"/>
        <radio op="vodafone IT" rat="LTE" q="100.00" rsrp="-80" sinr="24" rsrq="-8"/>
        <radio op="I TIM" rat="LTE" rsrp="-108" rsrq="-17"/>
      </extensions>
    </trkpt>
    <trkpt lat="45.6028289" lon="10.4567136">
      <ele>263.9000244140625</ele>
      <time>2026-04-27T13:33:04.67+02:00</time>
      <extensions>
        <activity type="IN_VEHICLE" conf="97" state="moving" tsMs="1777289584905"/>
        <radio op="vodafone IT" rat="LTE" q="90.00" rsrp="-89" sinr="27" rsrq="-6"/>
        <radio op="I TIM" rat="LTE" q="60.80" rsrp="-87" sinr="11" rsrq="-9"/>
      </extensions>
    </trkpt>
    <trkpt lat="45.6014965" lon="10.4537287">
      <ele>260.9000244140625</ele>
      <time>2026-04-27T13:33:36.66+02:00</time>
      <extensions>
        <activity type="IN_VEHICLE" conf="97" state="moving" tsMs="1777289611769"/>
        <radio op="vodafone IT" rat="LTE" q="23.40" rsrp="-99" sinr="4" rsrq="-11"/>
        <radio op="I TIM" rat="LTE" q="70.30" rsrp="-88" sinr="14" rsrq="-12"/>
      </extensions>
    </trkpt>
    <trkpt lat="45.6021658" lon="10.453316">
      <ele>261.8000183105469</ele>
      <time>2026-04-27T13:34:08.09+02:00</time>
      <extensions>
        <activity type="TILTING" conf="100" state="moving" tsMs="1777289641286"/>
        <radio op="vodafone IT" rat="LTE" rsrp="-100" rsrq="-13"/>
        <radio op="I TIM" rat="LTE" q="62.70" rsrp="-92" sinr="14" rsrq="-7"/>
      </extensions>
    </trkpt>
    <trkpt lat="45.6020633" lon="10.4532157">
      <ele>261.8000183105469</ele>
      <time>2026-04-27T13:34:15.669+02:00</time>
      <extensions>
        <activity type="TILTING" conf="100" state="moving" tsMs="1777289641286"/>
        <radio op="vodafone IT" rat="LTE" q="35.70" rsrp="-104" sinr="12" rsrq="-10"/>
        <radio op="I TIM" rat="LTE" q="62.10" rsrp="-98" sinr="18" rsrq="-9"/>
      </extensions>
    </trkpt>
    <trkpt lat="45.6025109" lon="10.4535388">
      <ele>261.70001220703125</ele>
      <time>2026-04-27T13:34:49.771+02:00</time>
      <extensions>
        <activity type="ON_FOOT" conf="96" state="moving" tsMs="1777289685852"/>
        <radio op="vodafone IT" rat="LTE" q="19.80" rsrp="-107" sinr="6" rsrq="-10"/>
        <radio op="I TIM" rat="LTE" rsrp="-105" rsrq="-14"/>
      </extensions>
    </trkpt>
    <trkpt lat="45.6025583" lon="10.4536416">
      <ele>262.0</ele>
      <time>2026-04-27T13:35:21.419+02:00</time>
      <extensions>
        <activity type="ON_FOOT" conf="96" state="moving" tsMs="1777289716892"/>
        <radio op="vodafone IT" rat="LTE" q="12.80" rsrp="-109" sinr="3" rsrq="-11"/>
        <radio op="I TIM" rat="LTE" q="15.40" rsrp="-114" sinr="9" rsrq="-12"/>
      </extensions>
    </trkpt>
    <trkpt lat="45.6025796" lon="10.4536038">
      <ele>262.0</ele>
      <time>2026-04-27T13:35:53.158+02:00</time>
      <extensions>
        <activity type="UNKNOWN" conf="40" state="unknown" tsMs="1777289748482"/>
        <radio op="vodafone IT" rat="LTE" q="12.60" rsrp="-104" sinr="1" rsrq="-13"/>
        <radio op="I TIM" rat="LTE" q="50.60" rsrp="-102" sinr="17" rsrq="-7"/>
      </extensions>
    </trkpt>
    <trkpt lat="45.6025796" lon="10.4536139">
      <ele>262.0</ele>
      <time>2026-04-27T13:36:24.94+02:00</time>
      <extensions>
        <activity type="STILL" conf="99" state="still" tsMs="1777289780324"/>
        <radio op="vodafone IT" rat="LTE" q="12.60" rsrp="-104" sinr="1" rsrq="-10"/>
        <radio op="I TIM" rat="LTE" q="48.30" rsrp="-102" sinr="16" rsrq="-6"/>
      </extensions>
    </trkpt>
    <trkpt lat="45.6025511" lon="10.4536348">
      <ele>262.0</ele>
      <time>2026-04-27T13:36:56.554+02:00</time>
      <extensions>
        <activity type="STILL" conf="99" state="still" tsMs="1777289812033"/>
        <radio op="vodafone IT" rat="LTE" q="10.50" rsrp="-104" sinr="0" rsrq="-15"/>
        <radio op="I TIM" rat="LTE" q="48.40" rsrp="-103" sinr="17" rsrq="-9"/>
      </extensions>
    </trkpt>
    <trkpt lat="45.602579" lon="10.4536034">
      <ele>262.0</ele>
      <time>2026-04-27T13:37:28.349+02:00</time>
      <extensions>
        <activity type="STILL" conf="99" state="still" tsMs="1777289843684"/>
        <radio op="vodafone IT" rat="LTE" q="14.70" rsrp="-104" sinr="2" rsrq="-14"/>
        <radio op="I TIM" rat="LTE" q="28.60" rsrp="-103" sinr="8" rsrq="-10"/>
      </extensions>
    </trkpt>
    <trkpt lat="45.6025579" lon="10.4536418">
      <ele>262.0</ele>
      <time>2026-04-27T13:38:00.009+02:00</time>
      <extensions>
        <activity type="STILL" conf="99" state="still" tsMs="1777289875369"/>
        <radio op="vodafone IT" rat="LTE" q="16.80" rsrp="-104" sinr="3" rsrq="-12"/>
        <radio op="I TIM" rat="LTE" q="36.80" rsrp="-102" sinr="11" rsrq="-8"/>
      </extensions>
    </trkpt>
    <trkpt lat="45.602582" lon="10.453612">
      <ele>262.0</ele>
      <time>2026-04-27T13:38:31.733+02:00</time>
      <extensions>
        <activity type="STILL" conf="99" state="still" tsMs="1777289907012"/>
        <radio op="vodafone IT" rat="LTE" q="12.60" rsrp="-107" sinr="2" rsrq="-12"/>
        <radio op="I TIM" rat="LTE" q="50.60" rsrp="-103" sinr="18" rsrq="-7"/>
      </extensions>
    </trkpt>
    <trkpt lat="45.6025543" lon="10.4536297">
      <ele>262.0</ele>
      <time>2026-04-27T14:08:47.793+02:00</time>
      <extensions>
        <activity type="ON_FOOT" conf="97" state="moving" tsMs="1777291727596"/>
        <radio op="vodafone IT" rat="LTE" q="33.60" rsrp="-101" sinr="9" rsrq="-11"/>
        <radio op="I TIM" rat="LTE" q="36.40" rsrp="-99" sinr="9" rsrq="-12"/>
      </extensions>
    </trkpt>
    <trkpt lat="45.6021837" lon="10.4531453">
      <ele>261.70001220703125</ele>
      <time>2026-04-27T14:09:32.947+02:00</time>
      <extensions>
        <activity type="UNKNOWN" conf="40" state="unknown" tsMs="1777291767770"/>
        <radio op="vodafone IT" rat="LTE" q="19.80" rsrp="-107" sinr="6" rsrq="-9"/>
        <radio op="I TIM" rat="LTE" q="15.40" rsrp="-103" sinr="2" rsrq="-10"/>
      </extensions>
    </trkpt>
    <trkpt lat="45.6015213" lon="10.454529">
      <ele>261.70001220703125</ele>
      <time>2026-04-27T14:10:44.321+02:00</time>
      <extensions>
        <activity type="UNKNOWN" conf="40" state="unknown" tsMs="1777291838685"/>
        <radio op="vodafone IT" rat="LTE" q="12.00" rsrp="-113" sinr="5" rsrq="-10"/>
        <radio op="I TIM" rat="LTE" q="15.00" rsrp="-110" sinr="5" rsrq="-12"/>
      </extensions>
    </trkpt>
    <trkpt lat="45.6035637" lon="10.4592243">
      <ele>265.4000244140625</ele>
      <time>2026-04-27T14:11:37.34+02:00</time>
      <extensions>
        <activity type="IN_VEHICLE" conf="96" state="moving" tsMs="1777291892767"/>
        <radio op="vodafone IT" rat="LTE" q="80.00" rsrp="-93" sinr="29" rsrq="-8"/>
        <radio op="I TIM" rat="LTE" q="49.40" rsrp="-87" sinr="8" rsrq="-12"/>
      </extensions>
    </trkpt>
    <trkpt lat="45.6037705" lon="10.4598343">
      <ele>265.4000244140625</ele>
      <time>2026-04-27T14:11:45.01+02:00</time>
      <extensions>
        <activity type="IN_VEHICLE" conf="94" state="moving" tsMs="1777291902652"/>
        <radio op="vodafone IT" rat="LTE" q="97.50" rsrp="-86" sinr="30" rsrq="-8"/>
        <radio op="I TIM" rat="LTE" q="71.40" rsrp="-91" sinr="16" rsrq="-8"/>
      </extensions>
    </trkpt>
    <trkpt lat="45.6057585" lon="10.4665526">
      <ele>274.97350308958175</ele>
      <time>2026-04-27T14:12:33.009+02:00</time>
      <extensions>
        <activity type="IN_VEHICLE" conf="94" state="moving" tsMs="1777291946777"/>
        <radio op="vodafone IT" rat="LTE" q="67.50" rsrp="-98" sinr="22" rsrq="-6"/>
        <radio op="I TIM" rat="LTE" q="57.20" rsrp="-99" sinr="17" rsrq="-12"/>
      </extensions>
    </trkpt>
    <trkpt lat="45.6107149" lon="10.4789502">
      <ele>277.9709846936952</ele>
      <time>2026-04-27T14:13:41.009+02:00</time>
      <extensions>
        <activity type="IN_VEHICLE" conf="96" state="moving" tsMs="1777292012754"/>
        <radio op="vodafone IT" rat="LTE" q="11.70" rsrp="-116" sinr="8" rsrq="-11"/>
        <radio op="I TIM" rat="LTE" rsrp="-117" rsrq="-13"/>
      </extensions>
    </trkpt>
    <trkpt lat="45.6134302" lon="10.4818258">
      <ele>276.6701823816341</ele>
      <time>2026-04-27T14:14:26.01+02:00</time>
      <extensions>
        <activity type="IN_VEHICLE" conf="91" state="moving" tsMs="1777292059759"/>
        <radio op="vodafone IT" rat="LTE" q="25.60" rsrp="-109" sinr="11" rsrq="-13"/>
        <radio op="I TIM" rat="LTE" q="5.00" rsrp="-115" sinr="0" rsrq="-12"/>
      </extensions>
    </trkpt>
    <trkpt lat="45.6179246" lon="10.4836613">
      <ele>281.2577641187833</ele>
      <time>2026-04-27T14:15:04.144+02:00</time>
      <extensions>
        <activity type="IN_VEHICLE" conf="97" state="moving" tsMs="1777292103638"/>
        <radio op="vodafone IT" rat="LTE" rsrp="-115" rsrq="-14"/>
        <radio op="I TIM" rat="LTE" rsrp="-123" rsrq="-18"/>
      </extensions>
    </trkpt>
    <trkpt lat="45.6211128" lon="10.487313">
      <ele>282.9917231800142</ele>
      <time>2026-04-27T14:15:43.011+02:00</time>
      <extensions>
        <activity type="IN_VEHICLE" conf="96" state="moving" tsMs="1777292136766"/>
        <radio op="vodafone IT" rat="LTE" q="16.80" rsrp="-111" sinr="7" rsrq="-12"/>
        <radio op="I TIM" rat="LTE" rsrp="-115" rsrq="-15"/>
      </extensions>
    </trkpt>
    <trkpt lat="45.6236957" lon="10.4933992">
      <ele>278.5</ele>
      <time>2026-04-27T14:16:39.44+02:00</time>
      <extensions>
        <activity type="IN_VEHICLE" conf="93" state="moving" tsMs="1777292192146"/>
        <radio op="vodafone IT" rat="LTE" q="20.40" rsrp="-108" sinr="7" rsrq="-12"/>
        <radio op="I TIM" rat="LTE" q="8.00" rsrp="-115" sinr="3" rsrq="-16"/>
      </extensions>
    </trkpt>
    <trkpt lat="45.6237484" lon="10.4934277">
      <ele>278.5</ele>
      <time>2026-04-27T14:16:46.011+02:00</time>
      <extensions>
        <activity type="UNKNOWN" conf="40" state="unknown" tsMs="1777292210774"/>
        <radio op="vodafone IT" rat="LTE" q="20.40" rsrp="-108" sinr="7" rsrq="-12"/>
        <radio op="I TIM" rat="LTE" q="12.00" rsrp="-115" sinr="7" rsrq="-16"/>
      </extensions>
    </trkpt>
    <trkpt lat="45.6238142" lon="10.493399">
      <ele>278.1000061035156</ele>
      <time>2026-04-27T14:17:00.157+02:00</time>
      <extensions>
        <activity type="TILTING" conf="100" state="moving" tsMs="1777292218324"/>
        <radio op="vodafone IT" rat="LTE" q="20.40" rsrp="-108" sinr="7" rsrq="-12"/>
        <radio op="I TIM" rat="LTE" q="10.00" rsrp="-115" sinr="5" rsrq="-16"/>
      </extensions>
    </trkpt>
    <trkpt lat="45.6236522" lon="10.4925374">
      <ele>275.5</ele>
      <time>2026-04-27T14:17:35.751+02:00</time>
      <extensions>
        <activity type="ON_FOOT" conf="93" state="moving" tsMs="1777292254616"/>
        <radio op="vodafone IT" rat="LTE" q="20.40" rsrp="-108" sinr="7" rsrq="-12"/>
        <radio op="I TIM" rat="LTE" q="13.00" rsrp="-115" sinr="8" rsrq="-16"/>
      </extensions>
    </trkpt>
    <trkpt lat="45.6237836" lon="10.4926168">
      <ele>280.64539096956855</ele>
      <time>2026-04-27T14:18:06.743+02:00</time>
      <extensions>
        <activity type="UNKNOWN" conf="40" state="unknown" tsMs="1777292281184"/>
        <radio op="vodafone IT" rat="LTE" q="20.40" rsrp="-108" sinr="7" rsrq="-12"/>
        <radio op="I TIM" rat="LTE" q="9.00" rsrp="-115" sinr="4" rsrq="-16"/>
      </extensions>
    </trkpt>
    <trkpt lat="45.6238156" lon="10.4926988">
      <ele>285.3000183105469</ele>
      <time>2026-04-27T14:18:38.752+02:00</time>
      <extensions>
        <activity type="ON_FOOT" conf="92" state="moving" tsMs="1777292317767"/>
        <radio op="vodafone IT" rat="LTE" q="10.80" rsrp="-113" sinr="4" rsrq="-9"/>
        <radio op="I TIM" rat="LTE" q="19.00" rsrp="-115" sinr="14" rsrq="-12"/>
      </extensions>
    </trkpt>
    <trkpt lat="45.6237572" lon="10.4927276">
      <ele>287.8992592339573</ele>
      <time>2026-04-27T14:19:15.159+02:00</time>
      <extensions>
        <activity type="ON_FOOT" conf="86" state="moving" tsMs="1777292349721"/>
        <radio op="vodafone IT" rat="LTE" q="11.00" rsrp="-114" sinr="5" rsrq="-8"/>
        <radio op="I TIM" rat="LTE" q="9.60" rsrp="-113" sinr="3" rsrq="-12"/>
      </extensions>
    </trkpt>
    <trkpt lat="45.6238202" lon="10.4926967">
      <ele>290.9097378945429</ele>
      <time>2026-04-27T14:19:46.679+02:00</time>
      <extensions>
        <activity type="UNKNOWN" conf="40" state="unknown" tsMs="1777292382952"/>
        <radio op="vodafone IT" rat="LTE" q="9.90" rsrp="-116" sinr="6" rsrq="-13"/>
        <radio op="I TIM" rat="LTE" q="9.90" rsrp="-116" sinr="6" rsrq="-12"/>
      </extensions>
    </trkpt>
    <trkpt lat="45.6238041" lon="10.4927132">
      <ele>289.6608865272193</ele>
      <time>2026-04-27T14:20:18.362+02:00</time>
      <extensions>
        <activity type="UNKNOWN" conf="40" state="unknown" tsMs="1777292414680"/>
        <radio op="vodafone IT" rat="LTE" q="4.90" rsrp="-118" sinr="2" rsrq="-12"/>
        <radio op="I TIM" rat="LTE" q="8.40" rsrp="-118" sinr="7" rsrq="-12"/>
      </extensions>
    </trkpt>
    <trkpt lat="45.623788" lon="10.492719">
      <ele>289.46992298288797</ele>
      <time>2026-04-27T14:20:50.152+02:00</time>
      <extensions>
        <activity type="STILL" conf="99" state="still" tsMs="1777292446226"/>
        <radio op="vodafone IT" rat="LTE" q="9.60" rsrp="-117" sinr="7" rsrq="-12"/>
        <radio op="I TIM" rat="LTE" q="8.40" rsrp="-118" sinr="7" rsrq="-12"/>
      </extensions>
    </trkpt>
    <trkpt lat="45.6237966" lon="10.4927071">
      <ele>289.71605456280895</ele>
      <time>2026-04-27T14:21:21.785+02:00</time>
      <extensions>
        <activity type="UNKNOWN" conf="40" state="unknown" tsMs="1777292477865"/>
        <radio op="vodafone IT" rat="LTE" q="4.00" rsrp="-120" sinr="3" rsrq="-13"/>
        <radio op="I TIM" rat="LTE" q="1.50" rsrp="-122" sinr="0" rsrq="-13"/>
      </extensions>
    </trkpt>
    <trkpt lat="45.6238229" lon="10.4926998">
      <ele>288.1301355929511</ele>
      <time>2026-04-27T14:21:53.308+02:00</time>
      <extensions>
        <activity type="STILL" conf="99" state="still" tsMs="1777292509434"/>
        <radio op="vodafone IT" rat="LTE" q="8.50" rsrp="-120" sinr="12" rsrq="-13"/>
        <radio op="I TIM" rat="LTE" rsrp="-122" rsrq="-13"/>
      </extensions>
    </trkpt>
    <trkpt lat="45.6237944" lon="10.4927125">
      <ele>285.3000183105469</ele>
      <time>2026-04-27T14:22:25.071+02:00</time>
      <extensions>
        <activity type="STILL" conf="99" state="still" tsMs="1777292541269"/>
        <radio op="vodafone IT" rat="LTE" q="5.60" rsrp="-118" sinr="3" rsrq="-13"/>
        <radio op="I TIM" rat="LTE" q="4.20" rsrp="-119" sinr="2" rsrq="-13"/>
      </extensions>
    </trkpt>
    <trkpt lat="45.6237008" lon="10.4927673">
      <ele>285.4000244140625</ele>
      <time>2026-04-27T14:43:51.59+02:00</time>
      <extensions>
        <activity type="IN_VEHICLE" conf="85" state="moving" tsMs="1777293829628"/>
        <radio op="vodafone IT" rat="LTE" q="7.80" rsrp="-112" sinr="1" rsrq="-9"/>
        <radio op="I TIM" rat="LTE" q="16.80" rsrp="-113" sinr="9" rsrq="-13"/>
      </extensions>
    </trkpt>
    <trkpt lat="45.6237159" lon="10.4927442">
      <ele>285.3000183105469</ele>
      <time>2026-04-27T14:44:53.922+02:00</time>
      <extensions>
        <activity type="UNKNOWN" conf="40" state="unknown" tsMs="1777293893846"/>
        <radio op="vodafone IT" rat="LTE" q="11.00" rsrp="-114" sinr="5" rsrq="-9"/>
        <radio op="I TIM" rat="LTE" q="16.90" rsrp="-112" sinr="8" rsrq="-11"/>
      </extensions>
    </trkpt>
    <trkpt lat="45.6237022" lon="10.4927618">
      <ele>285.4000244140625</ele>
      <time>2026-04-27T14:45:53.081+02:00</time>
      <extensions>
        <activity type="UNKNOWN" conf="40" state="unknown" tsMs="1777293952405"/>
        <radio op="vodafone IT" rat="LTE" q="14.30" rsrp="-114" sinr="8" rsrq="-9"/>
        <radio op="I TIM" rat="LTE" q="15.30" rsrp="-108" sinr="4" rsrq="-13"/>
      </extensions>
    </trkpt>
    <trkpt lat="45.6236865" lon="10.4927707">
      <ele>285.4000244140625</ele>
      <time>2026-04-27T14:47:07.82+02:00</time>
      <extensions>
        <activity type="STILL" conf="99" state="still" tsMs="1777294000199"/>
        <radio op="vodafone IT" rat="LTE" rsrp="-125" rsrq="-13"/>
        <radio op="I TIM" rat="LTE" q="8.10" rsrp="-116" sinr="4" rsrq="-13"/>
      </extensions>
    </trkpt>
    <trkpt lat="45.6236988" lon="10.49276">
      <ele>285.4000244140625</ele>
      <time>2026-04-27T14:47:57.568+02:00</time>
      <extensions>
        <activity type="STILL" conf="59" state="still" tsMs="1777294075239"/>
        <radio op="vodafone IT" rat="LTE" q="17.60" rsrp="-114" sinr="11" rsrq="-9"/>
        <radio op="I TIM" rat="LTE" q="14.00" rsrp="-115" sinr="9" rsrq="-12"/>
      </extensions>
    </trkpt>
    <trkpt lat="45.6236895" lon="10.4927731">
      <ele>285.4000244140625</ele>
      <time>2026-04-27T14:54:41.336+02:00</time>
      <extensions>
        <activity type="IN_VEHICLE" conf="91" state="moving" tsMs="1777294492087"/>
        <radio op="vodafone IT" rat="LTE" q="13.20" rsrp="-114" sinr="7" rsrq="-13"/>
        <radio op="I TIM" rat="LTE" q="15.40" rsrp="-114" sinr="9" rsrq="-12"/>
      </extensions>
    </trkpt>
    <trkpt lat="45.6236919" lon="10.4927736">
      <ele>285.4000244140625</ele>
      <time>2026-04-27T14:55:14.125+02:00</time>
      <extensions>
        <activity type="IN_VEHICLE" conf="88" state="moving" tsMs="1777294513853"/>
        <radio op="vodafone IT" rat="LTE" q="15.00" rsrp="-115" sinr="10" rsrq="-9"/>
        <radio op="I TIM" rat="LTE" q="16.50" rsrp="-114" sinr="10" rsrq="-11"/>
      </extensions>
    </trkpt>
    <trkpt lat="45.6236892" lon="10.492769">
      <ele>285.4000244140625</ele>
      <time>2026-04-27T14:55:51.447+02:00</time>
      <extensions>
        <activity type="STILL" conf="99" state="still" tsMs="1777294547502"/>
        <radio op="vodafone IT" rat="LTE" q="11.70" rsrp="-112" sinr="4" rsrq="-8"/>
        <radio op="I TIM" rat="LTE" q="16.50" rsrp="-114" sinr="10" rsrq="-12"/>
      </extensions>
    </trkpt>
    <trkpt lat="45.6236885" lon="10.492769">
      <ele>285.4000244140625</ele>
      <time>2026-04-27T14:56:32.877+02:00</time>
      <extensions>
        <activity type="STILL" conf="99" state="still" tsMs="1777294573238"/>
        <radio op="vodafone IT" rat="LTE" q="19.50" rsrp="-112" sinr="10" rsrq="-8"/>
        <radio op="I TIM" rat="LTE" q="14.30" rsrp="-114" sinr="8" rsrq="-12"/>
      </extensions>
    </trkpt>
    <trkpt lat="45.6236999" lon="10.4927637">
      <ele>285.4000244140625</ele>
      <time>2026-04-27T14:57:25.502+02:00</time>
      <extensions>
        <activity type="STILL" conf="99" state="still" tsMs="1777294642867"/>
        <radio op="vodafone IT" rat="LTE" q="7.70" rsrp="-114" sinr="2" rsrq="-8"/>
        <radio op="I TIM" rat="LTE" q="11.00" rsrp="-115" sinr="6" rsrq="-13"/>
      </extensions>
    </trkpt>
    <trkpt lat="45.6236999" lon="10.4927624">
      <ele>285.4000244140625</ele>
      <time>2026-04-27T14:57:57.586+02:00</time>
      <extensions>
        <activity type="STILL" conf="99" state="still" tsMs="1777294673840"/>
        <radio op="vodafone IT" rat="LTE" q="12.60" rsrp="-116" sinr="9" rsrq="-10"/>
        <radio op="I TIM" rat="LTE" q="9.00" rsrp="-115" sinr="4" rsrq="-13"/>
      </extensions>
    </trkpt>
    <trkpt lat="45.6238137" lon="10.4926977">
      <ele>291.17489809431106</ele>
      <time>2026-04-27T15:14:03.802+02:00</time>
      <extensions>
        <activity type="UNKNOWN" conf="40" state="unknown" tsMs="1777295642471"/>
        <radio op="vodafone IT" rat="LTE" q="6.40" rsrp="-117" sinr="3" rsrq="-13"/>
        <radio op="I TIM" rat="LTE" q="2.80" rsrp="-121" sinr="2" rsrq="-14"/>
      </extensions>
    </trkpt>
    <trkpt lat="45.6237486" lon="10.4927352">
      <ele>289.75990183998886</ele>
      <time>2026-04-27T15:14:38.039+02:00</time>
      <extensions>
        <activity type="STILL" conf="33" state="still" tsMs="1777295677470"/>
        <radio op="vodafone IT" rat="LTE" q="2.00" rsrp="-121" sinr="0" rsrq="-13"/>
        <radio op="I TIM" rat="LTE" q="2.00" rsrp="-121" sinr="0" rsrq="-14"/>
      </extensions>
    </trkpt>
    <trkpt lat="45.6238001" lon="10.4927103">
      <ele>289.6728524786048</ele>
      <time>2026-04-27T15:15:12.475+02:00</time>
      <extensions>
        <activity type="STILL" conf="99" state="still" tsMs="1777295711640"/>
        <radio op="vodafone IT" rat="LTE" q="3.90" rsrp="-122" sinr="8" rsrq="-14"/>
        <radio op="I TIM" rat="LTE" q="2.00" rsrp="-121" sinr="0" rsrq="-14"/>
      </extensions>
    </trkpt>
    <trkpt lat="45.6237652" lon="10.4927175">
      <ele>289.6782632952895</ele>
      <time>2026-04-27T15:16:25.37+02:00</time>
      <extensions>
        <activity type="STILL" conf="99" state="still" tsMs="1777295771213"/>
        <radio op="vodafone IT" rat="LTE" q="4.40" rsrp="-121" sinr="6" rsrq="-13"/>
        <radio op="I TIM" rat="LTE" q="2.40" rsrp="-121" sinr="1" rsrq="-14"/>
      </extensions>
    </trkpt>
    <trkpt lat="45.6237834" lon="10.4927101">
      <ele>289.76106837019955</ele>
      <time>2026-04-27T15:16:58.096+02:00</time>
      <extensions>
        <activity type="STILL" conf="99" state="still" tsMs="1777295812241"/>
        <radio op="vodafone IT" rat="LTE" q="1.80" rsrp="-122" sinr="1" rsrq="-13"/>
        <radio op="I TIM" rat="LTE" q="2.40" rsrp="-121" sinr="1" rsrq="-14"/>
      </extensions>
    </trkpt>
    <trkpt lat="45.6237813" lon="10.4927193">
      <ele>285.3000183105469</ele>
      <time>2026-04-27T15:42:56.86+02:00</time>
      <extensions>
        <activity type="IN_VEHICLE" conf="78" state="moving" tsMs="1777297370241"/>
        <radio op="vodafone IT" rat="LTE" rsrp="-117" rsrq="-11"/>
        <radio op="I TIM" rat="LTE" q="6.30" rsrp="-118" sinr="4" rsrq="-12"/>
      </extensions>
    </trkpt>
    <trkpt lat="45.6238069" lon="10.492706">
      <ele>285.3000183105469</ele>
      <time>2026-04-27T15:44:12.007+02:00</time>
      <extensions>
        <activity type="STILL" conf="99" state="still" tsMs="1777297439325"/>
        <radio op="vodafone IT" rat="LTE" q="6.00" rsrp="-119" sinr="5" rsrq="-12"/>
        <radio op="I TIM" rat="LTE" q="4.90" rsrp="-118" sinr="2" rsrq="-12"/>
      </extensions>
    </trkpt>
    <trkpt lat="45.6238028" lon="10.4927072">
      <ele>285.3000183105469</ele>
      <time>2026-04-27T15:45:16.099+02:00</time>
      <extensions>
        <activity type="STILL" conf="99" state="still" tsMs="1777297510927"/>
        <radio op="vodafone IT" rat="LTE" q="6.60" rsrp="-119" sinr="6" rsrq="-12"/>
        <radio op="I TIM" rat="LTE" q="3.50" rsrp="-118" sinr="0" rsrq="-13"/>
      </extensions>
    </trkpt>
    <trkpt lat="45.6237061" lon="10.492889">
      <ele>275.0874360690076</ele>
      <time>2026-04-27T18:06:11.173+02:00</time>
      <extensions>
        <activity type="ON_FOOT" conf="84" state="moving" tsMs="1777305970595"/>
        <radio op="vodafone IT" rat="LTE" q="16.50" rsrp="-110" sinr="6" rsrq="-10"/>
        <radio op="I TIM" rat="LTE" q="20.40" rsrp="-113" sinr="12" rsrq="-12"/>
      </extensions>
    </trkpt>
    <trkpt lat="45.6236815" lon="10.4936832">
      <ele>273.53547152424534</ele>
      <time>2026-04-27T18:07:05.039+02:00</time>
      <extensions>
        <activity type="UNKNOWN" conf="40" state="unknown" tsMs="1777306019981"/>
        <radio op="vodafone IT" rat="LTE" rsrp="-114" rsrq="-12"/>
        <radio op="I TIM" rat="LTE" q="9.60" rsrp="-119" sinr="11" rsrq="-13"/>
      </extensions>
    </trkpt>
    <trkpt lat="45.6228555" lon="10.4910974">
      <ele>279.70001220703125</ele>
      <time>2026-04-27T18:07:50.379+02:00</time>
      <extensions>
        <activity type="IN_VEHICLE" conf="89" state="moving" tsMs="1777306069551"/>
        <radio op="vodafone IT" rat="LTE" rsrp="-109" rsrq="-11"/>
        <radio op="I TIM" rat="LTE" q="7.20" rsrp="-116" sinr="3" rsrq="-14"/>
      </extensions>
    </trkpt>
    <trkpt lat="45.6203888" lon="10.4859666">
      <ele>282.65594829243867</ele>
      <time>2026-04-27T18:08:21.759+02:00</time>
      <extensions>
        <activity type="IN_VEHICLE" conf="97" state="moving" tsMs="1777306096124"/>
        <radio op="vodafone IT" rat="LTE" rsrp="-109" rsrq="-10"/>
        <radio op="I TIM" rat="LTE" q="3.50" rsrp="-118" sinr="0" rsrq="-11"/>
      </extensions>
    </trkpt>
    <trkpt lat="45.6121189" lon="10.4809847">
      <ele>270.70001220703125</ele>
      <time>2026-04-27T18:09:32.166+02:00</time>
      <extensions>
        <activity type="IN_VEHICLE" conf="88" state="moving" tsMs="1777306168872"/>
        <radio op="vodafone IT" rat="LTE" q="10.80" rsrp="-113" sinr="4" rsrq="-12"/>
        <radio op="I TIM" rat="LTE" q="8.00" rsrp="-115" sinr="3" rsrq="-12"/>
      </extensions>
    </trkpt>
    <trkpt lat="45.6119315" lon="10.4807423">
      <ele>270.70001220703125</ele>
      <time>2026-04-27T18:09:42.165+02:00</time>
      <extensions>
        <activity type="IN_VEHICLE" conf="88" state="moving" tsMs="1777306179618"/>
        <radio op="vodafone IT" rat="LTE" q="9.00" rsrp="-107" sinr="0" rsrq="-11"/>
        <radio op="I TIM" rat="LTE" rsrp="-109" rsrq="-9"/>
      </extensions>
    </trkpt>
    <trkpt lat="45.6119316" lon="10.4806954">
      <ele>270.70001220703125</ele>
      <time>2026-04-27T18:09:43.166+02:00</time>
      <extensions>
        <activity type="IN_VEHICLE" conf="88" state="moving" tsMs="1777306201556"/>
        <radio op="vodafone IT" rat="LTE" q="11.20" rsrp="-117" sinr="9" rsrq="-11"/>
        <radio op="I TIM" rat="LTE" q="44.00" rsrp="-103" sinr="15" rsrq="-11"/>
      </extensions>
    </trkpt>
    <trkpt lat="45.6086818" lon="10.4764267">
      <ele>268.8000183105469</ele>
      <time>2026-04-27T18:10:15.744+02:00</time>
      <extensions>
        <activity type="IN_VEHICLE" conf="97" state="moving" tsMs="1777306212274"/>
        <radio op="vodafone IT" rat="LTE" q="11.00" rsrp="-103" sinr="0" rsrq="-12"/>
        <radio op="I TIM" rat="LTE" q="48.00" rsrp="-101" sinr="15" rsrq="-13"/>
      </extensions>
    </trkpt>
    <trkpt lat="45.6073982" lon="10.4704641">
      <ele>268.8000183105469</ele>
      <time>2026-04-27T18:10:47.13+02:00</time>
      <extensions>
        <activity type="IN_VEHICLE" conf="87" state="moving" tsMs="1777306243387"/>
        <radio op="vodafone IT" rat="LTE" q="70.00" rsrp="-97" sinr="22" rsrq="-6"/>
        <radio op="I TIM" rat="LTE" q="52.00" rsrp="-80" sinr="8" rsrq="-7"/>
      </extensions>
    </trkpt>
    <trkpt lat="45.6055186" lon="10.4655617">
      <ele>260.9004794889295</ele>
      <time>2026-04-27T18:11:46.166+02:00</time>
      <extensions>
        <activity type="UNKNOWN" conf="40" state="unknown" tsMs="1777306298539"/>
        <radio op="vodafone IT" rat="LTE" q="90.00" rsrp="-89" sinr="25" rsrq="-6"/>
        <radio op="I TIM" rat="LTE" q="37.50" rsrp="-100" sinr="10" rsrq="-8"/>
      </extensions>
    </trkpt>
    <trkpt lat="45.6046308" lon="10.4647578">
      <ele>262.1566277063155</ele>
      <time>2026-04-27T18:12:20.003+02:00</time>
      <extensions>
        <activity type="UNKNOWN" conf="40" state="unknown" tsMs="1777306334539"/>
        <radio op="vodafone IT" rat="LTE" q="100.00" rsrp="-83" sinr="28" rsrq="-4"/>
        <radio op="I TIM" rat="LTE" q="22.50" rsrp="-100" sinr="4" rsrq="-7"/>
      </extensions>
    </trkpt>
    <trkpt lat="45.6052832" lon="10.4648528">
      <ele>262.1566277063155</ele>
      <time>2026-04-27T18:12:27.165+02:00</time>
      <extensions>
        <activity type="UNKNOWN" conf="40" state="unknown" tsMs="1777306334539"/>
        <radio op="vodafone IT" rat="LTE" q="100.00" rsrp="-79" sinr="30" rsrq="-10"/>
        <radio op="I TIM" rat="LTE" q="25.00" rsrp="-100" sinr="5" rsrq="-10"/>
      </extensions>
    </trkpt>
    <trkpt lat="45.6045964" lon="10.4628396">
      <ele>261.766405228835</ele>
      <time>2026-04-27T18:13:05.235+02:00</time>
      <extensions>
        <activity type="IN_VEHICLE" conf="87" state="moving" tsMs="1777306383172"/>
        <radio op="vodafone IT" rat="LTE" q="15.50" rsrp="-94" sinr="0" rsrq="-11"/>
        <radio op="I TIM" rat="LTE" q="27.20" rsrp="-91" sinr="3" rsrq="-10"/>
      </extensions>
    </trkpt>
    <trkpt lat="45.6034811" lon="10.4587934">
      <ele>262.9222786922968</ele>
      <time>2026-04-27T18:13:48.167+02:00</time>
      <extensions>
        <activity type="UNKNOWN" conf="40" state="unknown" tsMs="1777306417411"/>
        <radio op="vodafone IT" rat="LTE" q="64.00" rsrp="-76" sinr="11" rsrq="-10"/>
        <radio op="I TIM" rat="LTE" q="92.00" rsrp="-79" sinr="18" rsrq="-12"/>
      </extensions>
    </trkpt>
    <trkpt lat="45.6027513" lon="10.4563917">
      <ele>257.33522921429426</ele>
      <time>2026-04-27T18:14:19.248+02:00</time>
      <extensions>
        <activity type="IN_VEHICLE" conf="97" state="moving" tsMs="1777306460716"/>
        <radio op="vodafone IT" rat="LTE" q="31.90" rsrp="-96" sinr="6" rsrq="-10"/>
        <radio op="I TIM" rat="LTE" q="31.90" rsrp="-96" sinr="6" rsrq="-12"/>
      </extensions>
    </trkpt>
    <trkpt lat="45.6025413" lon="10.455618">
      <ele>257.33522921429426</ele>
      <time>2026-04-27T18:14:31.168+02:00</time>
      <extensions>
        <activity type="IN_VEHICLE" conf="97" state="moving" tsMs="1777306469511"/>
        <radio op="vodafone IT" rat="LTE" q="14.40" rsrp="-101" sinr="1" rsrq="-12"/>
        <radio op="I TIM" rat="LTE" q="20.00" rsrp="-100" sinr="3" rsrq="-15"/>
      </extensions>
    </trkpt>
    <trkpt lat="45.6019375" lon="10.4546757">
      <ele>259.0055012856212</ele>
      <time>2026-04-27T18:15:07.167+02:00</time>
      <extensions>
        <activity type="IN_VEHICLE" conf="96" state="moving" tsMs="1777306490932"/>
        <radio op="vodafone IT" rat="LTE" q="25.20" rsrp="-97" sinr="4" rsrq="-9"/>
        <radio op="I TIM" rat="LTE" rsrp="-96" rsrq="-13"/>
      </extensions>
    </trkpt>
    <trkpt lat="45.6021528" lon="10.4531861">
      <ele>259.02245566483714</ele>
      <time>2026-04-27T18:15:37.907+02:00</time>
      <extensions>
        <activity type="IN_VEHICLE" conf="97" state="moving" tsMs="1777306534942"/>
        <radio op="vodafone IT" rat="LTE" rsrp="-98" rsrq="-12"/>
        <radio op="I TIM" rat="LTE" q="54.40" rsrp="-91" sinr="11" rsrq="-12"/>
      </extensions>
    </trkpt>
    <trkpt lat="45.6021772" lon="10.4530293">
      <ele>259.02245566483714</ele>
      <time>2026-04-27T18:15:44.167+02:00</time>
      <extensions>
        <activity type="IN_VEHICLE" conf="97" state="moving" tsMs="1777306534942"/>
        <radio op="vodafone IT" rat="LTE" q="16.80" rsrp="-101" sinr="2" rsrq="-11"/>
        <radio op="I TIM" rat="LTE" q="52.70" rsrp="-94" sinr="12" rsrq="-12"/>
      </extensions>
    </trkpt>
    <trkpt lat="45.6021267" lon="10.4530239">
      <ele>261.8000183105469</ele>
      <time>2026-04-27T18:16:14.543+02:00</time>
      <extensions>
        <activity type="TILTING" conf="100" state="moving" tsMs="1777306571751"/>
        <radio op="vodafone IT" rat="LTE" q="22.50" rsrp="-100" sinr="4" rsrq="-11"/>
        <radio op="I TIM" rat="LTE" q="33.00" rsrp="-95" sinr="6" rsrq="-11"/>
      </extensions>
    </trkpt>
    <trkpt lat="45.602185" lon="10.4533636">
      <ele>261.8000183105469</ele>
      <time>2026-04-27T18:16:33.166+02:00</time>
      <extensions>
        <activity type="ON_FOOT" conf="97" state="moving" tsMs="1777306596367"/>
        <radio op="vodafone IT" rat="LTE" rsrp="-103" rsrq="-12"/>
        <radio op="I TIM" rat="LTE" q="40.60" rsrp="-96" sinr="9" rsrq="-12"/>
      </extensions>
    </trkpt>
    <trkpt lat="45.6025217" lon="10.453594">
      <ele>258.8147668225575</ele>
      <time>2026-04-27T18:17:09.817+02:00</time>
      <extensions>
        <activity type="ON_FOOT" conf="96" state="moving" tsMs="1777306628563"/>
        <radio op="vodafone IT" rat="LTE" q="20.90" rsrp="-106" sinr="6" rsrq="-12"/>
        <radio op="I TIM" rat="LTE" q="45.60" rsrp="-101" sinr="14" rsrq="-10"/>
      </extensions>
    </trkpt>
    <trkpt lat="45.6025552" lon="10.4536465">
      <ele>258.80417058753153</ele>
      <time>2026-04-27T18:17:41.553+02:00</time>
      <extensions>
        <activity type="UNKNOWN" conf="40" state="unknown" tsMs="1777306660734"/>
        <radio op="vodafone IT" rat="LTE" q="7.70" rsrp="-114" sinr="2" rsrq="-8"/>
        <radio op="I TIM" rat="LTE" q="1.00" rsrp="-123" sinr="0" rsrq="-12"/>
      </extensions>
    </trkpt>
    <trkpt lat="45.6025586" lon="10.4536448">
      <ele>261.8000183105469</ele>
      <time>2026-04-27T18:18:13.278+02:00</time>
      <extensions>
        <activity type="UNKNOWN" conf="40" state="unknown" tsMs="1777306692449"/>
        <radio op="vodafone IT" rat="LTE" q="6.50" rsrp="-112" sinr="0" rsrq="-11"/>
        <radio op="I TIM" rat="LTE" q="41.40" rsrp="-107" sinr="18" rsrq="-10"/>
      </extensions>
    </trkpt>
    <trkpt lat="45.6025549" lon="10.4536477">
      <ele>262.0</ele>
      <time>2026-04-27T18:18:49.356+02:00</time>
      <extensions>
        <activity type="UNKNOWN" conf="40" state="unknown" tsMs="1777306724129"/>
        <radio op="vodafone IT" rat="LTE" q="5.60" rsrp="-118" sinr="3" rsrq="-11"/>
        <radio op="I TIM" rat="LTE" rsrp="-118" rsrq="-12"/>
      </extensions>
    </trkpt>
    <trkpt lat="45.6025571" lon="10.4536478">
      <ele>262.0</ele>
      <time>2026-04-27T18:19:52.741+02:00</time>
      <extensions>
        <activity type="STILL" conf="99" state="still" tsMs="1777306787150"/>
        <radio op="vodafone IT" rat="LTE" q="6.30" rsrp="-118" sinr="4" rsrq="-12"/>
        <radio op="I TIM" rat="LTE" rsrp="-120" rsrq="-15"/>
      </extensions>
    </trkpt>
    <trkpt lat="45.6025562" lon="10.4536465">
      <ele>262.0</ele>
      <time>2026-04-27T18:35:14.041+02:00</time>
      <extensions>
        <activity type="ON_FOOT" conf="81" state="moving" tsMs="1777307711875"/>
        <radio op="vodafone IT" rat="LTE" q="12.00" rsrp="-113" sinr="5" rsrq="-11"/>
        <radio op="I TIM" rat="LTE" q="15.60" rsrp="-112" sinr="7" rsrq="-13"/>
      </extensions>
    </trkpt>
    <trkpt lat="45.6025554" lon="10.4536416">
      <ele>262.0</ele>
      <time>2026-04-27T18:35:45.726+02:00</time>
      <extensions>
        <activity type="STILL" conf="75" state="still" tsMs="1777307744975"/>
        <radio op="vodafone IT" rat="LTE" q="8.80" rsrp="-114" sinr="3" rsrq="-10"/>
        <radio op="I TIM" rat="LTE" q="9.80" rsrp="-118" sinr="9" rsrq="-12"/>
      </extensions>
    </trkpt>
    <trkpt lat="45.6025588" lon="10.4536472">
      <ele>262.0</ele>
      <time>2026-04-27T18:36:22.842+02:00</time>
      <extensions>
        <activity type="UNKNOWN" conf="40" state="unknown" tsMs="1777307782023"/>
        <radio op="vodafone IT" rat="LTE" q="8.00" rsrp="-115" sinr="3" rsrq="-15"/>
        <radio op="I TIM" rat="LTE" q="4.20" rsrp="-118" sinr="1" rsrq="-12"/>
      </extensions>
    </trkpt>
    <trkpt lat="45.6025573" lon="10.4536469">
      <ele>262.0</ele>
      <time>2026-04-27T18:37:27.713+02:00</time>
      <extensions>
        <activity type="STILL" conf="99" state="still" tsMs="1777307842192"/>
        <radio op="vodafone IT" rat="LTE" q="7.20" rsrp="-117" sinr="4" rsrq="-11"/>
        <radio op="I TIM" rat="LTE" q="5.60" rsrp="-118" sinr="3" rsrq="-12"/>
      </extensions>
    </trkpt>
    <trkpt lat="45.6025624" lon="10.4536473">
      <ele>262.0</ele>
      <time>2026-04-27T18:38:12.62+02:00</time>
      <extensions>
        <activity type="STILL" conf="99" state="still" tsMs="1777307887556"/>
        <radio op="vodafone IT" rat="LTE" q="16.90" rsrp="-112" sinr="8" rsrq="-11"/>
        <radio op="I TIM" rat="LTE" q="5.60" rsrp="-117" sinr="2" rsrq="-13"/>
      </extensions>
    </trkpt>
    <trkpt lat="45.6025576" lon="10.4536459">
      <ele>262.0</ele>
      <time>2026-04-27T22:55:27.969+02:00</time>
      <extensions>
        <activity type="STILL" conf="100" state="still" tsMs="1777323317588"/>
        <radio op="vodafone IT" rat="LTE" q="16.50" rsrp="-110" sinr="6" rsrq="-11"/>
        <radio op="I TIM" rat="LTE" q="18.00" rsrp="-105" sinr="4" rsrq="-11"/>
      </extensions>
    </trkpt>
    <trkpt lat="45.6025652" lon="10.4536482">
      <ele>262.0</ele>
      <time>2026-04-27T22:56:29.993+02:00</time>
      <extensions>
        <activity type="STILL" conf="100" state="still" tsMs="1777323379599"/>
        <radio op="vodafone IT" rat="LTE" rsrp="-117" rsrq="-15"/>
        <radio op="I TIM" rat="LTE" q="27.30" rsrp="-104" sinr="8" rsrq="-7"/>
      </extensions>
    </trkpt>
    <trkpt lat="45.6025669" lon="10.4536416">
      <ele>262.0</ele>
      <time>2026-04-27T22:56:33.36+02:00</time>
      <extensions>
        <activity type="STILL" conf="100" state="still" tsMs="1777323379599"/>
        <radio op="vodafone IT" rat="LTE" rsrp="-117" rsrq="-13"/>
        <radio op="I TIM" rat="LTE" q="26.00" rsrp="-105" sinr="8" rsrq="-10"/>
      </extensions>
    </trkpt>
    <trkpt lat="45.6025666" lon="10.4536463">
      <ele>262.0</ele>
      <time>2026-04-27T22:57:32.225+02:00</time>
      <extensions>
        <activity type="STILL" conf="100" state="still" tsMs="1777323441803"/>
        <radio op="vodafone IT" rat="LTE" rsrp="-118" rsrq="-15"/>
        <radio op="I TIM" rat="LTE" q="9.50" rsrp="-106" sinr="0" rsrq="-12"/>
      </extensions>
    </trkpt>
    <trkpt lat="45.6025593" lon="10.4536457">
      <ele>262.0</ele>
      <time>2026-04-27T22:58:34.469+02:00</time>
      <extensions>
        <activity type="STILL" conf="100" state="still" tsMs="1777323504030"/>
        <radio op="vodafone IT" rat="LTE" q="4.20" rsrp="-118" sinr="1" rsrq="-12"/>
        <radio op="I TIM" rat="LTE" q="9.60" rsrp="-113" sinr="3" rsrq="-12"/>
      </extensions>
    </trkpt>
  </trkseg></trk>
</gpx>
