<?xml version="1.0" encoding="UTF-8"?>
<gpx version="1.1" creator="CellGPX" xmlns="http://www.topografix.com/GPX/1/1">
  <trk><name>CellGPX</name><trkseg>
    <trkpt lat="45.6229499" lon="10.5705052">
      <ele>122.0</ele>
      <time>2026-07-29T00:00:13.172+02:00</time>
      <extensions>
        <activity type="IN_VEHICLE" conf="97" state="moving" tsMs="1785276019079"/>
        <radio op="vodafone IT" rat="LTE" q="57.60" rsrp="-89" sinr="11" rsrq="-11"/>
        <radio op="I TIM" rat="LTE" rsrp="-104" rsrq="-18"/>
      </extensions>
    </trkpt>
    <trkpt lat="45.6205124" lon="10.5662866">
      <ele>118.96032112531464</ele>
      <time>2026-07-29T00:00:44.252+02:00</time>
      <extensions>
        <activity type="IN_VEHICLE" conf="86" state="moving" tsMs="1785276041975"/>
        <radio op="vodafone IT" rat="LTE" q="68.00" rsrp="-91" sinr="15" rsrq="-6"/>
        <radio op="I TIM" rat="LTE" q="35.20" rsrp="-93" sinr="6" rsrq="-13"/>
      </extensions>
    </trkpt>
    <trkpt lat="45.61884" lon="10.5614626">
      <ele>117.02134676847264</ele>
      <time>2026-07-29T00:01:15.363+02:00</time>
      <extensions>
        <activity type="IN_VEHICLE" conf="85" state="moving" tsMs="1785276072234"/>
        <radio op="vodafone IT" rat="LTE" q="73.60" rsrp="-93" sinr="18" rsrq="-11"/>
        <radio op="I TIM" rat="LTE" q="35.00" rsrp="-90" sinr="5" rsrq="-12"/>
      </extensions>
    </trkpt>
    <trkpt lat="45.6171418" lon="10.5569293">
      <ele>122.0</ele>
      <time>2026-07-29T00:01:46.572+02:00</time>
      <extensions>
        <activity type="IN_VEHICLE" conf="82" state="moving" tsMs="1785276103260"/>
        <radio op="vodafone IT" rat="LTE" q="87.50" rsrp="-90" sinr="25" rsrq="-11"/>
        <radio op="I TIM" rat="LTE" q="70.20" rsrp="-86" sinr="13" rsrq="-11"/>
      </extensions>
    </trkpt>
    <trkpt lat="45.615276" lon="10.5525685">
      <ele>123.4000015258789</ele>
      <time>2026-07-29T00:02:17.802+02:00</time>
      <extensions>
        <activity type="IN_VEHICLE" conf="97" state="moving" tsMs="1785276134393"/>
        <radio op="vodafone IT" rat="LTE" q="28.60" rsrp="-103" sinr="8" rsrq="-11"/>
        <radio op="I TIM" rat="LTE" q="43.20" rsrp="-98" sinr="11" rsrq="-13"/>
      </extensions>
    </trkpt>
    <trkpt lat="45.6137265" lon="10.5469894">
      <ele>121.4000015258789</ele>
      <time>2026-07-29T00:02:52.01+02:00</time>
      <extensions>
        <activity type="IN_VEHICLE" conf="97" state="moving" tsMs="1785276177397"/>
        <radio op="vodafone IT" rat="LTE" q="14.00" rsrp="-111" sinr="5" rsrq="-12"/>
        <radio op="I TIM" rat="LTE" rsrp="-110" rsrq="-14"/>
      </extensions>
    </trkpt>
    <trkpt lat="45.6097266" lon="10.5343077">
      <ele>153.96129263810968</ele>
      <time>2026-07-29T00:04:06.01+02:00</time>
      <extensions>
        <activity type="IN_VEHICLE" conf="97" state="moving" tsMs="1785276264659"/>
        <radio op="vodafone IT" rat="LTE" q="16.00" rsrp="-105" sinr="3" rsrq="-11"/>
        <radio op="I TIM" rat="LTE" rsrp="-101" rsrq="-13"/>
      </extensions>
    </trkpt>
    <trkpt lat="45.6088782" lon="10.5281399">
      <ele>163.63133014534128</ele>
      <time>2026-07-29T00:04:46.107+02:00</time>
      <extensions>
        <activity type="IN_VEHICLE" conf="96" state="moving" tsMs="1785276280736"/>
        <radio op="vodafone IT" rat="LTE" rsrp="-106" rsrq="-11"/>
        <radio op="I TIM" rat="LTE" rsrp="-99" rsrq="-13"/>
      </extensions>
    </trkpt>
    <trkpt lat="45.6108806" lon="10.5157698">
      <ele>159.60100017011692</ele>
      <time>2026-07-29T00:05:51.011+02:00</time>
      <extensions>
        <activity type="IN_VEHICLE" conf="97" state="moving" tsMs="1785276369697"/>
        <radio op="vodafone IT" rat="LTE" q="26.60" rsrp="-106" sinr="9" rsrq="-7"/>
        <radio op="I TIM" rat="LTE" rsrp="-103" rsrq="-14"/>
      </extensions>
    </trkpt>
    <trkpt lat="45.6107813" lon="10.5020521">
      <ele>181.94805116560468</ele>
      <time>2026-07-29T00:07:04.003+02:00</time>
      <extensions>
        <activity type="IN_VEHICLE" conf="97" state="moving" tsMs="1785276419338"/>
        <radio op="vodafone IT" rat="LTE" q="21.00" rsrp="-104" sinr="5" rsrq="-13"/>
        <radio op="I TIM" rat="LTE" q="18.00" rsrp="-105" sinr="4" rsrq="-13"/>
      </extensions>
    </trkpt>
    <trkpt lat="45.6097694" lon="10.4966386">
      <ele>201.02055747125215</ele>
      <time>2026-07-29T00:07:38.01+02:00</time>
      <extensions>
        <activity type="IN_VEHICLE" conf="96" state="moving" tsMs="1785276457924"/>
        <radio op="vodafone IT" rat="LTE" rsrp="-107" rsrq="-12"/>
        <radio op="I TIM" rat="LTE" rsrp="-110" rsrq="-16"/>
      </extensions>
    </trkpt>
    <trkpt lat="45.6122" lon="10.4897365">
      <ele>234.20001220703125</ele>
      <time>2026-07-29T00:08:17.599+02:00</time>
      <extensions>
        <activity type="IN_VEHICLE" conf="96" state="moving" tsMs="1785276493282"/>
        <radio op="vodafone IT" rat="LTE" rsrp="-102" rsrq="-15"/>
        <radio op="I TIM" rat="LTE" rsrp="-108" rsrq="-15"/>
      </extensions>
    </trkpt>
    <trkpt lat="45.6117878" lon="10.4793736">
      <ele>266.7048081895122</ele>
      <time>2026-07-29T00:09:19.94+02:00</time>
      <extensions>
        <activity type="IN_VEHICLE" conf="97" state="moving" tsMs="1785276565141"/>
        <radio op="vodafone IT" rat="LTE" q="48.10" rsrp="-88" sinr="8" rsrq="-9"/>
        <radio op="I TIM" rat="LTE" q="38.40" rsrp="-101" sinr="11" rsrq="-7"/>
      </extensions>
    </trkpt>
    <trkpt lat="45.6086081" lon="10.4764383">
      <ele>266.8000183105469</ele>
      <time>2026-07-29T00:09:50.988+02:00</time>
      <extensions>
        <activity type="IN_VEHICLE" conf="97" state="moving" tsMs="1785276586686"/>
        <radio op="vodafone IT" rat="LTE" q="32.00" rsrp="-81" sinr="3" rsrq="-9"/>
        <radio op="I TIM" rat="LTE" q="87.50" rsrp="-90" sinr="21" rsrq="-6"/>
      </extensions>
    </trkpt>
    <trkpt lat="45.6067285" lon="10.469555">
      <ele>266.1000061035156</ele>
      <time>2026-07-29T00:10:25.01+02:00</time>
      <extensions>
        <activity type="IN_VEHICLE" conf="96" state="moving" tsMs="1785276632837"/>
        <radio op="vodafone IT" rat="LTE" q="100.00" rsrp="-67" sinr="22" rsrq="-6"/>
        <radio op="I TIM" rat="LTE" q="88.00" rsrp="-82" sinr="17" rsrq="-5"/>
      </extensions>
    </trkpt>
    <trkpt lat="45.6053292" lon="10.4650359">
      <ele>267.4000244140625</ele>
      <time>2026-07-29T00:10:50.011+02:00</time>
      <extensions>
        <activity type="IN_VEHICLE" conf="97" state="moving" tsMs="1785276643534"/>
        <radio op="vodafone IT" rat="LTE" q="100.00" rsrp="-55" sinr="28" rsrq="-11"/>
        <radio op="I TIM" rat="LTE" q="48.10" rsrp="-88" sinr="8" rsrq="-6"/>
      </extensions>
    </trkpt>
    <trkpt lat="45.603659" lon="10.459728">
      <ele>260.26752734535506</ele>
      <time>2026-07-29T00:11:25.35+02:00</time>
      <extensions>
        <activity type="IN_VEHICLE" conf="97" state="moving" tsMs="1785276684870"/>
        <radio op="vodafone IT" rat="LTE" q="100.00" rsrp="-60" sinr="29" rsrq="-7"/>
        <radio op="I TIM" rat="LTE" rsrp="-85" rsrq="-11"/>
      </extensions>
    </trkpt>
    <trkpt lat="45.6034744" lon="10.4588555">
      <ele>260.26752734535506</ele>
      <time>2026-07-29T00:11:31.011+02:00</time>
      <extensions>
        <activity type="IN_VEHICLE" conf="97" state="moving" tsMs="1785276684870"/>
        <radio op="vodafone IT" rat="LTE" q="100.00" rsrp="-62" sinr="29" rsrq="-9"/>
        <radio op="I TIM" rat="LTE" q="68.00" rsrp="-79" sinr="12" rsrq="-12"/>
      </extensions>
    </trkpt>
    <trkpt lat="45.6022003" lon="10.4548871">
      <ele>255.96703553755634</ele>
      <time>2026-07-29T00:12:06.582+02:00</time>
      <extensions>
        <activity type="UNKNOWN" conf="40" state="unknown" tsMs="1785276724131"/>
        <radio op="vodafone IT" rat="LTE" q="42.90" rsrp="-86" sinr="6" rsrq="-10"/>
        <radio op="I TIM" rat="LTE" rsrp="-100" rsrq="-15"/>
      </extensions>
    </trkpt>
    <trkpt lat="45.6021365" lon="10.4530595">
      <ele>254.39749264052136</ele>
      <time>2026-07-29T00:12:37.864+02:00</time>
      <extensions>
        <activity type="IN_VEHICLE" conf="97" state="moving" tsMs="1785276754489"/>
        <radio op="vodafone IT" rat="LTE" q="20.40" rsrp="-91" sinr="1" rsrq="-11"/>
        <radio op="I TIM" rat="LTE" q="48.00" rsrp="-95" sinr="11" rsrq="-10"/>
      </extensions>
    </trkpt>
    <trkpt lat="45.6021087" lon="10.4530222">
      <ele>254.68044209332763</ele>
      <time>2026-07-29T00:12:44.012+02:00</time>
      <extensions>
        <activity type="IN_VEHICLE" conf="97" state="moving" tsMs="1785276768562"/>
        <radio op="vodafone IT" rat="LTE" q="23.10" rsrp="-92" sinr="2" rsrq="-12"/>
        <radio op="I TIM" rat="LTE" q="13.50" rsrp="-98" sinr="0" rsrq="-12"/>
      </extensions>
    </trkpt>
    <trkpt lat="45.6021685" lon="10.4531664">
      <ele>254.93166518036276</ele>
      <time>2026-07-29T00:13:19.197+02:00</time>
      <extensions>
        <activity type="ON_FOOT" conf="96" state="moving" tsMs="1785276794810"/>
        <radio op="vodafone IT" rat="LTE" q="19.20" rsrp="-93" sinr="1" rsrq="-11"/>
        <radio op="I TIM" rat="LTE" q="27.00" rsrp="-98" sinr="5" rsrq="-11"/>
      </extensions>
    </trkpt>
    <trkpt lat="45.6021794" lon="10.4531033">
      <ele>255.19282952161208</ele>
      <time>2026-07-29T00:13:50.396+02:00</time>
      <extensions>
        <activity type="ON_FOOT" conf="96" state="moving" tsMs="1785276826758"/>
        <radio op="vodafone IT" rat="LTE" q="23.20" rsrp="-96" sinr="3" rsrq="-12"/>
        <radio op="I TIM" rat="LTE" q="54.00" rsrp="-98" sinr="15" rsrq="-12"/>
      </extensions>
    </trkpt>
    <trkpt lat="45.6022779" lon="10.4535024">
      <ele>255.63214760012352</ele>
      <time>2026-07-29T00:14:21.578+02:00</time>
      <extensions>
        <activity type="ON_FOOT" conf="96" state="moving" tsMs="1785276857992"/>
        <radio op="vodafone IT" rat="LTE" q="42.90" rsrp="-92" sinr="8" rsrq="-10"/>
        <radio op="I TIM" rat="LTE" q="32.20" rsrp="-102" sinr="9" rsrq="-12"/>
      </extensions>
    </trkpt>
    <trkpt lat="45.6025651" lon="10.4536632">
      <ele>255.53515248479073</ele>
      <time>2026-07-29T00:14:52.75+02:00</time>
      <extensions>
        <activity type="ON_FOOT" conf="96" state="moving" tsMs="1785276889105"/>
        <radio op="vodafone IT" rat="LTE" q="23.40" rsrp="-99" sinr="4" rsrq="-12"/>
        <radio op="I TIM" rat="LTE" rsrp="-105" rsrq="-13"/>
      </extensions>
    </trkpt>
    <trkpt lat="45.602544" lon="10.4536812">
      <ele>257.539459349872</ele>
      <time>2026-07-29T00:15:23.967+02:00</time>
      <extensions>
        <activity type="ON_FOOT" conf="84" state="moving" tsMs="1785276920203"/>
        <radio op="vodafone IT" rat="LTE" q="13.60" rsrp="-108" sinr="3" rsrq="-12"/>
        <radio op="I TIM" rat="LTE" q="10.00" rsrp="-115" sinr="5" rsrq="-11"/>
      </extensions>
    </trkpt>
    <trkpt lat="45.6025387" lon="10.4536767">
      <ele>257.05448294072073</ele>
      <time>2026-07-29T00:15:55.318+02:00</time>
      <extensions>
        <activity type="STILL" conf="99" state="still" tsMs="1785276951761"/>
        <radio op="vodafone IT" rat="LTE" q="13.00" rsrp="-112" sinr="5" rsrq="-10"/>
        <radio op="I TIM" rat="LTE" q="48.40" rsrp="-103" sinr="17" rsrq="-9"/>
      </extensions>
    </trkpt>
    <trkpt lat="45.6025381" lon="10.4536757">
      <ele>261.6000061035156</ele>
      <time>2026-07-29T00:16:26.991+02:00</time>
      <extensions>
        <activity type="STILL" conf="99" state="still" tsMs="1785276983216"/>
        <radio op="vodafone IT" rat="LTE" q="13.00" rsrp="-112" sinr="5" rsrq="-10"/>
        <radio op="I TIM" rat="LTE" q="52.80" rsrp="-103" sinr="19" rsrq="-11"/>
      </extensions>
    </trkpt>
    <trkpt lat="45.6025747" lon="10.453731">
      <ele>261.6000061035156</ele>
      <time>2026-07-29T00:16:58.414+02:00</time>
      <extensions>
        <activity type="STILL" conf="99" state="still" tsMs="1785277014808"/>
        <radio op="vodafone IT" rat="LTE" q="13.00" rsrp="-112" sinr="5" rsrq="-12"/>
        <radio op="I TIM" rat="LTE" q="55.00" rsrp="-103" sinr="20" rsrq="-10"/>
      </extensions>
    </trkpt>
    <trkpt lat="45.6025718" lon="10.4537304">
      <ele>261.6000061035156</ele>
      <time>2026-07-29T00:17:29.951+02:00</time>
      <extensions>
        <activity type="STILL" conf="99" state="still" tsMs="1785277046243"/>
        <radio op="vodafone IT" rat="LTE" q="13.00" rsrp="-112" sinr="5" rsrq="-9"/>
        <radio op="I TIM" rat="LTE" q="52.80" rsrp="-103" sinr="19" rsrq="-11"/>
      </extensions>
    </trkpt>
    <trkpt lat="45.6025646" lon="10.4537173">
      <ele>261.6000061035156</ele>
      <time>2026-07-29T00:18:01.399+02:00</time>
      <extensions>
        <activity type="STILL" conf="99" state="still" tsMs="1785277077635"/>
        <radio op="vodafone IT" rat="LTE" q="13.00" rsrp="-112" sinr="5" rsrq="-9"/>
        <radio op="I TIM" rat="LTE" q="52.80" rsrp="-103" sinr="19" rsrq="-9"/>
      </extensions>
    </trkpt>
    <trkpt lat="45.6025756" lon="10.4537261">
      <ele>261.6000061035156</ele>
      <time>2026-07-29T08:52:27.606+02:00</time>
      <extensions>
        <activity type="STILL" conf="100" state="still" tsMs="1785307937455"/>
        <radio op="vodafone IT" rat="LTE" q="23.40" rsrp="-107" sinr="8" rsrq="-8"/>
        <radio op="I TIM" rat="LTE" rsrp="-115" rsrq="-10"/>
      </extensions>
    </trkpt>
    <trkpt lat="45.6025664" lon="10.453713">
      <ele>261.6000061035156</ele>
      <time>2026-07-29T08:53:29.338+02:00</time>
      <extensions>
        <activity type="STILL" conf="100" state="still" tsMs="1785307999225"/>
        <radio op="vodafone IT" rat="LTE" q="22.80" rsrp="-106" sinr="7" rsrq="-8"/>
        <radio op="I TIM" rat="LTE" q="8.00" rsrp="-115" sinr="3" rsrq="-10"/>
      </extensions>
    </trkpt>
    <trkpt lat="45.6022984" lon="10.453587">
      <ele>261.5</ele>
      <time>2026-07-29T14:57:37.66+02:00</time>
      <extensions>
        <activity type="ON_FOOT" conf="97" state="moving" tsMs="1785329841803"/>
        <radio op="vodafone IT" rat="LTE" q="18.00" rsrp="-105" sinr="4" rsrq="-10"/>
        <radio op="I TIM" rat="LTE" q="33.80" rsrp="-99" sinr="8" rsrq="-10"/>
      </extensions>
    </trkpt>
    <trkpt lat="45.6021715" lon="10.4532919">
      <ele>261.6000061035156</ele>
      <time>2026-07-29T14:58:05.253+02:00</time>
      <extensions>
        <activity type="ON_FOOT" conf="96" state="moving" tsMs="1785329886543"/>
        <radio op="vodafone IT" rat="LTE" q="27.60" rsrp="-102" sinr="7" rsrq="-12"/>
        <radio op="I TIM" rat="LTE" q="23.20" rsrp="-96" sinr="3" rsrq="-8"/>
      </extensions>
    </trkpt>
    <trkpt lat="45.6021176" lon="10.4530187">
      <ele>261.70001220703125</ele>
      <time>2026-07-29T14:58:35.749+02:00</time>
      <extensions>
        <activity type="ON_FOOT" conf="92" state="moving" tsMs="1785329917177"/>
        <radio op="vodafone IT" rat="LTE" q="16.80" rsrp="-104" sinr="3" rsrq="-10"/>
        <radio op="I TIM" rat="LTE" q="39.00" rsrp="-99" sinr="10" rsrq="-9"/>
      </extensions>
    </trkpt>
    <trkpt lat="45.6021591" lon="10.4530997">
      <ele>261.6000061035156</ele>
      <time>2026-07-29T14:59:11.939+02:00</time>
      <extensions>
        <activity type="UNKNOWN" conf="40" state="unknown" tsMs="1785329947413"/>
        <radio op="vodafone IT" rat="LTE" rsrp="-106" rsrq="-9"/>
        <radio op="I TIM" rat="LTE" q="25.20" rsrp="-97" sinr="4" rsrq="-10"/>
      </extensions>
    </trkpt>
    <trkpt lat="45.6022032" lon="10.4530551">
      <ele>261.70001220703125</ele>
      <time>2026-07-29T14:59:38.536+02:00</time>
      <extensions>
        <activity type="IN_VEHICLE" conf="96" state="moving" tsMs="1785329978700"/>
        <radio op="vodafone IT" rat="LTE" rsrp="-105" rsrq="-11"/>
        <radio op="I TIM" rat="LTE" q="37.70" rsrp="-96" sinr="8" rsrq="-10"/>
      </extensions>
    </trkpt>
    <trkpt lat="45.6015626" lon="10.4539178">
      <ele>260.8000183105469</ele>
      <time>2026-07-29T15:00:09.862+02:00</time>
      <extensions>
        <activity type="IN_VEHICLE" conf="97" state="moving" tsMs="1785330010125"/>
        <radio op="vodafone IT" rat="LTE" q="18.90" rsrp="-104" sinr="4" rsrq="-8"/>
        <radio op="I TIM" rat="LTE" q="51.00" rsrp="-95" sinr="12" rsrq="-7"/>
      </extensions>
    </trkpt>
    <trkpt lat="45.6024493" lon="10.4553836">
      <ele>264.8573282031965</ele>
      <time>2026-07-29T15:00:44.788+02:00</time>
      <extensions>
        <activity type="IN_VEHICLE" conf="97" state="moving" tsMs="1785330040793"/>
        <radio op="vodafone IT" rat="LTE" q="43.70" rsrp="-102" sinr="14" rsrq="-8"/>
        <radio op="I TIM" rat="LTE" q="44.80" rsrp="-97" sinr="11" rsrq="-10"/>
      </extensions>
    </trkpt>
    <trkpt lat="45.6032352" lon="10.4584463">
      <ele>269.28583641102796</ele>
      <time>2026-07-29T15:01:16.214+02:00</time>
      <extensions>
        <activity type="IN_VEHICLE" conf="97" state="moving" tsMs="1785330071488"/>
        <radio op="vodafone IT" rat="LTE" q="100.00" rsrp="-74" sinr="30" rsrq="-11"/>
        <radio op="I TIM" rat="LTE" q="18.00" rsrp="-105" sinr="4" rsrq="-14"/>
      </extensions>
    </trkpt>
    <trkpt lat="45.603659" lon="10.4595622">
      <ele>269.28583641102796</ele>
      <time>2026-07-29T15:01:24.124+02:00</time>
      <extensions>
        <activity type="IN_VEHICLE" conf="97" state="moving" tsMs="1785330086853"/>
        <radio op="vodafone IT" rat="LTE" q="100.00" rsrp="-70" sinr="30" rsrq="-9"/>
        <radio op="I TIM" rat="LTE" rsrp="-110" rsrq="-17"/>
      </extensions>
    </trkpt>
    <trkpt lat="45.6046255" lon="10.4647117">
      <ele>269.42518778255595</ele>
      <time>2026-07-29T15:01:57.714+02:00</time>
      <extensions>
        <activity type="IN_VEHICLE" conf="97" state="moving" tsMs="1785330113400"/>
        <radio op="vodafone IT" rat="LTE" q="100.00" rsrp="-70" sinr="30" rsrq="-7"/>
        <radio op="I TIM" rat="LTE" rsrp="-106" rsrq="-17"/>
      </extensions>
    </trkpt>
    <trkpt lat="45.6064269" lon="10.4686775">
      <ele>278.0402321240748</ele>
      <time>2026-07-29T15:02:28.98+02:00</time>
      <extensions>
        <activity type="IN_VEHICLE" conf="97" state="moving" tsMs="1785330144457"/>
        <radio op="vodafone IT" rat="LTE" q="100.00" rsrp="-84" sinr="22" rsrq="-7"/>
        <radio op="I TIM" rat="LTE" q="18.20" rsrp="-99" sinr="2" rsrq="-12"/>
      </extensions>
    </trkpt>
    <trkpt lat="45.6067485" lon="10.4698936">
      <ele>278.0402321240748</ele>
      <time>2026-07-29T15:02:35.126+02:00</time>
      <extensions>
        <activity type="IN_VEHICLE" conf="97" state="moving" tsMs="1785330159642"/>
        <radio op="vodafone IT" rat="LTE" q="69.30" rsrp="-92" sinr="16" rsrq="-7"/>
        <radio op="I TIM" rat="LTE" q="33.60" rsrp="-101" sinr="9" rsrq="-12"/>
      </extensions>
    </trkpt>
    <trkpt lat="45.6089089" lon="10.4760815">
      <ele>280.1434775216766</ele>
      <time>2026-07-29T15:03:10.395+02:00</time>
      <extensions>
        <activity type="IN_VEHICLE" conf="96" state="moving" tsMs="1785330186508"/>
        <radio op="vodafone IT" rat="LTE" q="30.60" rsrp="-91" sinr="4" rsrq="-11"/>
        <radio op="I TIM" rat="LTE" rsrp="-119" rsrq="-20"/>
      </extensions>
    </trkpt>
    <trkpt lat="45.6119149" lon="10.4811164">
      <ele>273.8944346750599</ele>
      <time>2026-07-29T15:03:41.68+02:00</time>
      <extensions>
        <activity type="IN_VEHICLE" conf="97" state="moving" tsMs="1785330217128"/>
        <radio op="vodafone IT" rat="LTE" q="12.00" rsrp="-105" sinr="1" rsrq="-11"/>
        <radio op="I TIM" rat="LTE" rsrp="-112" rsrq="-17"/>
      </extensions>
    </trkpt>
    <trkpt lat="45.6167185" lon="10.4835917">
      <ele>282.24089365416955</ele>
      <time>2026-07-29T15:04:12.98+02:00</time>
      <extensions>
        <activity type="IN_VEHICLE" conf="97" state="moving" tsMs="1785330248446"/>
        <radio op="vodafone IT" rat="LTE" q="50.00" rsrp="-100" sinr="15" rsrq="-8"/>
        <radio op="I TIM" rat="LTE" rsrp="-118" rsrq="-17"/>
      </extensions>
    </trkpt>
    <trkpt lat="45.620083" lon="10.4850637">
      <ele>284.00887146366676</ele>
      <time>2026-07-29T15:04:51.122+02:00</time>
      <extensions>
        <activity type="UNKNOWN" conf="40" state="unknown" tsMs="1785330300256"/>
        <radio op="vodafone IT" rat="LTE" q="37.70" rsrp="-96" sinr="8" rsrq="-12"/>
        <radio op="I TIM" rat="LTE" rsrp="-110" rsrq="-16"/>
      </extensions>
    </trkpt>
    <trkpt lat="45.6230083" lon="10.4911261">
      <ele>284.6835903911998</ele>
      <time>2026-07-29T15:05:25.709+02:00</time>
      <extensions>
        <activity type="UNKNOWN" conf="40" state="unknown" tsMs="1785330321712"/>
        <radio op="vodafone IT" rat="LTE" q="46.40" rsrp="-96" sinr="11" rsrq="-11"/>
        <radio op="I TIM" rat="LTE" q="16.00" rsrp="-105" sinr="3" rsrq="-12"/>
      </extensions>
    </trkpt>
    <trkpt lat="45.623823" lon="10.4934799">
      <ele>278.73562016483777</ele>
      <time>2026-07-29T15:05:57.04+02:00</time>
      <extensions>
        <activity type="IN_VEHICLE" conf="97" state="moving" tsMs="1785330353218"/>
        <radio op="vodafone IT" rat="LTE" q="29.70" rsrp="-98" sinr="6" rsrq="-11"/>
        <radio op="I TIM" rat="LTE" q="20.80" rsrp="-109" sinr="8" rsrq="-12"/>
      </extensions>
    </trkpt>
    <trkpt lat="45.6238423" lon="10.4935369">
      <ele>278.3441482943217</ele>
      <time>2026-07-29T15:06:28.342+02:00</time>
      <extensions>
        <activity type="TILTING" conf="100" state="moving" tsMs="1785330380810"/>
        <radio op="vodafone IT" rat="LTE" q="40.80" rsrp="-101" sinr="12" rsrq="-13"/>
        <radio op="I TIM" rat="LTE" q="25.60" rsrp="-109" sinr="11" rsrq="-12"/>
      </extensions>
    </trkpt>
    <trkpt lat="45.6237728" lon="10.4935737">
      <ele>278.40544269150655</ele>
      <time>2026-07-29T15:07:00.159+02:00</time>
      <extensions>
        <activity type="STILL" conf="50" state="still" tsMs="1785330415337"/>
        <radio op="vodafone IT" rat="LTE" q="28.60" rsrp="-103" sinr="8" rsrq="-12"/>
        <radio op="I TIM" rat="LTE" q="30.60" rsrp="-107" sinr="12" rsrq="-11"/>
      </extensions>
    </trkpt>
    <trkpt lat="45.623844" lon="10.4934097">
      <ele>278.7584223769477</ele>
      <time>2026-07-29T15:07:29.85+02:00</time>
      <extensions>
        <activity type="STILL" conf="64" state="still" tsMs="1785330450855"/>
        <radio op="vodafone IT" rat="LTE" rsrp="-105" rsrq="-15"/>
        <radio op="I TIM" rat="LTE" q="23.80" rsrp="-111" sinr="12" rsrq="-12"/>
      </extensions>
    </trkpt>
    <trkpt lat="45.623658" lon="10.4929942">
      <ele>278.561851063997</ele>
      <time>2026-07-29T15:08:03.285+02:00</time>
      <extensions>
        <activity type="ON_FOOT" conf="97" state="moving" tsMs="1785330482191"/>
        <radio op="vodafone IT" rat="LTE" q="11.00" rsrp="-103" sinr="0" rsrq="-12"/>
        <radio op="I TIM" rat="LTE" q="32.30" rsrp="-106" sinr="12" rsrq="-13"/>
      </extensions>
    </trkpt>
    <trkpt lat="45.6237118" lon="10.4928606">
      <ele>278.5386009907927</ele>
      <time>2026-07-29T15:08:34.551+02:00</time>
      <extensions>
        <activity type="ON_FOOT" conf="92" state="moving" tsMs="1785330514261"/>
        <radio op="vodafone IT" rat="LTE" q="0.00" rsrp="-127" sinr="1" rsrq="-17"/>
        <radio op="I TIM" rat="LTE" q="1.20" rsrp="-123" sinr="1" rsrq="-13"/>
      </extensions>
    </trkpt>
    <trkpt lat="45.6238487" lon="10.4926897">
      <ele>288.0485730356977</ele>
      <time>2026-07-29T15:09:39.363+02:00</time>
      <extensions>
        <activity type="ON_FOOT" conf="97" state="moving" tsMs="1785330575326"/>
        <radio op="vodafone IT" rat="LTE" rsrp="-103" rsrq="-7"/>
        <radio op="I TIM" rat="LTE" q="39.90" rsrp="-104" sinr="14" rsrq="-12"/>
      </extensions>
    </trkpt>
    <trkpt lat="45.6237883" lon="10.4927431">
      <ele>288.4738707569179</ele>
      <time>2026-07-29T15:10:14.053+02:00</time>
      <extensions>
        <activity type="ON_FOOT" conf="93" state="moving" tsMs="1785330609546"/>
        <radio op="vodafone IT" rat="LTE" q="24.20" rsrp="-103" sinr="6" rsrq="-10"/>
        <radio op="I TIM" rat="LTE" q="9.00" rsrp="-115" sinr="4" rsrq="-13"/>
      </extensions>
    </trkpt>
    <trkpt lat="45.6237883" lon="10.4927431">
      <ele>290.0927335711657</ele>
      <time>2026-07-29T15:10:36.422+02:00</time>
      <extensions>
        <activity type="ON_FOOT" conf="86" state="moving" tsMs="1785330636362"/>
        <radio op="vodafone IT" rat="LTE" rsrp="-123" rsrq="-15"/>
        <radio op="I TIM" rat="LTE" q="1.40" rsrp="-123" sinr="2" rsrq="-14"/>
      </extensions>
    </trkpt>
    <trkpt lat="45.62381" lon="10.4927392">
      <ele>292.8000183105469</ele>
      <time>2026-07-29T15:10:55.192+02:00</time>
      <extensions>
        <activity type="UNKNOWN" conf="40" state="unknown" tsMs="1785330639787"/>
        <radio op="vodafone IT" rat="LTE" rsrp="-119" rsrq="-15"/>
        <radio op="I TIM" rat="LTE" q="4.90" rsrp="-118" sinr="2" rsrq="-12"/>
      </extensions>
    </trkpt>
    <trkpt lat="45.6237776" lon="10.4927391">
      <ele>292.8000183105469</ele>
      <time>2026-07-29T15:11:05.333+02:00</time>
      <extensions>
        <activity type="ON_FOOT" conf="91" state="moving" tsMs="1785330663458"/>
        <radio op="vodafone IT" rat="LTE" q="9.60" rsrp="-113" sinr="3" rsrq="-10"/>
        <radio op="I TIM" rat="LTE" q="30.40" rsrp="-109" sinr="14" rsrq="-12"/>
      </extensions>
    </trkpt>
    <trkpt lat="45.6237939" lon="10.4927232">
      <ele>290.9245059913861</ele>
      <time>2026-07-29T15:11:15.391+02:00</time>
      <extensions>
        <activity type="ON_FOOT" conf="91" state="moving" tsMs="1785330663458"/>
        <radio op="vodafone IT" rat="LTE" q="6.00" rsrp="-115" sinr="1" rsrq="-12"/>
        <radio op="I TIM" rat="LTE" q="10.40" rsrp="-117" sinr="8" rsrq="-13"/>
      </extensions>
    </trkpt>
    <trkpt lat="45.6237889" lon="10.4926937">
      <ele>291.0070302060458</ele>
      <time>2026-07-29T15:11:19.11+02:00</time>
      <extensions>
        <activity type="UNKNOWN" conf="40" state="unknown" tsMs="1785330668378"/>
        <radio op="vodafone IT" rat="LTE" rsrp="-113" rsrq="-16"/>
        <radio op="I TIM" rat="LTE" q="26.60" rsrp="-111" sinr="14" rsrq="-11"/>
      </extensions>
    </trkpt>
    <trkpt lat="45.6238149" lon="10.4927365">
      <ele>291.03030640976635</ele>
      <time>2026-07-29T15:11:50.595+02:00</time>
      <extensions>
        <activity type="UNKNOWN" conf="40" state="unknown" tsMs="1785330709592"/>
        <radio op="vodafone IT" rat="LTE" rsrp="-121" rsrq="-13"/>
        <radio op="I TIM" rat="LTE" q="4.00" rsrp="-120" sinr="3" rsrq="-12"/>
      </extensions>
    </trkpt>
    <trkpt lat="45.6237902" lon="10.4927429">
      <ele>292.70001220703125</ele>
      <time>2026-07-29T15:12:24.664+02:00</time>
      <extensions>
        <activity type="ON_FOOT" conf="86" state="moving" tsMs="1785330744291"/>
        <radio op="vodafone IT" rat="LTE" q="3.50" rsrp="-118" sinr="0" rsrq="-12"/>
        <radio op="I TIM" rat="LTE" q="5.60" rsrp="-118" sinr="3" rsrq="-12"/>
      </extensions>
    </trkpt>
    <trkpt lat="45.6237921" lon="10.4927416">
      <ele>292.70001220703125</ele>
      <time>2026-07-29T15:13:06.37+02:00</time>
      <extensions>
        <activity type="UNKNOWN" conf="40" state="unknown" tsMs="1785330781274"/>
        <radio op="vodafone IT" rat="LTE" q="3.50" rsrp="-120" sinr="2" rsrq="-13"/>
        <radio op="I TIM" rat="LTE" rsrp="-120" rsrq="-14"/>
      </extensions>
    </trkpt>
    <trkpt lat="45.6237883" lon="10.492747">
      <ele>292.70001220703125</ele>
      <time>2026-07-29T15:14:01.1+02:00</time>
      <extensions>
        <activity type="STILL" conf="99" state="still" tsMs="1785330835301"/>
        <radio op="vodafone IT" rat="LTE" rsrp="-120" rsrq="-12"/>
        <radio op="I TIM" rat="LTE" q="3.50" rsrp="-118" sinr="0" rsrq="-13"/>
      </extensions>
    </trkpt>
    <trkpt lat="45.6237982" lon="10.4927416">
      <ele>292.70001220703125</ele>
      <time>2026-07-29T15:14:35.123+02:00</time>
      <extensions>
        <activity type="STILL" conf="99" state="still" tsMs="1785330869338"/>
        <radio op="vodafone IT" rat="LTE" q="4.80" rsrp="-121" sinr="7" rsrq="-11"/>
        <radio op="I TIM" rat="LTE" q="3.00" rsrp="-119" sinr="0" rsrq="-13"/>
      </extensions>
    </trkpt>
    <trkpt lat="45.6237977" lon="10.4927401">
      <ele>292.70001220703125</ele>
      <time>2026-07-29T15:15:09.406+02:00</time>
      <extensions>
        <activity type="STILL" conf="97" state="still" tsMs="1785330908597"/>
        <radio op="vodafone IT" rat="LTE" rsrp="-122" rsrq="-12"/>
        <radio op="I TIM" rat="LTE" q="3.50" rsrp="-118" sinr="0" rsrq="-13"/>
      </extensions>
    </trkpt>
    <trkpt lat="45.6237721" lon="10.4927536">
      <ele>292.70001220703125</ele>
      <time>2026-07-29T16:08:10.816+02:00</time>
      <extensions>
        <activity type="TILTING" conf="100" state="moving" tsMs="1785334082083"/>
        <radio op="vodafone IT" rat="LTE" rsrp="-108" rsrq="-12"/>
        <radio op="I TIM" rat="LTE" q="10.00" rsrp="-115" sinr="5" rsrq="-13"/>
      </extensions>
    </trkpt>
    <trkpt lat="45.6237433" lon="10.4927832">
      <ele>292.70001220703125</ele>
      <time>2026-07-29T16:09:08.749+02:00</time>
      <extensions>
        <activity type="STILL" conf="99" state="still" tsMs="1785334144329"/>
        <radio op="vodafone IT" rat="LTE" q="12.80" rsrp="-109" sinr="3" rsrq="-12"/>
        <radio op="I TIM" rat="LTE" q="16.80" rsrp="-111" sinr="7" rsrq="-13"/>
      </extensions>
    </trkpt>
    <trkpt lat="45.6237132" lon="10.4927972">
      <ele>292.70001220703125</ele>
      <time>2026-07-29T16:09:46.934+02:00</time>
      <extensions>
        <activity type="STILL" conf="100" state="still" tsMs="1785334175594"/>
        <radio op="vodafone IT" rat="LTE" q="12.00" rsrp="-110" sinr="3" rsrq="-11"/>
        <radio op="I TIM" rat="LTE" q="23.80" rsrp="-108" sinr="9" rsrq="-12"/>
      </extensions>
    </trkpt>
    <trkpt lat="45.6237269" lon="10.4927906">
      <ele>292.70001220703125</ele>
      <time>2026-07-29T16:10:36.721+02:00</time>
      <extensions>
        <activity type="STILL" conf="99" state="still" tsMs="1785334231402"/>
        <radio op="vodafone IT" rat="LTE" q="25.60" rsrp="-109" sinr="11" rsrq="-11"/>
        <radio op="I TIM" rat="LTE" q="21.00" rsrp="-110" sinr="9" rsrq="-12"/>
      </extensions>
    </trkpt>
    <trkpt lat="45.6237342" lon="10.4927878">
      <ele>292.70001220703125</ele>
      <time>2026-07-29T16:11:32.169+02:00</time>
      <extensions>
        <activity type="STILL" conf="99" state="still" tsMs="1785334287209"/>
        <radio op="vodafone IT" rat="LTE" q="10.20" rsrp="-108" sinr="1" rsrq="-11"/>
        <radio op="I TIM" rat="LTE" q="18.20" rsrp="-111" sinr="8" rsrq="-12"/>
      </extensions>
    </trkpt>
    <trkpt lat="45.6237084" lon="10.4928025">
      <ele>292.70001220703125</ele>
      <time>2026-07-29T16:12:05.418+02:00</time>
      <extensions>
        <activity type="STILL" conf="99" state="still" tsMs="1785334324674"/>
        <radio op="vodafone IT" rat="LTE" q="13.60" rsrp="-108" sinr="3" rsrq="-11"/>
        <radio op="I TIM" rat="LTE" q="19.50" rsrp="-110" sinr="8" rsrq="-12"/>
      </extensions>
    </trkpt>
    <trkpt lat="45.6238346" lon="10.4926783">
      <ele>292.70001220703125</ele>
      <time>2026-07-29T17:58:58.584+02:00</time>
      <extensions>
        <activity type="UNKNOWN" conf="40" state="unknown" tsMs="1785340723272"/>
        <radio op="vodafone IT" rat="LTE" q="12.60" rsrp="-111" sinr="4" rsrq="-10"/>
        <radio op="I TIM" rat="LTE" q="18.00" rsrp="-113" sinr="10" rsrq="-12"/>
      </extensions>
    </trkpt>
    <trkpt lat="45.6238044" lon="10.4926651">
      <ele>289.3562373036161</ele>
      <time>2026-07-29T17:59:08.267+02:00</time>
      <extensions>
        <activity type="UNKNOWN" conf="40" state="unknown" tsMs="1785340723272"/>
        <radio op="vodafone IT" rat="LTE" q="6.00" rsrp="-115" sinr="1" rsrq="-9"/>
        <radio op="I TIM" rat="LTE" q="10.40" rsrp="-117" sinr="8" rsrq="-13"/>
      </extensions>
    </trkpt>
    <trkpt lat="45.6238459" lon="10.4926887">
      <ele>291.20001220703125</ele>
      <time>2026-07-29T17:59:18.862+02:00</time>
      <extensions>
        <activity type="ON_FOOT" conf="90" state="moving" tsMs="1785340739105"/>
        <radio op="vodafone IT" rat="LTE" q="4.90" rsrp="-118" sinr="2" rsrq="-11"/>
        <radio op="I TIM" rat="LTE" q="8.40" rsrp="-119" sinr="9" rsrq="-13"/>
      </extensions>
    </trkpt>
    <trkpt lat="45.6237565" lon="10.4928092">
      <ele>288.74838536975517</ele>
      <time>2026-07-29T17:59:28.361+02:00</time>
      <extensions>
        <activity type="UNKNOWN" conf="40" state="unknown" tsMs="1785340758394"/>
        <radio op="vodafone IT" rat="LTE" rsrp="-125" rsrq="-13"/>
        <radio op="I TIM" rat="LTE" rsrp="-126" rsrq="-14"/>
      </extensions>
    </trkpt>
    <trkpt lat="45.6236251" lon="10.4928861">
      <ele>287.9851953350729</ele>
      <time>2026-07-29T17:59:39.2+02:00</time>
      <extensions>
        <activity type="UNKNOWN" conf="40" state="unknown" tsMs="1785340758394"/>
        <radio op="vodafone IT" rat="LTE" rsrp="-119" rsrq="-15"/>
        <radio op="I TIM" rat="LTE" q="7.70" rsrp="-118" sinr="6" rsrq="-13"/>
      </extensions>
    </trkpt>
    <trkpt lat="45.6235253" lon="10.4929802">
      <ele>287.9407609578283</ele>
      <time>2026-07-29T17:59:49.164+02:00</time>
      <extensions>
        <activity type="ON_FOOT" conf="91" state="moving" tsMs="1785340774420"/>
        <radio op="vodafone IT" rat="LTE" q="26.40" rsrp="-103" sinr="7" rsrq="-11"/>
        <radio op="I TIM" rat="LTE" q="16.80" rsrp="-111" sinr="7" rsrq="-14"/>
      </extensions>
    </trkpt>
    <trkpt lat="45.6236807" lon="10.4931613">
      <ele>286.1000061035156</ele>
      <time>2026-07-29T17:59:59.248+02:00</time>
      <extensions>
        <activity type="ON_FOOT" conf="91" state="moving" tsMs="1785340774420"/>
        <radio op="vodafone IT" rat="LTE" q="16.20" rsrp="-107" sinr="4" rsrq="-9"/>
        <radio op="I TIM" rat="LTE" q="22.40" rsrp="-109" sinr="9" rsrq="-12"/>
      </extensions>
    </trkpt>
    <trkpt lat="45.6237461" lon="10.4933233">
      <ele>286.1000061035156</ele>
      <time>2026-07-29T18:00:09.806+02:00</time>
      <extensions>
        <activity type="ON_FOOT" conf="98" state="moving" tsMs="1785340789952"/>
        <radio op="vodafone IT" rat="LTE" rsrp="-103" rsrq="-12"/>
        <radio op="I TIM" rat="LTE" q="19.50" rsrp="-110" sinr="8" rsrq="-11"/>
      </extensions>
    </trkpt>
    <trkpt lat="45.6237674" lon="10.4934818">
      <ele>285.8199578901218</ele>
      <time>2026-07-29T18:00:19.723+02:00</time>
      <extensions>
        <activity type="ON_FOOT" conf="94" state="moving" tsMs="1785340807748"/>
        <radio op="vodafone IT" rat="LTE" q="7.20" rsrp="-119" sinr="7" rsrq="-11"/>
        <radio op="I TIM" rat="LTE" q="19.20" rsrp="-109" sinr="7" rsrq="-12"/>
      </extensions>
    </trkpt>
    <trkpt lat="45.6237463" lon="10.4934688">
      <ele>286.1288655264838</ele>
      <time>2026-07-29T18:00:29.307+02:00</time>
      <extensions>
        <activity type="ON_FOOT" conf="94" state="moving" tsMs="1785340807748"/>
        <radio op="vodafone IT" rat="LTE" rsrp="-115" rsrq="-15"/>
        <radio op="I TIM" rat="LTE" q="9.00" rsrp="-116" sinr="5" rsrq="-12"/>
      </extensions>
    </trkpt>
    <trkpt lat="45.6237479" lon="10.4934624">
      <ele>285.0599899643803</ele>
      <time>2026-07-29T18:00:39.621+02:00</time>
      <extensions>
        <activity type="UNKNOWN" conf="40" state="unknown" tsMs="1785340823212"/>
        <radio op="vodafone IT" rat="LTE" q="16.00" rsrp="-109" sinr="5" rsrq="-9"/>
        <radio op="I TIM" rat="LTE" q="18.00" rsrp="-113" sinr="10" rsrq="-13"/>
      </extensions>
    </trkpt>
    <trkpt lat="45.6237351" lon="10.4934498">
      <ele>284.8103233528248</ele>
      <time>2026-07-29T18:00:50.227+02:00</time>
      <extensions>
        <activity type="UNKNOWN" conf="40" state="unknown" tsMs="1785340838922"/>
        <radio op="vodafone IT" rat="LTE" q="16.90" rsrp="-112" sinr="8" rsrq="-12"/>
        <radio op="I TIM" rat="LTE" q="5.60" rsrp="-118" sinr="3" rsrq="-14"/>
      </extensions>
    </trkpt>
    <trkpt lat="45.6237287" lon="10.4933733">
      <ele>281.8000183105469</ele>
      <time>2026-07-29T18:01:00.242+02:00</time>
      <extensions>
        <activity type="UNKNOWN" conf="40" state="unknown" tsMs="1785340838922"/>
        <radio op="vodafone IT" rat="LTE" q="19.50" rsrp="-110" sinr="8" rsrq="-13"/>
        <radio op="I TIM" rat="LTE" q="9.90" rsrp="-116" sinr="6" rsrq="-13"/>
      </extensions>
    </trkpt>
    <trkpt lat="45.6237331" lon="10.4934128">
      <ele>281.8000183105469</ele>
      <time>2026-07-29T18:01:10.257+02:00</time>
      <extensions>
        <activity type="UNKNOWN" conf="40" state="unknown" tsMs="1785340854148"/>
        <radio op="vodafone IT" rat="LTE" q="4.00" rsrp="-117" sinr="0" rsrq="-13"/>
        <radio op="I TIM" rat="LTE" q="6.30" rsrp="-116" sinr="2" rsrq="-13"/>
      </extensions>
    </trkpt>
    <trkpt lat="45.6237087" lon="10.4933578">
      <ele>281.70001220703125</ele>
      <time>2026-07-29T18:01:20.271+02:00</time>
      <extensions>
        <activity type="UNKNOWN" conf="40" state="unknown" tsMs="1785340870096"/>
        <radio op="vodafone IT" rat="LTE" q="5.00" rsrp="-115" sinr="0" rsrq="-15"/>
        <radio op="I TIM" rat="LTE" q="6.60" rsrp="-114" sinr="1" rsrq="-12"/>
      </extensions>
    </trkpt>
    <trkpt lat="45.623784" lon="10.4936465">
      <ele>281.70001220703125</ele>
      <time>2026-07-29T18:01:30.287+02:00</time>
      <extensions>
        <activity type="UNKNOWN" conf="40" state="unknown" tsMs="1785340885891"/>
        <radio op="vodafone IT" rat="LTE" q="12.00" rsrp="-113" sinr="5" rsrq="-13"/>
        <radio op="I TIM" rat="LTE" q="9.00" rsrp="-116" sinr="5" rsrq="-13"/>
      </extensions>
    </trkpt>
    <trkpt lat="45.6234721" lon="10.4928925">
      <ele>281.70001220703125</ele>
      <time>2026-07-29T18:01:40.218+02:00</time>
      <extensions>
        <activity type="IN_VEHICLE" conf="87" state="moving" tsMs="1785340896638"/>
        <radio op="vodafone IT" rat="LTE" rsrp="-116" rsrq="-15"/>
        <radio op="I TIM" rat="LTE" q="9.80" rsrp="-118" sinr="9" rsrq="-13"/>
      </extensions>
    </trkpt>
    <trkpt lat="45.623057" lon="10.4914637">
      <ele>281.70001220703125</ele>
      <time>2026-07-29T18:01:50.217+02:00</time>
      <extensions>
        <activity type="IN_VEHICLE" conf="91" state="moving" tsMs="1785340907398"/>
        <radio op="vodafone IT" rat="LTE" q="9.80" rsrp="-111" sinr="2" rsrq="-14"/>
        <radio op="I TIM" rat="LTE" q="10.00" rsrp="-115" sinr="5" rsrq="-13"/>
      </extensions>
    </trkpt>
    <trkpt lat="45.6223403" lon="10.489808">
      <ele>281.70001220703125</ele>
      <time>2026-07-29T18:02:01.217+02:00</time>
      <extensions>
        <activity type="IN_VEHICLE" conf="96" state="moving" tsMs="1785340918153"/>
        <radio op="vodafone IT" rat="LTE" q="8.40" rsrp="-111" sinr="1" rsrq="-12"/>
        <radio op="I TIM" rat="LTE" q="4.00" rsrp="-117" sinr="0" rsrq="-14"/>
      </extensions>
    </trkpt>
    <trkpt lat="45.6214299" lon="10.4880221">
      <ele>281.70001220703125</ele>
      <time>2026-07-29T18:02:11.217+02:00</time>
      <extensions>
        <activity type="IN_VEHICLE" conf="85" state="moving" tsMs="1785340928996"/>
        <radio op="vodafone IT" rat="LTE" q="9.10" rsrp="-112" sinr="2" rsrq="-14"/>
        <radio op="I TIM" rat="LTE" rsrp="-122" rsrq="-16"/>
      </extensions>
    </trkpt>
    <trkpt lat="45.6205557" lon="10.4859431">
      <ele>281.70001220703125</ele>
      <time>2026-07-29T18:02:21.217+02:00</time>
      <extensions>
        <activity type="IN_VEHICLE" conf="85" state="moving" tsMs="1785340939829"/>
        <radio op="vodafone IT" rat="LTE" q="3.50" rsrp="-118" sinr="0" rsrq="-15"/>
        <radio op="I TIM" rat="LTE" rsrp="-118" rsrq="-11"/>
      </extensions>
    </trkpt>
    <trkpt lat="45.6196579" lon="10.4839644">
      <ele>281.70001220703125</ele>
      <time>2026-07-29T18:02:31.217+02:00</time>
      <extensions>
        <activity type="IN_VEHICLE" conf="84" state="moving" tsMs="1785340950704"/>
        <radio op="vodafone IT" rat="LTE" rsrp="-122" rsrq="-15"/>
        <radio op="I TIM" rat="LTE" rsrp="-115" rsrq="-14"/>
      </extensions>
    </trkpt>
    <trkpt lat="45.6181729" lon="10.4834639">
      <ele>281.70001220703125</ele>
      <time>2026-07-29T18:02:41.217+02:00</time>
      <extensions>
        <activity type="IN_VEHICLE" conf="88" state="moving" tsMs="1785340961488"/>
        <radio op="vodafone IT" rat="LTE" q="26.00" rsrp="-105" sinr="8" rsrq="-12"/>
        <radio op="I TIM" rat="LTE" q="7.70" rsrp="-118" sinr="6" rsrq="-12"/>
      </extensions>
    </trkpt>
    <trkpt lat="45.616636" lon="10.4832089">
      <ele>281.70001220703125</ele>
      <time>2026-07-29T18:02:51.217+02:00</time>
      <extensions>
        <activity type="IN_VEHICLE" conf="91" state="moving" tsMs="1785340966882"/>
        <radio op="vodafone IT" rat="LTE" q="10.50" rsrp="-110" sinr="2" rsrq="-13"/>
        <radio op="I TIM" rat="LTE" rsrp="-125" rsrq="-15"/>
      </extensions>
    </trkpt>
    <trkpt lat="45.6152904" lon="10.4829495">
      <ele>279.6731366955041</ele>
      <time>2026-07-29T18:03:01.217+02:00</time>
      <extensions>
        <activity type="IN_VEHICLE" conf="89" state="moving" tsMs="1785340977679"/>
        <radio op="vodafone IT" rat="LTE" q="19.80" rsrp="-107" sinr="6" rsrq="-11"/>
        <radio op="I TIM" rat="LTE" q="2.50" rsrp="-120" sinr="0" rsrq="-15"/>
      </extensions>
    </trkpt>
    <trkpt lat="45.6139318" lon="10.482201">
      <ele>278.7739539512604</ele>
      <time>2026-07-29T18:03:12.217+02:00</time>
      <extensions>
        <activity type="IN_VEHICLE" conf="90" state="moving" tsMs="1785340988473"/>
        <radio op="vodafone IT" rat="LTE" q="26.60" rsrp="-111" sinr="14" rsrq="-9"/>
        <radio op="I TIM" rat="LTE" q="6.30" rsrp="-116" sinr="2" rsrq="-14"/>
      </extensions>
    </trkpt>
    <trkpt lat="45.6129025" lon="10.4816169">
      <ele>277.15753047251064</ele>
      <time>2026-07-29T18:03:22.217+02:00</time>
      <extensions>
        <activity type="IN_VEHICLE" conf="86" state="moving" tsMs="1785340999304"/>
        <radio op="vodafone IT" rat="LTE" q="8.80" rsrp="-117" sinr="6" rsrq="-10"/>
        <radio op="I TIM" rat="LTE" q="5.00" rsrp="-115" sinr="0" rsrq="-15"/>
      </extensions>
    </trkpt>
    <trkpt lat="45.6123246" lon="10.4813026">
      <ele>275.36929244162343</ele>
      <time>2026-07-29T18:03:32.218+02:00</time>
      <extensions>
        <activity type="IN_VEHICLE" conf="91" state="moving" tsMs="1785341010153"/>
        <radio op="vodafone IT" rat="LTE" q="6.60" rsrp="-114" sinr="1" rsrq="-14"/>
        <radio op="I TIM" rat="LTE" rsrp="-115" rsrq="-13"/>
      </extensions>
    </trkpt>
    <trkpt lat="45.6122895" lon="10.4812688">
      <ele>275.1516009073704</ele>
      <time>2026-07-29T18:03:39.217+02:00</time>
      <extensions>
        <activity type="IN_VEHICLE" conf="89" state="moving" tsMs="1785341019872"/>
        <radio op="vodafone IT" rat="LTE" q="7.20" rsrp="-113" sinr="1" rsrq="-14"/>
        <radio op="I TIM" rat="LTE" q="6.00" rsrp="-113" sinr="0" rsrq="-14"/>
      </extensions>
    </trkpt>
    <trkpt lat="45.6092193" lon="10.4762506">
      <ele>275.9488419078507</ele>
      <time>2026-07-29T18:04:27.493+02:00</time>
      <extensions>
        <activity type="IN_VEHICLE" conf="92" state="moving" tsMs="1785341065207"/>
        <radio op="vodafone IT" rat="LTE" q="28.50" rsrp="-110" sinr="14" rsrq="-10"/>
        <radio op="I TIM" rat="LTE" q="30.00" rsrp="-100" sinr="7" rsrq="-11"/>
      </extensions>
    </trkpt>
    <trkpt lat="45.6063717" lon="10.4683981">
      <ele>273.96640285355954</ele>
      <time>2026-07-29T18:05:09.217+02:00</time>
      <extensions>
        <activity type="IN_VEHICLE" conf="90" state="moving" tsMs="1785341099465"/>
        <radio op="vodafone IT" rat="LTE" q="80.00" rsrp="-93" sinr="22" rsrq="-7"/>
        <radio op="I TIM" rat="LTE" q="100.00" rsrp="-81" sinr="25" rsrq="-7"/>
      </extensions>
    </trkpt>
    <trkpt lat="45.604522" lon="10.4648313">
      <ele>270.3000183105469</ele>
      <time>2026-07-29T18:05:46.664+02:00</time>
      <extensions>
        <activity type="IN_VEHICLE" conf="92" state="moving" tsMs="1785341144798"/>
        <radio op="vodafone IT" rat="LTE" q="100.00" rsrp="-83" sinr="27" rsrq="-5"/>
        <radio op="I TIM" rat="LTE" q="14.40" rsrp="-101" sinr="1" rsrq="-12"/>
      </extensions>
    </trkpt>
    <trkpt lat="45.6045189" lon="10.4626954">
      <ele>270.3000183105469</ele>
      <time>2026-07-29T18:06:18.058+02:00</time>
      <extensions>
        <activity type="UNKNOWN" conf="40" state="unknown" tsMs="1785341172448"/>
        <radio op="vodafone IT" rat="LTE" q="45.00" rsrp="-95" sinr="10" rsrq="-13"/>
        <radio op="I TIM" rat="LTE" q="29.70" rsrp="-92" sinr="4" rsrq="-11"/>
      </extensions>
    </trkpt>
    <trkpt lat="45.6044096" lon="10.4618257">
      <ele>270.3000183105469</ele>
      <time>2026-07-29T18:06:24.217+02:00</time>
      <extensions>
        <activity type="IN_VEHICLE" conf="89" state="moving" tsMs="1785341177855"/>
        <radio op="vodafone IT" rat="LTE" q="100.00" rsrp="-83" sinr="24" rsrq="-10"/>
        <radio op="I TIM" rat="LTE" rsrp="-111" rsrq="-22"/>
      </extensions>
    </trkpt>
    <trkpt lat="45.6037136" lon="10.4579127">
      <ele>267.0684145172348</ele>
      <time>2026-07-29T18:07:06.771+02:00</time>
      <extensions>
        <activity type="UNKNOWN" conf="40" state="unknown" tsMs="1785341226068"/>
        <radio op="vodafone IT" rat="LTE" q="70.00" rsrp="-97" sinr="21" rsrq="-10"/>
        <radio op="I TIM" rat="LTE" q="69.60" rsrp="-96" sinr="19" rsrq="-12"/>
      </extensions>
    </trkpt>
    <trkpt lat="45.6038638" lon="10.4586457">
      <ele>266.14202774457806</ele>
      <time>2026-07-29T18:08:39.155+02:00</time>
      <extensions>
        <activity type="ON_FOOT" conf="96" state="moving" tsMs="1785341317002"/>
        <radio op="vodafone IT" rat="LTE" q="9.80" rsrp="-118" sinr="9" rsrq="-11"/>
        <radio op="I TIM" rat="LTE" q="18.00" rsrp="-115" sinr="13" rsrq="-8"/>
      </extensions>
    </trkpt>
    <trkpt lat="45.6043977" lon="10.4589771">
      <ele>267.6000061035156</ele>
      <time>2026-07-29T18:09:24.096+02:00</time>
      <extensions>
        <activity type="STILL" conf="59" state="still" tsMs="1785341383092"/>
        <radio op="vodafone IT" rat="LTE" q="67.50" rsrp="-98" sinr="21" rsrq="-9"/>
        <radio op="I TIM" rat="LTE" q="92.50" rsrp="-88" sinr="24" rsrq="-10"/>
      </extensions>
    </trkpt>
    <trkpt lat="45.6043011" lon="10.4590597">
      <ele>271.1414771634795</ele>
      <time>2026-07-29T18:10:03.866+02:00</time>
      <extensions>
        <activity type="ON_FOOT" conf="85" state="moving" tsMs="1785341399120"/>
        <radio op="vodafone IT" rat="LTE" q="50.00" rsrp="-100" sinr="15" rsrq="-12"/>
        <radio op="I TIM" rat="LTE" rsrp="-86" rsrq="-10"/>
      </extensions>
    </trkpt>
    <trkpt lat="45.6045058" lon="10.4587184">
      <ele>270.8710766970456</ele>
      <time>2026-07-29T18:10:37.662+02:00</time>
      <extensions>
        <activity type="ON_FOOT" conf="96" state="moving" tsMs="1785341437239"/>
        <radio op="vodafone IT" rat="LTE" q="50.60" rsrp="-102" sinr="17" rsrq="-6"/>
        <radio op="I TIM" rat="LTE" q="87.50" rsrp="-90" sinr="26" rsrq="-11"/>
      </extensions>
    </trkpt>
    <trkpt lat="45.6045744" lon="10.4586324">
      <ele>270.7879724890357</ele>
      <time>2026-07-29T18:11:26.321+02:00</time>
      <extensions>
        <activity type="ON_FOOT" conf="85" state="moving" tsMs="1785341482736"/>
        <radio op="vodafone IT" rat="LTE" q="25.60" rsrp="-109" sinr="11" rsrq="-12"/>
        <radio op="I TIM" rat="LTE" q="14.00" rsrp="-111" sinr="5" rsrq="-12"/>
      </extensions>
    </trkpt>
    <trkpt lat="45.6045844" lon="10.4586394">
      <ele>270.93233855782216</ele>
      <time>2026-07-29T18:12:01.847+02:00</time>
      <extensions>
        <activity type="STILL" conf="99" state="still" tsMs="1785341515008"/>
        <radio op="vodafone IT" rat="LTE" q="15.60" rsrp="-112" sinr="7" rsrq="-12"/>
        <radio op="I TIM" rat="LTE" q="22.40" rsrp="-111" sinr="11" rsrq="-13"/>
      </extensions>
    </trkpt>
    <trkpt lat="45.6045739" lon="10.4586934">
      <ele>270.819659845209</ele>
      <time>2026-07-29T18:12:51.97+02:00</time>
      <extensions>
        <activity type="STILL" conf="75" state="still" tsMs="1785341568622"/>
        <radio op="vodafone IT" rat="LTE" q="19.50" rsrp="-110" sinr="8" rsrq="-13"/>
        <radio op="I TIM" rat="LTE" q="27.20" rsrp="-109" sinr="12" rsrq="-12"/>
      </extensions>
    </trkpt>
    <trkpt lat="45.6044912" lon="10.4587325">
      <ele>272.7887299397138</ele>
      <time>2026-07-29T18:13:25.405+02:00</time>
      <extensions>
        <activity type="ON_FOOT" conf="90" state="moving" tsMs="1785341600209"/>
        <radio op="vodafone IT" rat="LTE" q="42.50" rsrp="-108" sinr="24" rsrq="-11"/>
        <radio op="I TIM" rat="LTE" q="65.00" rsrp="-99" sinr="22" rsrq="-12"/>
      </extensions>
    </trkpt>
    <trkpt lat="45.6043087" lon="10.4595261">
      <ele>267.6000061035156</ele>
      <time>2026-07-29T18:14:15.025+02:00</time>
      <extensions>
        <activity type="ON_FOOT" conf="96" state="moving" tsMs="1785341650214"/>
        <radio op="vodafone IT" rat="LTE" q="57.50" rsrp="-102" sinr="24" rsrq="-10"/>
        <radio op="I TIM" rat="LTE" q="77.50" rsrp="-94" sinr="28" rsrq="-11"/>
      </extensions>
    </trkpt>
    <trkpt lat="45.6044132" lon="10.4597921">
      <ele>271.0128894541182</ele>
      <time>2026-07-29T18:14:54.745+02:00</time>
      <extensions>
        <activity type="UNKNOWN" conf="40" state="unknown" tsMs="1785341693905"/>
        <radio op="vodafone IT" rat="LTE" q="60.00" rsrp="-101" sinr="24" rsrq="-11"/>
        <radio op="I TIM" rat="LTE" q="21.00" rsrp="-110" sinr="9" rsrq="-12"/>
      </extensions>
    </trkpt>
    <trkpt lat="45.6045248" lon="10.4593159">
      <ele>270.5967058665922</ele>
      <time>2026-07-29T18:15:26.064+02:00</time>
      <extensions>
        <activity type="ON_FOOT" conf="95" state="moving" tsMs="1785341725801"/>
        <radio op="vodafone IT" rat="LTE" q="57.50" rsrp="-102" sinr="22" rsrq="-11"/>
        <radio op="I TIM" rat="LTE" q="90.00" rsrp="-89" sinr="24" rsrq="-11"/>
      </extensions>
    </trkpt>
    <trkpt lat="45.6044129" lon="10.4592429">
      <ele>267.6000061035156</ele>
      <time>2026-07-29T18:15:57.34+02:00</time>
      <extensions>
        <activity type="UNKNOWN" conf="40" state="unknown" tsMs="1785341757117"/>
        <radio op="vodafone IT" rat="LTE" q="39.60" rsrp="-107" sinr="17" rsrq="-11"/>
        <radio op="I TIM" rat="LTE" q="82.50" rsrp="-92" sinr="23" rsrq="-12"/>
      </extensions>
    </trkpt>
    <trkpt lat="45.6042914" lon="10.4593431">
      <ele>269.0652087254276</ele>
      <time>2026-07-29T18:16:28.819+02:00</time>
      <extensions>
        <activity type="UNKNOWN" conf="40" state="unknown" tsMs="1785341788372"/>
        <radio op="vodafone IT" rat="LTE" q="12.60" rsrp="-116" sinr="9" rsrq="-11"/>
        <radio op="I TIM" rat="LTE" q="44.00" rsrp="-105" sinr="17" rsrq="-11"/>
      </extensions>
    </trkpt>
    <trkpt lat="45.6043289" lon="10.4593221">
      <ele>269.0588708583697</ele>
      <time>2026-07-29T18:16:59.927+02:00</time>
      <extensions>
        <activity type="UNKNOWN" conf="40" state="unknown" tsMs="1785341819737"/>
        <radio op="vodafone IT" rat="LTE" q="39.10" rsrp="-108" sinr="18" rsrq="-8"/>
        <radio op="I TIM" rat="LTE" q="38.00" rsrp="-105" sinr="14" rsrq="-11"/>
      </extensions>
    </trkpt>
    <trkpt lat="45.6042842" lon="10.4593589">
      <ele>269.7877561885746</ele>
      <time>2026-07-29T18:17:26.332+02:00</time>
      <extensions>
        <activity type="UNKNOWN" conf="40" state="unknown" tsMs="1785341847980"/>
        <radio op="vodafone IT" rat="LTE" q="60.00" rsrp="-101" sinr="24" rsrq="-10"/>
        <radio op="I TIM" rat="LTE" q="62.50" rsrp="-100" sinr="21" rsrq="-12"/>
      </extensions>
    </trkpt>
    <trkpt lat="45.6044014" lon="10.4592935">
      <ele>269.47295465564525</ele>
      <time>2026-07-29T18:17:56.737+02:00</time>
      <extensions>
        <activity type="STILL" conf="43" state="still" tsMs="1785341878112"/>
        <radio op="vodafone IT" rat="LTE" q="70.00" rsrp="-97" sinr="26" rsrq="-11"/>
        <radio op="I TIM" rat="LTE" q="62.50" rsrp="-100" sinr="24" rsrq="-14"/>
      </extensions>
    </trkpt>
    <trkpt lat="45.6043247" lon="10.4593147">
      <ele>269.614508281556</ele>
      <time>2026-07-29T18:18:32.57+02:00</time>
      <extensions>
        <activity type="STILL" conf="98" state="still" tsMs="1785341908369"/>
        <radio op="vodafone IT" rat="LTE" q="72.50" rsrp="-96" sinr="21" rsrq="-11"/>
        <radio op="I TIM" rat="LTE" q="65.00" rsrp="-99" sinr="23" rsrq="-13"/>
      </extensions>
    </trkpt>
    <trkpt lat="45.6043367" lon="10.4592943">
      <ele>269.2024868633589</ele>
      <time>2026-07-29T18:19:04.243+02:00</time>
      <extensions>
        <activity type="UNKNOWN" conf="40" state="unknown" tsMs="1785341939974"/>
        <radio op="vodafone IT" rat="LTE" q="57.50" rsrp="-102" sinr="20" rsrq="-8"/>
        <radio op="I TIM" rat="LTE" q="52.50" rsrp="-104" sinr="21" rsrq="-12"/>
      </extensions>
    </trkpt>
    <trkpt lat="45.604351" lon="10.4593082">
      <ele>269.5320678114467</ele>
      <time>2026-07-29T18:19:35.474+02:00</time>
      <extensions>
        <activity type="UNKNOWN" conf="40" state="unknown" tsMs="1785341971684"/>
        <radio op="vodafone IT" rat="LTE" q="62.50" rsrp="-100" sinr="23" rsrq="-11"/>
        <radio op="I TIM" rat="LTE" q="65.00" rsrp="-99" sinr="25" rsrq="-9"/>
      </extensions>
    </trkpt>
    <trkpt lat="45.6043363" lon="10.4592815">
      <ele>269.6461564671038</ele>
      <time>2026-07-29T18:20:06.738+02:00</time>
      <extensions>
        <activity type="STILL" conf="32" state="still" tsMs="1785342003018"/>
        <radio op="vodafone IT" rat="LTE" q="70.00" rsrp="-97" sinr="27" rsrq="-11"/>
        <radio op="I TIM" rat="LTE" q="65.00" rsrp="-99" sinr="22" rsrq="-11"/>
      </extensions>
    </trkpt>
    <trkpt lat="45.6043252" lon="10.4592473">
      <ele>269.59126797415627</ele>
      <time>2026-07-29T18:20:38.024+02:00</time>
      <extensions>
        <activity type="UNKNOWN" conf="40" state="unknown" tsMs="1785342034297"/>
        <radio op="vodafone IT" rat="LTE" q="52.90" rsrp="-102" sinr="18" rsrq="-12"/>
        <radio op="I TIM" rat="LTE" q="59.80" rsrp="-99" sinr="18" rsrq="-12"/>
      </extensions>
    </trkpt>
    <trkpt lat="45.6043439" lon="10.4592815">
      <ele>269.84480199492</ele>
      <time>2026-07-29T18:21:09.36+02:00</time>
      <extensions>
        <activity type="STILL" conf="56" state="still" tsMs="1785342065664"/>
        <radio op="vodafone IT" rat="LTE" q="77.50" rsrp="-94" sinr="25" rsrq="-7"/>
        <radio op="I TIM" rat="LTE" q="65.00" rsrp="-99" sinr="21" rsrq="-12"/>
      </extensions>
    </trkpt>
    <trkpt lat="45.6043089" lon="10.4590092">
      <ele>268.438068412049</ele>
      <time>2026-07-29T18:21:57.282+02:00</time>
      <extensions>
        <activity type="ON_FOOT" conf="93" state="moving" tsMs="1785342128839"/>
        <radio op="vodafone IT" rat="LTE" q="60.00" rsrp="-101" sinr="20" rsrq="-10"/>
        <radio op="I TIM" rat="LTE" q="70.40" rsrp="-93" sinr="17" rsrq="-10"/>
      </extensions>
    </trkpt>
    <trkpt lat="45.6044127" lon="10.4589466">
      <ele>267.8230105763348</ele>
      <time>2026-07-29T18:22:30.565+02:00</time>
      <extensions>
        <activity type="ON_FOOT" conf="86" state="moving" tsMs="1785342145031"/>
        <radio op="vodafone IT" rat="LTE" q="67.50" rsrp="-98" sinr="26" rsrq="-11"/>
        <radio op="I TIM" rat="LTE" q="42.00" rsrp="-97" sinr="10" rsrq="-11"/>
      </extensions>
    </trkpt>
    <trkpt lat="45.6040232" lon="10.4593728">
      <ele>264.3000183105469</ele>
      <time>2026-07-29T18:23:11.106+02:00</time>
      <extensions>
        <activity type="ON_FOOT" conf="81" state="moving" tsMs="1785342190832"/>
        <radio op="vodafone IT" rat="LTE" q="48.00" rsrp="-105" sinr="19" rsrq="-11"/>
        <radio op="I TIM" rat="LTE" q="68.00" rsrp="-91" sinr="15" rsrq="-11"/>
      </extensions>
    </trkpt>
    <trkpt lat="45.6040232" lon="10.4593728">
      <ele>258.5341173401841</ele>
      <time>2026-07-29T18:24:03.042+02:00</time>
      <extensions>
        <activity type="UNKNOWN" conf="40" state="unknown" tsMs="1785342236200"/>
        <radio op="vodafone IT" rat="LTE" q="18.00" rsrp="-115" sinr="13" rsrq="-10"/>
        <radio op="I TIM" rat="LTE" q="15.00" rsrp="-115" sinr="10" rsrq="-12"/>
      </extensions>
    </trkpt>
    <trkpt lat="45.6040232" lon="10.4593728">
      <ele>258.55107287235603</ele>
      <time>2026-07-29T18:24:10.321+02:00</time>
      <extensions>
        <activity type="UNKNOWN" conf="40" state="unknown" tsMs="1785342259302"/>
        <radio op="vodafone IT" rat="LTE" q="9.10" rsrp="-118" sinr="8" rsrq="-11"/>
        <radio op="I TIM" rat="LTE" q="3.50" rsrp="-120" sinr="2" rsrq="-12"/>
      </extensions>
    </trkpt>
    <trkpt lat="45.6051954" lon="10.459774">
      <ele>259.5</ele>
      <time>2026-07-29T18:24:41.335+02:00</time>
      <extensions>
        <activity type="UNKNOWN" conf="40" state="unknown" tsMs="1785342275524"/>
        <radio op="vodafone IT" rat="LTE" q="54.60" rsrp="-99" sinr="16" rsrq="-12"/>
        <radio op="I TIM" rat="LTE" q="50.40" rsrp="-101" sinr="16" rsrq="-13"/>
      </extensions>
    </trkpt>
    <trkpt lat="45.603224" lon="10.4576646">
      <ele>261.58661012276826</ele>
      <time>2026-07-29T18:25:23.361+02:00</time>
      <extensions>
        <activity type="IN_VEHICLE" conf="96" state="moving" tsMs="1785342318223"/>
        <radio op="vodafone IT" rat="LTE" q="92.50" rsrp="-88" sinr="23" rsrq="-11"/>
        <radio op="I TIM" rat="LTE" q="100.00" rsrp="-76" sinr="21" rsrq="-11"/>
      </extensions>
    </trkpt>
    <trkpt lat="45.6021885" lon="10.4549443">
      <ele>261.70001220703125</ele>
      <time>2026-07-29T18:26:08.031+02:00</time>
      <extensions>
        <activity type="UNKNOWN" conf="40" state="unknown" tsMs="1785342366895"/>
        <radio op="vodafone IT" rat="LTE" q="28.50" rsrp="-106" sinr="10" rsrq="-12"/>
        <radio op="I TIM" rat="LTE" q="31.20" rsrp="-101" sinr="8" rsrq="-13"/>
      </extensions>
    </trkpt>
    <trkpt lat="45.5989166" lon="10.448862">
      <ele>257.8000183105469</ele>
      <time>2026-07-29T18:27:15.628+02:00</time>
      <extensions>
        <activity type="UNKNOWN" conf="40" state="unknown" tsMs="1785342435227"/>
        <radio op="vodafone IT" rat="LTE" q="39.60" rsrp="-103" sinr="13" rsrq="-11"/>
        <radio op="I TIM" rat="LTE" q="36.80" rsrp="-102" sinr="11" rsrq="-13"/>
      </extensions>
    </trkpt>
    <trkpt lat="45.5986383" lon="10.4491775">
      <ele>257.8000183105469</ele>
      <time>2026-07-29T18:27:20.217+02:00</time>
      <extensions>
        <activity type="UNKNOWN" conf="40" state="unknown" tsMs="1785342435227"/>
        <radio op="vodafone IT" rat="LTE" q="16.80" rsrp="-97" sinr="1" rsrq="-13"/>
        <radio op="I TIM" rat="LTE" q="21.70" rsrp="-94" sinr="2" rsrq="-10"/>
      </extensions>
    </trkpt>
    <trkpt lat="45.5975486" lon="10.4474244">
      <ele>257.8000183105469</ele>
      <time>2026-07-29T18:27:34.217+02:00</time>
      <extensions>
        <activity type="UNKNOWN" conf="40" state="unknown" tsMs="1785342439035"/>
        <radio op="vodafone IT" rat="LTE" q="19.20" rsrp="-101" sinr="3" rsrq="-16"/>
        <radio op="I TIM" rat="LTE" q="48.00" rsrp="-95" sinr="11" rsrq="-12"/>
      </extensions>
    </trkpt>
    <trkpt lat="45.5975486" lon="10.4474244">
      <ele>257.3999938964844</ele>
      <time>2026-07-29T18:27:39.266+02:00</time>
      <extensions>
        <activity type="UNKNOWN" conf="40" state="unknown" tsMs="1785342485214"/>
        <radio op="vodafone IT" rat="LTE" q="20.00" rsrp="-105" sinr="5" rsrq="-10"/>
        <radio op="I TIM" rat="LTE" q="41.60" rsrp="-99" sinr="11" rsrq="-10"/>
      </extensions>
    </trkpt>
    <trkpt lat="45.594336" lon="10.4429479">
      <ele>257.8000183105469</ele>
      <time>2026-07-29T18:28:33.317+02:00</time>
      <extensions>
        <activity type="IN_VEHICLE" conf="86" state="moving" tsMs="1785342508615"/>
        <radio op="vodafone IT" rat="LTE" rsrp="-106" rsrq="-13"/>
        <radio op="I TIM" rat="LTE" rsrp="-96" rsrq="-10"/>
      </extensions>
    </trkpt>
    <trkpt lat="45.5940357" lon="10.4424868">
      <ele>257.8000183105469</ele>
      <time>2026-07-29T18:28:39.217+02:00</time>
      <extensions>
        <activity type="IN_VEHICLE" conf="86" state="moving" tsMs="1785342508615"/>
        <radio op="vodafone IT" rat="LTE" q="16.10" rsrp="-102" sinr="2" rsrq="-11"/>
        <radio op="I TIM" rat="LTE" q="27.00" rsrp="-98" sinr="5" rsrq="-11"/>
      </extensions>
    </trkpt>
    <trkpt lat="45.5926923" lon="10.4428663">
      <ele>257.8000183105469</ele>
      <time>2026-07-29T18:29:38.27+02:00</time>
      <extensions>
        <activity type="TILTING" conf="100" state="moving" tsMs="1785342570617"/>
        <radio op="vodafone IT" rat="LTE" q="72.00" rsrp="-82" sinr="13" rsrq="-11"/>
        <radio op="I TIM" rat="LTE" q="68.40" rsrp="-87" sinr="13" rsrq="-11"/>
      </extensions>
    </trkpt>
    <trkpt lat="45.5931373" lon="10.4428282">
      <ele>258.05574556371033</ele>
      <time>2026-07-29T18:30:11.236+02:00</time>
      <extensions>
        <activity type="ON_FOOT" conf="93" state="moving" tsMs="1785342606222"/>
        <radio op="vodafone IT" rat="LTE" q="100.00" rsrp="-81" sinr="23" rsrq="-11"/>
        <radio op="I TIM" rat="LTE" q="100.00" rsrp="-82" sinr="20" rsrq="-12"/>
      </extensions>
    </trkpt>
    <trkpt lat="45.5932652" lon="10.4427055">
      <ele>257.0847216781365</ele>
      <time>2026-07-29T18:30:58.237+02:00</time>
      <extensions>
        <activity type="UNKNOWN" conf="40" state="unknown" tsMs="1785342657465"/>
        <radio op="vodafone IT" rat="LTE" q="41.80" rsrp="-103" sinr="14" rsrq="-9"/>
        <radio op="I TIM" rat="LTE" q="33.00" rsrp="-95" sinr="6" rsrq="-6"/>
      </extensions>
    </trkpt>
    <trkpt lat="45.593231" lon="10.4427971">
      <ele>258.27318550121083</ele>
      <time>2026-07-29T18:31:40.212+02:00</time>
      <extensions>
        <activity type="UNKNOWN" conf="40" state="unknown" tsMs="1785342697373"/>
        <radio op="vodafone IT" rat="LTE" q="46.00" rsrp="-102" sinr="15" rsrq="-9"/>
        <radio op="I TIM" rat="LTE" q="43.70" rsrp="-102" sinr="14" rsrq="-10"/>
      </extensions>
    </trkpt>
    <trkpt lat="45.5932954" lon="10.4426565">
      <ele>259.2168093864336</ele>
      <time>2026-07-29T18:32:22.44+02:00</time>
      <extensions>
        <activity type="ON_FOOT" conf="88" state="moving" tsMs="1785342737241"/>
        <radio op="vodafone IT" rat="LTE" q="24.70" rsrp="-106" sinr="8" rsrq="-9"/>
        <radio op="I TIM" rat="LTE" q="35.10" rsrp="-98" sinr="8" rsrq="-7"/>
      </extensions>
    </trkpt>
    <trkpt lat="45.5933997" lon="10.4424992">
      <ele>258.3258614316438</ele>
      <time>2026-07-29T18:33:03.899+02:00</time>
      <extensions>
        <activity type="UNKNOWN" conf="40" state="unknown" tsMs="1785342780078"/>
        <radio op="vodafone IT" rat="LTE" q="22.40" rsrp="-109" sinr="9" rsrq="-11"/>
        <radio op="I TIM" rat="LTE" q="38.00" rsrp="-105" sinr="14" rsrq="-7"/>
      </extensions>
    </trkpt>
    <trkpt lat="45.5934006" lon="10.4424866">
      <ele>257.80683361446387</ele>
      <time>2026-07-29T18:33:35.335+02:00</time>
      <extensions>
        <activity type="UNKNOWN" conf="40" state="unknown" tsMs="1785342811571"/>
        <radio op="vodafone IT" rat="LTE" q="20.40" rsrp="-108" sinr="7" rsrq="-13"/>
        <radio op="I TIM" rat="LTE" q="44.00" rsrp="-103" sinr="15" rsrq="-8"/>
      </extensions>
    </trkpt>
    <trkpt lat="45.5933002" lon="10.4426376">
      <ele>258.1298286640091</ele>
      <time>2026-07-29T18:33:52.279+02:00</time>
      <extensions>
        <activity type="STILL" conf="52" state="still" tsMs="1785342832283"/>
        <radio op="vodafone IT" rat="LTE" q="22.00" rsrp="-105" sinr="6" rsrq="-13"/>
        <radio op="I TIM" rat="LTE" q="60.80" rsrp="-93" sinr="14" rsrq="-10"/>
      </extensions>
    </trkpt>
    <trkpt lat="45.5932266" lon="10.442768">
      <ele>258.020101275768</ele>
      <time>2026-07-29T18:34:24.239+02:00</time>
      <extensions>
        <activity type="STILL" conf="39" state="still" tsMs="1785342863669"/>
        <radio op="vodafone IT" rat="LTE" q="22.00" rsrp="-105" sinr="6" rsrq="-9"/>
        <radio op="I TIM" rat="LTE" q="53.20" rsrp="-97" sinr="14" rsrq="-12"/>
      </extensions>
    </trkpt>
    <trkpt lat="45.5933511" lon="10.4425115">
      <ele>258.0068840350018</ele>
      <time>2026-07-29T18:34:59.226+02:00</time>
      <extensions>
        <activity type="STILL" conf="96" state="still" tsMs="1785342895573"/>
        <radio op="vodafone IT" rat="LTE" q="10.00" rsrp="-105" sinr="0" rsrq="-10"/>
        <radio op="I TIM" rat="LTE" q="54.00" rsrp="-98" sinr="15" rsrq="-11"/>
      </extensions>
    </trkpt>
    <trkpt lat="45.5933505" lon="10.4425114">
      <ele>258.0533289932229</ele>
      <time>2026-07-29T18:35:30.35+02:00</time>
      <extensions>
        <activity type="STILL" conf="99" state="still" tsMs="1785342926605"/>
        <radio op="vodafone IT" rat="LTE" q="20.00" rsrp="-105" sinr="5" rsrq="-11"/>
        <radio op="I TIM" rat="LTE" rsrp="-97" rsrq="-11"/>
      </extensions>
    </trkpt>
    <trkpt lat="45.5934638" lon="10.4424151">
      <ele>257.2256821819982</ele>
      <time>2026-07-29T18:36:07.475+02:00</time>
      <extensions>
        <activity type="UNKNOWN" conf="40" state="unknown" tsMs="1785342964237"/>
        <radio op="vodafone IT" rat="LTE" q="26.40" rsrp="-101" sinr="6" rsrq="-12"/>
        <radio op="I TIM" rat="LTE" q="59.80" rsrp="-99" sinr="18" rsrq="-12"/>
      </extensions>
    </trkpt>
    <trkpt lat="45.5934074" lon="10.4424642">
      <ele>258.16933832434654</ele>
      <time>2026-07-29T18:36:39.752+02:00</time>
      <extensions>
        <activity type="STILL" conf="75" state="still" tsMs="1785342998375"/>
        <radio op="vodafone IT" rat="LTE" q="17.50" rsrp="-90" sinr="0" rsrq="-8"/>
        <radio op="I TIM" rat="LTE" q="68.20" rsrp="-94" sinr="17" rsrq="-10"/>
      </extensions>
    </trkpt>
    <trkpt lat="45.5934564" lon="10.4424097">
      <ele>257.62888723787074</ele>
      <time>2026-07-29T18:37:14.378+02:00</time>
      <extensions>
        <activity type="STILL" conf="41" state="still" tsMs="1785343030847"/>
        <radio op="vodafone IT" rat="LTE" q="25.60" rsrp="-109" sinr="11" rsrq="-8"/>
        <radio op="I TIM" rat="LTE" q="56.70" rsrp="-98" sinr="16" rsrq="-7"/>
      </extensions>
    </trkpt>
    <trkpt lat="45.593471" lon="10.4424092">
      <ele>256.3095692391505</ele>
      <time>2026-07-29T18:37:52.383+02:00</time>
      <extensions>
        <activity type="UNKNOWN" conf="40" state="unknown" tsMs="1785343067685"/>
        <radio op="vodafone IT" rat="LTE" q="57.00" rsrp="-95" sinr="14" rsrq="-8"/>
        <radio op="I TIM" rat="LTE" q="51.00" rsrp="-95" sinr="12" rsrq="-10"/>
      </extensions>
    </trkpt>
    <trkpt lat="45.5934731" lon="10.4424018">
      <ele>257.69644176632124</ele>
      <time>2026-07-29T18:38:32.967+02:00</time>
      <extensions>
        <activity type="UNKNOWN" conf="40" state="unknown" tsMs="1785343108310"/>
        <radio op="vodafone IT" rat="LTE" q="53.20" rsrp="-97" sinr="14" rsrq="-6"/>
        <radio op="I TIM" rat="LTE" q="67.50" rsrp="-98" sinr="24" rsrq="-7"/>
      </extensions>
    </trkpt>
    <trkpt lat="45.5934938" lon="10.442392">
      <ele>257.8969973988521</ele>
      <time>2026-07-29T18:39:04.379+02:00</time>
      <extensions>
        <activity type="STILL" conf="98" state="still" tsMs="1785343140684"/>
        <radio op="vodafone IT" rat="LTE" q="57.00" rsrp="-95" sinr="14" rsrq="-10"/>
        <radio op="I TIM" rat="LTE" q="75.90" rsrp="-92" sinr="18" rsrq="-7"/>
      </extensions>
    </trkpt>
    <trkpt lat="45.5933916" lon="10.4424974">
      <ele>254.60000610351562</ele>
      <time>2026-07-29T18:40:48.888+02:00</time>
      <extensions>
        <activity type="UNKNOWN" conf="40" state="unknown" tsMs="1785343246111"/>
        <radio op="vodafone IT" rat="LTE" q="17.60" rsrp="-109" sinr="6" rsrq="-11"/>
        <radio op="I TIM" rat="LTE" q="30.00" rsrp="-105" sinr="10" rsrq="-11"/>
      </extensions>
    </trkpt>
    <trkpt lat="45.5934058" lon="10.4424705">
      <ele>254.60000610351562</ele>
      <time>2026-07-29T18:41:21.542+02:00</time>
      <extensions>
        <activity type="UNKNOWN" conf="40" state="unknown" tsMs="1785343281240"/>
        <radio op="vodafone IT" rat="LTE" q="25.50" rsrp="-110" sinr="12" rsrq="-7"/>
        <radio op="I TIM" rat="LTE" q="37.40" rsrp="-103" sinr="12" rsrq="-8"/>
      </extensions>
    </trkpt>
    <trkpt lat="45.5934029" lon="10.4424687">
      <ele>254.60000610351562</ele>
      <time>2026-07-29T18:41:47.697+02:00</time>
      <extensions>
        <activity type="STILL" conf="65" state="still" tsMs="1785343307158"/>
        <radio op="vodafone IT" rat="LTE" q="9.80" rsrp="-111" sinr="2" rsrq="-12"/>
        <radio op="I TIM" rat="LTE" q="44.00" rsrp="-103" sinr="15" rsrq="-9"/>
      </extensions>
    </trkpt>
    <trkpt lat="45.5934467" lon="10.4424244">
      <ele>254.60000610351562</ele>
      <time>2026-07-29T18:42:48.939+02:00</time>
      <extensions>
        <activity type="STILL" conf="92" state="still" tsMs="1785343366621"/>
        <radio op="vodafone IT" rat="LTE" q="23.80" rsrp="-108" sinr="9" rsrq="-9"/>
        <radio op="I TIM" rat="LTE" q="36.80" rsrp="-102" sinr="11" rsrq="-8"/>
      </extensions>
    </trkpt>
    <trkpt lat="45.5934049" lon="10.4424733">
      <ele>254.60000610351562</ele>
      <time>2026-07-29T18:43:16.213+02:00</time>
      <extensions>
        <activity type="UNKNOWN" conf="40" state="unknown" tsMs="1785343394568"/>
        <radio op="vodafone IT" rat="LTE" rsrp="-113" rsrq="-12"/>
        <radio op="I TIM" rat="LTE" q="24.70" rsrp="-106" sinr="8" rsrq="-10"/>
      </extensions>
    </trkpt>
    <trkpt lat="45.5934167" lon="10.4424585">
      <ele>254.60000610351562</ele>
      <time>2026-07-29T18:43:53.632+02:00</time>
      <extensions>
        <activity type="ON_FOOT" conf="83" state="moving" tsMs="1785343433256"/>
        <radio op="vodafone IT" rat="LTE" q="12.80" rsrp="-109" sinr="3" rsrq="-12"/>
        <radio op="I TIM" rat="LTE" q="33.60" rsrp="-104" sinr="11" rsrq="-11"/>
      </extensions>
    </trkpt>
    <trkpt lat="45.5934528" lon="10.4424424">
      <ele>254.60000610351562</ele>
      <time>2026-07-29T18:44:28.705+02:00</time>
      <extensions>
        <activity type="ON_FOOT" conf="82" state="moving" tsMs="1785343467306"/>
        <radio op="vodafone IT" rat="LTE" q="16.20" rsrp="-107" sinr="4" rsrq="-13"/>
        <radio op="I TIM" rat="LTE" q="38.40" rsrp="-101" sinr="11" rsrq="-7"/>
      </extensions>
    </trkpt>
    <trkpt lat="45.5934651" lon="10.4424184">
      <ele>254.60000610351562</ele>
      <time>2026-07-29T18:45:13.762+02:00</time>
      <extensions>
        <activity type="UNKNOWN" conf="40" state="unknown" tsMs="1785343512237"/>
        <radio op="vodafone IT" rat="LTE" q="25.50" rsrp="-110" sinr="12" rsrq="-12"/>
        <radio op="I TIM" rat="LTE" q="24.20" rsrp="-103" sinr="6" rsrq="-9"/>
      </extensions>
    </trkpt>
    <trkpt lat="45.5934025" lon="10.4425042">
      <ele>254.60000610351562</ele>
      <time>2026-07-29T18:45:44.971+02:00</time>
      <extensions>
        <activity type="UNKNOWN" conf="40" state="unknown" tsMs="1785343539410"/>
        <radio op="vodafone IT" rat="LTE" q="19.20" rsrp="-109" sinr="7" rsrq="-11"/>
        <radio op="I TIM" rat="LTE" q="24.00" rsrp="-105" sinr="7" rsrq="-11"/>
      </extensions>
    </trkpt>
    <trkpt lat="45.5934057" lon="10.4424685">
      <ele>254.60000610351562</ele>
      <time>2026-07-29T18:46:16.286+02:00</time>
      <extensions>
        <activity type="ON_FOOT" conf="82" state="moving" tsMs="1785343570604"/>
        <radio op="vodafone IT" rat="LTE" q="16.50" rsrp="-110" sinr="6" rsrq="-10"/>
        <radio op="I TIM" rat="LTE" q="23.80" rsrp="-108" sinr="9" rsrq="-11"/>
      </extensions>
    </trkpt>
    <trkpt lat="45.5934075" lon="10.4424699">
      <ele>254.60000610351562</ele>
      <time>2026-07-29T18:47:12.565+02:00</time>
      <extensions>
        <activity type="STILL" conf="96" state="still" tsMs="1785343609665"/>
        <radio op="vodafone IT" rat="LTE" q="15.00" rsrp="-110" sinr="5" rsrq="-11"/>
        <radio op="I TIM" rat="LTE" q="16.00" rsrp="-109" sinr="5" rsrq="-9"/>
      </extensions>
    </trkpt>
    <trkpt lat="45.5934057" lon="10.4424807">
      <ele>254.60000610351562</ele>
      <time>2026-07-29T18:47:51.764+02:00</time>
      <extensions>
        <activity type="UNKNOWN" conf="40" state="unknown" tsMs="1785343666250"/>
        <radio op="vodafone IT" rat="LTE" rsrp="-110" rsrq="-12"/>
        <radio op="I TIM" rat="LTE" q="27.30" rsrp="-104" sinr="8" rsrq="-8"/>
      </extensions>
    </trkpt>
    <trkpt lat="45.5932363" lon="10.4427822">
      <ele>254.60000610351562</ele>
      <time>2026-07-29T18:48:33.983+02:00</time>
      <extensions>
        <activity type="ON_FOOT" conf="90" state="moving" tsMs="1785343736666"/>
        <radio op="vodafone IT" rat="LTE" q="32.30" rsrp="-106" sinr="12" rsrq="-9"/>
        <radio op="I TIM" rat="LTE" q="33.60" rsrp="-104" sinr="11" rsrq="-9"/>
      </extensions>
    </trkpt>
    <trkpt lat="45.5932853" lon="10.4429315">
      <ele>254.60000610351562</ele>
      <time>2026-07-29T18:49:32.91+02:00</time>
      <extensions>
        <activity type="STILL" conf="51" state="still" tsMs="1785343758692"/>
        <radio op="vodafone IT" rat="LTE" q="33.60" rsrp="-104" sinr="11" rsrq="-8"/>
        <radio op="I TIM" rat="LTE" q="70.00" rsrp="-97" sinr="22" rsrq="-8"/>
      </extensions>
    </trkpt>
    <trkpt lat="45.5932803" lon="10.4429263">
      <ele>254.60000610351562</ele>
      <time>2026-07-29T18:50:04.114+02:00</time>
      <extensions>
        <activity type="UNKNOWN" conf="40" state="unknown" tsMs="1785343803945"/>
        <radio op="vodafone IT" rat="LTE" rsrp="-97" rsrq="-6"/>
        <radio op="I TIM" rat="LTE" q="66.70" rsrp="-96" sinr="18" rsrq="-7"/>
      </extensions>
    </trkpt>
    <trkpt lat="45.5932812" lon="10.442929">
      <ele>254.60000610351562</ele>
      <time>2026-07-29T18:50:35.399+02:00</time>
      <extensions>
        <activity type="UNKNOWN" conf="40" state="unknown" tsMs="1785343834780"/>
        <radio op="vodafone IT" rat="LTE" q="36.40" rsrp="-97" sinr="8" rsrq="-8"/>
        <radio op="I TIM" rat="LTE" q="72.00" rsrp="-95" sinr="19" rsrq="-11"/>
      </extensions>
    </trkpt>
    <trkpt lat="45.5932735" lon="10.4429148">
      <ele>254.60000610351562</ele>
      <time>2026-07-29T18:51:12.394+02:00</time>
      <extensions>
        <activity type="STILL" conf="54" state="still" tsMs="1785343869766"/>
        <radio op="vodafone IT" rat="LTE" q="69.60" rsrp="-96" sinr="19" rsrq="-9"/>
        <radio op="I TIM" rat="LTE" q="64.40" rsrp="-97" sinr="18" rsrq="-7"/>
      </extensions>
    </trkpt>
    <trkpt lat="45.5923512" lon="10.4430011">
      <ele>254.60000610351562</ele>
      <time>2026-07-29T18:51:49.311+02:00</time>
      <extensions>
        <activity type="ON_FOOT" conf="89" state="moving" tsMs="1785343909248"/>
        <radio op="vodafone IT" rat="LTE" q="96.00" rsrp="-79" sinr="19" rsrq="-8"/>
        <radio op="I TIM" rat="LTE" q="64.00" rsrp="-72" sinr="11" rsrq="-9"/>
      </extensions>
    </trkpt>
    <trkpt lat="45.5921738" lon="10.443151">
      <ele>254.60000610351562</ele>
      <time>2026-07-29T18:52:24.386+02:00</time>
      <extensions>
        <activity type="UNKNOWN" conf="40" state="unknown" tsMs="1785343943203"/>
        <radio op="vodafone IT" rat="LTE" q="59.40" rsrp="-92" sinr="13" rsrq="-10"/>
        <radio op="I TIM" rat="LTE" q="72.00" rsrp="-84" sinr="13" rsrq="-8"/>
      </extensions>
    </trkpt>
    <trkpt lat="45.5926517" lon="10.4428049">
      <ele>252.4595747848305</ele>
      <time>2026-07-29T18:52:56.331+02:00</time>
      <extensions>
        <activity type="IN_VEHICLE" conf="97" state="moving" tsMs="1785343975805"/>
        <radio op="vodafone IT" rat="LTE" q="88.00" rsrp="-83" sinr="17" rsrq="-11"/>
        <radio op="I TIM" rat="LTE" q="88.00" rsrp="-77" sinr="17" rsrq="-9"/>
      </extensions>
    </trkpt>
    <trkpt lat="45.5933299" lon="10.4433265">
      <ele>254.3000030517578</ele>
      <time>2026-07-29T18:53:36.828+02:00</time>
      <extensions>
        <activity type="IN_VEHICLE" conf="97" state="moving" tsMs="1785344012429"/>
        <radio op="vodafone IT" rat="LTE" q="100.00" rsrp="-81" sinr="20" rsrq="-7"/>
        <radio op="I TIM" rat="LTE" q="36.00" rsrp="-80" sinr="4" rsrq="-12"/>
      </extensions>
    </trkpt>
    <trkpt lat="45.5957622" lon="10.4446488">
      <ele>256.29998779296875</ele>
      <time>2026-07-29T18:54:16.935+02:00</time>
      <extensions>
        <activity type="IN_VEHICLE" conf="97" state="moving" tsMs="1785344054380"/>
        <radio op="vodafone IT" rat="LTE" q="37.50" rsrp="-100" sinr="10" rsrq="-10"/>
        <radio op="I TIM" rat="LTE" q="38.40" rsrp="-93" sinr="7" rsrq="-12"/>
      </extensions>
    </trkpt>
    <trkpt lat="45.5962713" lon="10.4455741">
      <ele>256.29998779296875</ele>
      <time>2026-07-29T18:54:24.218+02:00</time>
      <extensions>
        <activity type="IN_VEHICLE" conf="97" state="moving" tsMs="1785344054380"/>
        <radio op="vodafone IT" rat="LTE" q="38.40" rsrp="-93" sinr="7" rsrq="-11"/>
        <radio op="I TIM" rat="LTE" rsrp="-97" rsrq="-16"/>
      </extensions>
    </trkpt>
    <trkpt lat="45.5987597" lon="10.4495203">
      <ele>256.29998779296875</ele>
      <time>2026-07-29T18:54:55.947+02:00</time>
      <extensions>
        <activity type="IN_VEHICLE" conf="97" state="moving" tsMs="1785344093608"/>
        <radio op="vodafone IT" rat="LTE" q="25.60" rsrp="-93" sinr="3" rsrq="-13"/>
        <radio op="I TIM" rat="LTE" q="72.00" rsrp="-85" sinr="13" rsrq="-11"/>
      </extensions>
    </trkpt>
    <trkpt lat="45.601371" lon="10.4537316">
      <ele>257.9000244140625</ele>
      <time>2026-07-29T18:55:41.482+02:00</time>
      <extensions>
        <activity type="IN_VEHICLE" conf="97" state="moving" tsMs="1785344140648"/>
        <radio op="vodafone IT" rat="LTE" q="36.40" rsrp="-99" sinr="9" rsrq="-8"/>
        <radio op="I TIM" rat="LTE" q="71.40" rsrp="-91" sinr="16" rsrq="-10"/>
      </extensions>
    </trkpt>
    <trkpt lat="45.6014299" lon="10.4538179">
      <ele>257.9000244140625</ele>
      <time>2026-07-29T18:55:47.214+02:00</time>
      <extensions>
        <activity type="IN_VEHICLE" conf="97" state="moving" tsMs="1785344140648"/>
        <radio op="vodafone IT" rat="LTE" q="29.90" rsrp="-102" sinr="8" rsrq="-10"/>
        <radio op="I TIM" rat="LTE" q="58.00" rsrp="-96" sinr="15" rsrq="-10"/>
      </extensions>
    </trkpt>
    <trkpt lat="45.6022083" lon="10.4530449">
      <ele>257.9000244140625</ele>
      <time>2026-07-29T18:56:23.499+02:00</time>
      <extensions>
        <activity type="IN_VEHICLE" conf="97" state="moving" tsMs="1785344179033"/>
        <radio op="vodafone IT" rat="LTE" q="28.80" rsrp="-101" sinr="7" rsrq="-12"/>
        <radio op="I TIM" rat="LTE" q="42.00" rsrp="-95" sinr="9" rsrq="-12"/>
      </extensions>
    </trkpt>
    <trkpt lat="45.6021714" lon="10.4530943">
      <ele>260.8000183105469</ele>
      <time>2026-07-29T18:56:59.114+02:00</time>
      <extensions>
        <activity type="UNKNOWN" conf="40" state="unknown" tsMs="1785344200072"/>
        <radio op="vodafone IT" rat="LTE" q="39.60" rsrp="-103" sinr="13" rsrq="-8"/>
        <radio op="I TIM" rat="LTE" q="28.60" rsrp="-103" sinr="8" rsrq="-11"/>
      </extensions>
    </trkpt>
    <trkpt lat="45.6022779" lon="10.4534817">
      <ele>259.20191449730214</ele>
      <time>2026-07-29T18:57:35.467+02:00</time>
      <extensions>
        <activity type="ON_FOOT" conf="96" state="moving" tsMs="1785344250547"/>
        <radio op="vodafone IT" rat="LTE" q="13.00" rsrp="-112" sinr="5" rsrq="-10"/>
        <radio op="I TIM" rat="LTE" q="7.50" rsrp="-110" sinr="0" rsrq="-15"/>
      </extensions>
    </trkpt>
    <trkpt lat="45.6025504" lon="10.4536828">
      <ele>259.5989166079627</ele>
      <time>2026-07-29T18:58:19.948+02:00</time>
      <extensions>
        <activity type="ON_FOOT" conf="87" state="moving" tsMs="1785344299655"/>
        <radio op="vodafone IT" rat="LTE" q="23.80" rsrp="-108" sinr="9" rsrq="-8"/>
        <radio op="I TIM" rat="LTE" rsrp="-115" rsrq="-13"/>
      </extensions>
    </trkpt>
    <trkpt lat="45.6025515" lon="10.4536859">
      <ele>259.7383301364781</ele>
      <time>2026-07-29T18:58:29.788+02:00</time>
      <extensions>
        <activity type="ON_FOOT" conf="87" state="moving" tsMs="1785344299655"/>
        <radio op="vodafone IT" rat="LTE" q="6.00" rsrp="-115" sinr="1" rsrq="-11"/>
        <radio op="I TIM" rat="LTE" q="3.50" rsrp="-120" sinr="2" rsrq="-11"/>
      </extensions>
    </trkpt>
    <trkpt lat="45.6025483" lon="10.4536744">
      <ele>259.75734124729155</ele>
      <time>2026-07-29T18:59:25.408+02:00</time>
      <extensions>
        <activity type="STILL" conf="58" state="still" tsMs="1785344362066"/>
        <radio op="vodafone IT" rat="LTE" q="8.00" rsrp="-115" sinr="3" rsrq="-11"/>
        <radio op="I TIM" rat="LTE" rsrp="-119" rsrq="-15"/>
      </extensions>
    </trkpt>
    <trkpt lat="45.6025471" lon="10.4536734">
      <ele>259.83127374440306</ele>
      <time>2026-07-29T18:59:59.271+02:00</time>
      <extensions>
        <activity type="UNKNOWN" conf="40" state="unknown" tsMs="1785344391100"/>
        <radio op="vodafone IT" rat="LTE" q="15.40" rsrp="-114" sinr="9" rsrq="-11"/>
        <radio op="I TIM" rat="LTE" q="3.60" rsrp="-121" sinr="4" rsrq="-13"/>
      </extensions>
    </trkpt>
    <trkpt lat="45.6025492" lon="10.4536882">
      <ele>261.6000061035156</ele>
      <time>2026-07-29T19:00:38.388+02:00</time>
      <extensions>
        <activity type="UNKNOWN" conf="40" state="unknown" tsMs="1785344433278"/>
        <radio op="vodafone IT" rat="LTE" q="4.80" rsrp="-117" sinr="1" rsrq="-13"/>
        <radio op="I TIM" rat="LTE" rsrp="-114" rsrq="-13"/>
      </extensions>
    </trkpt>
    <trkpt lat="45.6025472" lon="10.4536701">
      <ele>261.6000061035156</ele>
      <time>2026-07-29T19:01:14.075+02:00</time>
      <extensions>
        <activity type="UNKNOWN" conf="40" state="unknown" tsMs="1785344472672"/>
        <radio op="vodafone IT" rat="LTE" q="2.60" rsrp="-123" sinr="8" rsrq="-13"/>
        <radio op="I TIM" rat="LTE" q="1.60" rsrp="-123" sinr="3" rsrq="-12"/>
      </extensions>
    </trkpt>
  </trkseg></trk>
</gpx>
