<?xml version="1.0" encoding="UTF-8"?>
<gpx version="1.1" creator="CellGPX" xmlns="http://www.topografix.com/GPX/1/1">
  <trk><name>CellGPX</name><trkseg>
    <trkpt lat="45.6032549" lon="10.4540482">
      <ele>263.3000183105469</ele>
      <time>2026-08-07T11:21:19.433+02:00</time>
      <extensions>
        <activity type="ON_FOOT" conf="97" state="moving" tsMs="1786094477793"/>
        <radio op="vodafone IT" rat="LTE" q="64.40" rsrp="-97" sinr="18" rsrq="-6"/>
        <radio op="I TIM" rat="LTE" q="71.30" rsrp="-94" sinr="18" rsrq="-8"/>
      </extensions>
    </trkpt>
    <trkpt lat="45.6033921" lon="10.4548072">
      <ele>262.20001220703125</ele>
      <time>2026-08-07T11:22:03.33+02:00</time>
      <extensions>
        <activity type="ON_FOOT" conf="96" state="moving" tsMs="1786094522787"/>
        <radio op="vodafone IT" rat="LTE" q="46.80" rsrp="-99" sinr="13" rsrq="-5"/>
        <radio op="I TIM" rat="LTE" q="75.00" rsrp="-95" sinr="22" rsrq="-11"/>
      </extensions>
    </trkpt>
    <trkpt lat="45.6035329" lon="10.4553034">
      <ele>261.70001220703125</ele>
      <time>2026-08-07T11:22:39.186+02:00</time>
      <extensions>
        <activity type="ON_FOOT" conf="97" state="moving" tsMs="1786094556842"/>
        <radio op="vodafone IT" rat="LTE" q="36.10" rsrp="-106" sinr="14" rsrq="-7"/>
        <radio op="I TIM" rat="LTE" q="70.00" rsrp="-97" sinr="23" rsrq="-12"/>
      </extensions>
    </trkpt>
    <trkpt lat="45.6036354" lon="10.4555566">
      <ele>261.70001220703125</ele>
      <time>2026-08-07T11:22:49.075+02:00</time>
      <extensions>
        <activity type="ON_FOOT" conf="97" state="moving" tsMs="1786094556842"/>
        <radio op="vodafone IT" rat="LTE" q="27.00" rsrp="-107" sinr="10" rsrq="-7"/>
        <radio op="I TIM" rat="LTE" q="35.20" rsrp="-103" sinr="11" rsrq="-10"/>
      </extensions>
    </trkpt>
    <trkpt lat="45.6033746" lon="10.4561471">
      <ele>262.0</ele>
      <time>2026-08-07T11:23:27.827+02:00</time>
      <extensions>
        <activity type="ON_FOOT" conf="96" state="moving" tsMs="1786094599172"/>
        <radio op="vodafone IT" rat="LTE" q="67.50" rsrp="-98" sinr="20" rsrq="-10"/>
        <radio op="I TIM" rat="LTE" q="39.20" rsrp="-97" sinr="9" rsrq="-8"/>
      </extensions>
    </trkpt>
    <trkpt lat="45.6036614" lon="10.4571652">
      <ele>262.0</ele>
      <time>2026-08-07T11:24:15.666+02:00</time>
      <extensions>
        <activity type="ON_FOOT" conf="97" state="moving" tsMs="1786094652530"/>
        <radio op="vodafone IT" rat="LTE" q="30.80" rsrp="-97" sinr="6" rsrq="-10"/>
        <radio op="I TIM" rat="LTE" q="47.50" rsrp="-100" sinr="14" rsrq="-12"/>
      </extensions>
    </trkpt>
    <trkpt lat="45.6037422" lon="10.4571601">
      <ele>262.0</ele>
      <time>2026-08-07T11:24:22.067+02:00</time>
      <extensions>
        <activity type="ON_FOOT" conf="97" state="moving" tsMs="1786094652530"/>
        <radio op="vodafone IT" rat="LTE" q="72.50" rsrp="-96" sinr="21" rsrq="-7"/>
        <radio op="I TIM" rat="LTE" q="57.20" rsrp="-99" sinr="17" rsrq="-9"/>
      </extensions>
    </trkpt>
    <trkpt lat="45.6037262" lon="10.4571558">
      <ele>264.20001220703125</ele>
      <time>2026-08-07T11:25:03.428+02:00</time>
      <extensions>
        <activity type="ON_FOOT" conf="96" state="moving" tsMs="1786094698164"/>
        <radio op="vodafone IT" rat="LTE" q="77.50" rsrp="-94" sinr="24" rsrq="-8"/>
        <radio op="I TIM" rat="LTE" q="95.00" rsrp="-87" sinr="23" rsrq="-7"/>
      </extensions>
    </trkpt>
    <trkpt lat="45.6042831" lon="10.4583968">
      <ele>264.3000183105469</ele>
      <time>2026-08-07T11:25:44.382+02:00</time>
      <extensions>
        <activity type="ON_FOOT" conf="97" state="moving" tsMs="1786094742516"/>
        <radio op="vodafone IT" rat="LTE" q="57.60" rsrp="-101" sinr="19" rsrq="-8"/>
        <radio op="I TIM" rat="LTE" q="14.30" rsrp="-114" sinr="8" rsrq="-12"/>
      </extensions>
    </trkpt>
    <trkpt lat="45.6040523" lon="10.4593518">
      <ele>264.4000244140625</ele>
      <time>2026-08-07T11:26:43.291+02:00</time>
      <extensions>
        <activity type="ON_FOOT" conf="96" state="moving" tsMs="1786094797790"/>
        <radio op="vodafone IT" rat="LTE" q="52.50" rsrp="-104" sinr="21" rsrq="-7"/>
        <radio op="I TIM" rat="LTE" q="32.00" rsrp="-109" sinr="15" rsrq="-10"/>
      </extensions>
    </trkpt>
    <trkpt lat="45.6039577" lon="10.4593938">
      <ele>264.3000183105469</ele>
      <time>2026-08-07T11:27:25.257+02:00</time>
      <extensions>
        <activity type="ON_FOOT" conf="87" state="moving" tsMs="1786094841122"/>
        <radio op="vodafone IT" rat="LTE" q="58.90" rsrp="-94" sinr="14" rsrq="-8"/>
        <radio op="I TIM" rat="LTE" q="43.20" rsrp="-101" sinr="13" rsrq="-11"/>
      </extensions>
    </trkpt>
    <trkpt lat="45.6039726" lon="10.4593927">
      <ele>264.3000183105469</ele>
      <time>2026-08-07T11:27:52.877+02:00</time>
      <extensions>
        <activity type="STILL" conf="38" state="still" tsMs="1786094870717"/>
        <radio op="vodafone IT" rat="LTE" q="72.00" rsrp="-95" sinr="19" rsrq="-7"/>
        <radio op="I TIM" rat="LTE" q="42.50" rsrp="-100" sinr="12" rsrq="-11"/>
      </extensions>
    </trkpt>
    <trkpt lat="45.6039655" lon="10.4593927">
      <ele>264.3000183105469</ele>
      <time>2026-08-07T11:28:30.603+02:00</time>
      <extensions>
        <activity type="STILL" conf="97" state="still" tsMs="1786094905767"/>
        <radio op="vodafone IT" rat="LTE" q="65.10" rsrp="-94" sinr="16" rsrq="-6"/>
        <radio op="I TIM" rat="LTE" q="42.50" rsrp="-100" sinr="12" rsrq="-12"/>
      </extensions>
    </trkpt>
    <trkpt lat="45.603967" lon="10.4593856">
      <ele>264.3000183105469</ele>
      <time>2026-08-07T11:28:42.928+02:00</time>
      <extensions>
        <activity type="STILL" conf="97" state="still" tsMs="1786094921705"/>
        <radio op="vodafone IT" rat="LTE" q="69.60" rsrp="-96" sinr="19" rsrq="-7"/>
        <radio op="I TIM" rat="LTE" q="42.50" rsrp="-100" sinr="12" rsrq="-11"/>
      </extensions>
    </trkpt>
    <trkpt lat="45.6039589" lon="10.4593741">
      <ele>264.3000183105469</ele>
      <time>2026-08-07T11:29:01.924+02:00</time>
      <extensions>
        <activity type="STILL" conf="97" state="still" tsMs="1786094939573"/>
        <radio op="vodafone IT" rat="LTE" q="66.00" rsrp="-95" sinr="17" rsrq="-7"/>
        <radio op="I TIM" rat="LTE" q="42.50" rsrp="-100" sinr="12" rsrq="-12"/>
      </extensions>
    </trkpt>
    <trkpt lat="45.6039657" lon="10.4593839">
      <ele>264.3000183105469</ele>
      <time>2026-08-07T11:29:42.17+02:00</time>
      <extensions>
        <activity type="STILL" conf="90" state="still" tsMs="1786094980226"/>
        <radio op="vodafone IT" rat="LTE" q="66.70" rsrp="-96" sinr="18" rsrq="-9"/>
        <radio op="I TIM" rat="LTE" q="42.50" rsrp="-100" sinr="12" rsrq="-9"/>
      </extensions>
    </trkpt>
    <trkpt lat="45.6039659" lon="10.4593814">
      <ele>264.3000183105469</ele>
      <time>2026-08-07T11:29:49.746+02:00</time>
      <extensions>
        <activity type="STILL" conf="98" state="still" tsMs="1786094985329"/>
        <radio op="vodafone IT" rat="LTE" q="72.00" rsrp="-95" sinr="19" rsrq="-7"/>
        <radio op="I TIM" rat="LTE" q="43.20" rsrp="-101" sinr="13" rsrq="-12"/>
      </extensions>
    </trkpt>
    <trkpt lat="45.6039654" lon="10.4593837">
      <ele>264.3000183105469</ele>
      <time>2026-08-07T11:30:23.772+02:00</time>
      <extensions>
        <activity type="STILL" conf="71" state="still" tsMs="1786095022834"/>
        <radio op="vodafone IT" rat="LTE" q="73.60" rsrp="-93" sinr="18" rsrq="-6"/>
        <radio op="I TIM" rat="LTE" rsrp="-100" rsrq="-11"/>
      </extensions>
    </trkpt>
    <trkpt lat="45.604212" lon="10.4594401">
      <ele>262.3921681476153</ele>
      <time>2026-08-07T11:49:21.968+02:00</time>
      <extensions>
        <activity type="UNKNOWN" conf="40" state="unknown" tsMs="1786096165112"/>
        <radio op="vodafone IT" rat="LTE" q="21.60" rsrp="-107" sinr="7" rsrq="-7"/>
        <radio op="I TIM" rat="LTE" q="11.20" rsrp="-109" sinr="2" rsrq="-11"/>
      </extensions>
    </trkpt>
    <trkpt lat="45.604221" lon="10.4594844">
      <ele>264.4000244140625</ele>
      <time>2026-08-07T11:49:53.244+02:00</time>
      <extensions>
        <activity type="UNKNOWN" conf="40" state="unknown" tsMs="1786096192901"/>
        <radio op="vodafone IT" rat="LTE" q="44.10" rsrp="-104" sinr="16" rsrq="-11"/>
        <radio op="I TIM" rat="LTE" q="19.50" rsrp="-110" sinr="8" rsrq="-12"/>
      </extensions>
    </trkpt>
    <trkpt lat="45.6042168" lon="10.4594886">
      <ele>264.4000244140625</ele>
      <time>2026-08-07T11:50:20.502+02:00</time>
      <extensions>
        <activity type="STILL" conf="84" state="still" tsMs="1786096220973"/>
        <radio op="vodafone IT" rat="LTE" q="42.00" rsrp="-105" sinr="16" rsrq="-6"/>
        <radio op="I TIM" rat="LTE" q="18.70" rsrp="-108" sinr="6" rsrq="-11"/>
      </extensions>
    </trkpt>
    <trkpt lat="45.6041838" lon="10.4593702">
      <ele>264.4000244140625</ele>
      <time>2026-08-07T11:51:02.318+02:00</time>
      <extensions>
        <activity type="UNKNOWN" conf="40" state="unknown" tsMs="1786096260847"/>
        <radio op="vodafone IT" rat="LTE" q="60.00" rsrp="-101" sinr="20" rsrq="-11"/>
        <radio op="I TIM" rat="LTE" q="18.00" rsrp="-113" sinr="10" rsrq="-12"/>
      </extensions>
    </trkpt>
    <trkpt lat="45.6040697" lon="10.4593724">
      <ele>264.4000244140625</ele>
      <time>2026-08-07T11:51:34.536+02:00</time>
      <extensions>
        <activity type="UNKNOWN" conf="40" state="unknown" tsMs="1786096298448"/>
        <radio op="vodafone IT" rat="LTE" q="28.00" rsrp="-111" sinr="15" rsrq="-8"/>
        <radio op="I TIM" rat="LTE" q="22.10" rsrp="-108" sinr="8" rsrq="-10"/>
      </extensions>
    </trkpt>
    <trkpt lat="45.6040964" lon="10.459365">
      <ele>264.4000244140625</ele>
      <time>2026-08-07T11:51:40.563+02:00</time>
      <extensions>
        <activity type="UNKNOWN" conf="40" state="unknown" tsMs="1786096298448"/>
        <radio op="vodafone IT" rat="LTE" q="15.60" rsrp="-113" sinr="8" rsrq="-12"/>
        <radio op="I TIM" rat="LTE" q="12.60" rsrp="-111" sinr="4" rsrq="-11"/>
      </extensions>
    </trkpt>
    <trkpt lat="45.6041381" lon="10.4593404">
      <ele>264.4000244140625</ele>
      <time>2026-08-07T11:51:51.394+02:00</time>
      <extensions>
        <activity type="STILL" conf="98" state="still" tsMs="1786096314258"/>
        <radio op="vodafone IT" rat="LTE" q="19.50" rsrp="-112" sinr="10" rsrq="-7"/>
        <radio op="I TIM" rat="LTE" q="9.90" rsrp="-114" sinr="4" rsrq="-12"/>
      </extensions>
    </trkpt>
    <trkpt lat="45.6040987" lon="10.4593482">
      <ele>264.4000244140625</ele>
      <time>2026-08-07T11:52:29.709+02:00</time>
      <extensions>
        <activity type="STILL" conf="98" state="still" tsMs="1786096344342"/>
        <radio op="vodafone IT" rat="LTE" q="6.00" rsrp="-113" sinr="0" rsrq="-10"/>
        <radio op="I TIM" rat="LTE" q="8.80" rsrp="-114" sinr="3" rsrq="-11"/>
      </extensions>
    </trkpt>
    <trkpt lat="45.6041281" lon="10.4593222">
      <ele>264.4000244140625</ele>
      <time>2026-08-07T11:53:00.977+02:00</time>
      <extensions>
        <activity type="STILL" conf="97" state="still" tsMs="1786096377112"/>
        <radio op="vodafone IT" rat="LTE" q="26.60" rsrp="-111" sinr="14" rsrq="-8"/>
        <radio op="I TIM" rat="LTE" q="16.50" rsrp="-114" sinr="10" rsrq="-13"/>
      </extensions>
    </trkpt>
    <trkpt lat="45.6041311" lon="10.4593637">
      <ele>264.4000244140625</ele>
      <time>2026-08-07T11:53:32.232+02:00</time>
      <extensions>
        <activity type="STILL" conf="62" state="still" tsMs="1786096408308"/>
        <radio op="vodafone IT" rat="LTE" q="28.50" rsrp="-110" sinr="14" rsrq="-12"/>
        <radio op="I TIM" rat="LTE" q="24.00" rsrp="-110" sinr="11" rsrq="-11"/>
      </extensions>
    </trkpt>
    <trkpt lat="45.6041519" lon="10.4593396">
      <ele>264.4000244140625</ele>
      <time>2026-08-07T11:54:03.591+02:00</time>
      <extensions>
        <activity type="STILL" conf="97" state="still" tsMs="1786096439649"/>
        <radio op="vodafone IT" rat="LTE" q="28.50" rsrp="-110" sinr="14" rsrq="-12"/>
        <radio op="I TIM" rat="LTE" q="27.00" rsrp="-110" sinr="13" rsrq="-13"/>
      </extensions>
    </trkpt>
    <trkpt lat="45.6041348" lon="10.4593328">
      <ele>264.4000244140625</ele>
      <time>2026-08-07T11:54:34.922+02:00</time>
      <extensions>
        <activity type="STILL" conf="49" state="still" tsMs="1786096470958"/>
        <radio op="vodafone IT" rat="LTE" q="25.50" rsrp="-108" sinr="10" rsrq="-7"/>
        <radio op="I TIM" rat="LTE" q="19.20" rsrp="-109" sinr="7" rsrq="-13"/>
      </extensions>
    </trkpt>
    <trkpt lat="45.6045025" lon="10.459411">
      <ele>264.4000244140625</ele>
      <time>2026-08-07T12:50:49.948+02:00</time>
      <extensions>
        <activity type="ON_FOOT" conf="93" state="moving" tsMs="1786099829057"/>
        <radio op="vodafone IT" rat="LTE" q="77.50" rsrp="-94" sinr="28" rsrq="-10"/>
        <radio op="I TIM" rat="LTE" q="39.90" rsrp="-106" sinr="16" rsrq="-11"/>
      </extensions>
    </trkpt>
    <trkpt lat="45.6044974" lon="10.4594972">
      <ele>264.4000244140625</ele>
      <time>2026-08-07T12:50:58.809+02:00</time>
      <extensions>
        <activity type="ON_FOOT" conf="98" state="moving" tsMs="1786099846488"/>
        <radio op="vodafone IT" rat="LTE" q="67.50" rsrp="-98" sinr="25" rsrq="-7"/>
        <radio op="I TIM" rat="LTE" q="3.50" rsrp="-120" sinr="2" rsrq="-13"/>
      </extensions>
    </trkpt>
    <trkpt lat="45.6044336" lon="10.459515">
      <ele>264.4000244140625</ele>
      <time>2026-08-07T12:51:08.994+02:00</time>
      <extensions>
        <activity type="ON_FOOT" conf="98" state="moving" tsMs="1786099846488"/>
        <radio op="vodafone IT" rat="LTE" q="72.50" rsrp="-96" sinr="26" rsrq="-9"/>
        <radio op="I TIM" rat="LTE" q="9.60" rsrp="-117" sinr="7" rsrq="-13"/>
      </extensions>
    </trkpt>
    <trkpt lat="45.6044127" lon="10.4595215">
      <ele>264.4000244140625</ele>
      <time>2026-08-07T12:51:20.706+02:00</time>
      <extensions>
        <activity type="UNKNOWN" conf="40" state="unknown" tsMs="1786099861855"/>
        <radio op="vodafone IT" rat="LTE" q="62.50" rsrp="-100" sinr="25" rsrq="-8"/>
        <radio op="I TIM" rat="LTE" q="45.60" rsrp="-101" sinr="14" rsrq="-8"/>
      </extensions>
    </trkpt>
    <trkpt lat="45.604446" lon="10.4594376">
      <ele>264.4000244140625</ele>
      <time>2026-08-07T12:51:30.389+02:00</time>
      <extensions>
        <activity type="UNKNOWN" conf="40" state="unknown" tsMs="1786099877201"/>
        <radio op="vodafone IT" rat="LTE" q="77.50" rsrp="-94" sinr="26" rsrq="-11"/>
        <radio op="I TIM" rat="LTE" q="82.50" rsrp="-92" sinr="21" rsrq="-7"/>
      </extensions>
    </trkpt>
    <trkpt lat="45.604391" lon="10.4592633">
      <ele>264.4000244140625</ele>
      <time>2026-08-07T12:51:40.168+02:00</time>
      <extensions>
        <activity type="ON_FOOT" conf="96" state="moving" tsMs="1786099892557"/>
        <radio op="vodafone IT" rat="LTE" q="77.50" rsrp="-94" sinr="26" rsrq="-10"/>
        <radio op="I TIM" rat="LTE" q="75.00" rsrp="-95" sinr="20" rsrq="-10"/>
      </extensions>
    </trkpt>
    <trkpt lat="45.6043719" lon="10.459195">
      <ele>264.4000244140625</ele>
      <time>2026-08-07T12:51:49.962+02:00</time>
      <extensions>
        <activity type="ON_FOOT" conf="96" state="moving" tsMs="1786099892557"/>
        <radio op="vodafone IT" rat="LTE" q="80.00" rsrp="-93" sinr="29" rsrq="-6"/>
        <radio op="I TIM" rat="LTE" q="67.50" rsrp="-98" sinr="25" rsrq="-8"/>
      </extensions>
    </trkpt>
    <trkpt lat="45.6043862" lon="10.4591899">
      <ele>264.4000244140625</ele>
      <time>2026-08-07T12:52:00.149+02:00</time>
      <extensions>
        <activity type="UNKNOWN" conf="40" state="unknown" tsMs="1786099902786"/>
        <radio op="vodafone IT" rat="LTE" q="77.50" rsrp="-94" sinr="29" rsrq="-9"/>
        <radio op="I TIM" rat="LTE" q="62.50" rsrp="-100" sinr="25" rsrq="-11"/>
      </extensions>
    </trkpt>
    <trkpt lat="45.6043922" lon="10.4591953">
      <ele>264.4000244140625</ele>
      <time>2026-08-07T12:52:10.45+02:00</time>
      <extensions>
        <activity type="UNKNOWN" conf="40" state="unknown" tsMs="1786099918158"/>
        <radio op="vodafone IT" rat="LTE" q="85.00" rsrp="-91" sinr="29" rsrq="-6"/>
        <radio op="I TIM" rat="LTE" q="37.70" rsrp="-96" sinr="8" rsrq="-12"/>
      </extensions>
    </trkpt>
    <trkpt lat="45.6043958" lon="10.4591966">
      <ele>264.4000244140625</ele>
      <time>2026-08-07T12:52:20.745+02:00</time>
      <extensions>
        <activity type="UNKNOWN" conf="40" state="unknown" tsMs="1786099918158"/>
        <radio op="vodafone IT" rat="LTE" q="80.00" rsrp="-93" sinr="30" rsrq="-9"/>
        <radio op="I TIM" rat="LTE" rsrp="-94" rsrq="-12"/>
      </extensions>
    </trkpt>
    <trkpt lat="45.6043986" lon="10.4591971">
      <ele>264.4000244140625</ele>
      <time>2026-08-07T12:52:30.928+02:00</time>
      <extensions>
        <activity type="UNKNOWN" conf="40" state="unknown" tsMs="1786099933501"/>
        <radio op="vodafone IT" rat="LTE" q="82.50" rsrp="-92" sinr="27" rsrq="-10"/>
        <radio op="I TIM" rat="LTE" q="70.00" rsrp="-97" sinr="27" rsrq="-11"/>
      </extensions>
    </trkpt>
    <trkpt lat="45.604399" lon="10.4591988">
      <ele>264.4000244140625</ele>
      <time>2026-08-07T12:52:41.223+02:00</time>
      <extensions>
        <activity type="STILL" conf="96" state="still" tsMs="1786099948852"/>
        <radio op="vodafone IT" rat="LTE" q="85.00" rsrp="-91" sinr="30" rsrq="-7"/>
        <radio op="I TIM" rat="LTE" q="72.50" rsrp="-96" sinr="22" rsrq="-12"/>
      </extensions>
    </trkpt>
    <trkpt lat="45.6043984" lon="10.4592014">
      <ele>264.4000244140625</ele>
      <time>2026-08-07T12:52:51.403+02:00</time>
      <extensions>
        <activity type="STILL" conf="100" state="still" tsMs="1786099959104"/>
        <radio op="vodafone IT" rat="LTE" q="67.50" rsrp="-98" sinr="25" rsrq="-6"/>
        <radio op="I TIM" rat="LTE" q="67.50" rsrp="-98" sinr="26" rsrq="-8"/>
      </extensions>
    </trkpt>
    <trkpt lat="45.6043981" lon="10.4592012">
      <ele>264.4000244140625</ele>
      <time>2026-08-07T12:53:01.694+02:00</time>
      <extensions>
        <activity type="STILL" conf="100" state="still" tsMs="1786099969347"/>
        <radio op="vodafone IT" rat="LTE" q="80.00" rsrp="-93" sinr="28" rsrq="-11"/>
        <radio op="I TIM" rat="LTE" q="41.60" rsrp="-99" sinr="11" rsrq="-8"/>
      </extensions>
    </trkpt>
    <trkpt lat="45.604397" lon="10.4592031">
      <ele>264.4000244140625</ele>
      <time>2026-08-07T12:53:11.984+02:00</time>
      <extensions>
        <activity type="STILL" conf="100" state="still" tsMs="1786099969347"/>
        <radio op="vodafone IT" rat="LTE" q="80.00" rsrp="-93" sinr="28" rsrq="-7"/>
        <radio op="I TIM" rat="LTE" q="40.60" rsrp="-96" sinr="9" rsrq="-9"/>
      </extensions>
    </trkpt>
    <trkpt lat="45.6043978" lon="10.4592028">
      <ele>264.4000244140625</ele>
      <time>2026-08-07T12:53:13.442+02:00</time>
      <extensions>
        <activity type="UNKNOWN" conf="40" state="unknown" tsMs="1786100000237"/>
        <radio op="vodafone IT" rat="LTE" q="77.50" rsrp="-94" sinr="25" rsrq="-8"/>
        <radio op="I TIM" rat="LTE" q="36.30" rsrp="-92" sinr="6" rsrq="-12"/>
      </extensions>
    </trkpt>
    <trkpt lat="45.6043836" lon="10.459162">
      <ele>264.4000244140625</ele>
      <time>2026-08-07T12:53:53.345+02:00</time>
      <extensions>
        <activity type="STILL" conf="97" state="still" tsMs="1786100032357"/>
        <radio op="vodafone IT" rat="LTE" q="90.00" rsrp="-89" sinr="27" rsrq="-10"/>
        <radio op="I TIM" rat="LTE" q="92.50" rsrp="-88" sinr="23" rsrq="-11"/>
      </extensions>
    </trkpt>
    <trkpt lat="45.6044032" lon="10.4591919">
      <ele>264.4000244140625</ele>
      <time>2026-08-07T12:54:23.965+02:00</time>
      <extensions>
        <activity type="STILL" conf="96" state="still" tsMs="1786100064202"/>
        <radio op="vodafone IT" rat="LTE" q="64.80" rsrp="-89" sinr="13" rsrq="-8"/>
        <radio op="I TIM" rat="LTE" q="38.00" rsrp="-106" sinr="15" rsrq="-10"/>
      </extensions>
    </trkpt>
    <trkpt lat="45.6044486" lon="10.4589242">
      <ele>264.4000244140625</ele>
      <time>2026-08-07T12:55:01.581+02:00</time>
      <extensions>
        <activity type="UNKNOWN" conf="40" state="unknown" tsMs="1786100100860"/>
        <radio op="vodafone IT" rat="LTE" q="100.00" rsrp="-85" sinr="27" rsrq="-12"/>
        <radio op="I TIM" rat="LTE" q="40.80" rsrp="-101" sinr="12" rsrq="-8"/>
      </extensions>
    </trkpt>
    <trkpt lat="45.6041989" lon="10.4586519">
      <ele>264.3000183105469</ele>
      <time>2026-08-07T12:55:37.617+02:00</time>
      <extensions>
        <activity type="ON_FOOT" conf="96" state="moving" tsMs="1786100132545"/>
        <radio op="vodafone IT" rat="LTE" q="91.20" rsrp="-87" sinr="19" rsrq="-7"/>
        <radio op="I TIM" rat="LTE" q="72.50" rsrp="-96" sinr="23" rsrq="-11"/>
      </extensions>
    </trkpt>
    <trkpt lat="45.6034504" lon="10.4574893">
      <ele>264.0</ele>
      <time>2026-08-07T12:56:09.986+02:00</time>
      <extensions>
        <activity type="ON_FOOT" conf="96" state="moving" tsMs="1786100165226"/>
        <radio op="vodafone IT" rat="LTE" q="90.00" rsrp="-89" sinr="25" rsrq="-5"/>
        <radio op="I TIM" rat="LTE" q="85.00" rsrp="-91" sinr="22" rsrq="-11"/>
      </extensions>
    </trkpt>
    <trkpt lat="45.6038027" lon="10.4579074">
      <ele>264.0</ele>
      <time>2026-08-07T12:56:19.062+02:00</time>
      <extensions>
        <activity type="ON_FOOT" conf="97" state="moving" tsMs="1786100175896"/>
        <radio op="vodafone IT" rat="LTE" q="95.00" rsrp="-87" sinr="22" rsrq="-6"/>
        <radio op="I TIM" rat="LTE" q="92.50" rsrp="-88" sinr="20" rsrq="-11"/>
      </extensions>
    </trkpt>
    <trkpt lat="45.6038292" lon="10.457915">
      <ele>262.8000183105469</ele>
      <time>2026-08-07T12:57:03.456+02:00</time>
      <extensions>
        <activity type="ON_FOOT" conf="96" state="moving" tsMs="1786100220674"/>
        <radio op="vodafone IT" rat="LTE" q="87.50" rsrp="-90" sinr="28" rsrq="-5"/>
        <radio op="I TIM" rat="LTE" q="85.00" rsrp="-91" sinr="23" rsrq="-12"/>
      </extensions>
    </trkpt>
    <trkpt lat="45.6033368" lon="10.4559777">
      <ele>261.9000244140625</ele>
      <time>2026-08-07T12:57:52.394+02:00</time>
      <extensions>
        <activity type="ON_FOOT" conf="96" state="moving" tsMs="1786100266874"/>
        <radio op="vodafone IT" rat="LTE" q="82.50" rsrp="-92" sinr="27" rsrq="-5"/>
        <radio op="I TIM" rat="LTE" q="50.40" rsrp="-97" sinr="13" rsrq="-8"/>
      </extensions>
    </trkpt>
    <trkpt lat="45.6032614" lon="10.4559378">
      <ele>261.9000244140625</ele>
      <time>2026-08-07T12:58:01.062+02:00</time>
      <extensions>
        <activity type="ON_FOOT" conf="97" state="moving" tsMs="1786100272211"/>
        <radio op="vodafone IT" rat="LTE" q="48.30" rsrp="-104" sinr="18" rsrq="-6"/>
        <radio op="I TIM" rat="LTE" q="68.20" rsrp="-94" sinr="17" rsrq="-9"/>
      </extensions>
    </trkpt>
    <trkpt lat="45.6032274" lon="10.4560034">
      <ele>262.4000244140625</ele>
      <time>2026-08-07T12:58:58.364+02:00</time>
      <extensions>
        <activity type="ON_FOOT" conf="96" state="moving" tsMs="1786100316451"/>
        <radio op="vodafone IT" rat="LTE" q="13.00" rsrp="-112" sinr="5" rsrq="-10"/>
        <radio op="I TIM" rat="LTE" q="19.50" rsrp="-110" sinr="8" rsrq="-11"/>
      </extensions>
    </trkpt>
    <trkpt lat="45.6030733" lon="10.4542086">
      <ele>261.9000244140625</ele>
      <time>2026-08-07T12:59:52.049+02:00</time>
      <extensions>
        <activity type="ON_FOOT" conf="96" state="moving" tsMs="1786100386285"/>
        <radio op="vodafone IT" rat="LTE" q="19.80" rsrp="-107" sinr="6" rsrq="-7"/>
        <radio op="I TIM" rat="LTE" q="44.00" rsrp="-103" sinr="15" rsrq="-11"/>
      </extensions>
    </trkpt>
    <trkpt lat="45.6030371" lon="10.4538187">
      <ele>261.9000244140625</ele>
      <time>2026-08-07T13:00:01.06+02:00</time>
      <extensions>
        <activity type="ON_FOOT" conf="96" state="moving" tsMs="1786100391892"/>
        <radio op="vodafone IT" rat="LTE" q="31.50" rsrp="-104" sinr="10" rsrq="-7"/>
        <radio op="I TIM" rat="LTE" q="44.10" rsrp="-104" sinr="16" rsrq="-9"/>
      </extensions>
    </trkpt>
    <trkpt lat="45.6025658" lon="10.4537179">
      <ele>261.6000061035156</ele>
      <time>2026-08-07T13:00:43.992+02:00</time>
      <extensions>
        <activity type="ON_FOOT" conf="97" state="moving" tsMs="1786100442726"/>
        <radio op="vodafone IT" rat="LTE" q="1.80" rsrp="-123" sinr="4" rsrq="-13"/>
        <radio op="I TIM" rat="LTE" q="15.00" rsrp="-110" sinr="5" rsrq="-12"/>
      </extensions>
    </trkpt>
    <trkpt lat="45.602456" lon="10.4535939">
      <ele>261.6000061035156</ele>
      <time>2026-08-07T13:01:15.415+02:00</time>
      <extensions>
        <activity type="STILL" conf="99" state="still" tsMs="1786100474903"/>
        <radio op="vodafone IT" rat="LTE" q="13.50" rsrp="-110" sinr="4" rsrq="-11"/>
        <radio op="I TIM" rat="LTE" q="19.50" rsrp="-112" sinr="10" rsrq="-8"/>
      </extensions>
    </trkpt>
    <trkpt lat="45.6024902" lon="10.4535785">
      <ele>261.6000061035156</ele>
      <time>2026-08-07T13:01:57.141+02:00</time>
      <extensions>
        <activity type="STILL" conf="97" state="still" tsMs="1786100514646"/>
        <radio op="vodafone IT" rat="LTE" rsrp="-109" rsrq="-11"/>
        <radio op="I TIM" rat="LTE" q="10.80" rsrp="-116" sinr="7" rsrq="-11"/>
      </extensions>
    </trkpt>
    <trkpt lat="45.602552" lon="10.4536913">
      <ele>261.6000061035156</ele>
      <time>2026-08-07T13:02:44.524+02:00</time>
      <extensions>
        <activity type="STILL" conf="94" state="still" tsMs="1786100559202"/>
        <radio op="vodafone IT" rat="LTE" q="10.80" rsrp="-116" sinr="7" rsrq="-12"/>
        <radio op="I TIM" rat="LTE" q="17.10" rsrp="-116" sinr="14" rsrq="-12"/>
      </extensions>
    </trkpt>
    <trkpt lat="45.6025443" lon="10.4536904">
      <ele>261.6000061035156</ele>
      <time>2026-08-07T13:03:20.734+02:00</time>
      <extensions>
        <activity type="UNKNOWN" conf="40" state="unknown" tsMs="1786100597853"/>
        <radio op="vodafone IT" rat="LTE" q="2.00" rsrp="-121" sinr="0" rsrq="-13"/>
        <radio op="I TIM" rat="LTE" q="13.50" rsrp="-116" sinr="10" rsrq="-9"/>
      </extensions>
    </trkpt>
    <trkpt lat="45.602543" lon="10.4536932">
      <ele>261.6000061035156</ele>
      <time>2026-08-07T13:03:51.393+02:00</time>
      <extensions>
        <activity type="STILL" conf="73" state="still" tsMs="1786100629232"/>
        <radio op="vodafone IT" rat="LTE" rsrp="-115" rsrq="-12"/>
        <radio op="I TIM" rat="LTE" q="13.20" rsrp="-113" sinr="6" rsrq="-13"/>
      </extensions>
    </trkpt>
    <trkpt lat="45.6025433" lon="10.4536918">
      <ele>261.6000061035156</ele>
      <time>2026-08-07T13:04:35.206+02:00</time>
      <extensions>
        <activity type="UNKNOWN" conf="40" state="unknown" tsMs="1786100670272"/>
        <radio op="vodafone IT" rat="LTE" q="21.60" rsrp="-113" sinr="13" rsrq="-8"/>
        <radio op="I TIM" rat="LTE" q="16.00" rsrp="-109" sinr="5" rsrq="-11"/>
      </extensions>
    </trkpt>
    <trkpt lat="45.6025418" lon="10.4536914">
      <ele>261.6000061035156</ele>
      <time>2026-08-07T13:05:06.892+02:00</time>
      <extensions>
        <activity type="STILL" conf="96" state="still" tsMs="1786100703022"/>
        <radio op="vodafone IT" rat="LTE" q="18.20" rsrp="-112" sinr="9" rsrq="-9"/>
        <radio op="I TIM" rat="LTE" q="3.60" rsrp="-119" sinr="1" rsrq="-12"/>
      </extensions>
    </trkpt>
    <trkpt lat="45.6025431" lon="10.4536924">
      <ele>261.6000061035156</ele>
      <time>2026-08-07T13:05:55.095+02:00</time>
      <extensions>
        <activity type="STILL" conf="97" state="still" tsMs="1786100752896"/>
        <radio op="vodafone IT" rat="LTE" rsrp="-118" rsrq="-12"/>
        <radio op="I TIM" rat="LTE" rsrp="-115" rsrq="-14"/>
      </extensions>
    </trkpt>
  </trkseg></trk>
</gpx>
