<?xml version="1.0" encoding="UTF-8"?>
<gpx version="1.1" creator="CellGPX" xmlns="http://www.topografix.com/GPX/1/1">
  <trk><name>CellGPX</name><trkseg>
    <trkpt lat="45.6025409" lon="10.4536526">
      <ele>261.70001220703125</ele>
      <time>2026-06-12T14:07:33.337+02:00</time>
      <extensions>
        <activity type="ON_FOOT" conf="84" state="moving" tsMs="1781266045662"/>
        <radio op="vodafone IT" rat="LTE" rsrp="-122" rsrq="-13"/>
        <radio op="I TIM" rat="LTE" q="4.00" rsrp="-120" sinr="3" rsrq="-11"/>
      </extensions>
    </trkpt>
    <trkpt lat="45.6025388" lon="10.4536544">
      <ele>261.70001220703125</ele>
      <time>2026-06-12T14:07:40.941+02:00</time>
      <extensions>
        <activity type="UNKNOWN" conf="40" state="unknown" tsMs="1781266049220"/>
        <radio op="vodafone IT" rat="LTE" q="0.00" rsrp="-125" sinr="6" rsrq="-14"/>
        <radio op="I TIM" rat="LTE" rsrp="-121" rsrq="-11"/>
      </extensions>
    </trkpt>
    <trkpt lat="45.6025384" lon="10.4536559">
      <ele>261.70001220703125</ele>
      <time>2026-06-12T14:07:48.183+02:00</time>
      <extensions>
        <activity type="UNKNOWN" conf="40" state="unknown" tsMs="1781266075166"/>
        <radio op="vodafone IT" rat="LTE" q="0.60" rsrp="-124" sinr="1" rsrq="-14"/>
        <radio op="I TIM" rat="LTE" q="1.60" rsrp="-123" sinr="3" rsrq="-11"/>
      </extensions>
    </trkpt>
    <trkpt lat="45.6025389" lon="10.4536565">
      <ele>261.70001220703125</ele>
      <time>2026-06-12T14:08:02.668+02:00</time>
      <extensions>
        <activity type="UNKNOWN" conf="40" state="unknown" tsMs="1781266075166"/>
        <radio op="vodafone IT" rat="LTE" rsrp="-125" rsrq="-16"/>
        <radio op="I TIM" rat="LTE" q="2.40" rsrp="-121" sinr="1" rsrq="-11"/>
      </extensions>
    </trkpt>
    <trkpt lat="45.6025396" lon="10.4536545">
      <ele>261.70001220703125</ele>
      <time>2026-06-12T14:08:09.938+02:00</time>
      <extensions>
        <activity type="UNKNOWN" conf="40" state="unknown" tsMs="1781266080531"/>
        <radio op="vodafone IT" rat="LTE" rsrp="-123" rsrq="-14"/>
        <radio op="I TIM" rat="LTE" q="3.00" rsrp="-120" sinr="1" rsrq="-11"/>
      </extensions>
    </trkpt>
    <trkpt lat="45.6025399" lon="10.4536536">
      <ele>261.70001220703125</ele>
      <time>2026-06-12T14:08:17.21+02:00</time>
      <extensions>
        <activity type="UNKNOWN" conf="40" state="unknown" tsMs="1781266104350"/>
        <radio op="vodafone IT" rat="LTE" rsrp="-127" rsrq="-15"/>
        <radio op="I TIM" rat="LTE" q="1.20" rsrp="-123" sinr="1" rsrq="-11"/>
      </extensions>
    </trkpt>
    <trkpt lat="45.6025376" lon="10.4536542">
      <ele>261.70001220703125</ele>
      <time>2026-06-12T14:08:32.01+02:00</time>
      <extensions>
        <activity type="UNKNOWN" conf="40" state="unknown" tsMs="1781266104350"/>
        <radio op="vodafone IT" rat="LTE" rsrp="-124" rsrq="-11"/>
        <radio op="I TIM" rat="LTE" q="0.00" rsrp="-125" sinr="0" rsrq="-12"/>
      </extensions>
    </trkpt>
    <trkpt lat="45.6025399" lon="10.4536542">
      <ele>261.70001220703125</ele>
      <time>2026-06-12T14:08:46.244+02:00</time>
      <extensions>
        <activity type="UNKNOWN" conf="40" state="unknown" tsMs="1781266109594"/>
        <radio op="vodafone IT" rat="LTE" rsrp="-123" rsrq="-12"/>
        <radio op="I TIM" rat="LTE" q="0.00" rsrp="-125" sinr="2" rsrq="-13"/>
      </extensions>
    </trkpt>
    <trkpt lat="45.6025422" lon="10.4536549">
      <ele>261.70001220703125</ele>
      <time>2026-06-12T14:08:56.48+02:00</time>
      <extensions>
        <activity type="UNKNOWN" conf="40" state="unknown" tsMs="1781266109594"/>
        <radio op="vodafone IT" rat="LTE" q="0.60" rsrp="-124" sinr="1" rsrq="-12"/>
        <radio op="I TIM" rat="LTE" q="1.50" rsrp="-122" sinr="0" rsrq="-11"/>
      </extensions>
    </trkpt>
    <trkpt lat="45.6025365" lon="10.4536562">
      <ele>261.70001220703125</ele>
      <time>2026-06-12T14:09:06.669+02:00</time>
      <extensions>
        <activity type="STILL" conf="100" state="still" tsMs="1781266129447"/>
        <radio op="vodafone IT" rat="LTE" q="0.00" rsrp="-125" sinr="2" rsrq="-12"/>
        <radio op="I TIM" rat="LTE" q="2.10" rsrp="-122" sinr="2" rsrq="-9"/>
      </extensions>
    </trkpt>
    <trkpt lat="45.6025402" lon="10.4536524">
      <ele>261.70001220703125</ele>
      <time>2026-06-12T14:09:16.897+02:00</time>
      <extensions>
        <activity type="STILL" conf="100" state="still" tsMs="1781266144751"/>
        <radio op="vodafone IT" rat="LTE" q="1.20" rsrp="-123" sinr="1" rsrq="-11"/>
        <radio op="I TIM" rat="LTE" q="3.50" rsrp="-120" sinr="2" rsrq="-8"/>
      </extensions>
    </trkpt>
    <trkpt lat="45.6025387" lon="10.4536554">
      <ele>261.70001220703125</ele>
      <time>2026-06-12T14:09:27.116+02:00</time>
      <extensions>
        <activity type="STILL" conf="100" state="still" tsMs="1781266154942"/>
        <radio op="vodafone IT" rat="LTE" q="1.80" rsrp="-123" sinr="4" rsrq="-13"/>
        <radio op="I TIM" rat="LTE" q="1.50" rsrp="-122" sinr="0" rsrq="-12"/>
      </extensions>
    </trkpt>
    <trkpt lat="45.6025235" lon="10.4536761">
      <ele>261.70001220703125</ele>
      <time>2026-06-12T14:09:39.552+02:00</time>
      <extensions>
        <activity type="UNKNOWN" conf="40" state="unknown" tsMs="1781266165169"/>
        <radio op="vodafone IT" rat="LTE" rsrp="-127" rsrq="-14"/>
        <radio op="I TIM" rat="LTE" q="0.00" rsrp="-128" sinr="0" rsrq="-16"/>
      </extensions>
    </trkpt>
    <trkpt lat="45.6025723" lon="10.4536432">
      <ele>261.70001220703125</ele>
      <time>2026-06-12T14:09:49.183+02:00</time>
      <extensions>
        <activity type="UNKNOWN" conf="40" state="unknown" tsMs="1781266165169"/>
        <radio op="vodafone IT" rat="LTE" q="11.40" rsrp="-106" sinr="1" rsrq="-10"/>
        <radio op="I TIM" rat="LTE" q="16.50" rsrp="-110" sinr="6" rsrq="-11"/>
      </extensions>
    </trkpt>
    <trkpt lat="45.6024387" lon="10.453587">
      <ele>261.70001220703125</ele>
      <time>2026-06-12T14:09:59.928+02:00</time>
      <extensions>
        <activity type="ON_FOOT" conf="89" state="moving" tsMs="1781266180857"/>
        <radio op="vodafone IT" rat="LTE" q="23.40" rsrp="-99" sinr="4" rsrq="-13"/>
        <radio op="I TIM" rat="LTE" q="21.60" rsrp="-107" sinr="7" rsrq="-11"/>
      </extensions>
    </trkpt>
    <trkpt lat="45.6023107" lon="10.4536076">
      <ele>261.6000061035156</ele>
      <time>2026-06-12T14:10:09.63+02:00</time>
      <extensions>
        <activity type="ON_FOOT" conf="90" state="moving" tsMs="1781266195960"/>
        <radio op="vodafone IT" rat="LTE" q="30.00" rsrp="-95" sinr="5" rsrq="-10"/>
        <radio op="I TIM" rat="LTE" q="19.00" rsrp="-106" sinr="5" rsrq="-9"/>
      </extensions>
    </trkpt>
    <trkpt lat="45.6022243" lon="10.4534396">
      <ele>261.70001220703125</ele>
      <time>2026-06-12T14:10:20.219+02:00</time>
      <extensions>
        <activity type="ON_FOOT" conf="95" state="moving" tsMs="1781266217413"/>
        <radio op="vodafone IT" rat="LTE" q="26.40" rsrp="-92" sinr="3" rsrq="-9"/>
        <radio op="I TIM" rat="LTE" q="35.00" rsrp="-100" sinr="9" rsrq="-10"/>
      </extensions>
    </trkpt>
    <trkpt lat="45.6020971" lon="10.4534918">
      <ele>261.8000183105469</ele>
      <time>2026-06-12T14:10:30.272+02:00</time>
      <extensions>
        <activity type="ON_FOOT" conf="95" state="moving" tsMs="1781266217413"/>
        <radio op="vodafone IT" rat="LTE" q="28.00" rsrp="-97" sinr="5" rsrq="-11"/>
        <radio op="I TIM" rat="LTE" q="36.00" rsrp="-101" sinr="10" rsrq="-11"/>
      </extensions>
    </trkpt>
    <trkpt lat="45.6021027" lon="10.4535095">
      <ele>261.8000183105469</ele>
      <time>2026-06-12T14:10:40.204+02:00</time>
      <extensions>
        <activity type="ON_FOOT" conf="92" state="moving" tsMs="1781266222220"/>
        <radio op="vodafone IT" rat="LTE" q="11.00" rsrp="-103" sinr="0" rsrq="-11"/>
        <radio op="I TIM" rat="LTE" q="32.00" rsrp="-105" sinr="11" rsrq="-11"/>
      </extensions>
    </trkpt>
    <trkpt lat="45.6021024" lon="10.4534656">
      <ele>261.70001220703125</ele>
      <time>2026-06-12T14:10:50.253+02:00</time>
      <extensions>
        <activity type="UNKNOWN" conf="40" state="unknown" tsMs="1781266247163"/>
        <radio op="vodafone IT" rat="LTE" q="19.20" rsrp="-101" sinr="3" rsrq="-13"/>
        <radio op="I TIM" rat="LTE" q="23.40" rsrp="-107" sinr="8" rsrq="-9"/>
      </extensions>
    </trkpt>
    <trkpt lat="45.602078" lon="10.4533692">
      <ele>261.8000183105469</ele>
      <time>2026-06-12T14:11:00.195+02:00</time>
      <extensions>
        <activity type="UNKNOWN" conf="40" state="unknown" tsMs="1781266247163"/>
        <radio op="vodafone IT" rat="LTE" q="16.00" rsrp="-105" sinr="3" rsrq="-11"/>
        <radio op="I TIM" rat="LTE" q="10.40" rsrp="-112" sinr="3" rsrq="-13"/>
      </extensions>
    </trkpt>
    <trkpt lat="45.6021553" lon="10.4538943">
      <ele>261.6000061035156</ele>
      <time>2026-06-12T14:11:10.182+02:00</time>
      <extensions>
        <activity type="UNKNOWN" conf="40" state="unknown" tsMs="1781266252354"/>
        <radio op="vodafone IT" rat="LTE" q="13.20" rsrp="-103" sinr="1" rsrq="-14"/>
        <radio op="I TIM" rat="LTE" q="25.50" rsrp="-110" sinr="12" rsrq="-11"/>
      </extensions>
    </trkpt>
    <trkpt lat="45.6018151" lon="10.4540707">
      <ele>260.8000183105469</ele>
      <time>2026-06-12T14:11:20.183+02:00</time>
      <extensions>
        <activity type="UNKNOWN" conf="40" state="unknown" tsMs="1781266252354"/>
        <radio op="vodafone IT" rat="LTE" q="11.50" rsrp="-102" sinr="0" rsrq="-13"/>
        <radio op="I TIM" rat="LTE" q="28.80" rsrp="-107" sinr="11" rsrq="-12"/>
      </extensions>
    </trkpt>
    <trkpt lat="45.6017765" lon="10.4541258">
      <ele>260.8000183105469</ele>
      <time>2026-06-12T14:11:30.193+02:00</time>
      <extensions>
        <activity type="UNKNOWN" conf="40" state="unknown" tsMs="1781266289306"/>
        <radio op="vodafone IT" rat="LTE" rsrp="-103" rsrq="-12"/>
        <radio op="I TIM" rat="LTE" q="24.00" rsrp="-109" sinr="10" rsrq="-12"/>
      </extensions>
    </trkpt>
    <trkpt lat="45.6017236" lon="10.4541554">
      <ele>260.8000183105469</ele>
      <time>2026-06-12T14:11:41.25+02:00</time>
      <extensions>
        <activity type="UNKNOWN" conf="40" state="unknown" tsMs="1781266299413"/>
        <radio op="vodafone IT" rat="LTE" q="52.70" rsrp="-94" sinr="12" rsrq="-7"/>
        <radio op="I TIM" rat="LTE" q="16.00" rsrp="-109" sinr="5" rsrq="-10"/>
      </extensions>
    </trkpt>
    <trkpt lat="45.6021824" lon="10.4548907">
      <ele>260.8000183105469</ele>
      <time>2026-06-12T14:11:51.184+02:00</time>
      <extensions>
        <activity type="UNKNOWN" conf="40" state="unknown" tsMs="1781266310235"/>
        <radio op="vodafone IT" rat="LTE" q="44.80" rsrp="-93" sinr="9" rsrq="-9"/>
        <radio op="I TIM" rat="LTE" q="18.70" rsrp="-108" sinr="6" rsrq="-12"/>
      </extensions>
    </trkpt>
    <trkpt lat="45.6023929" lon="10.4552838">
      <ele>262.20001220703125</ele>
      <time>2026-06-12T14:12:01.193+02:00</time>
      <extensions>
        <activity type="UNKNOWN" conf="40" state="unknown" tsMs="1781266320286"/>
        <radio op="vodafone IT" rat="LTE" q="14.40" rsrp="-107" sinr="3" rsrq="-10"/>
        <radio op="I TIM" rat="LTE" q="19.20" rsrp="-113" sinr="11" rsrq="-12"/>
      </extensions>
    </trkpt>
    <trkpt lat="45.6023713" lon="10.4553294">
      <ele>260.55654259409164</ele>
      <time>2026-06-12T14:12:11.24+02:00</time>
      <extensions>
        <activity type="UNKNOWN" conf="40" state="unknown" tsMs="1781266330314"/>
        <radio op="vodafone IT" rat="LTE" q="25.30" rsrp="-102" sinr="6" rsrq="-9"/>
        <radio op="I TIM" rat="LTE" q="27.20" rsrp="-108" sinr="11" rsrq="-10"/>
      </extensions>
    </trkpt>
    <trkpt lat="45.6024958" lon="10.4556127">
      <ele>262.20001220703125</ele>
      <time>2026-06-12T14:12:21.183+02:00</time>
      <extensions>
        <activity type="UNKNOWN" conf="40" state="unknown" tsMs="1781266340704"/>
        <radio op="vodafone IT" rat="LTE" q="9.60" rsrp="-117" sinr="7" rsrq="-13"/>
        <radio op="I TIM" rat="LTE" q="9.00" rsrp="-110" sinr="1" rsrq="-12"/>
      </extensions>
    </trkpt>
    <trkpt lat="45.6027319" lon="10.4564216">
      <ele>262.20001220703125</ele>
      <time>2026-06-12T14:12:28.183+02:00</time>
      <extensions>
        <activity type="IN_VEHICLE" conf="83" state="moving" tsMs="1781266357283"/>
        <radio op="vodafone IT" rat="LTE" q="77.50" rsrp="-94" sinr="26" rsrq="-11"/>
        <radio op="I TIM" rat="LTE" rsrp="-121" rsrq="-15"/>
      </extensions>
    </trkpt>
    <trkpt lat="45.6039401" lon="10.462239">
      <ele>272.1435739525827</ele>
      <time>2026-06-12T14:13:08.854+02:00</time>
      <extensions>
        <activity type="UNKNOWN" conf="40" state="unknown" tsMs="1781266385683"/>
        <radio op="vodafone IT" rat="LTE" q="100.00" rsrp="-84" sinr="26" rsrq="-8"/>
        <radio op="I TIM" rat="LTE" q="32.00" rsrp="-93" sinr="5" rsrq="-12"/>
      </extensions>
    </trkpt>
    <trkpt lat="45.6047143" lon="10.4631037">
      <ele>272.2047217201935</ele>
      <time>2026-06-12T14:13:15.184+02:00</time>
      <extensions>
        <activity type="UNKNOWN" conf="40" state="unknown" tsMs="1781266385683"/>
        <radio op="vodafone IT" rat="LTE" q="57.00" rsrp="-95" sinr="14" rsrq="-9"/>
        <radio op="I TIM" rat="LTE" q="62.00" rsrp="-94" sinr="15" rsrq="-8"/>
      </extensions>
    </trkpt>
    <trkpt lat="45.6062266" lon="10.4680882">
      <ele>273.7715179821871</ele>
      <time>2026-06-12T14:13:53.183+02:00</time>
      <extensions>
        <activity type="IN_VEHICLE" conf="94" state="moving" tsMs="1781266425677"/>
        <radio op="vodafone IT" rat="LTE" q="77.50" rsrp="-94" sinr="23" rsrq="-5"/>
        <radio op="I TIM" rat="LTE" q="85.00" rsrp="-91" sinr="20" rsrq="-4"/>
      </extensions>
    </trkpt>
    <trkpt lat="45.6086472" lon="10.4764116">
      <ele>278.81335118798637</ele>
      <time>2026-06-12T14:14:33.143+02:00</time>
      <extensions>
        <activity type="UNKNOWN" conf="40" state="unknown" tsMs="1781266470304"/>
        <radio op="vodafone IT" rat="LTE" q="44.00" rsrp="-103" sinr="15" rsrq="-6"/>
        <radio op="I TIM" rat="LTE" q="29.00" rsrp="-96" sinr="5" rsrq="-11"/>
      </extensions>
    </trkpt>
    <trkpt lat="45.6094535" lon="10.4774328">
      <ele>278.81335118798637</ele>
      <time>2026-06-12T14:14:41.183+02:00</time>
      <extensions>
        <activity type="UNKNOWN" conf="40" state="unknown" tsMs="1781266470304"/>
        <radio op="vodafone IT" rat="LTE" q="25.60" rsrp="-109" sinr="11" rsrq="-9"/>
        <radio op="I TIM" rat="LTE" q="15.00" rsrp="-110" sinr="5" rsrq="-9"/>
      </extensions>
    </trkpt>
    <trkpt lat="45.6143409" lon="10.4830766">
      <ele>281.6330033477127</ele>
      <time>2026-06-12T14:15:32.354+02:00</time>
      <extensions>
        <activity type="IN_VEHICLE" conf="81" state="moving" tsMs="1781266526499"/>
        <radio op="vodafone IT" rat="LTE" q="27.30" rsrp="-104" sinr="8" rsrq="-10"/>
        <radio op="I TIM" rat="LTE" rsrp="-114" rsrq="-14"/>
      </extensions>
    </trkpt>
    <trkpt lat="45.6216295" lon="10.4885363">
      <ele>284.70001220703125</ele>
      <time>2026-06-12T14:16:35.183+02:00</time>
      <extensions>
        <activity type="IN_VEHICLE" conf="96" state="moving" tsMs="1781266598429"/>
        <radio op="vodafone IT" rat="LTE" q="15.20" rsrp="-106" sinr="3" rsrq="-13"/>
        <radio op="I TIM" rat="LTE" rsrp="-122" rsrq="-12"/>
      </extensions>
    </trkpt>
    <trkpt lat="45.623769" lon="10.493836">
      <ele>279.4000244140625</ele>
      <time>2026-06-12T14:17:05.701+02:00</time>
      <extensions>
        <activity type="TILTING" conf="100" state="moving" tsMs="1781266625338"/>
        <radio op="vodafone IT" rat="LTE" q="29.40" rsrp="-104" sinr="9" rsrq="-11"/>
        <radio op="I TIM" rat="LTE" rsrp="-117" rsrq="-14"/>
      </extensions>
    </trkpt>
    <trkpt lat="45.6237217" lon="10.4932454">
      <ele>277.9000244140625</ele>
      <time>2026-06-12T14:17:52.444+02:00</time>
      <extensions>
        <activity type="TILTING" conf="100" state="moving" tsMs="1781266670581"/>
        <radio op="vodafone IT" rat="LTE" rsrp="-109" rsrq="-17"/>
        <radio op="I TIM" rat="LTE" q="10.80" rsrp="-116" sinr="7" rsrq="-13"/>
      </extensions>
    </trkpt>
    <trkpt lat="45.6237705" lon="10.4926609">
      <ele>278.5469460819908</ele>
      <time>2026-06-12T14:18:34.606+02:00</time>
      <extensions>
        <activity type="ON_FOOT" conf="94" state="moving" tsMs="1781266708299"/>
        <radio op="vodafone IT" rat="LTE" rsrp="-126" rsrq="-12"/>
        <radio op="I TIM" rat="LTE" rsrp="-127" rsrq="-14"/>
      </extensions>
    </trkpt>
    <trkpt lat="45.6238303" lon="10.4926679">
      <ele>278.25997634914586</ele>
      <time>2026-06-12T14:19:05.818+02:00</time>
      <extensions>
        <activity type="ON_FOOT" conf="93" state="moving" tsMs="1781266737046"/>
        <radio op="vodafone IT" rat="LTE" q="6.00" rsrp="-119" sinr="5" rsrq="-10"/>
        <radio op="I TIM" rat="LTE" q="4.00" rsrp="-120" sinr="3" rsrq="-11"/>
      </extensions>
    </trkpt>
    <trkpt lat="45.6237839" lon="10.4926508">
      <ele>278.3000183105469</ele>
      <time>2026-06-12T14:19:23.414+02:00</time>
      <extensions>
        <activity type="UNKNOWN" conf="40" state="unknown" tsMs="1781266761580"/>
        <radio op="vodafone IT" rat="LTE" q="1.50" rsrp="-122" sinr="0" rsrq="-14"/>
        <radio op="I TIM" rat="LTE" q="2.40" rsrp="-122" sinr="3" rsrq="-13"/>
      </extensions>
    </trkpt>
    <trkpt lat="45.6238301" lon="10.4926806">
      <ele>287.70001220703125</ele>
      <time>2026-06-12T14:19:59.232+02:00</time>
      <extensions>
        <activity type="UNKNOWN" conf="40" state="unknown" tsMs="1781266794424"/>
        <radio op="vodafone IT" rat="LTE" rsrq="-25"/>
        <radio op="I TIM" rat="LTE" rsrq="-20"/>
      </extensions>
    </trkpt>
    <trkpt lat="45.6238278" lon="10.4926645">
      <ele>287.70001220703125</ele>
      <time>2026-06-12T14:20:09.242+02:00</time>
      <extensions>
        <activity type="UNKNOWN" conf="40" state="unknown" tsMs="1781266805308"/>
        <radio op="vodafone IT" rat="LTE" q="27.30" rsrp="-104" sinr="8" rsrq="-10"/>
        <radio op="I TIM" rat="LTE" q="23.80" rsrp="-108" sinr="9" rsrq="-10"/>
      </extensions>
    </trkpt>
    <trkpt lat="45.6238308" lon="10.4926927">
      <ele>290.31039251128556</ele>
      <time>2026-06-12T14:20:52.503+02:00</time>
      <extensions>
        <activity type="ON_FOOT" conf="86" state="moving" tsMs="1781266848691"/>
        <radio op="vodafone IT" rat="LTE" q="7.20" rsrp="-119" sinr="7" rsrq="-14"/>
        <radio op="I TIM" rat="LTE" q="9.90" rsrp="-114" sinr="4" rsrq="-13"/>
      </extensions>
    </trkpt>
    <trkpt lat="45.6238367" lon="10.4927005">
      <ele>290.29982754256616</ele>
      <time>2026-06-12T14:21:36.125+02:00</time>
      <extensions>
        <activity type="UNKNOWN" conf="40" state="unknown" tsMs="1781266886656"/>
        <radio op="vodafone IT" rat="LTE" q="4.20" rsrp="-119" sinr="2" rsrq="-14"/>
        <radio op="I TIM" rat="LTE" q="9.00" rsrp="-116" sinr="5" rsrq="-14"/>
      </extensions>
    </trkpt>
    <trkpt lat="45.6238264" lon="10.4926998">
      <ele>287.70001220703125</ele>
      <time>2026-06-12T14:22:18.836+02:00</time>
      <extensions>
        <activity type="UNKNOWN" conf="40" state="unknown" tsMs="1781266938327"/>
        <radio op="vodafone IT" rat="LTE" rsrp="-119" rsrq="-15"/>
        <radio op="I TIM" rat="LTE" rsrp="-119" rsrq="-13"/>
      </extensions>
    </trkpt>
    <trkpt lat="45.6237854" lon="10.4927333">
      <ele>287.70001220703125</ele>
      <time>2026-06-12T14:22:55.846+02:00</time>
      <extensions>
        <activity type="UNKNOWN" conf="40" state="unknown" tsMs="1781266971951"/>
        <radio op="vodafone IT" rat="LTE" q="2.80" rsrp="-121" sinr="2" rsrq="-11"/>
        <radio op="I TIM" rat="LTE" q="8.40" rsrp="-113" sinr="2" rsrq="-10"/>
      </extensions>
    </trkpt>
    <trkpt lat="45.6238323" lon="10.4927036">
      <ele>290.3457878056201</ele>
      <time>2026-06-12T14:23:30.467+02:00</time>
      <extensions>
        <activity type="UNKNOWN" conf="40" state="unknown" tsMs="1781267010131"/>
        <radio op="vodafone IT" rat="LTE" q="6.00" rsrp="-119" sinr="5" rsrq="-11"/>
        <radio op="I TIM" rat="LTE" rsrp="-119" rsrq="-13"/>
      </extensions>
    </trkpt>
    <trkpt lat="45.6238385" lon="10.4926962">
      <ele>287.70001220703125</ele>
      <time>2026-06-12T14:47:04.878+02:00</time>
      <extensions>
        <activity type="IN_VEHICLE" conf="93" state="moving" tsMs="1781268422336"/>
        <radio op="vodafone IT" rat="LTE" q="7.50" rsrp="-120" sinr="10" rsrq="-13"/>
        <radio op="I TIM" rat="LTE" q="6.30" rsrp="-116" sinr="2" rsrq="-13"/>
      </extensions>
    </trkpt>
    <trkpt lat="45.6238014" lon="10.4927175">
      <ele>287.70001220703125</ele>
      <time>2026-06-12T14:47:54.244+02:00</time>
      <extensions>
        <activity type="STILL" conf="99" state="still" tsMs="1781268469725"/>
        <radio op="vodafone IT" rat="LTE" rsrp="-123" rsrq="-13"/>
        <radio op="I TIM" rat="LTE" rsrp="-118" rsrq="-12"/>
      </extensions>
    </trkpt>
    <trkpt lat="45.6238181" lon="10.4927051">
      <ele>287.70001220703125</ele>
      <time>2026-06-12T14:49:07.241+02:00</time>
      <extensions>
        <activity type="UNKNOWN" conf="40" state="unknown" tsMs="1781268546795"/>
        <radio op="vodafone IT" rat="LTE" rsrp="-123" rsrq="-13"/>
        <radio op="I TIM" rat="LTE" rsrp="-119" rsrq="-13"/>
      </extensions>
    </trkpt>
    <trkpt lat="45.6238117" lon="10.4926989">
      <ele>287.70001220703125</ele>
      <time>2026-06-12T14:50:06.575+02:00</time>
      <extensions>
        <activity type="STILL" conf="99" state="still" tsMs="1781268580739"/>
        <radio op="vodafone IT" rat="LTE" q="1.50" rsrp="-122" sinr="0" rsrq="-14"/>
        <radio op="I TIM" rat="LTE" q="3.00" rsrp="-119" sinr="0" rsrq="-10"/>
      </extensions>
    </trkpt>
    <trkpt lat="45.6236856" lon="10.4927754">
      <ele>284.7542984198345</ele>
      <time>2026-06-12T14:52:09.994+02:00</time>
      <extensions>
        <activity type="UNKNOWN" conf="40" state="unknown" tsMs="1781268721752"/>
        <radio op="vodafone IT" rat="LTE" q="30.40" rsrp="-109" sinr="14" rsrq="-9"/>
        <radio op="I TIM" rat="LTE" q="7.20" rsrp="-119" sinr="7" rsrq="-12"/>
      </extensions>
    </trkpt>
    <trkpt lat="45.6238088" lon="10.4926899">
      <ele>287.70001220703125</ele>
      <time>2026-06-12T14:53:14.97+02:00</time>
      <extensions>
        <activity type="STILL" conf="99" state="still" tsMs="1781268795720"/>
        <radio op="vodafone IT" rat="LTE" q="14.30" rsrp="-114" sinr="8" rsrq="-12"/>
        <radio op="I TIM" rat="LTE" q="11.00" rsrp="-114" sinr="5" rsrq="-11"/>
      </extensions>
    </trkpt>
    <trkpt lat="45.6236945" lon="10.4927714">
      <ele>284.37196974744575</ele>
      <time>2026-06-12T14:53:49.909+02:00</time>
      <extensions>
        <activity type="IN_VEHICLE" conf="74" state="moving" tsMs="1781268826770"/>
        <radio op="vodafone IT" rat="LTE" q="18.00" rsrp="-113" sinr="10" rsrq="-12"/>
        <radio op="I TIM" rat="LTE" q="7.00" rsrp="-118" sinr="5" rsrq="-11"/>
      </extensions>
    </trkpt>
    <trkpt lat="45.6237001" lon="10.4927671">
      <ele>284.6233768716607</ele>
      <time>2026-06-12T14:54:43.154+02:00</time>
      <extensions>
        <activity type="UNKNOWN" conf="40" state="unknown" tsMs="1781268879371"/>
        <radio op="vodafone IT" rat="LTE" q="14.00" rsrp="-115" sinr="9" rsrq="-11"/>
        <radio op="I TIM" rat="LTE" q="7.70" rsrp="-118" sinr="6" rsrq="-12"/>
      </extensions>
    </trkpt>
    <trkpt lat="45.623713" lon="10.4927604">
      <ele>284.5980245595512</ele>
      <time>2026-06-12T14:55:17.711+02:00</time>
      <extensions>
        <activity type="STILL" conf="41" state="still" tsMs="1781268915427"/>
        <radio op="vodafone IT" rat="LTE" q="14.30" rsrp="-114" sinr="8" rsrq="-11"/>
        <radio op="I TIM" rat="LTE" q="9.60" rsrp="-117" sinr="7" rsrq="-13"/>
      </extensions>
    </trkpt>
    <trkpt lat="45.6237091" lon="10.4927584">
      <ele>287.70001220703125</ele>
      <time>2026-06-12T14:56:16.448+02:00</time>
      <extensions>
        <activity type="STILL" conf="50" state="still" tsMs="1781268975847"/>
        <radio op="vodafone IT" rat="LTE" q="9.90" rsrp="-116" sinr="6" rsrq="-11"/>
        <radio op="I TIM" rat="LTE" q="7.00" rsrp="-118" sinr="5" rsrq="-12"/>
      </extensions>
    </trkpt>
    <trkpt lat="45.6238267" lon="10.4926971">
      <ele>287.70001220703125</ele>
      <time>2026-06-12T15:00:49.29+02:00</time>
      <extensions>
        <activity type="ON_FOOT" conf="82" state="moving" tsMs="1781269251583"/>
        <radio op="vodafone IT" rat="LTE" q="11.00" rsrp="-115" sinr="6" rsrq="-10"/>
        <radio op="I TIM" rat="LTE" q="7.20" rsrp="-119" sinr="7" rsrq="-13"/>
      </extensions>
    </trkpt>
    <trkpt lat="45.6238143" lon="10.4927139">
      <ele>289.9520542881021</ele>
      <time>2026-06-12T15:01:35.537+02:00</time>
      <extensions>
        <activity type="UNKNOWN" conf="40" state="unknown" tsMs="1781269294809"/>
        <radio op="vodafone IT" rat="LTE" q="6.60" rsrp="-119" sinr="6" rsrq="-14"/>
        <radio op="I TIM" rat="LTE" q="8.10" rsrp="-116" sinr="4" rsrq="-13"/>
      </extensions>
    </trkpt>
    <trkpt lat="45.6238075" lon="10.4927212">
      <ele>289.9457137871967</ele>
      <time>2026-06-12T15:02:45.658+02:00</time>
      <extensions>
        <activity type="STILL" conf="97" state="still" tsMs="1781269335757"/>
        <radio op="vodafone IT" rat="LTE" rsrp="-123" rsrq="-14"/>
        <radio op="I TIM" rat="LTE" q="2.80" rsrp="-121" sinr="2" rsrq="-12"/>
      </extensions>
    </trkpt>
    <trkpt lat="45.6238252" lon="10.4927121">
      <ele>287.70001220703125</ele>
      <time>2026-06-12T15:03:24.781+02:00</time>
      <extensions>
        <activity type="STILL" conf="99" state="still" tsMs="1781269404330"/>
        <radio op="vodafone IT" rat="LTE" rsrp="-122" rsrq="-12"/>
        <radio op="I TIM" rat="LTE" q="2.00" rsrp="-121" sinr="0" rsrq="-14"/>
      </extensions>
    </trkpt>
    <trkpt lat="45.6238258" lon="10.4927095">
      <ele>291.7028711825409</ele>
      <time>2026-06-12T15:15:01.83+02:00</time>
      <extensions>
        <activity type="IN_VEHICLE" conf="85" state="moving" tsMs="1781270099377"/>
        <radio op="vodafone IT" rat="LTE" q="3.00" rsrp="-120" sinr="1" rsrq="-11"/>
        <radio op="I TIM" rat="LTE" rsrp="-120" rsrq="-12"/>
      </extensions>
    </trkpt>
    <trkpt lat="45.6238275" lon="10.4927118">
      <ele>291.7958847742784</ele>
      <time>2026-06-12T15:15:51.287+02:00</time>
      <extensions>
        <activity type="STILL" conf="99" state="still" tsMs="1781270150754"/>
        <radio op="vodafone IT" rat="LTE" q="2.40" rsrp="-121" sinr="1" rsrq="-13"/>
        <radio op="I TIM" rat="LTE" rsrp="-118" rsrq="-20"/>
      </extensions>
    </trkpt>
    <trkpt lat="45.6238335" lon="10.4927022">
      <ele>289.4205741883459</ele>
      <time>2026-06-12T15:16:22.541+02:00</time>
      <extensions>
        <activity type="STILL" conf="99" state="still" tsMs="1781270181761"/>
        <radio op="vodafone IT" rat="LTE" q="3.00" rsrp="-120" sinr="1" rsrq="-13"/>
        <radio op="I TIM" rat="LTE" q="3.00" rsrp="-120" sinr="1" rsrq="-14"/>
      </extensions>
    </trkpt>
    <trkpt lat="45.6238387" lon="10.4926933">
      <ele>289.6531089679213</ele>
      <time>2026-06-12T15:17:21.172+02:00</time>
      <extensions>
        <activity type="STILL" conf="99" state="still" tsMs="1781270240801"/>
        <radio op="vodafone IT" rat="LTE" q="5.20" rsrp="-121" sinr="8" rsrq="-13"/>
        <radio op="I TIM" rat="LTE" rsrp="-121" rsrq="-14"/>
      </extensions>
    </trkpt>
    <trkpt lat="45.6238133" lon="10.4927001">
      <ele>287.70001220703125</ele>
      <time>2026-06-12T15:21:04.391+02:00</time>
      <extensions>
        <activity type="ON_FOOT" conf="91" state="moving" tsMs="1781270463455"/>
        <radio op="vodafone IT" rat="LTE" q="2.40" rsrp="-121" sinr="1" rsrq="-13"/>
        <radio op="I TIM" rat="LTE" q="4.50" rsrp="-120" sinr="4" rsrq="-13"/>
      </extensions>
    </trkpt>
    <trkpt lat="45.6238342" lon="10.4926963">
      <ele>287.70001220703125</ele>
      <time>2026-06-12T15:21:27.396+02:00</time>
      <extensions>
        <activity type="UNKNOWN" conf="40" state="unknown" tsMs="1781270467537"/>
        <radio op="vodafone IT" rat="LTE" q="4.80" rsrp="-117" sinr="1" rsrq="-12"/>
        <radio op="I TIM" rat="LTE" q="30.60" rsrp="-108" sinr="13" rsrq="-11"/>
      </extensions>
    </trkpt>
    <trkpt lat="45.6238093" lon="10.4927126">
      <ele>287.70001220703125</ele>
      <time>2026-06-12T15:22:27.225+02:00</time>
      <extensions>
        <activity type="ON_FOOT" conf="81" state="moving" tsMs="1781270542514"/>
        <radio op="vodafone IT" rat="LTE" q="0.00" rsrp="-125" sinr="1" rsrq="-15"/>
        <radio op="I TIM" rat="LTE" q="4.50" rsrp="-120" sinr="4" rsrq="-13"/>
      </extensions>
    </trkpt>
    <trkpt lat="45.623813" lon="10.4927079">
      <ele>287.70001220703125</ele>
      <time>2026-06-12T15:23:05.598+02:00</time>
      <extensions>
        <activity type="STILL" conf="100" state="still" tsMs="1781270564782"/>
        <radio op="vodafone IT" rat="LTE" q="0.50" rsrp="-124" sinr="0" rsrq="-16"/>
        <radio op="I TIM" rat="LTE" q="2.10" rsrp="-122" sinr="2" rsrq="-12"/>
      </extensions>
    </trkpt>
    <trkpt lat="45.623815" lon="10.4926953">
      <ele>287.70001220703125</ele>
      <time>2026-06-12T15:23:37.22+02:00</time>
      <extensions>
        <activity type="STILL" conf="99" state="still" tsMs="1781270613449"/>
        <radio op="vodafone IT" rat="LTE" q="1.40" rsrp="-124" sinr="9" rsrq="-14"/>
        <radio op="I TIM" rat="LTE" q="3.20" rsrp="-121" sinr="3" rsrq="-12"/>
      </extensions>
    </trkpt>
    <trkpt lat="45.623836" lon="10.4926989">
      <ele>287.70001220703125</ele>
      <time>2026-06-12T15:31:40.877+02:00</time>
      <extensions>
        <activity type="IN_VEHICLE" conf="76" state="moving" tsMs="1781271100406"/>
        <radio op="vodafone IT" rat="LTE" q="7.00" rsrp="-118" sinr="5" rsrq="-11"/>
        <radio op="I TIM" rat="LTE" q="5.60" rsrp="-117" sinr="2" rsrq="-12"/>
      </extensions>
    </trkpt>
    <trkpt lat="45.6238379" lon="10.4926975">
      <ele>287.70001220703125</ele>
      <time>2026-06-12T15:32:12.607+02:00</time>
      <extensions>
        <activity type="STILL" conf="60" state="still" tsMs="1781271128877"/>
        <radio op="vodafone IT" rat="LTE" q="6.00" rsrp="-119" sinr="5" rsrq="-11"/>
        <radio op="I TIM" rat="LTE" rsrp="-116" rsrq="-13"/>
      </extensions>
    </trkpt>
    <trkpt lat="45.6238349" lon="10.4927021">
      <ele>287.70001220703125</ele>
      <time>2026-06-12T15:32:44.216+02:00</time>
      <extensions>
        <activity type="STILL" conf="99" state="still" tsMs="1781271159319"/>
        <radio op="vodafone IT" rat="LTE" q="4.20" rsrp="-119" sinr="2" rsrq="-12"/>
        <radio op="I TIM" rat="LTE" q="6.30" rsrp="-116" sinr="2" rsrq="-13"/>
      </extensions>
    </trkpt>
    <trkpt lat="45.6238347" lon="10.4926942">
      <ele>287.70001220703125</ele>
      <time>2026-06-12T15:33:26.605+02:00</time>
      <extensions>
        <activity type="STILL" conf="100" state="still" tsMs="1781271211095"/>
        <radio op="vodafone IT" rat="LTE" q="5.00" rsrp="-120" sinr="5" rsrq="-12"/>
        <radio op="I TIM" rat="LTE" rsrp="-116" rsrq="-14"/>
      </extensions>
    </trkpt>
    <trkpt lat="45.6237906" lon="10.4926972">
      <ele>287.70001220703125</ele>
      <time>2026-06-12T18:04:47.702+02:00</time>
      <extensions>
        <activity type="ON_FOOT" conf="88" state="moving" tsMs="1781280285434"/>
        <radio op="vodafone IT" rat="LTE" rsrp="-127" rsrq="-14"/>
        <radio op="I TIM" rat="LTE" rsrp="-124" rsrq="-15"/>
      </extensions>
    </trkpt>
    <trkpt lat="45.623692" lon="10.4930721">
      <ele>282.0</ele>
      <time>2026-06-12T18:05:21.46+02:00</time>
      <extensions>
        <activity type="ON_FOOT" conf="96" state="moving" tsMs="1781280318640"/>
        <radio op="vodafone IT" rat="LTE" q="30.40" rsrp="-109" sinr="14" rsrq="-9"/>
        <radio op="I TIM" rat="LTE" q="31.50" rsrp="-104" sinr="10" rsrq="-11"/>
      </extensions>
    </trkpt>
    <trkpt lat="45.6237326" lon="10.4935586">
      <ele>282.0</ele>
      <time>2026-06-12T18:05:54.851+02:00</time>
      <extensions>
        <activity type="ON_FOOT" conf="96" state="moving" tsMs="1781280349348"/>
        <radio op="vodafone IT" rat="LTE" q="47.50" rsrp="-106" sinr="22" rsrq="-9"/>
        <radio op="I TIM" rat="LTE" q="24.00" rsrp="-110" sinr="11" rsrq="-12"/>
      </extensions>
    </trkpt>
    <trkpt lat="45.6240397" lon="10.4947818">
      <ele>281.6000061035156</ele>
      <time>2026-06-12T18:06:39.686+02:00</time>
      <extensions>
        <activity type="IN_VEHICLE" conf="89" state="moving" tsMs="1781280399068"/>
        <radio op="vodafone IT" rat="LTE" q="44.80" rsrp="-97" sinr="11" rsrq="-11"/>
        <radio op="I TIM" rat="LTE" q="6.60" rsrp="-114" sinr="1" rsrq="-15"/>
      </extensions>
    </trkpt>
    <trkpt lat="45.6248828" lon="10.4961517">
      <ele>281.6000061035156</ele>
      <time>2026-06-12T18:06:50.323+02:00</time>
      <extensions>
        <activity type="IN_VEHICLE" conf="89" state="moving" tsMs="1781280399068"/>
        <radio op="vodafone IT" rat="LTE" q="39.00" rsrp="-95" sinr="8" rsrq="-11"/>
        <radio op="I TIM" rat="LTE" q="36.80" rsrp="-102" sinr="11" rsrq="-13"/>
      </extensions>
    </trkpt>
    <trkpt lat="45.6250843" lon="10.4975238">
      <ele>281.6000061035156</ele>
      <time>2026-06-12T18:07:00.323+02:00</time>
      <extensions>
        <activity type="IN_VEHICLE" conf="94" state="moving" tsMs="1781280402931"/>
        <radio op="vodafone IT" rat="LTE" q="49.40" rsrp="-99" sinr="14" rsrq="-9"/>
        <radio op="I TIM" rat="LTE" q="50.40" rsrp="-97" sinr="13" rsrq="-9"/>
      </extensions>
    </trkpt>
    <trkpt lat="45.6253331" lon="10.4985572">
      <ele>281.6000061035156</ele>
      <time>2026-06-12T18:07:11.323+02:00</time>
      <extensions>
        <activity type="IN_VEHICLE" conf="94" state="moving" tsMs="1781280430799"/>
        <radio op="vodafone IT" rat="LTE" q="75.00" rsrp="-95" sinr="22" rsrq="-6"/>
        <radio op="I TIM" rat="LTE" q="11.90" rsrp="-108" sinr="2" rsrq="-14"/>
      </extensions>
    </trkpt>
    <trkpt lat="45.6254729" lon="10.4976794">
      <ele>281.6000061035156</ele>
      <time>2026-06-12T18:07:21.323+02:00</time>
      <extensions>
        <activity type="IN_VEHICLE" conf="94" state="moving" tsMs="1781280436196"/>
        <radio op="vodafone IT" rat="LTE" q="21.00" rsrp="-110" sinr="9" rsrq="-9"/>
        <radio op="I TIM" rat="LTE" q="67.20" rsrp="-97" sinr="19" rsrq="-12"/>
      </extensions>
    </trkpt>
    <trkpt lat="45.625495" lon="10.497068">
      <ele>281.6000061035156</ele>
      <time>2026-06-12T18:07:31.323+02:00</time>
      <extensions>
        <activity type="IN_VEHICLE" conf="96" state="moving" tsMs="1781280447042"/>
        <radio op="vodafone IT" rat="LTE" rsrp="-128" rsrq="-15"/>
        <radio op="I TIM" rat="LTE" q="12.10" rsrp="-114" sinr="6" rsrq="-13"/>
      </extensions>
    </trkpt>
    <trkpt lat="45.6259449" lon="10.4972492">
      <ele>282.1000061035156</ele>
      <time>2026-06-12T18:08:17.803+02:00</time>
      <extensions>
        <activity type="UNKNOWN" conf="40" state="unknown" tsMs="1781280490445"/>
        <radio op="vodafone IT" rat="LTE" q="44.20" rsrp="-99" sinr="12" rsrq="-12"/>
        <radio op="I TIM" rat="LTE" q="3.20" rsrp="-121" sinr="3" rsrq="-14"/>
      </extensions>
    </trkpt>
    <trkpt lat="45.6257634" lon="10.497519">
      <ele>282.0</ele>
      <time>2026-06-12T18:08:28.433+02:00</time>
      <extensions>
        <activity type="UNKNOWN" conf="40" state="unknown" tsMs="1781280495351"/>
        <radio op="vodafone IT" rat="LTE" q="21.00" rsrp="-110" sinr="9" rsrq="-9"/>
        <radio op="I TIM" rat="LTE" rsrp="-121" rsrq="-14"/>
      </extensions>
    </trkpt>
    <trkpt lat="45.6257011" lon="10.4981608">
      <ele>282.1000061035156</ele>
      <time>2026-06-12T18:09:18.812+02:00</time>
      <extensions>
        <activity type="ON_FOOT" conf="89" state="moving" tsMs="1781280556964"/>
        <radio op="vodafone IT" rat="LTE" q="22.50" rsrp="-100" sinr="4" rsrq="-11"/>
        <radio op="I TIM" rat="LTE" q="41.40" rsrp="-107" sinr="18" rsrq="-12"/>
      </extensions>
    </trkpt>
    <trkpt lat="45.6259109" lon="10.4974735">
      <ele>282.1000061035156</ele>
      <time>2026-06-12T18:10:07.412+02:00</time>
      <extensions>
        <activity type="ON_FOOT" conf="96" state="moving" tsMs="1781280601059"/>
        <radio op="vodafone IT" rat="LTE" q="61.60" rsrp="-97" sinr="17" rsrq="-7"/>
        <radio op="I TIM" rat="LTE" q="27.60" rsrp="-102" sinr="7" rsrq="-12"/>
      </extensions>
    </trkpt>
    <trkpt lat="45.6264272" lon="10.4973632">
      <ele>285.4130789339527</ele>
      <time>2026-06-12T18:10:52.682+02:00</time>
      <extensions>
        <activity type="ON_FOOT" conf="95" state="moving" tsMs="1781280648323"/>
        <radio op="vodafone IT" rat="LTE" q="39.60" rsrp="-103" sinr="13" rsrq="-6"/>
        <radio op="I TIM" rat="LTE" q="16.50" rsrp="-110" sinr="6" rsrq="-13"/>
      </extensions>
    </trkpt>
    <trkpt lat="45.6264365" lon="10.4973245">
      <ele>282.1000061035156</ele>
      <time>2026-06-12T18:11:41.517+02:00</time>
      <extensions>
        <activity type="UNKNOWN" conf="40" state="unknown" tsMs="1781280705064"/>
        <radio op="vodafone IT" rat="LTE" q="13.80" rsrp="-102" sinr="1" rsrq="-12"/>
        <radio op="I TIM" rat="LTE" q="26.00" rsrp="-105" sinr="8" rsrq="-13"/>
      </extensions>
    </trkpt>
    <trkpt lat="45.6263347" lon="10.4973254">
      <ele>282.1000061035156</ele>
      <time>2026-06-12T18:12:17.324+02:00</time>
      <extensions>
        <activity type="UNKNOWN" conf="40" state="unknown" tsMs="1781280732348"/>
        <radio op="vodafone IT" rat="LTE" q="46.80" rsrp="-99" sinr="13" rsrq="-7"/>
        <radio op="I TIM" rat="LTE" q="22.10" rsrp="-108" sinr="8" rsrq="-12"/>
      </extensions>
    </trkpt>
    <trkpt lat="45.6264532" lon="10.4972583">
      <ele>282.1000061035156</ele>
      <time>2026-06-12T18:12:48.131+02:00</time>
      <extensions>
        <activity type="UNKNOWN" conf="40" state="unknown" tsMs="1781280764836"/>
        <radio op="vodafone IT" rat="LTE" q="51.30" rsrp="-98" sinr="14" rsrq="-10"/>
        <radio op="I TIM" rat="LTE" q="20.80" rsrp="-109" sinr="8" rsrq="-12"/>
      </extensions>
    </trkpt>
    <trkpt lat="45.6261955" lon="10.4974128">
      <ele>282.1000061035156</ele>
      <time>2026-06-12T18:13:19.434+02:00</time>
      <extensions>
        <activity type="ON_FOOT" conf="87" state="moving" tsMs="1781280799075"/>
        <radio op="vodafone IT" rat="LTE" q="57.20" rsrp="-99" sinr="17" rsrq="-8"/>
        <radio op="I TIM" rat="LTE" q="46.00" rsrp="-102" sinr="15" rsrq="-12"/>
      </extensions>
    </trkpt>
    <trkpt lat="45.6262175" lon="10.4974022">
      <ele>282.1000061035156</ele>
      <time>2026-06-12T18:13:50.724+02:00</time>
      <extensions>
        <activity type="UNKNOWN" conf="40" state="unknown" tsMs="1781280824916"/>
        <radio op="vodafone IT" rat="LTE" q="62.10" rsrp="-98" sinr="18" rsrq="-6"/>
        <radio op="I TIM" rat="LTE" q="42.00" rsrp="-104" sinr="15" rsrq="-12"/>
      </extensions>
    </trkpt>
    <trkpt lat="45.6261657" lon="10.497377">
      <ele>282.1000061035156</ele>
      <time>2026-06-12T18:14:23.677+02:00</time>
      <extensions>
        <activity type="UNKNOWN" conf="40" state="unknown" tsMs="1781280862484"/>
        <radio op="vodafone IT" rat="LTE" q="39.10" rsrp="-102" sinr="12" rsrq="-8"/>
        <radio op="I TIM" rat="LTE" q="34.50" rsrp="-102" sinr="10" rsrq="-12"/>
      </extensions>
    </trkpt>
    <trkpt lat="45.6263622" lon="10.497151">
      <ele>282.1000061035156</ele>
      <time>2026-06-12T18:14:54.873+02:00</time>
      <extensions>
        <activity type="UNKNOWN" conf="40" state="unknown" tsMs="1781280889144"/>
        <radio op="vodafone IT" rat="LTE" q="35.20" rsrp="-103" sinr="11" rsrq="-11"/>
        <radio op="I TIM" rat="LTE" q="29.90" rsrp="-102" sinr="8" rsrq="-11"/>
      </extensions>
    </trkpt>
    <trkpt lat="45.6262146" lon="10.4970352">
      <ele>282.1000061035156</ele>
      <time>2026-06-12T18:15:26.099+02:00</time>
      <extensions>
        <activity type="ON_FOOT" conf="91" state="moving" tsMs="1781280920358"/>
        <radio op="vodafone IT" rat="LTE" q="18.00" rsrp="-105" sinr="4" rsrq="-9"/>
        <radio op="I TIM" rat="LTE" q="40.80" rsrp="-101" sinr="12" rsrq="-12"/>
      </extensions>
    </trkpt>
    <trkpt lat="45.6262356" lon="10.4970014">
      <ele>282.1000061035156</ele>
      <time>2026-06-12T18:15:57.344+02:00</time>
      <extensions>
        <activity type="UNKNOWN" conf="40" state="unknown" tsMs="1781280951601"/>
        <radio op="vodafone IT" rat="LTE" q="25.20" rsrp="-107" sinr="9" rsrq="-7"/>
        <radio op="I TIM" rat="LTE" q="75.00" rsrp="-95" sinr="22" rsrq="-12"/>
      </extensions>
    </trkpt>
    <trkpt lat="45.6263965" lon="10.4970047">
      <ele>282.1000061035156</ele>
      <time>2026-06-12T18:16:28.644+02:00</time>
      <extensions>
        <activity type="ON_FOOT" conf="86" state="moving" tsMs="1781280988253"/>
        <radio op="vodafone IT" rat="LTE" q="52.80" rsrp="-101" sinr="17" rsrq="-8"/>
        <radio op="I TIM" rat="LTE" q="33.60" rsrp="-101" sinr="9" rsrq="-12"/>
      </extensions>
    </trkpt>
    <trkpt lat="45.6264099" lon="10.4969918">
      <ele>282.1000061035156</ele>
      <time>2026-06-12T18:16:54.794+02:00</time>
      <extensions>
        <activity type="ON_FOOT" conf="86" state="moving" tsMs="1781281014093"/>
        <radio op="vodafone IT" rat="LTE" q="31.20" rsrp="-101" sinr="8" rsrq="-6"/>
        <radio op="I TIM" rat="LTE" q="26.00" rsrp="-105" sinr="8" rsrq="-12"/>
      </extensions>
    </trkpt>
    <trkpt lat="45.6264427" lon="10.4972002">
      <ele>282.1000061035156</ele>
      <time>2026-06-12T18:17:30.476+02:00</time>
      <extensions>
        <activity type="UNKNOWN" conf="40" state="unknown" tsMs="1781281045436"/>
        <radio op="vodafone IT" rat="LTE" q="47.50" rsrp="-100" sinr="14" rsrq="-7"/>
        <radio op="I TIM" rat="LTE" q="28.50" rsrp="-106" sinr="10" rsrq="-11"/>
      </extensions>
    </trkpt>
    <trkpt lat="45.6261262" lon="10.4973645">
      <ele>282.1000061035156</ele>
      <time>2026-06-12T18:18:15.455+02:00</time>
      <extensions>
        <activity type="ON_FOOT" conf="81" state="moving" tsMs="1781281095069"/>
        <radio op="vodafone IT" rat="LTE" q="43.70" rsrp="-102" sinr="14" rsrq="-7"/>
        <radio op="I TIM" rat="LTE" q="35.70" rsrp="-104" sinr="12" rsrq="-12"/>
      </extensions>
    </trkpt>
    <trkpt lat="45.6261137" lon="10.4974197">
      <ele>282.1000061035156</ele>
      <time>2026-06-12T18:19:36.396+02:00</time>
      <extensions>
        <activity type="STILL" conf="99" state="still" tsMs="1781281145087"/>
        <radio op="vodafone IT" rat="LTE" q="52.00" rsrp="-99" sinr="15" rsrq="-9"/>
        <radio op="I TIM" rat="LTE" q="30.80" rsrp="-103" sinr="9" rsrq="-11"/>
      </extensions>
    </trkpt>
    <trkpt lat="45.6261556" lon="10.4974427">
      <ele>282.1000061035156</ele>
      <time>2026-06-12T18:20:12.908+02:00</time>
      <extensions>
        <activity type="UNKNOWN" conf="40" state="unknown" tsMs="1781281212184"/>
        <radio op="vodafone IT" rat="LTE" q="49.40" rsrp="-99" sinr="14" rsrq="-5"/>
        <radio op="I TIM" rat="LTE" q="20.90" rsrp="-106" sinr="6" rsrq="-12"/>
      </extensions>
    </trkpt>
    <trkpt lat="45.6261384" lon="10.4974452">
      <ele>282.1000061035156</ele>
      <time>2026-06-12T18:20:46.945+02:00</time>
      <extensions>
        <activity type="STILL" conf="98" state="still" tsMs="1781281240747"/>
        <radio op="vodafone IT" rat="LTE" q="39.90" rsrp="-104" sinr="14" rsrq="-9"/>
        <radio op="I TIM" rat="LTE" q="28.80" rsrp="-107" sinr="11" rsrq="-12"/>
      </extensions>
    </trkpt>
    <trkpt lat="45.626153" lon="10.4974894">
      <ele>282.1000061035156</ele>
      <time>2026-06-12T18:21:35.078+02:00</time>
      <extensions>
        <activity type="UNKNOWN" conf="40" state="unknown" tsMs="1781281294666"/>
        <radio op="vodafone IT" rat="LTE" q="37.40" rsrp="-103" sinr="12" rsrq="-8"/>
        <radio op="I TIM" rat="LTE" q="22.80" rsrp="-106" sinr="7" rsrq="-12"/>
      </extensions>
    </trkpt>
    <trkpt lat="45.6260893" lon="10.4973589">
      <ele>282.1000061035156</ele>
      <time>2026-06-12T18:22:38.02+02:00</time>
      <extensions>
        <activity type="STILL" conf="48" state="still" tsMs="1781281353056"/>
        <radio op="vodafone IT" rat="LTE" q="29.40" rsrp="-104" sinr="9" rsrq="-7"/>
        <radio op="I TIM" rat="LTE" q="25.60" rsrp="-109" sinr="11" rsrq="-12"/>
      </extensions>
    </trkpt>
    <trkpt lat="45.6260949" lon="10.4974111">
      <ele>282.1000061035156</ele>
      <time>2026-06-12T18:23:11.927+02:00</time>
      <extensions>
        <activity type="STILL" conf="96" state="still" tsMs="1781281386072"/>
        <radio op="vodafone IT" rat="LTE" q="37.40" rsrp="-103" sinr="12" rsrq="-6"/>
        <radio op="I TIM" rat="LTE" q="18.00" rsrp="-110" sinr="7" rsrq="-12"/>
      </extensions>
    </trkpt>
    <trkpt lat="45.6261426" lon="10.4973556">
      <ele>282.1000061035156</ele>
      <time>2026-06-12T18:23:34.701+02:00</time>
      <extensions>
        <activity type="UNKNOWN" conf="40" state="unknown" tsMs="1781281395089"/>
        <radio op="vodafone IT" rat="LTE" q="53.20" rsrp="-97" sinr="14" rsrq="-8"/>
        <radio op="I TIM" rat="LTE" q="34.50" rsrp="-102" sinr="10" rsrq="-11"/>
      </extensions>
    </trkpt>
    <trkpt lat="45.6260031" lon="10.4974274">
      <ele>282.1000061035156</ele>
      <time>2026-06-12T18:23:41.314+02:00</time>
      <extensions>
        <activity type="STILL" conf="100" state="still" tsMs="1781281418492"/>
        <radio op="vodafone IT" rat="LTE" q="18.70" rsrp="-108" sinr="6" rsrq="-9"/>
        <radio op="I TIM" rat="LTE" q="19.80" rsrp="-107" sinr="6" rsrq="-12"/>
      </extensions>
    </trkpt>
    <trkpt lat="45.6260735" lon="10.4973457">
      <ele>282.1000061035156</ele>
      <time>2026-06-12T18:24:19.891+02:00</time>
      <extensions>
        <activity type="STILL" conf="97" state="still" tsMs="1781281456873"/>
        <radio op="vodafone IT" rat="LTE" q="53.20" rsrp="-97" sinr="14" rsrq="-9"/>
        <radio op="I TIM" rat="LTE" q="16.50" rsrp="-110" sinr="6" rsrq="-13"/>
      </extensions>
    </trkpt>
    <trkpt lat="45.6261141" lon="10.4972944">
      <ele>282.1000061035156</ele>
      <time>2026-06-12T18:24:46.226+02:00</time>
      <extensions>
        <activity type="STILL" conf="96" state="still" tsMs="1781281487592"/>
        <radio op="vodafone IT" rat="LTE" q="48.00" rsrp="-95" sinr="11" rsrq="-9"/>
        <radio op="I TIM" rat="LTE" q="16.00" rsrp="-109" sinr="5" rsrq="-10"/>
      </extensions>
    </trkpt>
    <trkpt lat="45.6260979" lon="10.497275">
      <ele>282.1000061035156</ele>
      <time>2026-06-12T18:25:22.376+02:00</time>
      <extensions>
        <activity type="UNKNOWN" conf="40" state="unknown" tsMs="1781281518744"/>
        <radio op="vodafone IT" rat="LTE" q="43.50" rsrp="-96" sinr="10" rsrq="-11"/>
        <radio op="I TIM" rat="LTE" q="20.90" rsrp="-106" sinr="6" rsrq="-13"/>
      </extensions>
    </trkpt>
    <trkpt lat="45.6258922" lon="10.4973806">
      <ele>282.1000061035156</ele>
      <time>2026-06-12T18:25:59.401+02:00</time>
      <extensions>
        <activity type="ON_FOOT" conf="96" state="moving" tsMs="1781281555310"/>
        <radio op="vodafone IT" rat="LTE" q="50.40" rsrp="-97" sinr="13" rsrq="-9"/>
        <radio op="I TIM" rat="LTE" q="30.80" rsrp="-103" sinr="9" rsrq="-13"/>
      </extensions>
    </trkpt>
    <trkpt lat="45.6257276" lon="10.4980942">
      <ele>282.1000061035156</ele>
      <time>2026-06-12T18:26:30.738+02:00</time>
      <extensions>
        <activity type="ON_FOOT" conf="97" state="moving" tsMs="1781281586871"/>
        <radio op="vodafone IT" rat="LTE" q="44.20" rsrp="-99" sinr="12" rsrq="-13"/>
        <radio op="I TIM" rat="LTE" q="45.60" rsrp="-87" sinr="7" rsrq="-10"/>
      </extensions>
    </trkpt>
    <trkpt lat="45.6257276" lon="10.4980942">
      <ele>278.3595430125961</ele>
      <time>2026-06-12T18:27:01.904+02:00</time>
      <extensions>
        <activity type="ON_FOOT" conf="97" state="moving" tsMs="1781281617338"/>
        <radio op="vodafone IT" rat="LTE" q="30.40" rsrp="-106" sinr="11" rsrq="-13"/>
        <radio op="I TIM" rat="LTE" q="2.80" rsrp="-121" sinr="2" rsrq="-13"/>
      </extensions>
    </trkpt>
    <trkpt lat="45.6257572" lon="10.4975198">
      <ele>276.6589006454237</ele>
      <time>2026-06-12T18:27:33.632+02:00</time>
      <extensions>
        <activity type="ON_FOOT" conf="86" state="moving" tsMs="1781281649606"/>
        <radio op="vodafone IT" rat="LTE" q="32.40" rsrp="-107" sinr="13" rsrq="-12"/>
        <radio op="I TIM" rat="LTE" q="6.00" rsrp="-120" sinr="7" rsrq="-13"/>
      </extensions>
    </trkpt>
    <trkpt lat="45.6257572" lon="10.4975198">
      <ele>279.7033824425088</ele>
      <time>2026-06-12T18:28:10.077+02:00</time>
      <extensions>
        <activity type="UNKNOWN" conf="40" state="unknown" tsMs="1781281689446"/>
        <radio op="vodafone IT" rat="LTE" q="18.20" rsrp="-99" sinr="2" rsrq="-10"/>
        <radio op="I TIM" rat="LTE" q="27.20" rsrp="-108" sinr="11" rsrq="-14"/>
      </extensions>
    </trkpt>
    <trkpt lat="45.6254375" lon="10.4976401">
      <ele>280.6000061035156</ele>
      <time>2026-06-12T18:28:22.327+02:00</time>
      <extensions>
        <activity type="UNKNOWN" conf="40" state="unknown" tsMs="1781281689446"/>
        <radio op="vodafone IT" rat="LTE" rsrp="-92" rsrq="-13"/>
        <radio op="I TIM" rat="LTE" q="49.40" rsrp="-99" sinr="14" rsrq="-10"/>
      </extensions>
    </trkpt>
    <trkpt lat="45.6253188" lon="10.4980466">
      <ele>280.6000061035156</ele>
      <time>2026-06-12T18:28:36.326+02:00</time>
      <extensions>
        <activity type="IN_VEHICLE" conf="87" state="moving" tsMs="1781281716027"/>
        <radio op="vodafone IT" rat="LTE" q="66.30" rsrp="-86" sinr="12" rsrq="-11"/>
        <radio op="I TIM" rat="LTE" q="34.20" rsrp="-107" sinr="14" rsrq="-11"/>
      </extensions>
    </trkpt>
    <trkpt lat="45.6251133" lon="10.4969119">
      <ele>282.1000061035156</ele>
      <time>2026-06-12T18:28:46.326+02:00</time>
      <extensions>
        <activity type="IN_VEHICLE" conf="88" state="moving" tsMs="1781281726977"/>
        <radio op="vodafone IT" rat="LTE" q="72.00" rsrp="-82" sinr="13" rsrq="-11"/>
        <radio op="I TIM" rat="LTE" q="62.50" rsrp="-100" sinr="22" rsrq="-12"/>
      </extensions>
    </trkpt>
    <trkpt lat="45.6245776" lon="10.4954891">
      <ele>282.1000061035156</ele>
      <time>2026-06-12T18:28:56.326+02:00</time>
      <extensions>
        <activity type="UNKNOWN" conf="40" state="unknown" tsMs="1781281732384"/>
        <radio op="vodafone IT" rat="LTE" q="85.00" rsrp="-91" sinr="20" rsrq="-11"/>
        <radio op="I TIM" rat="LTE" q="21.60" rsrp="-107" sinr="7" rsrq="-12"/>
      </extensions>
    </trkpt>
    <trkpt lat="45.6237808" lon="10.493843">
      <ele>282.1000061035156</ele>
      <time>2026-06-12T18:29:07.326+02:00</time>
      <extensions>
        <activity type="IN_VEHICLE" conf="96" state="moving" tsMs="1781281743312"/>
        <radio op="vodafone IT" rat="LTE" q="50.00" rsrp="-100" sinr="15" rsrq="-10"/>
        <radio op="I TIM" rat="LTE" q="2.10" rsrp="-122" sinr="2" rsrq="-14"/>
      </extensions>
    </trkpt>
    <trkpt lat="45.6231602" lon="10.4919832">
      <ele>282.1000061035156</ele>
      <time>2026-06-12T18:29:17.326+02:00</time>
      <extensions>
        <activity type="IN_VEHICLE" conf="92" state="moving" tsMs="1781281754207"/>
        <radio op="vodafone IT" rat="LTE" q="14.40" rsrp="-109" sinr="4" rsrq="-9"/>
        <radio op="I TIM" rat="LTE" q="13.20" rsrp="-113" sinr="6" rsrq="-14"/>
      </extensions>
    </trkpt>
    <trkpt lat="45.6225476" lon="10.4901654">
      <ele>282.1000061035156</ele>
      <time>2026-06-12T18:29:27.326+02:00</time>
      <extensions>
        <activity type="IN_VEHICLE" conf="96" state="moving" tsMs="1781281765083"/>
        <radio op="vodafone IT" rat="LTE" q="14.00" rsrp="-111" sinr="5" rsrq="-13"/>
        <radio op="I TIM" rat="LTE" q="7.20" rsrp="-113" sinr="1" rsrq="-14"/>
      </extensions>
    </trkpt>
    <trkpt lat="45.6215825" lon="10.4884">
      <ele>282.1000061035156</ele>
      <time>2026-06-12T18:29:37.326+02:00</time>
      <extensions>
        <activity type="IN_VEHICLE" conf="96" state="moving" tsMs="1781281775932"/>
        <radio op="vodafone IT" rat="LTE" q="10.50" rsrp="-110" sinr="2" rsrq="-13"/>
        <radio op="I TIM" rat="LTE" rsrp="-117" rsrq="-17"/>
      </extensions>
    </trkpt>
    <trkpt lat="45.6207323" lon="10.4863722">
      <ele>282.1000061035156</ele>
      <time>2026-06-12T18:29:47.326+02:00</time>
      <extensions>
        <activity type="IN_VEHICLE" conf="97" state="moving" tsMs="1781281786807"/>
        <radio op="vodafone IT" rat="LTE" rsrp="-117" rsrq="-16"/>
        <radio op="I TIM" rat="LTE" q="6.00" rsrp="-115" sinr="1" rsrq="-16"/>
      </extensions>
    </trkpt>
    <trkpt lat="45.6197925" lon="10.4844063">
      <ele>282.1000061035156</ele>
      <time>2026-06-12T18:29:57.326+02:00</time>
      <extensions>
        <activity type="IN_VEHICLE" conf="97" state="moving" tsMs="1781281797628"/>
        <radio op="vodafone IT" rat="LTE" rsrp="-116" rsrq="-16"/>
        <radio op="I TIM" rat="LTE" rsrp="-121" rsrq="-17"/>
      </extensions>
    </trkpt>
    <trkpt lat="45.6184235" lon="10.4834524">
      <ele>264.0</ele>
      <time>2026-06-12T18:30:08.326+02:00</time>
      <extensions>
        <activity type="IN_VEHICLE" conf="97" state="moving" tsMs="1781281803048"/>
        <radio op="vodafone IT" rat="LTE" q="41.60" rsrp="-99" sinr="11" rsrq="-10"/>
        <radio op="I TIM" rat="LTE" q="9.90" rsrp="-114" sinr="4" rsrq="-11"/>
      </extensions>
    </trkpt>
    <trkpt lat="45.6167738" lon="10.4832383">
      <ele>270.0</ele>
      <time>2026-06-12T18:30:18.326+02:00</time>
      <extensions>
        <activity type="IN_VEHICLE" conf="96" state="moving" tsMs="1781281813775"/>
        <radio op="vodafone IT" rat="LTE" rsrp="-115" rsrq="-19"/>
        <radio op="I TIM" rat="LTE" rsrp="-116" rsrq="-15"/>
      </extensions>
    </trkpt>
    <trkpt lat="45.6154508" lon="10.4830227">
      <ele>267.0</ele>
      <time>2026-06-12T18:30:27.326+02:00</time>
      <extensions>
        <activity type="IN_VEHICLE" conf="94" state="moving" tsMs="1781281824619"/>
        <radio op="vodafone IT" rat="LTE" q="18.00" rsrp="-107" sinr="5" rsrq="-11"/>
        <radio op="I TIM" rat="LTE" rsrp="-117" rsrq="-15"/>
      </extensions>
    </trkpt>
    <trkpt lat="45.6120121" lon="10.4810271">
      <ele>270.6000061035156</ele>
      <time>2026-06-12T18:30:59.378+02:00</time>
      <extensions>
        <activity type="IN_VEHICLE" conf="93" state="moving" tsMs="1781281858754"/>
        <radio op="vodafone IT" rat="LTE" q="22.50" rsrp="-100" sinr="4" rsrq="-10"/>
        <radio op="I TIM" rat="LTE" q="11.90" rsrp="-108" sinr="2" rsrq="-12"/>
      </extensions>
    </trkpt>
    <trkpt lat="45.6119602" lon="10.4808264">
      <ele>270.6000061035156</ele>
      <time>2026-06-12T18:31:05.326+02:00</time>
      <extensions>
        <activity type="IN_VEHICLE" conf="93" state="moving" tsMs="1781281858754"/>
        <radio op="vodafone IT" rat="LTE" q="32.20" rsrp="-102" sinr="9" rsrq="-9"/>
        <radio op="I TIM" rat="LTE" q="11.20" rsrp="-109" sinr="2" rsrq="-13"/>
      </extensions>
    </trkpt>
    <trkpt lat="45.6078724" lon="10.4720496">
      <ele>276.9560488655553</ele>
      <time>2026-06-12T18:32:12.124+02:00</time>
      <extensions>
        <activity type="IN_VEHICLE" conf="92" state="moving" tsMs="1781281937200"/>
        <radio op="vodafone IT" rat="LTE" q="100.00" rsrp="-81" sinr="22" rsrq="-9"/>
        <radio op="I TIM" rat="LTE" q="82.80" rsrp="-89" sinr="18" rsrq="-5"/>
      </extensions>
    </trkpt>
    <trkpt lat="45.6051783" lon="10.4645101">
      <ele>269.4000244140625</ele>
      <time>2026-06-12T18:32:49.326+02:00</time>
      <extensions>
        <activity type="IN_VEHICLE" conf="94" state="moving" tsMs="1781281973896"/>
        <radio op="vodafone IT" rat="LTE" q="96.00" rsrp="-76" sinr="19" rsrq="-9"/>
        <radio op="I TIM" rat="LTE" q="72.00" rsrp="-89" sinr="15" rsrq="-11"/>
      </extensions>
    </trkpt>
    <trkpt lat="45.6041544" lon="10.4600467">
      <ele>266.7290715514</ele>
      <time>2026-06-12T18:33:26.232+02:00</time>
      <extensions>
        <activity type="IN_VEHICLE" conf="87" state="moving" tsMs="1781282000943"/>
        <radio op="vodafone IT" rat="LTE" q="95.00" rsrp="-87" sinr="27" rsrq="-6"/>
        <radio op="I TIM" rat="LTE" q="4.50" rsrp="-116" sinr="0" rsrq="-15"/>
      </extensions>
    </trkpt>
    <trkpt lat="45.6030466" lon="10.4575631">
      <ele>263.3000183105469</ele>
      <time>2026-06-12T18:33:57.489+02:00</time>
      <extensions>
        <activity type="IN_VEHICLE" conf="95" state="moving" tsMs="1781282033138"/>
        <radio op="vodafone IT" rat="LTE" q="97.50" rsrp="-86" sinr="25" rsrq="-9"/>
        <radio op="I TIM" rat="LTE" q="49.50" rsrp="-92" sinr="10" rsrq="-12"/>
      </extensions>
    </trkpt>
    <trkpt lat="45.6029058" lon="10.4572362">
      <ele>263.3000183105469</ele>
      <time>2026-06-12T18:34:01.326+02:00</time>
      <extensions>
        <activity type="IN_VEHICLE" conf="91" state="moving" tsMs="1781282042679"/>
        <radio op="vodafone IT" rat="LTE" q="16.20" rsrp="-107" sinr="4" rsrq="-12"/>
        <radio op="I TIM" rat="LTE" q="48.00" rsrp="-101" sinr="15" rsrq="-11"/>
      </extensions>
    </trkpt>
    <trkpt lat="45.6020731" lon="10.4534114">
      <ele>261.70001220703125</ele>
      <time>2026-06-12T18:34:38.892+02:00</time>
      <extensions>
        <activity type="IN_VEHICLE" conf="86" state="moving" tsMs="1781282075184"/>
        <radio op="vodafone IT" rat="LTE" q="12.60" rsrp="-107" sinr="2" rsrq="-7"/>
        <radio op="I TIM" rat="LTE" rsrp="-111" rsrq="-18"/>
      </extensions>
    </trkpt>
    <trkpt lat="45.6021945" lon="10.4534355">
      <ele>259.17527403401266</ele>
      <time>2026-06-12T18:35:10.163+02:00</time>
      <extensions>
        <activity type="UNKNOWN" conf="40" state="unknown" tsMs="1781282105800"/>
        <radio op="vodafone IT" rat="LTE" q="19.20" rsrp="-109" sinr="7" rsrq="-10"/>
        <radio op="I TIM" rat="LTE" q="9.60" rsrp="-109" sinr="1" rsrq="-13"/>
      </extensions>
    </trkpt>
    <trkpt lat="45.6021227" lon="10.4533403">
      <ele>258.082092788973</ele>
      <time>2026-06-12T18:35:47.251+02:00</time>
      <extensions>
        <activity type="TILTING" conf="100" state="moving" tsMs="1781282144106"/>
        <radio op="vodafone IT" rat="LTE" q="37.70" rsrp="-96" sinr="8" rsrq="-8"/>
        <radio op="I TIM" rat="LTE" q="28.00" rsrp="-97" sinr="5" rsrq="-10"/>
      </extensions>
    </trkpt>
    <trkpt lat="45.6022372" lon="10.4531058">
      <ele>259.0255986783478</ele>
      <time>2026-06-12T18:37:14.972+02:00</time>
      <extensions>
        <activity type="UNKNOWN" conf="40" state="unknown" tsMs="1781282219073"/>
        <radio op="vodafone IT" rat="LTE" q="16.80" rsrp="-101" sinr="2" rsrq="-10"/>
        <radio op="I TIM" rat="LTE" q="51.30" rsrp="-98" sinr="14" rsrq="-10"/>
      </extensions>
    </trkpt>
    <trkpt lat="45.6022163" lon="10.4533579">
      <ele>259.77318346313075</ele>
      <time>2026-06-12T18:38:00.717+02:00</time>
      <extensions>
        <activity type="ON_FOOT" conf="84" state="moving" tsMs="1781282280396"/>
        <radio op="vodafone IT" rat="LTE" q="35.70" rsrp="-104" sinr="12" rsrq="-11"/>
        <radio op="I TIM" rat="LTE" q="24.20" rsrp="-103" sinr="6" rsrq="-11"/>
      </extensions>
    </trkpt>
    <trkpt lat="45.6022523" lon="10.4534664">
      <ele>260.70001220703125</ele>
      <time>2026-06-12T18:38:12.881+02:00</time>
      <extensions>
        <activity type="ON_FOOT" conf="84" state="moving" tsMs="1781282280396"/>
        <radio op="vodafone IT" rat="LTE" q="15.00" rsrp="-110" sinr="5" rsrq="-13"/>
        <radio op="I TIM" rat="LTE" q="28.00" rsrp="-105" sinr="9" rsrq="-9"/>
      </extensions>
    </trkpt>
    <trkpt lat="45.6023248" lon="10.4536431">
      <ele>260.70001220703125</ele>
      <time>2026-06-12T18:38:22.938+02:00</time>
      <extensions>
        <activity type="ON_FOOT" conf="96" state="moving" tsMs="1781282283900"/>
        <radio op="vodafone IT" rat="LTE" q="19.60" rsrp="-111" sinr="9" rsrq="-9"/>
        <radio op="I TIM" rat="LTE" q="22.00" rsrp="-105" sinr="6" rsrq="-10"/>
      </extensions>
    </trkpt>
    <trkpt lat="45.602393" lon="10.4537311">
      <ele>262.3000183105469</ele>
      <time>2026-06-12T18:38:32.562+02:00</time>
      <extensions>
        <activity type="ON_FOOT" conf="90" state="moving" tsMs="1781282300738"/>
        <radio op="vodafone IT" rat="LTE" q="16.20" rsrp="-107" sinr="4" rsrq="-9"/>
        <radio op="I TIM" rat="LTE" q="40.80" rsrp="-101" sinr="12" rsrq="-10"/>
      </extensions>
    </trkpt>
    <trkpt lat="45.6024836" lon="10.4536651">
      <ele>261.70001220703125</ele>
      <time>2026-06-12T18:38:38.424+02:00</time>
      <extensions>
        <activity type="ON_FOOT" conf="90" state="moving" tsMs="1781282300738"/>
        <radio op="vodafone IT" rat="LTE" q="6.40" rsrp="-117" sinr="3" rsrq="-13"/>
        <radio op="I TIM" rat="LTE" q="22.40" rsrp="-109" sinr="9" rsrq="-14"/>
      </extensions>
    </trkpt>
    <trkpt lat="45.602544" lon="10.4536666">
      <ele>261.70001220703125</ele>
      <time>2026-06-12T18:39:15.185+02:00</time>
      <extensions>
        <activity type="ON_FOOT" conf="84" state="moving" tsMs="1781282350850"/>
        <radio op="vodafone IT" rat="LTE" q="5.40" rsrp="-116" sinr="1" rsrq="-14"/>
        <radio op="I TIM" rat="LTE" rsrp="-111" rsrq="-13"/>
      </extensions>
    </trkpt>
    <trkpt lat="45.6025393" lon="10.4536587">
      <ele>261.70001220703125</ele>
      <time>2026-06-12T18:39:55.898+02:00</time>
      <extensions>
        <activity type="UNKNOWN" conf="40" state="unknown" tsMs="1781282395203"/>
        <radio op="vodafone IT" rat="LTE" q="14.00" rsrp="-111" sinr="5" rsrq="-10"/>
        <radio op="I TIM" rat="LTE" q="8.80" rsrp="-114" sinr="3" rsrq="-11"/>
      </extensions>
    </trkpt>
    <trkpt lat="45.6025405" lon="10.453662">
      <ele>261.70001220703125</ele>
      <time>2026-06-12T18:40:29.642+02:00</time>
      <extensions>
        <activity type="UNKNOWN" conf="40" state="unknown" tsMs="1781282399013"/>
        <radio op="vodafone IT" rat="LTE" q="11.70" rsrp="-112" sinr="4" rsrq="-7"/>
        <radio op="I TIM" rat="LTE" q="26.60" rsrp="-111" sinr="14" rsrq="-10"/>
      </extensions>
    </trkpt>
    <trkpt lat="45.6025396" lon="10.4536659">
      <ele>261.70001220703125</ele>
      <time>2026-06-12T18:41:16.386+02:00</time>
      <extensions>
        <activity type="STILL" conf="46" state="still" tsMs="1781282470704"/>
        <radio op="vodafone IT" rat="LTE" q="8.00" rsrp="-117" sinr="5" rsrq="-12"/>
        <radio op="I TIM" rat="LTE" q="2.40" rsrp="-121" sinr="1" rsrq="-12"/>
      </extensions>
    </trkpt>
    <trkpt lat="45.6025424" lon="10.4536662">
      <ele>261.70001220703125</ele>
      <time>2026-06-12T18:42:03.738+02:00</time>
      <extensions>
        <activity type="STILL" conf="99" state="still" tsMs="1781282510065"/>
        <radio op="vodafone IT" rat="LTE" q="6.30" rsrp="-118" sinr="4" rsrq="-11"/>
        <radio op="I TIM" rat="LTE" q="3.50" rsrp="-120" sinr="2" rsrq="-11"/>
      </extensions>
    </trkpt>
    <trkpt lat="45.6025403" lon="10.4536674">
      <ele>261.70001220703125</ele>
      <time>2026-06-12T18:56:05.421+02:00</time>
      <extensions>
        <activity type="IN_VEHICLE" conf="90" state="moving" tsMs="1781283364862"/>
        <radio op="vodafone IT" rat="LTE" q="4.50" rsrp="-120" sinr="4" rsrq="-12"/>
        <radio op="I TIM" rat="LTE" q="8.00" rsrp="-117" sinr="5" rsrq="-13"/>
      </extensions>
    </trkpt>
    <trkpt lat="45.6025415" lon="10.4536668">
      <ele>261.70001220703125</ele>
      <time>2026-06-12T18:56:36.615+02:00</time>
      <extensions>
        <activity type="STILL" conf="100" state="still" tsMs="1781283400247"/>
        <radio op="vodafone IT" rat="LTE" q="4.50" rsrp="-120" sinr="4" rsrq="-12"/>
        <radio op="I TIM" rat="LTE" q="4.00" rsrp="-117" sinr="0" rsrq="-14"/>
      </extensions>
    </trkpt>
    <trkpt lat="45.602541" lon="10.453667">
      <ele>261.70001220703125</ele>
      <time>2026-06-12T18:57:14.542+02:00</time>
      <extensions>
        <activity type="STILL" conf="99" state="still" tsMs="1781283424922"/>
        <radio op="vodafone IT" rat="LTE" q="7.00" rsrp="-120" sinr="9" rsrq="-13"/>
        <radio op="I TIM" rat="LTE" q="3.50" rsrp="-118" sinr="0" rsrq="-13"/>
      </extensions>
    </trkpt>
    <trkpt lat="45.6025437" lon="10.4536668">
      <ele>261.70001220703125</ele>
      <time>2026-06-12T18:58:31.346+02:00</time>
      <extensions>
        <activity type="STILL" conf="99" state="still" tsMs="1781283483112"/>
        <radio op="vodafone IT" rat="LTE" q="5.00" rsrp="-120" sinr="5" rsrq="-12"/>
        <radio op="I TIM" rat="LTE" q="4.90" rsrp="-118" sinr="2" rsrq="-13"/>
      </extensions>
    </trkpt>
  </trkseg></trk>
</gpx>
