<?xml version="1.0" encoding="UTF-8"?>
<gpx version="1.1" creator="CellGPX" xmlns="http://www.topografix.com/GPX/1/1">
  <trk><name>CellGPX</name><trkseg>
    <trkpt lat="45.6025644" lon="10.4537402">
      <ele>261.6000061035156</ele>
      <time>2026-08-03T12:02:37.566+02:00</time>
      <extensions>
        <activity type="STILL" conf="100" state="still" tsMs="1785751359968"/>
        <radio op="vodafone IT" rat="LTE" q="18.90" rsrp="-104" sinr="4" rsrq="-10"/>
        <radio op="I TIM" rat="LTE" q="14.40" rsrp="-116" sinr="11" rsrq="-10"/>
      </extensions>
    </trkpt>
    <trkpt lat="45.6025489" lon="10.4536906">
      <ele>261.6000061035156</ele>
      <time>2026-08-03T12:02:59+02:00</time>
      <extensions>
        <activity type="STILL" conf="100" state="still" tsMs="1785751359968"/>
        <radio op="vodafone IT" rat="LTE" q="10.40" rsrp="-112" sinr="3" rsrq="-11"/>
        <radio op="I TIM" rat="LTE" q="41.80" rsrp="-106" sinr="17" rsrq="-11"/>
      </extensions>
    </trkpt>
    <trkpt lat="45.6025444" lon="10.4536784">
      <ele>261.6000061035156</ele>
      <time>2026-08-03T12:03:48.061+02:00</time>
      <extensions>
        <activity type="STILL" conf="100" state="still" tsMs="1785751409214"/>
        <radio op="vodafone IT" rat="LTE" rsrp="-111" rsrq="-11"/>
        <radio op="I TIM" rat="LTE" q="34.00" rsrp="-108" sinr="15" rsrq="-8"/>
      </extensions>
    </trkpt>
    <trkpt lat="45.6025508" lon="10.4537048">
      <ele>261.6000061035156</ele>
      <time>2026-08-03T12:04:41.873+02:00</time>
      <extensions>
        <activity type="STILL" conf="100" state="still" tsMs="1785751471505"/>
        <radio op="vodafone IT" rat="LTE" q="21.00" rsrp="-110" sinr="9" rsrq="-12"/>
        <radio op="I TIM" rat="LTE" q="45.60" rsrp="-106" sinr="19" rsrq="-10"/>
      </extensions>
    </trkpt>
    <trkpt lat="45.6025296" lon="10.4537058">
      <ele>261.6000061035156</ele>
      <time>2026-08-03T14:17:52.119+02:00</time>
      <extensions>
        <activity type="UNKNOWN" conf="40" state="unknown" tsMs="1785759467883"/>
        <radio op="vodafone IT" rat="LTE" q="5.00" rsrp="-115" sinr="0" rsrq="-12"/>
        <radio op="I TIM" rat="LTE" q="10.80" rsrp="-113" sinr="4" rsrq="-11"/>
      </extensions>
    </trkpt>
    <trkpt lat="45.6025295" lon="10.45366">
      <ele>261.6000061035156</ele>
      <time>2026-08-03T14:17:57.548+02:00</time>
      <extensions>
        <activity type="UNKNOWN" conf="40" state="unknown" tsMs="1785759473236"/>
        <radio op="vodafone IT" rat="LTE" q="16.50" rsrp="-114" sinr="10" rsrq="-12"/>
        <radio op="I TIM" rat="LTE" rsrp="-116" rsrq="-13"/>
      </extensions>
    </trkpt>
    <trkpt lat="45.6025284" lon="10.4536861">
      <ele>261.6000061035156</ele>
      <time>2026-08-03T14:18:12.097+02:00</time>
      <extensions>
        <activity type="UNKNOWN" conf="40" state="unknown" tsMs="1785759473236"/>
        <radio op="vodafone IT" rat="LTE" q="21.00" rsrp="-115" sinr="16" rsrq="-12"/>
        <radio op="I TIM" rat="LTE" rsrp="-117" rsrq="-13"/>
      </extensions>
    </trkpt>
    <trkpt lat="45.6025293" lon="10.4536832">
      <ele>261.6000061035156</ele>
      <time>2026-08-03T14:18:19.373+02:00</time>
      <extensions>
        <activity type="STILL" conf="100" state="still" tsMs="1785759502343"/>
        <radio op="vodafone IT" rat="LTE" q="14.00" rsrp="-115" sinr="9" rsrq="-11"/>
        <radio op="I TIM" rat="LTE" q="9.90" rsrp="-116" sinr="6" rsrq="-13"/>
      </extensions>
    </trkpt>
    <trkpt lat="45.6025288" lon="10.4536812">
      <ele>261.6000061035156</ele>
      <time>2026-08-03T14:18:26.65+02:00</time>
      <extensions>
        <activity type="STILL" conf="100" state="still" tsMs="1785759502343"/>
        <radio op="vodafone IT" rat="LTE" q="20.40" rsrp="-113" sinr="12" rsrq="-11"/>
        <radio op="I TIM" rat="LTE" q="4.80" rsrp="-117" sinr="1" rsrq="-13"/>
      </extensions>
    </trkpt>
    <trkpt lat="45.6025304" lon="10.4536796">
      <ele>261.6000061035156</ele>
      <time>2026-08-03T14:18:41.204+02:00</time>
      <extensions>
        <activity type="STILL" conf="100" state="still" tsMs="1785759518749"/>
        <radio op="vodafone IT" rat="LTE" q="23.10" rsrp="-114" sinr="16" rsrq="-12"/>
        <radio op="I TIM" rat="LTE" rsrp="-118" rsrq="-14"/>
      </extensions>
    </trkpt>
    <trkpt lat="45.6025321" lon="10.4536803">
      <ele>261.6000061035156</ele>
      <time>2026-08-03T14:18:48.483+02:00</time>
      <extensions>
        <activity type="STILL" conf="100" state="still" tsMs="1785759524140"/>
        <radio op="vodafone IT" rat="LTE" q="18.70" rsrp="-114" sinr="12" rsrq="-10"/>
        <radio op="I TIM" rat="LTE" rsrp="-119" rsrq="-13"/>
      </extensions>
    </trkpt>
    <trkpt lat="45.6025361" lon="10.4536805">
      <ele>261.6000061035156</ele>
      <time>2026-08-03T14:19:02.925+02:00</time>
      <extensions>
        <activity type="STILL" conf="100" state="still" tsMs="1785759540565"/>
        <radio op="vodafone IT" rat="LTE" q="17.60" rsrp="-114" sinr="11" rsrq="-11"/>
        <radio op="I TIM" rat="LTE" rsrp="-117" rsrq="-13"/>
      </extensions>
    </trkpt>
    <trkpt lat="45.6025373" lon="10.4536796">
      <ele>261.6000061035156</ele>
      <time>2026-08-03T14:19:10.203+02:00</time>
      <extensions>
        <activity type="STILL" conf="100" state="still" tsMs="1785759545912"/>
        <radio op="vodafone IT" rat="LTE" q="18.70" rsrp="-114" sinr="12" rsrq="-11"/>
        <radio op="I TIM" rat="LTE" q="9.80" rsrp="-118" sinr="9" rsrq="-13"/>
      </extensions>
    </trkpt>
    <trkpt lat="45.6025383" lon="10.4536799">
      <ele>261.6000061035156</ele>
      <time>2026-08-03T14:19:17.597+02:00</time>
      <extensions>
        <activity type="STILL" conf="100" state="still" tsMs="1785759562392"/>
        <radio op="vodafone IT" rat="LTE" q="23.10" rsrp="-114" sinr="16" rsrq="-12"/>
        <radio op="I TIM" rat="LTE" rsrp="-117" rsrq="-13"/>
      </extensions>
    </trkpt>
    <trkpt lat="45.6025407" lon="10.453681">
      <ele>261.6000061035156</ele>
      <time>2026-08-03T14:19:32.042+02:00</time>
      <extensions>
        <activity type="STILL" conf="100" state="still" tsMs="1785759567752"/>
        <radio op="vodafone IT" rat="LTE" q="13.00" rsrp="-115" sinr="8" rsrq="-11"/>
        <radio op="I TIM" rat="LTE" q="5.60" rsrp="-118" sinr="3" rsrq="-14"/>
      </extensions>
    </trkpt>
    <trkpt lat="45.6025423" lon="10.4536835">
      <ele>261.6000061035156</ele>
      <time>2026-08-03T14:19:39.32+02:00</time>
      <extensions>
        <activity type="STILL" conf="100" state="still" tsMs="1785759572948"/>
        <radio op="vodafone IT" rat="LTE" q="17.00" rsrp="-115" sinr="12" rsrq="-12"/>
        <radio op="I TIM" rat="LTE" rsrp="-117" rsrq="-14"/>
      </extensions>
    </trkpt>
    <trkpt lat="45.6025427" lon="10.4536831">
      <ele>261.6000061035156</ele>
      <time>2026-08-03T14:19:46.596+02:00</time>
      <extensions>
        <activity type="STILL" conf="100" state="still" tsMs="1785759589582"/>
        <radio op="vodafone IT" rat="LTE" q="14.30" rsrp="-114" sinr="8" rsrq="-11"/>
        <radio op="I TIM" rat="LTE" rsrp="-117" rsrq="-14"/>
      </extensions>
    </trkpt>
    <trkpt lat="45.6025438" lon="10.4536809">
      <ele>261.6000061035156</ele>
      <time>2026-08-03T14:20:01.154+02:00</time>
      <extensions>
        <activity type="STILL" conf="100" state="still" tsMs="1785759594751"/>
        <radio op="vodafone IT" rat="LTE" q="19.20" rsrp="-113" sinr="11" rsrq="-11"/>
        <radio op="I TIM" rat="LTE" q="2.50" rsrp="-120" sinr="0" rsrq="-13"/>
      </extensions>
    </trkpt>
    <trkpt lat="45.6025438" lon="10.4536815">
      <ele>261.6000061035156</ele>
      <time>2026-08-03T14:20:08.431+02:00</time>
      <extensions>
        <activity type="STILL" conf="100" state="still" tsMs="1785759611372"/>
        <radio op="vodafone IT" rat="LTE" q="17.60" rsrp="-114" sinr="11" rsrq="-11"/>
        <radio op="I TIM" rat="LTE" q="4.20" rsrp="-119" sinr="2" rsrq="-13"/>
      </extensions>
    </trkpt>
    <trkpt lat="45.6025436" lon="10.4536802">
      <ele>261.6000061035156</ele>
      <time>2026-08-03T14:20:22.984+02:00</time>
      <extensions>
        <activity type="STILL" conf="100" state="still" tsMs="1785759616572"/>
        <radio op="vodafone IT" rat="LTE" q="24.20" rsrp="-114" sinr="17" rsrq="-11"/>
        <radio op="I TIM" rat="LTE" rsrp="-118" rsrq="-13"/>
      </extensions>
    </trkpt>
    <trkpt lat="45.6025442" lon="10.4536814">
      <ele>261.6000061035156</ele>
      <time>2026-08-03T14:20:30.259+02:00</time>
      <extensions>
        <activity type="STILL" conf="100" state="still" tsMs="1785759633201"/>
        <radio op="vodafone IT" rat="LTE" q="16.50" rsrp="-114" sinr="10" rsrq="-12"/>
        <radio op="I TIM" rat="LTE" rsrp="-117" rsrq="-13"/>
      </extensions>
    </trkpt>
    <trkpt lat="45.6025443" lon="10.4536814">
      <ele>261.6000061035156</ele>
      <time>2026-08-03T14:20:37.647+02:00</time>
      <extensions>
        <activity type="STILL" conf="100" state="still" tsMs="1785759633201"/>
        <radio op="vodafone IT" rat="LTE" q="14.30" rsrp="-114" sinr="8" rsrq="-11"/>
        <radio op="I TIM" rat="LTE" q="10.80" rsrp="-116" sinr="7" rsrq="-12"/>
      </extensions>
    </trkpt>
    <trkpt lat="45.6028095" lon="10.4535258">
      <ele>261.3000183105469</ele>
      <time>2026-08-03T14:30:33.624+02:00</time>
      <extensions>
        <activity type="UNKNOWN" conf="40" state="unknown" tsMs="1785760232972"/>
        <radio op="vodafone IT" rat="LTE" q="17.60" rsrp="-109" sinr="6" rsrq="-10"/>
        <radio op="I TIM" rat="LTE" q="45.90" rsrp="-98" sinr="12" rsrq="-12"/>
      </extensions>
    </trkpt>
    <trkpt lat="45.6030128" lon="10.4540529">
      <ele>262.20001220703125</ele>
      <time>2026-08-03T14:31:09.738+02:00</time>
      <extensions>
        <activity type="ON_FOOT" conf="95" state="moving" tsMs="1785760265944"/>
        <radio op="vodafone IT" rat="LTE" q="51.00" rsrp="-95" sinr="12" rsrq="-8"/>
        <radio op="I TIM" rat="LTE" q="80.00" rsrp="-93" sinr="20" rsrq="-11"/>
      </extensions>
    </trkpt>
    <trkpt lat="45.6033487" lon="10.4547784">
      <ele>262.20001220703125</ele>
      <time>2026-08-03T14:31:43.245+02:00</time>
      <extensions>
        <activity type="ON_FOOT" conf="91" state="moving" tsMs="1785760297937"/>
        <radio op="vodafone IT" rat="LTE" q="47.50" rsrp="-100" sinr="14" rsrq="-12"/>
        <radio op="I TIM" rat="LTE" q="66.70" rsrp="-96" sinr="18" rsrq="-8"/>
      </extensions>
    </trkpt>
    <trkpt lat="45.603529" lon="10.4550419">
      <ele>261.9000244140625</ele>
      <time>2026-08-03T14:32:06.619+02:00</time>
      <extensions>
        <activity type="ON_FOOT" conf="90" state="moving" tsMs="1785760320947"/>
        <radio op="vodafone IT" rat="LTE" q="46.20" rsrp="-104" sinr="17" rsrq="-7"/>
        <radio op="I TIM" rat="LTE" q="52.90" rsrp="-102" sinr="18" rsrq="-10"/>
      </extensions>
    </trkpt>
    <trkpt lat="45.6034953" lon="10.4550336">
      <ele>262.0</ele>
      <time>2026-08-03T14:32:53.279+02:00</time>
      <extensions>
        <activity type="ON_FOOT" conf="91" state="moving" tsMs="1785760359333"/>
        <radio op="vodafone IT" rat="LTE" q="32.30" rsrp="-108" sinr="14" rsrq="-9"/>
        <radio op="I TIM" rat="LTE" q="20.80" rsrp="-109" sinr="8" rsrq="-11"/>
      </extensions>
    </trkpt>
    <trkpt lat="45.6033501" lon="10.4561497">
      <ele>262.0</ele>
      <time>2026-08-03T14:33:09.616+02:00</time>
      <extensions>
        <activity type="ON_FOOT" conf="90" state="moving" tsMs="1785760376507"/>
        <radio op="vodafone IT" rat="LTE" q="57.50" rsrp="-102" sinr="21" rsrq="-6"/>
        <radio op="I TIM" rat="LTE" q="45.90" rsrp="-98" sinr="12" rsrq="-12"/>
      </extensions>
    </trkpt>
    <trkpt lat="45.6034822" lon="10.4570896">
      <ele>263.4000244140625</ele>
      <time>2026-08-03T14:33:48.168+02:00</time>
      <extensions>
        <activity type="ON_FOOT" conf="94" state="moving" tsMs="1785760426325"/>
        <radio op="vodafone IT" rat="LTE" q="57.60" rsrp="-101" sinr="19" rsrq="-9"/>
        <radio op="I TIM" rat="LTE" q="50.00" rsrp="-100" sinr="15" rsrq="-12"/>
      </extensions>
    </trkpt>
    <trkpt lat="45.603823" lon="10.4577795">
      <ele>264.20001220703125</ele>
      <time>2026-08-03T14:34:23.663+02:00</time>
      <extensions>
        <activity type="ON_FOOT" conf="89" state="moving" tsMs="1785760463312"/>
        <radio op="vodafone IT" rat="LTE" q="68.20" rsrp="-94" sinr="17" rsrq="-8"/>
        <radio op="I TIM" rat="LTE" q="85.00" rsrp="-91" sinr="23" rsrq="-10"/>
      </extensions>
    </trkpt>
    <trkpt lat="45.603956" lon="10.4582301">
      <ele>264.3000183105469</ele>
      <time>2026-08-03T14:34:56.656+02:00</time>
      <extensions>
        <activity type="ON_FOOT" conf="96" state="moving" tsMs="1785760492952"/>
        <radio op="vodafone IT" rat="LTE" q="70.00" rsrp="-97" sinr="20" rsrq="-9"/>
        <radio op="I TIM" rat="LTE" q="58.90" rsrp="-94" sinr="14" rsrq="-9"/>
      </extensions>
    </trkpt>
    <trkpt lat="45.6039318" lon="10.4582495">
      <ele>264.3000183105469</ele>
      <time>2026-08-03T14:35:05.616+02:00</time>
      <extensions>
        <activity type="ON_FOOT" conf="96" state="moving" tsMs="1785760502691"/>
        <radio op="vodafone IT" rat="LTE" q="42.00" rsrp="-105" sinr="16" rsrq="-8"/>
        <radio op="I TIM" rat="LTE" q="38.00" rsrp="-105" sinr="14" rsrq="-10"/>
      </extensions>
    </trkpt>
    <trkpt lat="45.6043065" lon="10.4584655">
      <ele>264.4000244140625</ele>
      <time>2026-08-03T14:35:49.69+02:00</time>
      <extensions>
        <activity type="ON_FOOT" conf="90" state="moving" tsMs="1785760540957"/>
        <radio op="vodafone IT" rat="LTE" q="77.50" rsrp="-94" sinr="29" rsrq="-7"/>
        <radio op="I TIM" rat="LTE" q="52.80" rsrp="-103" sinr="19" rsrq="-11"/>
      </extensions>
    </trkpt>
    <trkpt lat="45.6042008" lon="10.4593737">
      <ele>264.4000244140625</ele>
      <time>2026-08-03T14:36:25.957+02:00</time>
      <extensions>
        <activity type="ON_FOOT" conf="96" state="moving" tsMs="1785760581808"/>
        <radio op="vodafone IT" rat="LTE" q="57.50" rsrp="-102" sinr="20" rsrq="-7"/>
        <radio op="I TIM" rat="LTE" q="17.60" rsrp="-114" sinr="11" rsrq="-12"/>
      </extensions>
    </trkpt>
    <trkpt lat="45.6042325" lon="10.4594783">
      <ele>264.4000244140625</ele>
      <time>2026-08-03T14:36:55.183+02:00</time>
      <extensions>
        <activity type="ON_FOOT" conf="84" state="moving" tsMs="1785760613600"/>
        <radio op="vodafone IT" rat="LTE" q="65.00" rsrp="-99" sinr="23" rsrq="-12"/>
        <radio op="I TIM" rat="LTE" q="75.00" rsrp="-95" sinr="21" rsrq="-12"/>
      </extensions>
    </trkpt>
    <trkpt lat="45.6042086" lon="10.4594864">
      <ele>264.4000244140625</ele>
      <time>2026-08-03T14:37:25.07+02:00</time>
      <extensions>
        <activity type="STILL" conf="98" state="still" tsMs="1785760644635"/>
        <radio op="vodafone IT" rat="LTE" q="75.00" rsrp="-95" sinr="23" rsrq="-7"/>
        <radio op="I TIM" rat="LTE" q="69.60" rsrp="-96" sinr="19" rsrq="-13"/>
      </extensions>
    </trkpt>
    <trkpt lat="45.6042064" lon="10.4594752">
      <ele>264.4000244140625</ele>
      <time>2026-08-03T14:37:59.114+02:00</time>
      <extensions>
        <activity type="STILL" conf="54" state="still" tsMs="1785760675142"/>
        <radio op="vodafone IT" rat="LTE" q="85.00" rsrp="-91" sinr="22" rsrq="-10"/>
        <radio op="I TIM" rat="LTE" q="67.50" rsrp="-98" sinr="24" rsrq="-13"/>
      </extensions>
    </trkpt>
    <trkpt lat="45.6042166" lon="10.4594814">
      <ele>264.4000244140625</ele>
      <time>2026-08-03T14:38:46.236+02:00</time>
      <extensions>
        <activity type="STILL" conf="97" state="still" tsMs="1785760722940"/>
        <radio op="vodafone IT" rat="LTE" q="39.60" rsrp="-107" sinr="17" rsrq="-10"/>
        <radio op="I TIM" rat="LTE" q="36.00" rsrp="-107" sinr="15" rsrq="-13"/>
      </extensions>
    </trkpt>
    <trkpt lat="45.604125" lon="10.459332">
      <ele>264.4000244140625</ele>
      <time>2026-08-03T14:39:17.189+02:00</time>
      <extensions>
        <activity type="UNKNOWN" conf="40" state="unknown" tsMs="1785760751939"/>
        <radio op="vodafone IT" rat="LTE" q="55.00" rsrp="-103" sinr="20" rsrq="-12"/>
        <radio op="I TIM" rat="LTE" q="60.00" rsrp="-101" sinr="22" rsrq="-11"/>
      </extensions>
    </trkpt>
    <trkpt lat="45.6041018" lon="10.4593542">
      <ele>264.4000244140625</ele>
      <time>2026-08-03T14:48:30.776+02:00</time>
      <extensions>
        <activity type="UNKNOWN" conf="40" state="unknown" tsMs="1785761307448"/>
        <radio op="vodafone IT" rat="LTE" q="22.40" rsrp="-109" sinr="9" rsrq="-11"/>
        <radio op="I TIM" rat="LTE" q="77.50" rsrp="-94" sinr="20" rsrq="-13"/>
      </extensions>
    </trkpt>
    <trkpt lat="45.604152" lon="10.4593411">
      <ele>264.4000244140625</ele>
      <time>2026-08-03T14:48:47.879+02:00</time>
      <extensions>
        <activity type="UNKNOWN" conf="40" state="unknown" tsMs="1785761313902"/>
        <radio op="vodafone IT" rat="LTE" q="22.40" rsrp="-109" sinr="9" rsrq="-9"/>
        <radio op="I TIM" rat="LTE" q="77.50" rsrp="-94" sinr="21" rsrq="-13"/>
      </extensions>
    </trkpt>
    <trkpt lat="45.6041272" lon="10.4593382">
      <ele>264.4000244140625</ele>
      <time>2026-08-03T14:49:22.211+02:00</time>
      <extensions>
        <activity type="STILL" conf="42" state="still" tsMs="1785761357638"/>
        <radio op="vodafone IT" rat="LTE" q="22.40" rsrp="-109" sinr="9" rsrq="-10"/>
        <radio op="I TIM" rat="LTE" q="77.50" rsrp="-94" sinr="20" rsrq="-13"/>
      </extensions>
    </trkpt>
    <trkpt lat="45.604136" lon="10.4593382">
      <ele>264.4000244140625</ele>
      <time>2026-08-03T14:49:53.44+02:00</time>
      <extensions>
        <activity type="STILL" conf="88" state="still" tsMs="1785761389454"/>
        <radio op="vodafone IT" rat="LTE" q="22.40" rsrp="-109" sinr="9" rsrq="-7"/>
        <radio op="I TIM" rat="LTE" q="77.50" rsrp="-94" sinr="21" rsrq="-13"/>
      </extensions>
    </trkpt>
    <trkpt lat="45.6041565" lon="10.4593217">
      <ele>264.4000244140625</ele>
      <time>2026-08-03T14:50:24.603+02:00</time>
      <extensions>
        <activity type="STILL" conf="98" state="still" tsMs="1785761420733"/>
        <radio op="vodafone IT" rat="LTE" q="20.80" rsrp="-109" sinr="8" rsrq="-11"/>
        <radio op="I TIM" rat="LTE" q="77.50" rsrp="-94" sinr="21" rsrq="-13"/>
      </extensions>
    </trkpt>
    <trkpt lat="45.6041362" lon="10.4593311">
      <ele>264.4000244140625</ele>
      <time>2026-08-03T14:50:52.446+02:00</time>
      <extensions>
        <activity type="STILL" conf="79" state="still" tsMs="1785761452014"/>
        <radio op="vodafone IT" rat="LTE" q="28.90" rsrp="-108" sinr="12" rsrq="-8"/>
        <radio op="I TIM" rat="LTE" q="77.50" rsrp="-94" sinr="21" rsrq="-13"/>
      </extensions>
    </trkpt>
    <trkpt lat="45.6040974" lon="10.459352">
      <ele>264.4000244140625</ele>
      <time>2026-08-03T14:51:26.293+02:00</time>
      <extensions>
        <activity type="STILL" conf="92" state="still" tsMs="1785761482490"/>
        <radio op="vodafone IT" rat="LTE" q="27.20" rsrp="-109" sinr="12" rsrq="-9"/>
        <radio op="I TIM" rat="LTE" q="72.50" rsrp="-96" sinr="21" rsrq="-13"/>
      </extensions>
    </trkpt>
    <trkpt lat="45.604409" lon="10.4589877">
      <ele>264.4000244140625</ele>
      <time>2026-08-03T15:58:26.528+02:00</time>
      <extensions>
        <activity type="ON_FOOT" conf="96" state="moving" tsMs="1785765508062"/>
        <radio op="vodafone IT" rat="LTE" rsrp="-88" rsrq="-9"/>
        <radio op="I TIM" rat="LTE" q="60.00" rsrp="-100" sinr="19" rsrq="-12"/>
      </extensions>
    </trkpt>
    <trkpt lat="45.6045912" lon="10.4586946">
      <ele>264.4000244140625</ele>
      <time>2026-08-03T15:58:57.757+02:00</time>
      <extensions>
        <activity type="ON_FOOT" conf="95" state="moving" tsMs="1785765535969"/>
        <radio op="vodafone IT" rat="LTE" q="44.00" rsrp="-103" sinr="15" rsrq="-10"/>
        <radio op="I TIM" rat="LTE" q="8.00" rsrp="-117" sinr="5" rsrq="-13"/>
      </extensions>
    </trkpt>
    <trkpt lat="45.6045978" lon="10.4586628">
      <ele>264.5</ele>
      <time>2026-08-03T15:59:42.873+02:00</time>
      <extensions>
        <activity type="STILL" conf="99" state="still" tsMs="1785765580953"/>
        <radio op="vodafone IT" rat="LTE" q="20.80" rsrp="-112" sinr="11" rsrq="-11"/>
        <radio op="I TIM" rat="LTE" q="28.50" rsrp="-110" sinr="14" rsrq="-11"/>
      </extensions>
    </trkpt>
    <trkpt lat="45.6045857" lon="10.458652">
      <ele>266.3078819034891</ele>
      <time>2026-08-03T16:00:13.978+02:00</time>
      <extensions>
        <activity type="STILL" conf="60" state="still" tsMs="1785765610789"/>
        <radio op="vodafone IT" rat="LTE" q="23.80" rsrp="-111" sinr="12" rsrq="-11"/>
        <radio op="I TIM" rat="LTE" q="28.50" rsrp="-110" sinr="14" rsrq="-12"/>
      </extensions>
    </trkpt>
    <trkpt lat="45.6045814" lon="10.4586582">
      <ele>264.5</ele>
      <time>2026-08-03T16:00:45.248+02:00</time>
      <extensions>
        <activity type="UNKNOWN" conf="40" state="unknown" tsMs="1785765639586"/>
        <radio op="vodafone IT" rat="LTE" q="15.60" rsrp="-113" sinr="8" rsrq="-12"/>
        <radio op="I TIM" rat="LTE" q="24.00" rsrp="-109" sinr="10" rsrq="-13"/>
      </extensions>
    </trkpt>
    <trkpt lat="45.6045716" lon="10.4587299">
      <ele>264.5</ele>
      <time>2026-08-03T16:01:16.531+02:00</time>
      <extensions>
        <activity type="ON_FOOT" conf="81" state="moving" tsMs="1785765676140"/>
        <radio op="vodafone IT" rat="LTE" q="27.00" rsrp="-110" sinr="13" rsrq="-11"/>
        <radio op="I TIM" rat="LTE" q="36.10" rsrp="-106" sinr="14" rsrq="-11"/>
      </extensions>
    </trkpt>
    <trkpt lat="45.604168" lon="10.4582565">
      <ele>264.3000183105469</ele>
      <time>2026-08-03T16:01:59.608+02:00</time>
      <extensions>
        <activity type="ON_FOOT" conf="91" state="moving" tsMs="1785765713390"/>
        <radio op="vodafone IT" rat="LTE" q="18.00" rsrp="-113" sinr="10" rsrq="-9"/>
        <radio op="I TIM" rat="LTE" q="37.80" rsrp="-104" sinr="13" rsrq="-13"/>
      </extensions>
    </trkpt>
    <trkpt lat="45.6034295" lon="10.4574607">
      <ele>263.4000244140625</ele>
      <time>2026-08-03T16:02:54.5+02:00</time>
      <extensions>
        <activity type="ON_FOOT" conf="96" state="moving" tsMs="1785765773357"/>
        <radio op="vodafone IT" rat="LTE" q="62.40" rsrp="-86" sinr="11" rsrq="-7"/>
        <radio op="I TIM" rat="LTE" q="96.00" rsrp="-82" sinr="19" rsrq="-11"/>
      </extensions>
    </trkpt>
    <trkpt lat="45.6037607" lon="10.4574315">
      <ele>263.4000244140625</ele>
      <time>2026-08-03T16:03:03.609+02:00</time>
      <extensions>
        <activity type="ON_FOOT" conf="96" state="moving" tsMs="1785765773357"/>
        <radio op="vodafone IT" rat="LTE" q="82.50" rsrp="-92" sinr="23" rsrq="-10"/>
        <radio op="I TIM" rat="LTE" q="90.00" rsrp="-89" sinr="22" rsrq="-11"/>
      </extensions>
    </trkpt>
    <trkpt lat="45.6037511" lon="10.4574327">
      <ele>262.70001220703125</ele>
      <time>2026-08-03T16:03:55.744+02:00</time>
      <extensions>
        <activity type="ON_FOOT" conf="94" state="moving" tsMs="1785765835009"/>
        <radio op="vodafone IT" rat="LTE" q="32.00" rsrp="-105" sinr="11" rsrq="-8"/>
        <radio op="I TIM" rat="LTE" q="80.50" rsrp="-90" sinr="18" rsrq="-12"/>
      </extensions>
    </trkpt>
    <trkpt lat="45.6034327" lon="10.4561974">
      <ele>262.70001220703125</ele>
      <time>2026-08-03T16:04:09.61+02:00</time>
      <extensions>
        <activity type="ON_FOOT" conf="91" state="moving" tsMs="1785765838903"/>
        <radio op="vodafone IT" rat="LTE" q="70.00" rsrp="-97" sinr="20" rsrq="-6"/>
        <radio op="I TIM" rat="LTE" q="73.60" rsrp="-93" sinr="18" rsrq="-11"/>
      </extensions>
    </trkpt>
    <trkpt lat="45.6035647" lon="10.4557543">
      <ele>262.70001220703125</ele>
      <time>2026-08-03T16:04:41.75+02:00</time>
      <extensions>
        <activity type="ON_FOOT" conf="96" state="moving" tsMs="1785765881009"/>
        <radio op="vodafone IT" rat="LTE" q="17.00" rsrp="-108" sinr="5" rsrq="-9"/>
        <radio op="I TIM" rat="LTE" q="26.60" rsrp="-106" sinr="9" rsrq="-13"/>
      </extensions>
    </trkpt>
    <trkpt lat="45.6033252" lon="10.4538828">
      <ele>262.20001220703125</ele>
      <time>2026-08-03T16:06:02.304+02:00</time>
      <extensions>
        <activity type="ON_FOOT" conf="90" state="moving" tsMs="1785765960749"/>
        <radio op="vodafone IT" rat="LTE" q="32.30" rsrp="-106" sinr="12" rsrq="-11"/>
        <radio op="I TIM" rat="LTE" q="74.40" rsrp="-94" sinr="19" rsrq="-9"/>
      </extensions>
    </trkpt>
    <trkpt lat="45.6025437" lon="10.4536825">
      <ele>261.6000061035156</ele>
      <time>2026-08-03T16:07:16.86+02:00</time>
      <extensions>
        <activity type="ON_FOOT" conf="93" state="moving" tsMs="1785766026427"/>
        <radio op="vodafone IT" rat="LTE" rsrp="-109" rsrq="-9"/>
        <radio op="I TIM" rat="LTE" q="2.40" rsrp="-121" sinr="1" rsrq="-13"/>
      </extensions>
    </trkpt>
    <trkpt lat="45.6029684" lon="10.4535197">
      <ele>261.4000244140625</ele>
      <time>2026-08-03T16:08:07.069+02:00</time>
      <extensions>
        <activity type="ON_FOOT" conf="90" state="moving" tsMs="1785766084396"/>
        <radio op="vodafone IT" rat="LTE" q="19.20" rsrp="-109" sinr="7" rsrq="-12"/>
        <radio op="I TIM" rat="LTE" rsrp="-118" rsrq="-15"/>
      </extensions>
    </trkpt>
    <trkpt lat="45.6033473" lon="10.4547613">
      <ele>264.2008104498636</ele>
      <time>2026-08-03T16:09:20.866+02:00</time>
      <extensions>
        <activity type="ON_FOOT" conf="90" state="moving" tsMs="1785766160379"/>
        <radio op="vodafone IT" rat="LTE" q="39.00" rsrp="-99" sinr="10" rsrq="-9"/>
        <radio op="I TIM" rat="LTE" q="46.80" rsrp="-99" sinr="13" rsrq="-11"/>
      </extensions>
    </trkpt>
    <trkpt lat="45.6033347" lon="10.454731">
      <ele>264.2008104498636</ele>
      <time>2026-08-03T16:09:27.305+02:00</time>
      <extensions>
        <activity type="ON_FOOT" conf="90" state="moving" tsMs="1785766160379"/>
        <radio op="vodafone IT" rat="LTE" q="32.50" rsrp="-100" sinr="8" rsrq="-11"/>
        <radio op="I TIM" rat="LTE" q="60.90" rsrp="-96" sinr="16" rsrq="-11"/>
      </extensions>
    </trkpt>
    <trkpt lat="45.6035153" lon="10.4552895">
      <ele>261.70001220703125</ele>
      <time>2026-08-03T16:10:01.536+02:00</time>
      <extensions>
        <activity type="ON_FOOT" conf="97" state="moving" tsMs="1785766199217"/>
        <radio op="vodafone IT" rat="LTE" q="52.00" rsrp="-99" sinr="15" rsrq="-7"/>
        <radio op="I TIM" rat="LTE" q="36.00" rsrp="-101" sinr="10" rsrq="-11"/>
      </extensions>
    </trkpt>
    <trkpt lat="45.6034529" lon="10.455289">
      <ele>261.70001220703125</ele>
      <time>2026-08-03T16:10:07.002+02:00</time>
      <extensions>
        <activity type="ON_FOOT" conf="97" state="moving" tsMs="1785766199217"/>
        <radio op="vodafone IT" rat="LTE" q="62.50" rsrp="-100" sinr="24" rsrq="-7"/>
        <radio op="I TIM" rat="LTE" q="70.00" rsrp="-97" sinr="22" rsrq="-10"/>
      </extensions>
    </trkpt>
    <trkpt lat="45.603381" lon="10.4559322">
      <ele>261.9000244140625</ele>
      <time>2026-08-03T16:10:42.895+02:00</time>
      <extensions>
        <activity type="ON_FOOT" conf="96" state="moving" tsMs="1785766240603"/>
        <radio op="vodafone IT" rat="LTE" q="30.40" rsrp="-109" sinr="14" rsrq="-8"/>
        <radio op="I TIM" rat="LTE" q="32.30" rsrp="-106" sinr="12" rsrq="-12"/>
      </extensions>
    </trkpt>
    <trkpt lat="45.6034103" lon="10.4563957">
      <ele>262.8000183105469</ele>
      <time>2026-08-03T16:11:14.113+02:00</time>
      <extensions>
        <activity type="ON_FOOT" conf="96" state="moving" tsMs="1785766271219"/>
        <radio op="vodafone IT" rat="LTE" q="73.60" rsrp="-93" sinr="18" rsrq="-10"/>
        <radio op="I TIM" rat="LTE" q="36.80" rsrp="-102" sinr="11" rsrq="-12"/>
      </extensions>
    </trkpt>
    <trkpt lat="45.6035099" lon="10.4564102">
      <ele>262.8000183105469</ele>
      <time>2026-08-03T16:11:20.001+02:00</time>
      <extensions>
        <activity type="ON_FOOT" conf="97" state="moving" tsMs="1785766280664"/>
        <radio op="vodafone IT" rat="LTE" q="87.50" rsrp="-90" sinr="24" rsrq="-11"/>
        <radio op="I TIM" rat="LTE" q="54.00" rsrp="-95" sinr="13" rsrq="-11"/>
      </extensions>
    </trkpt>
    <trkpt lat="45.603522" lon="10.4564366">
      <ele>265.62157877802554</ele>
      <time>2026-08-03T16:12:01.306+02:00</time>
      <extensions>
        <activity type="ON_FOOT" conf="92" state="moving" tsMs="1785766318489"/>
        <radio op="vodafone IT" rat="LTE" q="57.20" rsrp="-99" sinr="17" rsrq="-12"/>
        <radio op="I TIM" rat="LTE" q="46.80" rsrp="-99" sinr="13" rsrq="-12"/>
      </extensions>
    </trkpt>
    <trkpt lat="45.6039401" lon="10.4580025">
      <ele>264.3000183105469</ele>
      <time>2026-08-03T16:12:32.568+02:00</time>
      <extensions>
        <activity type="ON_FOOT" conf="85" state="moving" tsMs="1785766349467"/>
        <radio op="vodafone IT" rat="LTE" q="63.80" rsrp="-96" sinr="17" rsrq="-10"/>
        <radio op="I TIM" rat="LTE" q="82.50" rsrp="-92" sinr="20" rsrq="-10"/>
      </extensions>
    </trkpt>
    <trkpt lat="45.6039311" lon="10.457995">
      <ele>264.3000183105469</ele>
      <time>2026-08-03T16:12:39.001+02:00</time>
      <extensions>
        <activity type="ON_FOOT" conf="94" state="moving" tsMs="1785766365378"/>
        <radio op="vodafone IT" rat="LTE" q="59.80" rsrp="-99" sinr="18" rsrq="-9"/>
        <radio op="I TIM" rat="LTE" q="58.80" rsrp="-97" sinr="16" rsrq="-11"/>
      </extensions>
    </trkpt>
    <trkpt lat="45.6042275" lon="10.4583021">
      <ele>264.3000183105469</ele>
      <time>2026-08-03T16:13:09.7+02:00</time>
      <extensions>
        <activity type="ON_FOOT" conf="85" state="moving" tsMs="1785766386845"/>
        <radio op="vodafone IT" rat="LTE" q="15.40" rsrp="-114" sinr="9" rsrq="-11"/>
        <radio op="I TIM" rat="LTE" q="15.60" rsrp="-113" sinr="8" rsrq="-13"/>
      </extensions>
    </trkpt>
    <trkpt lat="45.6043863" lon="10.4588975">
      <ele>264.4000244140625</ele>
      <time>2026-08-03T16:13:41.035+02:00</time>
      <extensions>
        <activity type="ON_FOOT" conf="84" state="moving" tsMs="1785766417899"/>
        <radio op="vodafone IT" rat="LTE" q="90.00" rsrp="-89" sinr="28" rsrq="-7"/>
        <radio op="I TIM" rat="LTE" q="32.00" rsrp="-105" sinr="11" rsrq="-12"/>
      </extensions>
    </trkpt>
    <trkpt lat="45.6042245" lon="10.4593554">
      <ele>264.4000244140625</ele>
      <time>2026-08-03T16:14:12.456+02:00</time>
      <extensions>
        <activity type="ON_FOOT" conf="89" state="moving" tsMs="1785766449366"/>
        <radio op="vodafone IT" rat="LTE" q="26.60" rsrp="-111" sinr="14" rsrq="-11"/>
        <radio op="I TIM" rat="LTE" q="13.20" rsrp="-113" sinr="6" rsrq="-13"/>
      </extensions>
    </trkpt>
    <trkpt lat="45.604289" lon="10.4594942">
      <ele>267.24653600236286</ele>
      <time>2026-08-03T16:14:47.142+02:00</time>
      <extensions>
        <activity type="ON_FOOT" conf="84" state="moving" tsMs="1785766482371"/>
        <radio op="vodafone IT" rat="LTE" q="50.00" rsrp="-105" sinr="22" rsrq="-7"/>
        <radio op="I TIM" rat="LTE" q="35.70" rsrp="-108" sinr="16" rsrq="-12"/>
      </extensions>
    </trkpt>
    <trkpt lat="45.6043109" lon="10.4596436">
      <ele>264.4000244140625</ele>
      <time>2026-08-03T16:15:34.208+02:00</time>
      <extensions>
        <activity type="UNKNOWN" conf="40" state="unknown" tsMs="1785766534381"/>
        <radio op="vodafone IT" rat="LTE" q="25.20" rsrp="-107" sinr="9" rsrq="-10"/>
        <radio op="I TIM" rat="LTE" q="72.50" rsrp="-96" sinr="27" rsrq="-11"/>
      </extensions>
    </trkpt>
    <trkpt lat="45.6043705" lon="10.4596958">
      <ele>264.4000244140625</ele>
      <time>2026-08-03T16:16:12.273+02:00</time>
      <extensions>
        <activity type="UNKNOWN" conf="40" state="unknown" tsMs="1785766571258"/>
        <radio op="vodafone IT" rat="LTE" q="32.00" rsrp="-109" sinr="15" rsrq="-10"/>
        <radio op="I TIM" rat="LTE" q="48.40" rsrp="-103" sinr="17" rsrq="-13"/>
      </extensions>
    </trkpt>
    <trkpt lat="45.6043812" lon="10.4597004">
      <ele>264.4000244140625</ele>
      <time>2026-08-03T16:16:52.375+02:00</time>
      <extensions>
        <activity type="UNKNOWN" conf="40" state="unknown" tsMs="1785766612359"/>
        <radio op="vodafone IT" rat="LTE" q="41.40" rsrp="-107" sinr="18" rsrq="-8"/>
        <radio op="I TIM" rat="LTE" q="72.50" rsrp="-96" sinr="23" rsrq="-10"/>
      </extensions>
    </trkpt>
    <trkpt lat="45.6043766" lon="10.459742">
      <ele>264.4000244140625</ele>
      <time>2026-08-03T16:17:24.215+02:00</time>
      <extensions>
        <activity type="UNKNOWN" conf="40" state="unknown" tsMs="1785766616214"/>
        <radio op="vodafone IT" rat="LTE" q="44.10" rsrp="-104" sinr="16" rsrq="-8"/>
        <radio op="I TIM" rat="LTE" q="19.50" rsrp="-112" sinr="10" rsrq="-12"/>
      </extensions>
    </trkpt>
    <trkpt lat="45.6043534" lon="10.4596141">
      <ele>264.4000244140625</ele>
      <time>2026-08-03T16:18:10.162+02:00</time>
      <extensions>
        <activity type="UNKNOWN" conf="40" state="unknown" tsMs="1785766686444"/>
        <radio op="vodafone IT" rat="LTE" q="36.00" rsrp="-107" sinr="15" rsrq="-7"/>
        <radio op="I TIM" rat="LTE" q="10.00" rsrp="-115" sinr="5" rsrq="-13"/>
      </extensions>
    </trkpt>
    <trkpt lat="45.6043426" lon="10.4595967">
      <ele>264.4000244140625</ele>
      <time>2026-08-03T16:19:58.427+02:00</time>
      <extensions>
        <activity type="UNKNOWN" conf="40" state="unknown" tsMs="1785766796380"/>
        <radio op="vodafone IT" rat="LTE" q="62.50" rsrp="-100" sinr="20" rsrq="-4"/>
        <radio op="I TIM" rat="LTE" q="18.00" rsrp="-113" sinr="10" rsrq="-12"/>
      </extensions>
    </trkpt>
    <trkpt lat="45.6043638" lon="10.4597305">
      <ele>264.4000244140625</ele>
      <time>2026-08-03T16:20:36.752+02:00</time>
      <extensions>
        <activity type="STILL" conf="58" state="still" tsMs="1785766835763"/>
        <radio op="vodafone IT" rat="LTE" q="55.00" rsrp="-103" sinr="21" rsrq="-9"/>
        <radio op="I TIM" rat="LTE" q="34.20" rsrp="-106" sinr="13" rsrq="-10"/>
      </extensions>
    </trkpt>
    <trkpt lat="45.6045013" lon="10.4597718">
      <ele>264.4000244140625</ele>
      <time>2026-08-03T16:21:34.995+02:00</time>
      <extensions>
        <activity type="ON_FOOT" conf="89" state="moving" tsMs="1785766889731"/>
        <radio op="vodafone IT" rat="LTE" q="16.80" rsrp="-113" sinr="9" rsrq="-8"/>
        <radio op="I TIM" rat="LTE" q="62.50" rsrp="-100" sinr="24" rsrq="-12"/>
      </extensions>
    </trkpt>
    <trkpt lat="45.6044032" lon="10.4595814">
      <ele>264.4000244140625</ele>
      <time>2026-08-03T16:22:28.888+02:00</time>
      <extensions>
        <activity type="ON_FOOT" conf="89" state="moving" tsMs="1785766944384"/>
        <radio op="vodafone IT" rat="LTE" q="8.80" rsrp="-114" sinr="3" rsrq="-9"/>
        <radio op="I TIM" rat="LTE" q="55.00" rsrp="-103" sinr="22" rsrq="-11"/>
      </extensions>
    </trkpt>
    <trkpt lat="45.6044655" lon="10.4596217">
      <ele>264.4000244140625</ele>
      <time>2026-08-03T16:23:01.967+02:00</time>
      <extensions>
        <activity type="UNKNOWN" conf="40" state="unknown" tsMs="1785766982381"/>
        <radio op="vodafone IT" rat="LTE" q="50.00" rsrp="-105" sinr="20" rsrq="-7"/>
        <radio op="I TIM" rat="LTE" q="47.50" rsrp="-106" sinr="21" rsrq="-12"/>
      </extensions>
    </trkpt>
    <trkpt lat="45.6044464" lon="10.4596312">
      <ele>264.4000244140625</ele>
      <time>2026-08-03T16:23:51.483+02:00</time>
      <extensions>
        <activity type="STILL" conf="60" state="still" tsMs="1785767031365"/>
        <radio op="vodafone IT" rat="LTE" q="60.00" rsrp="-101" sinr="23" rsrq="-10"/>
        <radio op="I TIM" rat="LTE" q="48.30" rsrp="-104" sinr="18" rsrq="-12"/>
      </extensions>
    </trkpt>
    <trkpt lat="45.6044668" lon="10.4596285">
      <ele>264.4000244140625</ele>
      <time>2026-08-03T16:25:01.19+02:00</time>
      <extensions>
        <activity type="IN_VEHICLE" conf="77" state="moving" tsMs="1785767100399"/>
        <radio op="vodafone IT" rat="LTE" q="60.00" rsrp="-101" sinr="23" rsrq="-8"/>
        <radio op="I TIM" rat="LTE" q="60.00" rsrp="-101" sinr="22" rsrq="-11"/>
      </extensions>
    </trkpt>
    <trkpt lat="45.6044682" lon="10.4596102">
      <ele>264.4000244140625</ele>
      <time>2026-08-03T16:25:36.776+02:00</time>
      <extensions>
        <activity type="UNKNOWN" conf="40" state="unknown" tsMs="1785767137226"/>
        <radio op="vodafone IT" rat="LTE" q="57.50" rsrp="-102" sinr="23" rsrq="-12"/>
        <radio op="I TIM" rat="LTE" q="50.00" rsrp="-105" sinr="21" rsrq="-12"/>
      </extensions>
    </trkpt>
    <trkpt lat="45.6044994" lon="10.4595722">
      <ele>264.4000244140625</ele>
      <time>2026-08-03T16:26:42.19+02:00</time>
      <extensions>
        <activity type="UNKNOWN" conf="40" state="unknown" tsMs="1785767201763"/>
        <radio op="vodafone IT" rat="LTE" q="52.50" rsrp="-104" sinr="20" rsrq="-9"/>
        <radio op="I TIM" rat="LTE" q="44.00" rsrp="-105" sinr="17" rsrq="-12"/>
      </extensions>
    </trkpt>
    <trkpt lat="45.6044525" lon="10.459551">
      <ele>264.4000244140625</ele>
      <time>2026-08-03T16:27:42.345+02:00</time>
      <extensions>
        <activity type="UNKNOWN" conf="40" state="unknown" tsMs="1785767257369"/>
        <radio op="vodafone IT" rat="LTE" q="52.80" rsrp="-103" sinr="19" rsrq="-6"/>
        <radio op="I TIM" rat="LTE" q="25.20" rsrp="-111" sinr="13" rsrq="-13"/>
      </extensions>
    </trkpt>
    <trkpt lat="45.6044781" lon="10.459522">
      <ele>264.4000244140625</ele>
      <time>2026-08-03T16:29:22.386+02:00</time>
      <extensions>
        <activity type="STILL" conf="99" state="still" tsMs="1785767341788"/>
        <radio op="vodafone IT" rat="LTE" q="50.00" rsrp="-105" sinr="20" rsrq="-11"/>
        <radio op="I TIM" rat="LTE" q="45.60" rsrp="-106" sinr="19" rsrq="-11"/>
      </extensions>
    </trkpt>
    <trkpt lat="45.6045601" lon="10.459372">
      <ele>264.4000244140625</ele>
      <time>2026-08-03T16:30:57.141+02:00</time>
      <extensions>
        <activity type="ON_FOOT" conf="90" state="moving" tsMs="1785767457185"/>
        <radio op="vodafone IT" rat="LTE" q="41.80" rsrp="-106" sinr="17" rsrq="-8"/>
        <radio op="I TIM" rat="LTE" q="75.00" rsrp="-95" sinr="24" rsrq="-12"/>
      </extensions>
    </trkpt>
    <trkpt lat="45.6045297" lon="10.4594095">
      <ele>264.4000244140625</ele>
      <time>2026-08-03T16:31:33.032+02:00</time>
      <extensions>
        <activity type="UNKNOWN" conf="40" state="unknown" tsMs="1785767488761"/>
        <radio op="vodafone IT" rat="LTE" q="55.00" rsrp="-103" sinr="20" rsrq="-5"/>
        <radio op="I TIM" rat="LTE" rsrp="-92" rsrq="-12"/>
      </extensions>
    </trkpt>
    <trkpt lat="45.6046388" lon="10.4595063">
      <ele>264.4000244140625</ele>
      <time>2026-08-03T16:32:05.509+02:00</time>
      <extensions>
        <activity type="UNKNOWN" conf="40" state="unknown" tsMs="1785767522393"/>
        <radio op="vodafone IT" rat="LTE" q="44.00" rsrp="-105" sinr="17" rsrq="-6"/>
        <radio op="I TIM" rat="LTE" q="77.50" rsrp="-94" sinr="26" rsrq="-12"/>
      </extensions>
    </trkpt>
    <trkpt lat="45.6044859" lon="10.45933">
      <ele>264.4000244140625</ele>
      <time>2026-08-03T16:32:34.013+02:00</time>
      <extensions>
        <activity type="ON_FOOT" conf="82" state="moving" tsMs="1785767554383"/>
        <radio op="vodafone IT" rat="LTE" q="46.00" rsrp="-105" sinr="18" rsrq="-6"/>
        <radio op="I TIM" rat="LTE" q="87.50" rsrp="-90" sinr="26" rsrq="-13"/>
      </extensions>
    </trkpt>
    <trkpt lat="45.6044388" lon="10.4592377">
      <ele>264.4000244140625</ele>
      <time>2026-08-03T16:32:46.668+02:00</time>
      <extensions>
        <activity type="ON_FOOT" conf="82" state="moving" tsMs="1785767554383"/>
        <radio op="vodafone IT" rat="LTE" q="40.00" rsrp="-105" sinr="15" rsrq="-10"/>
        <radio op="I TIM" rat="LTE" rsrp="-94" rsrq="-12"/>
      </extensions>
    </trkpt>
    <trkpt lat="45.6043851" lon="10.4591701">
      <ele>264.4000244140625</ele>
      <time>2026-08-03T16:32:56.507+02:00</time>
      <extensions>
        <activity type="ON_FOOT" conf="94" state="moving" tsMs="1785767557906"/>
        <radio op="vodafone IT" rat="LTE" q="50.60" rsrp="-103" sinr="18" rsrq="-8"/>
        <radio op="I TIM" rat="LTE" q="72.50" rsrp="-96" sinr="26" rsrq="-12"/>
      </extensions>
    </trkpt>
    <trkpt lat="45.6043281" lon="10.4592698">
      <ele>264.4000244140625</ele>
      <time>2026-08-03T16:33:04.547+02:00</time>
      <extensions>
        <activity type="ON_FOOT" conf="96" state="moving" tsMs="1785767573468"/>
        <radio op="vodafone IT" rat="LTE" q="7.00" rsrp="-118" sinr="5" rsrq="-9"/>
        <radio op="I TIM" rat="LTE" q="3.20" rsrp="-121" sinr="3" rsrq="-14"/>
      </extensions>
    </trkpt>
    <trkpt lat="45.6043142" lon="10.459274">
      <ele>264.4000244140625</ele>
      <time>2026-08-03T16:33:15.806+02:00</time>
      <extensions>
        <activity type="UNKNOWN" conf="40" state="unknown" tsMs="1785767583493"/>
        <radio op="vodafone IT" rat="LTE" q="52.50" rsrp="-104" sinr="20" rsrq="-9"/>
        <radio op="I TIM" rat="LTE" q="6.30" rsrp="-118" sinr="4" rsrq="-13"/>
      </extensions>
    </trkpt>
    <trkpt lat="45.6043096" lon="10.4592793">
      <ele>264.4000244140625</ele>
      <time>2026-08-03T16:33:24.59+02:00</time>
      <extensions>
        <activity type="UNKNOWN" conf="40" state="unknown" tsMs="1785767583493"/>
        <radio op="vodafone IT" rat="LTE" q="60.00" rsrp="-101" sinr="24" rsrq="-9"/>
        <radio op="I TIM" rat="LTE" q="41.80" rsrp="-103" sinr="14" rsrq="-12"/>
      </extensions>
    </trkpt>
    <trkpt lat="45.6043289" lon="10.459292">
      <ele>264.4000244140625</ele>
      <time>2026-08-03T16:33:36.567+02:00</time>
      <extensions>
        <activity type="UNKNOWN" conf="40" state="unknown" tsMs="1785767598523"/>
        <radio op="vodafone IT" rat="LTE" q="43.20" rsrp="-107" sinr="19" rsrq="-6"/>
        <radio op="I TIM" rat="LTE" q="36.80" rsrp="-102" sinr="11" rsrq="-13"/>
      </extensions>
    </trkpt>
    <trkpt lat="45.604329" lon="10.4592944">
      <ele>264.4000244140625</ele>
      <time>2026-08-03T16:33:38.945+02:00</time>
      <extensions>
        <activity type="UNKNOWN" conf="40" state="unknown" tsMs="1785767613561"/>
        <radio op="vodafone IT" rat="LTE" q="60.00" rsrp="-101" sinr="21" rsrq="-8"/>
        <radio op="I TIM" rat="LTE" q="67.50" rsrp="-98" sinr="22" rsrq="-13"/>
      </extensions>
    </trkpt>
    <trkpt lat="45.6043185" lon="10.4592816">
      <ele>264.4000244140625</ele>
      <time>2026-08-03T16:34:18.074+02:00</time>
      <extensions>
        <activity type="STILL" conf="49" state="still" tsMs="1785767653863"/>
        <radio op="vodafone IT" rat="LTE" q="67.50" rsrp="-98" sinr="24" rsrq="-8"/>
        <radio op="I TIM" rat="LTE" q="46.20" rsrp="-104" sinr="17" rsrq="-12"/>
      </extensions>
    </trkpt>
    <trkpt lat="45.6043463" lon="10.4592806">
      <ele>264.4000244140625</ele>
      <time>2026-08-03T16:34:57.038+02:00</time>
      <extensions>
        <activity type="UNKNOWN" conf="40" state="unknown" tsMs="1785767696997"/>
        <radio op="vodafone IT" rat="LTE" q="55.00" rsrp="-103" sinr="23" rsrq="-9"/>
        <radio op="I TIM" rat="LTE" q="57.50" rsrp="-102" sinr="23" rsrq="-12"/>
      </extensions>
    </trkpt>
    <trkpt lat="45.6043593" lon="10.458997">
      <ele>264.4000244140625</ele>
      <time>2026-08-03T16:35:40.798+02:00</time>
      <extensions>
        <activity type="ON_FOOT" conf="94" state="moving" tsMs="1785767740747"/>
        <radio op="vodafone IT" rat="LTE" q="60.00" rsrp="-101" sinr="24" rsrq="-11"/>
        <radio op="I TIM" rat="LTE" q="65.00" rsrp="-99" sinr="26" rsrq="-12"/>
      </extensions>
    </trkpt>
    <trkpt lat="45.6041771" lon="10.4586736">
      <ele>264.3000183105469</ele>
      <time>2026-08-03T16:36:11.991+02:00</time>
      <extensions>
        <activity type="ON_FOOT" conf="96" state="moving" tsMs="1785767767144"/>
        <radio op="vodafone IT" rat="LTE" q="70.00" rsrp="-97" sinr="22" rsrq="-7"/>
        <radio op="I TIM" rat="LTE" q="90.00" rsrp="-89" sinr="21" rsrq="-12"/>
      </extensions>
    </trkpt>
    <trkpt lat="45.6037574" lon="10.4578863">
      <ele>263.5</ele>
      <time>2026-08-03T16:36:53.251+02:00</time>
      <extensions>
        <activity type="ON_FOOT" conf="96" state="moving" tsMs="1785767800777"/>
        <radio op="vodafone IT" rat="LTE" q="90.00" rsrp="-89" sinr="25" rsrq="-6"/>
        <radio op="I TIM" rat="LTE" q="56.00" rsrp="-85" sinr="9" rsrq="-12"/>
      </extensions>
    </trkpt>
    <trkpt lat="45.6035189" lon="10.4568303">
      <ele>263.4000244140625</ele>
      <time>2026-08-03T16:37:32.166+02:00</time>
      <extensions>
        <activity type="ON_FOOT" conf="93" state="moving" tsMs="1785767851781"/>
        <radio op="vodafone IT" rat="LTE" q="67.50" rsrp="-98" sinr="20" rsrq="-8"/>
        <radio op="I TIM" rat="LTE" q="69.60" rsrp="-96" sinr="19" rsrq="-12"/>
      </extensions>
    </trkpt>
    <trkpt lat="45.6035263" lon="10.457013">
      <ele>263.4000244140625</ele>
      <time>2026-08-03T16:37:39.008+02:00</time>
      <extensions>
        <activity type="ON_FOOT" conf="93" state="moving" tsMs="1785767851781"/>
        <radio op="vodafone IT" rat="LTE" q="72.50" rsrp="-96" sinr="25" rsrq="-8"/>
        <radio op="I TIM" rat="LTE" q="77.50" rsrp="-94" sinr="21" rsrq="-12"/>
      </extensions>
    </trkpt>
    <trkpt lat="45.6035088" lon="10.4569993">
      <ele>262.0</ele>
      <time>2026-08-03T16:38:25.444+02:00</time>
      <extensions>
        <activity type="ON_FOOT" conf="94" state="moving" tsMs="1785767881794"/>
        <radio op="vodafone IT" rat="LTE" q="67.50" rsrp="-98" sinr="22" rsrq="-7"/>
        <radio op="I TIM" rat="LTE" q="59.40" rsrp="-98" sinr="17" rsrq="-12"/>
      </extensions>
    </trkpt>
    <trkpt lat="45.6036144" lon="10.4554277">
      <ele>261.5</ele>
      <time>2026-08-03T16:38:59.525+02:00</time>
      <extensions>
        <activity type="ON_FOOT" conf="92" state="moving" tsMs="1785767937785"/>
        <radio op="vodafone IT" rat="LTE" q="32.20" rsrp="-102" sinr="9" rsrq="-7"/>
        <radio op="I TIM" rat="LTE" q="37.80" rsrp="-104" sinr="13" rsrq="-13"/>
      </extensions>
    </trkpt>
    <trkpt lat="45.6035312" lon="10.4554323">
      <ele>261.5</ele>
      <time>2026-08-03T16:39:09.008+02:00</time>
      <extensions>
        <activity type="ON_FOOT" conf="92" state="moving" tsMs="1785767937785"/>
        <radio op="vodafone IT" rat="LTE" q="28.90" rsrp="-108" sinr="12" rsrq="-9"/>
        <radio op="I TIM" rat="LTE" q="49.40" rsrp="-99" sinr="14" rsrq="-12"/>
      </extensions>
    </trkpt>
    <trkpt lat="45.603538" lon="10.4554318">
      <ele>262.3000183105469</ele>
      <time>2026-08-03T16:39:42.893+02:00</time>
      <extensions>
        <activity type="ON_FOOT" conf="97" state="moving" tsMs="1785767983138"/>
        <radio op="vodafone IT" rat="LTE" q="62.00" rsrp="-94" sinr="15" rsrq="-8"/>
        <radio op="I TIM" rat="LTE" q="57.00" rsrp="-95" sinr="14" rsrq="-12"/>
      </extensions>
    </trkpt>
    <trkpt lat="45.6032479" lon="10.4541833">
      <ele>262.4000244140625</ele>
      <time>2026-08-03T16:40:09.562+02:00</time>
      <extensions>
        <activity type="ON_FOOT" conf="96" state="moving" tsMs="1785768011200"/>
        <radio op="vodafone IT" rat="LTE" q="30.80" rsrp="-103" sinr="9" rsrq="-7"/>
        <radio op="I TIM" rat="LTE" q="17.40" rsrp="-96" sinr="1" rsrq="-12"/>
      </extensions>
    </trkpt>
    <trkpt lat="45.6031951" lon="10.454111">
      <ele>262.4000244140625</ele>
      <time>2026-08-03T16:40:19.009+02:00</time>
      <extensions>
        <activity type="ON_FOOT" conf="96" state="moving" tsMs="1785768020162"/>
        <radio op="vodafone IT" rat="LTE" q="32.00" rsrp="-105" sinr="11" rsrq="-11"/>
        <radio op="I TIM" rat="LTE" q="43.20" rsrp="-98" sinr="11" rsrq="-13"/>
      </extensions>
    </trkpt>
    <trkpt lat="45.6029366" lon="10.4535161">
      <ele>261.3000183105469</ele>
      <time>2026-08-03T16:40:55.005+02:00</time>
      <extensions>
        <activity type="ON_FOOT" conf="96" state="moving" tsMs="1785768052286"/>
        <radio op="vodafone IT" rat="LTE" q="18.00" rsrp="-105" sinr="4" rsrq="-8"/>
        <radio op="I TIM" rat="LTE" q="25.30" rsrp="-102" sinr="6" rsrq="-12"/>
      </extensions>
    </trkpt>
    <trkpt lat="45.6025489" lon="10.4536949">
      <ele>261.6000061035156</ele>
      <time>2026-08-03T16:41:26.179+02:00</time>
      <extensions>
        <activity type="ON_FOOT" conf="96" state="moving" tsMs="1785768081101"/>
        <radio op="vodafone IT" rat="LTE" rsrp="-102" rsrq="-12"/>
        <radio op="I TIM" rat="LTE" q="30.60" rsrp="-107" sinr="12" rsrq="-11"/>
      </extensions>
    </trkpt>
    <trkpt lat="45.6025446" lon="10.4536839">
      <ele>261.6000061035156</ele>
      <time>2026-08-03T16:41:57.464+02:00</time>
      <extensions>
        <activity type="ON_FOOT" conf="86" state="moving" tsMs="1785768117581"/>
        <radio op="vodafone IT" rat="LTE" rsrp="-108" rsrq="-13"/>
        <radio op="I TIM" rat="LTE" q="4.80" rsrp="-117" sinr="1" rsrq="-12"/>
      </extensions>
    </trkpt>
    <trkpt lat="45.6025482" lon="10.4536949">
      <ele>261.6000061035156</ele>
      <time>2026-08-03T16:42:35.568+02:00</time>
      <extensions>
        <activity type="UNKNOWN" conf="40" state="unknown" tsMs="1785768155228"/>
        <radio op="vodafone IT" rat="LTE" q="4.20" rsrp="-119" sinr="2" rsrq="-12"/>
        <radio op="I TIM" rat="LTE" q="5.60" rsrp="-118" sinr="3" rsrq="-14"/>
      </extensions>
    </trkpt>
    <trkpt lat="45.6025434" lon="10.4536819">
      <ele>261.6000061035156</ele>
      <time>2026-08-03T16:43:07.33+02:00</time>
      <extensions>
        <activity type="UNKNOWN" conf="40" state="unknown" tsMs="1785768183994"/>
        <radio op="vodafone IT" rat="LTE" q="3.20" rsrp="-121" sinr="3" rsrq="-10"/>
        <radio op="I TIM" rat="LTE" q="3.20" rsrp="-121" sinr="3" rsrq="-14"/>
      </extensions>
    </trkpt>
    <trkpt lat="45.6025431" lon="10.453681">
      <ele>261.6000061035156</ele>
      <time>2026-08-03T16:43:38.868+02:00</time>
      <extensions>
        <activity type="UNKNOWN" conf="40" state="unknown" tsMs="1785768215749"/>
        <radio op="vodafone IT" rat="LTE" q="5.60" rsrp="-117" sinr="2" rsrq="-10"/>
        <radio op="I TIM" rat="LTE" q="8.10" rsrp="-116" sinr="4" rsrq="-14"/>
      </extensions>
    </trkpt>
    <trkpt lat="45.602545" lon="10.4536909">
      <ele>261.6000061035156</ele>
      <time>2026-08-03T16:44:10.338+02:00</time>
      <extensions>
        <activity type="UNKNOWN" conf="40" state="unknown" tsMs="1785768247315"/>
        <radio op="vodafone IT" rat="LTE" q="10.00" rsrp="-115" sinr="5" rsrq="-12"/>
        <radio op="I TIM" rat="LTE" q="9.00" rsrp="-115" sinr="4" rsrq="-13"/>
      </extensions>
    </trkpt>
    <trkpt lat="45.6025448" lon="10.4536907">
      <ele>261.6000061035156</ele>
      <time>2026-08-03T16:44:41.772+02:00</time>
      <extensions>
        <activity type="STILL" conf="51" state="still" tsMs="1785768278769"/>
        <radio op="vodafone IT" rat="LTE" q="4.20" rsrp="-118" sinr="1" rsrq="-11"/>
        <radio op="I TIM" rat="LTE" rsrp="-119" rsrq="-14"/>
      </extensions>
    </trkpt>
  </trkseg></trk>
</gpx>
