<?xml version="1.0" encoding="UTF-8"?>
<gpx version="1.1" creator="CellGPX" xmlns="http://www.topografix.com/GPX/1/1">
  <trk><name>CellGPX</name><trkseg>
    <trkpt lat="45.6021519" lon="10.4535118">
      <ele>261.70001220703125</ele>
      <time>2026-07-01T14:29:06.349+02:00</time>
      <extensions>
        <activity type="UNKNOWN" conf="40" state="unknown" tsMs="1782908945596"/>
        <radio op="vodafone IT" rat="LTE" q="34.20" rsrp="-106" sinr="13" rsrq="-11"/>
        <radio op="I TIM" rat="LTE" rsrp="-102" rsrq="-11"/>
      </extensions>
    </trkpt>
    <trkpt lat="45.6021369" lon="10.4535122">
      <ele>261.8000183105469</ele>
      <time>2026-07-01T14:29:16.254+02:00</time>
      <extensions>
        <activity type="UNKNOWN" conf="40" state="unknown" tsMs="1782908951001"/>
        <radio op="vodafone IT" rat="LTE" q="25.20" rsrp="-111" sinr="13" rsrq="-9"/>
        <radio op="I TIM" rat="LTE" q="17.00" rsrp="-108" sinr="5" rsrq="-13"/>
      </extensions>
    </trkpt>
    <trkpt lat="45.6021249" lon="10.4535256">
      <ele>258.34999777167013</ele>
      <time>2026-07-01T14:29:26.295+02:00</time>
      <extensions>
        <activity type="UNKNOWN" conf="40" state="unknown" tsMs="1782908951001"/>
        <radio op="vodafone IT" rat="LTE" q="28.00" rsrp="-111" sinr="15" rsrq="-10"/>
        <radio op="I TIM" rat="LTE" q="9.00" rsrp="-110" sinr="1" rsrq="-11"/>
      </extensions>
    </trkpt>
    <trkpt lat="45.6020452" lon="10.453454">
      <ele>258.7926127100936</ele>
      <time>2026-07-01T14:29:36.295+02:00</time>
      <extensions>
        <activity type="UNKNOWN" conf="40" state="unknown" tsMs="1782908974269"/>
        <radio op="vodafone IT" rat="LTE" q="12.60" rsrp="-111" sinr="4" rsrq="-10"/>
        <radio op="I TIM" rat="LTE" rsrp="-112" rsrq="-14"/>
      </extensions>
    </trkpt>
    <trkpt lat="45.6023503" lon="10.4538162">
      <ele>258.6308853799419</ele>
      <time>2026-07-01T14:29:46.254+02:00</time>
      <extensions>
        <activity type="UNKNOWN" conf="40" state="unknown" tsMs="1782908979630"/>
        <radio op="vodafone IT" rat="LTE" q="18.00" rsrp="-105" sinr="4" rsrq="-9"/>
        <radio op="I TIM" rat="LTE" q="6.60" rsrp="-114" sinr="1" rsrq="-12"/>
      </extensions>
    </trkpt>
    <trkpt lat="45.6017744" lon="10.4540955">
      <ele>258.41596297661584</ele>
      <time>2026-07-01T14:29:57.254+02:00</time>
      <extensions>
        <activity type="UNKNOWN" conf="40" state="unknown" tsMs="1782908979630"/>
        <radio op="vodafone IT" rat="LTE" q="18.00" rsrp="-113" sinr="10" rsrq="-9"/>
        <radio op="I TIM" rat="LTE" q="20.40" rsrp="-108" sinr="7" rsrq="-12"/>
      </extensions>
    </trkpt>
    <trkpt lat="45.6017652" lon="10.4541083">
      <ele>258.452137658662</ele>
      <time>2026-07-01T14:30:07.306+02:00</time>
      <extensions>
        <activity type="UNKNOWN" conf="40" state="unknown" tsMs="1782909007014"/>
        <radio op="vodafone IT" rat="LTE" q="13.20" rsrp="-114" sinr="7" rsrq="-8"/>
        <radio op="I TIM" rat="LTE" q="20.40" rsrp="-108" sinr="7" rsrq="-10"/>
      </extensions>
    </trkpt>
    <trkpt lat="45.6022825" lon="10.4551395">
      <ele>258.9522150307175</ele>
      <time>2026-07-01T14:30:17.254+02:00</time>
      <extensions>
        <activity type="UNKNOWN" conf="40" state="unknown" tsMs="1782909012472"/>
        <radio op="vodafone IT" rat="LTE" q="21.60" rsrp="-113" sinr="13" rsrq="-11"/>
        <radio op="I TIM" rat="LTE" q="37.80" rsrp="-107" sinr="16" rsrq="-13"/>
      </extensions>
    </trkpt>
    <trkpt lat="45.6028246" lon="10.4567762">
      <ele>260.70001220703125</ele>
      <time>2026-07-01T14:30:27.254+02:00</time>
      <extensions>
        <activity type="IN_VEHICLE" conf="86" state="moving" tsMs="1782909023260"/>
        <radio op="vodafone IT" rat="LTE" q="62.50" rsrp="-100" sinr="23" rsrq="-11"/>
        <radio op="I TIM" rat="LTE" rsrp="-117" rsrq="-17"/>
      </extensions>
    </trkpt>
    <trkpt lat="45.6032482" lon="10.4582611">
      <ele>260.70001220703125</ele>
      <time>2026-07-01T14:30:37.254+02:00</time>
      <extensions>
        <activity type="UNKNOWN" conf="40" state="unknown" tsMs="1782909034101"/>
        <radio op="vodafone IT" rat="LTE" q="100.00" rsrp="-83" sinr="30" rsrq="-7"/>
        <radio op="I TIM" rat="LTE" q="97.50" rsrp="-86" sinr="26" rsrq="-12"/>
      </extensions>
    </trkpt>
    <trkpt lat="45.6036461" lon="10.4595832">
      <ele>261.6000061035156</ele>
      <time>2026-07-01T14:30:47.254+02:00</time>
      <extensions>
        <activity type="UNKNOWN" conf="40" state="unknown" tsMs="1782909044984"/>
        <radio op="vodafone IT" rat="LTE" q="100.00" rsrp="-79" sinr="28" rsrq="-10"/>
        <radio op="I TIM" rat="LTE" q="84.00" rsrp="-85" sinr="16" rsrq="-10"/>
      </extensions>
    </trkpt>
    <trkpt lat="45.6041473" lon="10.4611829">
      <ele>261.6000061035156</ele>
      <time>2026-07-01T14:30:57.254+02:00</time>
      <extensions>
        <activity type="UNKNOWN" conf="40" state="unknown" tsMs="1782909055864"/>
        <radio op="vodafone IT" rat="LTE" q="100.00" rsrp="-81" sinr="29" rsrq="-8"/>
        <radio op="I TIM" rat="LTE" q="25.00" rsrp="-100" sinr="5" rsrq="-13"/>
      </extensions>
    </trkpt>
    <trkpt lat="45.6047233" lon="10.4630601">
      <ele>263.1513520198289</ele>
      <time>2026-07-01T14:31:08.254+02:00</time>
      <extensions>
        <activity type="UNKNOWN" conf="40" state="unknown" tsMs="1782909066642"/>
        <radio op="vodafone IT" rat="LTE" q="39.60" rsrp="-92" sinr="7" rsrq="-7"/>
        <radio op="I TIM" rat="LTE" rsrp="-98" rsrq="-14"/>
      </extensions>
    </trkpt>
    <trkpt lat="45.6051094" lon="10.4644989">
      <ele>260.70001220703125</ele>
      <time>2026-07-01T14:31:18.254+02:00</time>
      <extensions>
        <activity type="UNKNOWN" conf="40" state="unknown" tsMs="1782909066642"/>
        <radio op="vodafone IT" rat="LTE" q="100.00" rsrp="-84" sinr="22" rsrq="-7"/>
        <radio op="I TIM" rat="LTE" rsrp="-118" rsrq="-15"/>
      </extensions>
    </trkpt>
    <trkpt lat="45.6049686" lon="10.4650061">
      <ele>260.70001220703125</ele>
      <time>2026-07-01T14:31:28.254+02:00</time>
      <extensions>
        <activity type="UNKNOWN" conf="40" state="unknown" tsMs="1782909070753"/>
        <radio op="vodafone IT" rat="LTE" q="95.00" rsrp="-87" sinr="23" rsrq="-7"/>
        <radio op="I TIM" rat="LTE" q="15.30" rsrp="-108" sinr="4" rsrq="-8"/>
      </extensions>
    </trkpt>
    <trkpt lat="45.6055482" lon="10.4658125">
      <ele>260.70001220703125</ele>
      <time>2026-07-01T14:31:38.254+02:00</time>
      <extensions>
        <activity type="IN_VEHICLE" conf="93" state="moving" tsMs="1782909098419"/>
        <radio op="vodafone IT" rat="LTE" q="100.00" rsrp="-82" sinr="29" rsrq="-6"/>
        <radio op="I TIM" rat="LTE" q="31.50" rsrp="-104" sinr="10" rsrq="-6"/>
      </extensions>
    </trkpt>
    <trkpt lat="45.6058645" lon="10.4668468">
      <ele>260.70001220703125</ele>
      <time>2026-07-01T14:31:44.254+02:00</time>
      <extensions>
        <activity type="IN_VEHICLE" conf="88" state="moving" tsMs="1782909103832"/>
        <radio op="vodafone IT" rat="LTE" q="90.00" rsrp="-89" sinr="28" rsrq="-5"/>
        <radio op="I TIM" rat="LTE" q="61.60" rsrp="-97" sinr="17" rsrq="-7"/>
      </extensions>
    </trkpt>
    <trkpt lat="45.608505" lon="10.4759693">
      <ele>267.3000183105469</ele>
      <time>2026-07-01T14:32:27.254+02:00</time>
      <extensions>
        <activity type="UNKNOWN" conf="40" state="unknown" tsMs="1782909148342"/>
        <radio op="vodafone IT" rat="LTE" q="16.20" rsrp="-107" sinr="4" rsrq="-8"/>
        <radio op="I TIM" rat="LTE" q="52.00" rsrp="-99" sinr="15" rsrq="-6"/>
      </extensions>
    </trkpt>
    <trkpt lat="45.6119217" lon="10.4809207">
      <ele>267.3000183105469</ele>
      <time>2026-07-01T14:33:06.254+02:00</time>
      <extensions>
        <activity type="IN_VEHICLE" conf="92" state="moving" tsMs="1782909180816"/>
        <radio op="vodafone IT" rat="LTE" q="13.60" rsrp="-108" sinr="3" rsrq="-13"/>
        <radio op="I TIM" rat="LTE" rsrp="-112" rsrq="-13"/>
      </extensions>
    </trkpt>
    <trkpt lat="45.6167914" lon="10.4836367">
      <ele>272.0</ele>
      <time>2026-07-01T14:33:45.781+02:00</time>
      <extensions>
        <activity type="IN_VEHICLE" conf="93" state="moving" tsMs="1782909224825"/>
        <radio op="vodafone IT" rat="LTE" q="14.00" rsrp="-111" sinr="5" rsrq="-10"/>
        <radio op="I TIM" rat="LTE" rsrp="-120" rsrq="-18"/>
      </extensions>
    </trkpt>
    <trkpt lat="45.6204387" lon="10.4868121">
      <ele>272.0</ele>
      <time>2026-07-01T14:34:16.979+02:00</time>
      <extensions>
        <activity type="IN_VEHICLE" conf="97" state="moving" tsMs="1782909251549"/>
        <radio op="vodafone IT" rat="LTE" q="22.00" rsrp="-103" sinr="5" rsrq="-10"/>
        <radio op="I TIM" rat="LTE" q="14.30" rsrp="-112" sinr="6" rsrq="-12"/>
      </extensions>
    </trkpt>
    <trkpt lat="45.6238041" lon="10.4934768">
      <ele>272.0</ele>
      <time>2026-07-01T14:35:03.601+02:00</time>
      <extensions>
        <activity type="IN_VEHICLE" conf="81" state="moving" tsMs="1782909302662"/>
        <radio op="vodafone IT" rat="LTE" q="25.20" rsrp="-107" sinr="9" rsrq="-13"/>
        <radio op="I TIM" rat="LTE" q="1.00" rsrp="-123" sinr="0" rsrq="-14"/>
      </extensions>
    </trkpt>
    <trkpt lat="45.6235994" lon="10.4931281">
      <ele>272.0</ele>
      <time>2026-07-01T14:35:41.29+02:00</time>
      <extensions>
        <activity type="TILTING" conf="100" state="moving" tsMs="1782909326012"/>
        <radio op="vodafone IT" rat="LTE" q="9.80" rsrp="-111" sinr="2" rsrq="-16"/>
        <radio op="I TIM" rat="LTE" q="10.40" rsrp="-117" sinr="8" rsrq="-12"/>
      </extensions>
    </trkpt>
    <trkpt lat="45.6238202" lon="10.4926722">
      <ele>275.66033713568595</ele>
      <time>2026-07-01T14:36:18.138+02:00</time>
      <extensions>
        <activity type="ON_FOOT" conf="95" state="moving" tsMs="1782909372723"/>
        <radio op="vodafone IT" rat="LTE" rsrp="-123" rsrq="-11"/>
        <radio op="I TIM" rat="LTE" q="0.00" rsrp="-126" sinr="1" rsrq="-14"/>
      </extensions>
    </trkpt>
    <trkpt lat="45.6238014" lon="10.4926515">
      <ele>272.0</ele>
      <time>2026-07-01T14:36:51.112+02:00</time>
      <extensions>
        <activity type="UNKNOWN" conf="40" state="unknown" tsMs="1782909405740"/>
        <radio op="vodafone IT" rat="LTE" q="4.50" rsrp="-120" sinr="4" rsrq="-9"/>
        <radio op="I TIM" rat="LTE" q="6.00" rsrp="-119" sinr="5" rsrq="-12"/>
      </extensions>
    </trkpt>
    <trkpt lat="45.6237892" lon="10.4927318">
      <ele>279.1000061035156</ele>
      <time>2026-07-01T14:37:26.328+02:00</time>
      <extensions>
        <activity type="UNKNOWN" conf="40" state="unknown" tsMs="1782909451960"/>
        <radio op="vodafone IT" rat="LTE" rsrq="-20"/>
        <radio op="I TIM" rat="LTE" rsrp="-128" rsrq="-14"/>
      </extensions>
    </trkpt>
    <trkpt lat="45.6238169" lon="10.4927212">
      <ele>281.9684467520801</ele>
      <time>2026-07-01T14:37:46.545+02:00</time>
      <extensions>
        <activity type="UNKNOWN" conf="40" state="unknown" tsMs="1782909474693"/>
        <radio op="vodafone IT" rat="LTE" q="8.00" rsrp="-109" sinr="0" rsrq="-11"/>
        <radio op="I TIM" rat="LTE" q="14.30" rsrp="-112" sinr="6" rsrq="-10"/>
      </extensions>
    </trkpt>
    <trkpt lat="45.6238296" lon="10.4927091">
      <ele>285.6469776881852</ele>
      <time>2026-07-01T14:38:26.458+02:00</time>
      <extensions>
        <activity type="ON_FOOT" conf="82" state="moving" tsMs="1782909501666"/>
        <radio op="vodafone IT" rat="LTE" q="2.50" rsrp="-120" sinr="0" rsrq="-11"/>
        <radio op="I TIM" rat="LTE" q="9.90" rsrp="-116" sinr="6" rsrq="-12"/>
      </extensions>
    </trkpt>
    <trkpt lat="45.623825" lon="10.4927159">
      <ele>285.71774780533553</ele>
      <time>2026-07-01T14:38:58.099+02:00</time>
      <extensions>
        <activity type="UNKNOWN" conf="40" state="unknown" tsMs="1782909534404"/>
        <radio op="vodafone IT" rat="LTE" q="4.00" rsrp="-120" sinr="3" rsrq="-13"/>
        <radio op="I TIM" rat="LTE" q="11.70" rsrp="-116" sinr="8" rsrq="-12"/>
      </extensions>
    </trkpt>
    <trkpt lat="45.6238256" lon="10.4927164">
      <ele>285.79590827972027</ele>
      <time>2026-07-01T14:39:29.732+02:00</time>
      <extensions>
        <activity type="UNKNOWN" conf="40" state="unknown" tsMs="1782909566089"/>
        <radio op="vodafone IT" rat="LTE" rsrp="-120" rsrq="-12"/>
        <radio op="I TIM" rat="LTE" q="4.90" rsrp="-118" sinr="2" rsrq="-13"/>
      </extensions>
    </trkpt>
    <trkpt lat="45.6238339" lon="10.4927071">
      <ele>286.06479067941996</ele>
      <time>2026-07-01T14:40:24.88+02:00</time>
      <extensions>
        <activity type="IN_VEHICLE" conf="76" state="moving" tsMs="1782909619748"/>
        <radio op="vodafone IT" rat="LTE" rsrp="-120" rsrq="-12"/>
        <radio op="I TIM" rat="LTE" q="2.40" rsrp="-121" sinr="1" rsrq="-14"/>
      </extensions>
    </trkpt>
    <trkpt lat="45.6238205" lon="10.4927257">
      <ele>286.27179317466033</ele>
      <time>2026-07-01T14:41:12.996+02:00</time>
      <extensions>
        <activity type="STILL" conf="99" state="still" tsMs="1782909663713"/>
        <radio op="vodafone IT" rat="LTE" q="2.80" rsrp="-121" sinr="2" rsrq="-12"/>
        <radio op="I TIM" rat="LTE" q="2.00" rsrp="-121" sinr="0" rsrq="-12"/>
      </extensions>
    </trkpt>
    <trkpt lat="45.6237219" lon="10.4927687">
      <ele>281.3595762577841</ele>
      <time>2026-07-01T17:55:48.197+02:00</time>
      <extensions>
        <activity type="ON_FOOT" conf="75" state="moving" tsMs="1782921344263"/>
        <radio op="vodafone IT" rat="LTE" rsrp="-129" rsrq="-15"/>
        <radio op="I TIM" rat="LTE" rsrp="-121" rsrq="-13"/>
      </extensions>
    </trkpt>
    <trkpt lat="45.6237135" lon="10.4935099">
      <ele>281.9000244140625</ele>
      <time>2026-07-01T17:56:52.055+02:00</time>
      <extensions>
        <activity type="ON_FOOT" conf="96" state="moving" tsMs="1782921399995"/>
        <radio op="vodafone IT" rat="LTE" q="55.00" rsrp="-103" sinr="24" rsrq="-12"/>
        <radio op="I TIM" rat="LTE" q="17.60" rsrp="-109" sinr="6" rsrq="-12"/>
      </extensions>
    </trkpt>
    <trkpt lat="45.6236449" lon="10.4934577">
      <ele>278.20001220703125</ele>
      <time>2026-07-01T17:57:22.682+02:00</time>
      <extensions>
        <activity type="UNKNOWN" conf="40" state="unknown" tsMs="1782921439630"/>
        <radio op="vodafone IT" rat="LTE" rsrp="-121" rsrq="-12"/>
        <radio op="I TIM" rat="LTE" q="11.00" rsrp="-115" sinr="6" rsrq="-14"/>
      </extensions>
    </trkpt>
    <trkpt lat="45.6216613" lon="10.4885298">
      <ele>278.20001220703125</ele>
      <time>2026-07-01T17:57:53.37+02:00</time>
      <extensions>
        <activity type="IN_VEHICLE" conf="87" state="moving" tsMs="1782921445937"/>
        <radio op="vodafone IT" rat="LTE" q="9.60" rsrp="-109" sinr="1" rsrq="-14"/>
        <radio op="I TIM" rat="LTE" rsrp="-115" rsrq="-17"/>
      </extensions>
    </trkpt>
    <trkpt lat="45.6200157" lon="10.4848814">
      <ele>278.20001220703125</ele>
      <time>2026-07-01T17:58:13.37+02:00</time>
      <extensions>
        <activity type="IN_VEHICLE" conf="85" state="moving" tsMs="1782921489948"/>
        <radio op="vodafone IT" rat="LTE" rsrp="-115" rsrq="-14"/>
        <radio op="I TIM" rat="LTE" rsrp="-119" rsrq="-14"/>
      </extensions>
    </trkpt>
    <trkpt lat="45.6190978" lon="10.4835673">
      <ele>278.20001220703125</ele>
      <time>2026-07-01T17:58:23.37+02:00</time>
      <extensions>
        <activity type="IN_VEHICLE" conf="85" state="moving" tsMs="1782921500749"/>
        <radio op="vodafone IT" rat="LTE" q="36.00" rsrp="-101" sinr="10" rsrq="-11"/>
        <radio op="I TIM" rat="LTE" q="3.50" rsrp="-118" sinr="0" rsrq="-16"/>
      </extensions>
    </trkpt>
    <trkpt lat="45.617398" lon="10.4833429">
      <ele>278.20001220703125</ele>
      <time>2026-07-01T17:58:34.37+02:00</time>
      <extensions>
        <activity type="IN_VEHICLE" conf="96" state="moving" tsMs="1782921511594"/>
        <radio op="vodafone IT" rat="LTE" q="15.30" rsrp="-108" sinr="4" rsrq="-11"/>
        <radio op="I TIM" rat="LTE" rsrp="-119" rsrq="-10"/>
      </extensions>
    </trkpt>
    <trkpt lat="45.6161387" lon="10.4831532">
      <ele>278.20001220703125</ele>
      <time>2026-07-01T17:58:42.37+02:00</time>
      <extensions>
        <activity type="IN_VEHICLE" conf="85" state="moving" tsMs="1782921522405"/>
        <radio op="vodafone IT" rat="LTE" q="27.00" rsrp="-107" sinr="10" rsrq="-12"/>
        <radio op="I TIM" rat="LTE" rsrp="-119" rsrq="-16"/>
      </extensions>
    </trkpt>
    <trkpt lat="45.6120607" lon="10.481293">
      <ele>270.20001220703125</ele>
      <time>2026-07-01T17:59:15.298+02:00</time>
      <extensions>
        <activity type="IN_VEHICLE" conf="86" state="moving" tsMs="1782921526474"/>
        <radio op="vodafone IT" rat="LTE" q="19.00" rsrp="-106" sinr="5" rsrq="-11"/>
        <radio op="I TIM" rat="LTE" q="10.80" rsrp="-113" sinr="4" rsrq="-14"/>
      </extensions>
    </trkpt>
    <trkpt lat="45.6119667" lon="10.4808331">
      <ele>270.20001220703125</ele>
      <time>2026-07-01T17:59:21.37+02:00</time>
      <extensions>
        <activity type="UNKNOWN" conf="40" state="unknown" tsMs="1782921547944"/>
        <radio op="vodafone IT" rat="LTE" q="1.60" rsrp="-123" sinr="3" rsrq="-14"/>
        <radio op="I TIM" rat="LTE" q="7.00" rsrp="-111" sinr="0" rsrq="-14"/>
      </extensions>
    </trkpt>
    <trkpt lat="45.6089119" lon="10.4766075">
      <ele>270.20001220703125</ele>
      <time>2026-07-01T17:59:59.37+02:00</time>
      <extensions>
        <activity type="IN_VEHICLE" conf="81" state="moving" tsMs="1782921607217"/>
        <radio op="vodafone IT" rat="LTE" q="46.00" rsrp="-102" sinr="15" rsrq="-10"/>
        <radio op="I TIM" rat="LTE" q="88.80" rsrp="-88" sinr="19" rsrq="-11"/>
      </extensions>
    </trkpt>
    <trkpt lat="45.606153" lon="10.4677119">
      <ele>270.20001220703125</ele>
      <time>2026-07-01T18:00:48.37+02:00</time>
      <extensions>
        <activity type="UNKNOWN" conf="40" state="unknown" tsMs="1782921643133"/>
        <radio op="vodafone IT" rat="LTE" q="100.00" rsrp="-83" sinr="30" rsrq="-7"/>
        <radio op="I TIM" rat="LTE" rsrp="-76" rsrq="-11"/>
      </extensions>
    </trkpt>
    <trkpt lat="45.6045593" lon="10.4633402">
      <ele>267.4000244140625</ele>
      <time>2026-07-01T18:01:21.297+02:00</time>
      <extensions>
        <activity type="UNKNOWN" conf="40" state="unknown" tsMs="1782921676364"/>
        <radio op="vodafone IT" rat="LTE" q="74.40" rsrp="-94" sinr="19" rsrq="-9"/>
        <radio op="I TIM" rat="LTE" q="10.00" rsrp="-115" sinr="5" rsrq="-15"/>
      </extensions>
    </trkpt>
    <trkpt lat="45.6037219" lon="10.4586807">
      <ele>267.70001220703125</ele>
      <time>2026-07-01T18:01:59.627+02:00</time>
      <extensions>
        <activity type="UNKNOWN" conf="40" state="unknown" tsMs="1782921698033"/>
        <radio op="vodafone IT" rat="LTE" q="100.00" rsrp="-84" sinr="26" rsrq="-9"/>
        <radio op="I TIM" rat="LTE" q="62.40" rsrp="-86" sinr="11" rsrq="-13"/>
      </extensions>
    </trkpt>
    <trkpt lat="45.6033148" lon="10.4580625">
      <ele>267.4000244140625</ele>
      <time>2026-07-01T18:02:05.371+02:00</time>
      <extensions>
        <activity type="UNKNOWN" conf="40" state="unknown" tsMs="1782921745322"/>
        <radio op="vodafone IT" rat="LTE" rsrp="-109" rsrq="-11"/>
        <radio op="I TIM" rat="LTE" rsrp="-108" rsrq="-15"/>
      </extensions>
    </trkpt>
    <trkpt lat="45.601421" lon="10.4538106">
      <ele>260.70001220703125</ele>
      <time>2026-07-01T18:03:01.33+02:00</time>
      <extensions>
        <activity type="UNKNOWN" conf="40" state="unknown" tsMs="1782921778271"/>
        <radio op="vodafone IT" rat="LTE" q="30.00" rsrp="-100" sinr="7" rsrq="-13"/>
        <radio op="I TIM" rat="LTE" q="9.60" rsrp="-109" sinr="1" rsrq="-13"/>
      </extensions>
    </trkpt>
    <trkpt lat="45.6021088" lon="10.4534626">
      <ele>261.8000183105469</ele>
      <time>2026-07-01T18:03:36.921+02:00</time>
      <extensions>
        <activity type="IN_VEHICLE" conf="88" state="moving" tsMs="1782921813276"/>
        <radio op="vodafone IT" rat="LTE" q="27.20" rsrp="-109" sinr="12" rsrq="-12"/>
        <radio op="I TIM" rat="LTE" rsrp="-108" rsrq="-16"/>
      </extensions>
    </trkpt>
    <trkpt lat="45.6023285" lon="10.4535993">
      <ele>261.70001220703125</ele>
      <time>2026-07-01T18:04:11.965+02:00</time>
      <extensions>
        <activity type="ON_FOOT" conf="91" state="moving" tsMs="1782921847637"/>
        <radio op="vodafone IT" rat="LTE" q="11.70" rsrp="-112" sinr="4" rsrq="-10"/>
        <radio op="I TIM" rat="LTE" q="37.40" rsrp="-103" sinr="12" rsrq="-12"/>
      </extensions>
    </trkpt>
    <trkpt lat="45.6024197" lon="10.453693">
      <ele>261.6000061035156</ele>
      <time>2026-07-01T18:04:22.371+02:00</time>
      <extensions>
        <activity type="ON_FOOT" conf="97" state="moving" tsMs="1782921857521"/>
        <radio op="vodafone IT" rat="LTE" q="14.40" rsrp="-109" sinr="4" rsrq="-13"/>
        <radio op="I TIM" rat="LTE" q="24.20" rsrp="-103" sinr="6" rsrq="-12"/>
      </extensions>
    </trkpt>
    <trkpt lat="45.602537" lon="10.453666">
      <ele>261.6000061035156</ele>
      <time>2026-07-01T18:04:57.886+02:00</time>
      <extensions>
        <activity type="ON_FOOT" conf="85" state="moving" tsMs="1782921894646"/>
        <radio op="vodafone IT" rat="LTE" rsrp="-119" rsrq="-18"/>
        <radio op="I TIM" rat="LTE" rsrp="-118" rsrq="-13"/>
      </extensions>
    </trkpt>
    <trkpt lat="45.6025363" lon="10.453666">
      <ele>261.6000061035156</ele>
      <time>2026-07-01T18:05:29.516+02:00</time>
      <extensions>
        <activity type="UNKNOWN" conf="40" state="unknown" tsMs="1782921928820"/>
        <radio op="vodafone IT" rat="LTE" q="9.60" rsrp="-113" sinr="3" rsrq="-13"/>
        <radio op="I TIM" rat="LTE" q="2.70" rsrp="-122" sinr="4" rsrq="-13"/>
      </extensions>
    </trkpt>
    <trkpt lat="45.6025439" lon="10.4536611">
      <ele>261.6000061035156</ele>
      <time>2026-07-01T18:06:00.939+02:00</time>
      <extensions>
        <activity type="UNKNOWN" conf="40" state="unknown" tsMs="1782921960503"/>
        <radio op="vodafone IT" rat="LTE" rsrp="-120" rsrq="-15"/>
        <radio op="I TIM" rat="LTE" q="5.00" rsrp="-115" sinr="0" rsrq="-12"/>
      </extensions>
    </trkpt>
    <trkpt lat="45.6025349" lon="10.4536678">
      <ele>261.6000061035156</ele>
      <time>2026-07-01T18:06:32.505+02:00</time>
      <extensions>
        <activity type="UNKNOWN" conf="40" state="unknown" tsMs="1782921991947"/>
        <radio op="vodafone IT" rat="LTE" q="11.70" rsrp="-112" sinr="4" rsrq="-12"/>
        <radio op="I TIM" rat="LTE" rsrp="-111" rsrq="-13"/>
      </extensions>
    </trkpt>
    <trkpt lat="45.6025414" lon="10.4536642">
      <ele>259.8636751472707</ele>
      <time>2026-07-01T18:07:04.088+02:00</time>
      <extensions>
        <activity type="UNKNOWN" conf="40" state="unknown" tsMs="1782922023425"/>
        <radio op="vodafone IT" rat="LTE" q="6.30" rsrp="-116" sinr="2" rsrq="-14"/>
        <radio op="I TIM" rat="LTE" q="17.60" rsrp="-109" sinr="6" rsrq="-11"/>
      </extensions>
    </trkpt>
    <trkpt lat="45.6025427" lon="10.4536646">
      <ele>261.6000061035156</ele>
      <time>2026-07-01T18:07:35.72+02:00</time>
      <extensions>
        <activity type="UNKNOWN" conf="40" state="unknown" tsMs="1782922055095"/>
        <radio op="vodafone IT" rat="LTE" q="3.50" rsrp="-118" sinr="0" rsrq="-13"/>
        <radio op="I TIM" rat="LTE" q="9.00" rsrp="-116" sinr="5" rsrq="-14"/>
      </extensions>
    </trkpt>
    <trkpt lat="45.6025356" lon="10.4536664">
      <ele>259.94847734518896</ele>
      <time>2026-07-01T18:08:07.226+02:00</time>
      <extensions>
        <activity type="UNKNOWN" conf="40" state="unknown" tsMs="1782922086661"/>
        <radio op="vodafone IT" rat="LTE" q="7.70" rsrp="-114" sinr="2" rsrq="-14"/>
        <radio op="I TIM" rat="LTE" q="25.50" rsrp="-110" sinr="12" rsrq="-13"/>
      </extensions>
    </trkpt>
    <trkpt lat="45.6025378" lon="10.4536709">
      <ele>261.6000061035156</ele>
      <time>2026-07-01T18:31:19.098+02:00</time>
      <extensions>
        <activity type="ON_FOOT" conf="82" state="moving" tsMs="1782923471603"/>
        <radio op="vodafone IT" rat="LTE" q="6.60" rsrp="-114" sinr="1" rsrq="-13"/>
        <radio op="I TIM" rat="LTE" q="17.60" rsrp="-109" sinr="6" rsrq="-11"/>
      </extensions>
    </trkpt>
    <trkpt lat="45.6025401" lon="10.4536519">
      <ele>261.6000061035156</ele>
      <time>2026-07-01T18:31:37.681+02:00</time>
      <extensions>
        <activity type="UNKNOWN" conf="40" state="unknown" tsMs="1782923495336"/>
        <radio op="vodafone IT" rat="LTE" q="6.60" rsrp="-114" sinr="1" rsrq="-14"/>
        <radio op="I TIM" rat="LTE" q="18.70" rsrp="-108" sinr="6" rsrq="-11"/>
      </extensions>
    </trkpt>
    <trkpt lat="45.6025424" lon="10.4536504">
      <ele>261.6000061035156</ele>
      <time>2026-07-01T18:31:48.428+02:00</time>
      <extensions>
        <activity type="STILL" conf="56" state="still" tsMs="1782923500736"/>
        <radio op="vodafone IT" rat="LTE" q="6.00" rsrp="-115" sinr="1" rsrq="-12"/>
        <radio op="I TIM" rat="LTE" q="24.00" rsrp="-109" sinr="10" rsrq="-11"/>
      </extensions>
    </trkpt>
    <trkpt lat="45.6024901" lon="10.4536694">
      <ele>261.6000061035156</ele>
      <time>2026-07-01T18:31:58.398+02:00</time>
      <extensions>
        <activity type="STILL" conf="56" state="still" tsMs="1782923500736"/>
        <radio op="vodafone IT" rat="LTE" q="7.20" rsrp="-117" sinr="4" rsrq="-13"/>
        <radio op="I TIM" rat="LTE" q="9.60" rsrp="-109" sinr="1" rsrq="-12"/>
      </extensions>
    </trkpt>
    <trkpt lat="45.602505" lon="10.4536732">
      <ele>261.6000061035156</ele>
      <time>2026-07-01T18:32:06.912+02:00</time>
      <extensions>
        <activity type="UNKNOWN" conf="40" state="unknown" tsMs="1782923524524"/>
        <radio op="vodafone IT" rat="LTE" q="4.50" rsrp="-116" sinr="0" rsrq="-12"/>
        <radio op="I TIM" rat="LTE" q="9.00" rsrp="-115" sinr="4" rsrq="-14"/>
      </extensions>
    </trkpt>
    <trkpt lat="45.6024969" lon="10.4536705">
      <ele>261.6000061035156</ele>
      <time>2026-07-01T18:32:17.867+02:00</time>
      <extensions>
        <activity type="UNKNOWN" conf="40" state="unknown" tsMs="1782923529890"/>
        <radio op="vodafone IT" rat="LTE" q="7.20" rsrp="-113" sinr="1" rsrq="-13"/>
        <radio op="I TIM" rat="LTE" q="3.60" rsrp="-119" sinr="1" rsrq="-11"/>
      </extensions>
    </trkpt>
    <trkpt lat="45.6024987" lon="10.4536679">
      <ele>261.6000061035156</ele>
      <time>2026-07-01T18:32:28.864+02:00</time>
      <extensions>
        <activity type="UNKNOWN" conf="40" state="unknown" tsMs="1782923529890"/>
        <radio op="vodafone IT" rat="LTE" q="21.00" rsrp="-111" sinr="10" rsrq="-11"/>
        <radio op="I TIM" rat="LTE" q="4.00" rsrp="-121" sinr="5" rsrq="-10"/>
      </extensions>
    </trkpt>
    <trkpt lat="45.6025149" lon="10.4536694">
      <ele>261.6000061035156</ele>
      <time>2026-07-01T18:32:31.982+02:00</time>
      <extensions>
        <activity type="UNKNOWN" conf="40" state="unknown" tsMs="1782923559073"/>
        <radio op="vodafone IT" rat="LTE" q="20.40" rsrp="-108" sinr="7" rsrq="-11"/>
        <radio op="I TIM" rat="LTE" q="14.00" rsrp="-111" sinr="5" rsrq="-14"/>
      </extensions>
    </trkpt>
    <trkpt lat="45.602541" lon="10.4536747">
      <ele>261.6000061035156</ele>
      <time>2026-07-01T18:32:48.588+02:00</time>
      <extensions>
        <activity type="UNKNOWN" conf="40" state="unknown" tsMs="1782923559073"/>
        <radio op="vodafone IT" rat="LTE" q="19.60" rsrp="-111" sinr="9" rsrq="-12"/>
        <radio op="I TIM" rat="LTE" rsrp="-108" rsrq="-13"/>
      </extensions>
    </trkpt>
    <trkpt lat="45.6025426" lon="10.4536727">
      <ele>261.6000061035156</ele>
      <time>2026-07-01T18:32:57.987+02:00</time>
      <extensions>
        <activity type="UNKNOWN" conf="40" state="unknown" tsMs="1782923564277"/>
        <radio op="vodafone IT" rat="LTE" q="21.60" rsrp="-107" sinr="7" rsrq="-10"/>
        <radio op="I TIM" rat="LTE" q="7.00" rsrp="-111" sinr="0" rsrq="-13"/>
      </extensions>
    </trkpt>
    <trkpt lat="45.6025427" lon="10.4536691">
      <ele>261.6000061035156</ele>
      <time>2026-07-01T18:33:08.304+02:00</time>
      <extensions>
        <activity type="UNKNOWN" conf="40" state="unknown" tsMs="1782923588311"/>
        <radio op="vodafone IT" rat="LTE" q="6.30" rsrp="-118" sinr="4" rsrq="-12"/>
        <radio op="I TIM" rat="LTE" q="7.00" rsrp="-111" sinr="0" rsrq="-13"/>
      </extensions>
    </trkpt>
    <trkpt lat="45.6025423" lon="10.4536693">
      <ele>261.6000061035156</ele>
      <time>2026-07-01T18:33:09.727+02:00</time>
      <extensions>
        <activity type="UNKNOWN" conf="40" state="unknown" tsMs="1782923588311"/>
        <radio op="vodafone IT" rat="LTE" q="8.50" rsrp="-108" sinr="0" rsrq="-13"/>
        <radio op="I TIM" rat="LTE" q="21.00" rsrp="-110" sinr="9" rsrq="-12"/>
      </extensions>
    </trkpt>
    <trkpt lat="45.6025421" lon="10.4536744">
      <ele>261.6000061035156</ele>
      <time>2026-07-01T18:33:40.287+02:00</time>
      <extensions>
        <activity type="UNKNOWN" conf="40" state="unknown" tsMs="1782923615674"/>
        <radio op="vodafone IT" rat="LTE" q="9.60" rsrp="-109" sinr="1" rsrq="-13"/>
        <radio op="I TIM" rat="LTE" rsrp="-109" rsrq="-16"/>
      </extensions>
    </trkpt>
    <trkpt lat="45.6025435" lon="10.4536735">
      <ele>261.6000061035156</ele>
      <time>2026-07-01T18:34:11.816+02:00</time>
      <extensions>
        <activity type="STILL" conf="96" state="still" tsMs="1782923648011"/>
        <radio op="vodafone IT" rat="LTE" q="17.10" rsrp="-106" sinr="4" rsrq="-10"/>
        <radio op="I TIM" rat="LTE" rsrp="-110" rsrq="-15"/>
      </extensions>
    </trkpt>
    <trkpt lat="45.6025375" lon="10.4536708">
      <ele>261.6000061035156</ele>
      <time>2026-07-01T18:34:39.119+02:00</time>
      <extensions>
        <activity type="STILL" conf="99" state="still" tsMs="1782923679485"/>
        <radio op="vodafone IT" rat="LTE" q="15.00" rsrp="-110" sinr="5" rsrq="-11"/>
        <radio op="I TIM" rat="LTE" q="3.00" rsrp="-119" sinr="0" rsrq="-13"/>
      </extensions>
    </trkpt>
    <trkpt lat="45.6025416" lon="10.4536687">
      <ele>261.6000061035156</ele>
      <time>2026-07-01T19:28:59.185+02:00</time>
      <extensions>
        <activity type="IN_VEHICLE" conf="85" state="moving" tsMs="1782926937006"/>
        <radio op="vodafone IT" rat="LTE" q="19.80" rsrp="-114" sinr="13" rsrq="-10"/>
        <radio op="I TIM" rat="LTE" rsrp="-121" rsrq="-14"/>
      </extensions>
    </trkpt>
    <trkpt lat="45.6025401" lon="10.4536693">
      <ele>261.6000061035156</ele>
      <time>2026-07-01T19:30:19.162+02:00</time>
      <extensions>
        <activity type="STILL" conf="99" state="still" tsMs="1782927013763"/>
        <radio op="vodafone IT" rat="LTE" q="14.30" rsrp="-114" sinr="8" rsrq="-11"/>
        <radio op="I TIM" rat="LTE" q="5.00" rsrp="-115" sinr="0" rsrq="-15"/>
      </extensions>
    </trkpt>
    <trkpt lat="45.6025396" lon="10.45367">
      <ele>261.6000061035156</ele>
      <time>2026-07-01T19:31:41.504+02:00</time>
      <extensions>
        <activity type="STILL" conf="99" state="still" tsMs="1782927101337"/>
        <radio op="vodafone IT" rat="LTE" q="10.00" rsrp="-115" sinr="5" rsrq="-10"/>
        <radio op="I TIM" rat="LTE" rsrp="-115" rsrq="-12"/>
      </extensions>
    </trkpt>
    <trkpt lat="45.6025348" lon="10.4536684">
      <ele>261.6000061035156</ele>
      <time>2026-07-01T21:52:12.882+02:00</time>
      <extensions>
        <activity type="ON_FOOT" conf="81" state="moving" tsMs="1782935537198"/>
        <radio op="vodafone IT" rat="LTE" q="10.80" rsrp="-119" sinr="13" rsrq="-13"/>
        <radio op="I TIM" rat="LTE" q="5.00" rsrp="-115" sinr="0" rsrq="-14"/>
      </extensions>
    </trkpt>
    <trkpt lat="45.6025326" lon="10.4536684">
      <ele>261.6000061035156</ele>
      <time>2026-07-01T21:52:48.174+02:00</time>
      <extensions>
        <activity type="UNKNOWN" conf="40" state="unknown" tsMs="1782935563313"/>
        <radio op="vodafone IT" rat="LTE" q="9.00" rsrp="-116" sinr="5" rsrq="-13"/>
        <radio op="I TIM" rat="LTE" q="11.70" rsrp="-112" sinr="4" rsrq="-15"/>
      </extensions>
    </trkpt>
    <trkpt lat="45.6025383" lon="10.453672">
      <ele>261.6000061035156</ele>
      <time>2026-07-01T21:53:27.437+02:00</time>
      <extensions>
        <activity type="STILL" conf="54" state="still" tsMs="1782935601840"/>
        <radio op="vodafone IT" rat="LTE" rsrp="-112" rsrq="-11"/>
        <radio op="I TIM" rat="LTE" q="4.20" rsrp="-118" sinr="1" rsrq="-15"/>
      </extensions>
    </trkpt>
    <trkpt lat="45.6025382" lon="10.453672">
      <ele>261.6000061035156</ele>
      <time>2026-07-01T21:54:17.772+02:00</time>
      <extensions>
        <activity type="STILL" conf="99" state="still" tsMs="1782935654786"/>
        <radio op="vodafone IT" rat="LTE" rsrp="-112" rsrq="-10"/>
        <radio op="I TIM" rat="LTE" q="6.40" rsrp="-117" sinr="3" rsrq="-15"/>
      </extensions>
    </trkpt>
    <trkpt lat="45.6025379" lon="10.4536723">
      <ele>261.6000061035156</ele>
      <time>2026-07-01T21:55:06.028+02:00</time>
      <extensions>
        <activity type="STILL" conf="99" state="still" tsMs="1782935699472"/>
        <radio op="vodafone IT" rat="LTE" rsrp="-112" rsrq="-10"/>
        <radio op="I TIM" rat="LTE" q="4.20" rsrp="-118" sinr="1" rsrq="-14"/>
      </extensions>
    </trkpt>
  </trkseg></trk>
</gpx>
