<?xml version="1.0" encoding="UTF-8"?>
<gpx version="1.1" creator="CellGPX" xmlns="http://www.topografix.com/GPX/1/1">
  <trk><name>CellGPX</name><trkseg>
    <trkpt lat="45.6025897" lon="10.4537399">
      <ele>261.5</ele>
      <time>2026-09-08T09:07:44.73+02:00</time>
      <extensions>
        <activity type="STILL" conf="99" state="still" tsMs="1788851259268"/>
        <radio op="vodafone IT" rat="LTE" q="22.40" rsrp="-111" sinr="11" rsrq="-6"/>
        <radio op="I TIM" rat="LTE" q="12.60" rsrp="-116" sinr="9" rsrq="-8"/>
      </extensions>
    </trkpt>
    <trkpt lat="45.6025705" lon="10.4537042">
      <ele>261.5</ele>
      <time>2026-09-08T09:08:16.111+02:00</time>
      <extensions>
        <activity type="STILL" conf="98" state="still" tsMs="1788851285767"/>
        <radio op="vodafone IT" rat="LTE" q="30.60" rsrp="-108" sinr="13" rsrq="-7"/>
        <radio op="I TIM" rat="LTE" q="20.00" rsrp="-105" sinr="5" rsrq="-10"/>
      </extensions>
    </trkpt>
    <trkpt lat="45.6025955" lon="10.4537344">
      <ele>261.5</ele>
      <time>2026-09-08T09:08:50.601+02:00</time>
      <extensions>
        <activity type="IN_VEHICLE" conf="76" state="moving" tsMs="1788851328952"/>
        <radio op="vodafone IT" rat="LTE" q="50.60" rsrp="-103" sinr="18" rsrq="-8"/>
        <radio op="I TIM" rat="LTE" q="33.60" rsrp="-109" sinr="16" rsrq="-8"/>
      </extensions>
    </trkpt>
    <trkpt lat="45.6025557" lon="10.4536956">
      <ele>261.5</ele>
      <time>2026-09-08T09:08:55.276+02:00</time>
      <extensions>
        <activity type="IN_VEHICLE" conf="76" state="moving" tsMs="1788851328952"/>
        <radio op="vodafone IT" rat="LTE" q="44.00" rsrp="-103" sinr="15" rsrq="-8"/>
        <radio op="I TIM" rat="LTE" q="25.20" rsrp="-111" sinr="13" rsrq="-11"/>
      </extensions>
    </trkpt>
    <trkpt lat="45.6025715" lon="10.4537132">
      <ele>261.5</ele>
      <time>2026-09-08T09:09:32.112+02:00</time>
      <extensions>
        <activity type="STILL" conf="98" state="still" tsMs="1788851366892"/>
        <radio op="vodafone IT" rat="LTE" q="19.50" rsrp="-112" sinr="10" rsrq="-7"/>
        <radio op="I TIM" rat="LTE" q="8.80" rsrp="-114" sinr="3" rsrq="-12"/>
      </extensions>
    </trkpt>
    <trkpt lat="45.6026026" lon="10.4537478">
      <ele>261.5</ele>
      <time>2026-09-08T09:09:50.078+02:00</time>
      <extensions>
        <activity type="STILL" conf="100" state="still" tsMs="1788851393168"/>
        <radio op="vodafone IT" rat="LTE" q="28.50" rsrp="-110" sinr="14" rsrq="-8"/>
        <radio op="I TIM" rat="LTE" rsrp="-115" rsrq="-12"/>
      </extensions>
    </trkpt>
    <trkpt lat="45.602601" lon="10.4537027">
      <ele>261.5</ele>
      <time>2026-09-08T09:10:23.479+02:00</time>
      <extensions>
        <activity type="STILL" conf="99" state="still" tsMs="1788851422973"/>
        <radio op="vodafone IT" rat="LTE" q="27.00" rsrp="-110" sinr="13" rsrq="-9"/>
        <radio op="I TIM" rat="LTE" q="5.40" rsrp="-116" sinr="1" rsrq="-15"/>
      </extensions>
    </trkpt>
    <trkpt lat="45.6025694" lon="10.4537496">
      <ele>261.5</ele>
      <time>2026-09-08T09:10:54.866+02:00</time>
      <extensions>
        <activity type="STILL" conf="99" state="still" tsMs="1788851451013"/>
        <radio op="vodafone IT" rat="LTE" q="28.50" rsrp="-110" sinr="14" rsrq="-8"/>
        <radio op="I TIM" rat="LTE" q="22.10" rsrp="-112" sinr="12" rsrq="-14"/>
      </extensions>
    </trkpt>
    <trkpt lat="45.6026005" lon="10.453707">
      <ele>261.5</ele>
      <time>2026-09-08T09:11:26.375+02:00</time>
      <extensions>
        <activity type="STILL" conf="99" state="still" tsMs="1788851481195"/>
        <radio op="vodafone IT" rat="LTE" q="27.00" rsrp="-110" sinr="13" rsrq="-10"/>
        <radio op="I TIM" rat="LTE" q="23.40" rsrp="-112" sinr="13" rsrq="-9"/>
      </extensions>
    </trkpt>
    <trkpt lat="45.6026076" lon="10.4537054">
      <ele>261.5</ele>
      <time>2026-09-08T09:11:57.916+02:00</time>
      <extensions>
        <activity type="STILL" conf="99" state="still" tsMs="1788851512690"/>
        <radio op="vodafone IT" rat="LTE" q="26.60" rsrp="-111" sinr="14" rsrq="-8"/>
        <radio op="I TIM" rat="LTE" q="22.10" rsrp="-112" sinr="12" rsrq="-11"/>
      </extensions>
    </trkpt>
    <trkpt lat="45.6040846" lon="10.4593407">
      <ele>264.3000183105469</ele>
      <time>2026-09-08T11:07:15.014+02:00</time>
      <extensions>
        <activity type="UNKNOWN" conf="40" state="unknown" tsMs="1788858434504"/>
        <radio op="vodafone IT" rat="LTE" q="55.20" rsrp="-102" sinr="19" rsrq="-7"/>
        <radio op="I TIM" rat="LTE" q="57.50" rsrp="-102" sinr="22" rsrq="-9"/>
      </extensions>
    </trkpt>
    <trkpt lat="45.6041042" lon="10.4593425">
      <ele>264.3000183105469</ele>
      <time>2026-09-08T11:07:46.282+02:00</time>
      <extensions>
        <activity type="UNKNOWN" conf="40" state="unknown" tsMs="1788858460414"/>
        <radio op="vodafone IT" rat="LTE" q="72.50" rsrp="-96" sinr="21" rsrq="-8"/>
        <radio op="I TIM" rat="LTE" q="70.00" rsrp="-97" sinr="20" rsrq="-7"/>
      </extensions>
    </trkpt>
    <trkpt lat="45.6041437" lon="10.4593194">
      <ele>264.3000183105469</ele>
      <time>2026-09-08T11:08:17.437+02:00</time>
      <extensions>
        <activity type="STILL" conf="53" state="still" tsMs="1788858491582"/>
        <radio op="vodafone IT" rat="LTE" q="75.00" rsrp="-95" sinr="20" rsrq="-12"/>
        <radio op="I TIM" rat="LTE" q="70.00" rsrp="-97" sinr="21" rsrq="-10"/>
      </extensions>
    </trkpt>
    <trkpt lat="45.6041239" lon="10.4593347">
      <ele>264.3000183105469</ele>
      <time>2026-09-08T11:08:48.643+02:00</time>
      <extensions>
        <activity type="STILL" conf="91" state="still" tsMs="1788858525026"/>
        <radio op="vodafone IT" rat="LTE" q="69.60" rsrp="-96" sinr="19" rsrq="-10"/>
        <radio op="I TIM" rat="LTE" q="77.50" rsrp="-94" sinr="23" rsrq="-11"/>
      </extensions>
    </trkpt>
    <trkpt lat="45.6041126" lon="10.4593357">
      <ele>264.3000183105469</ele>
      <time>2026-09-08T11:09:19.93+02:00</time>
      <extensions>
        <activity type="STILL" conf="93" state="still" tsMs="1788858556293"/>
        <radio op="vodafone IT" rat="LTE" q="72.00" rsrp="-95" sinr="19" rsrq="-13"/>
        <radio op="I TIM" rat="LTE" q="75.00" rsrp="-95" sinr="22" rsrq="-12"/>
      </extensions>
    </trkpt>
    <trkpt lat="45.6041104" lon="10.4593386">
      <ele>264.3000183105469</ele>
      <time>2026-09-08T11:09:51.163+02:00</time>
      <extensions>
        <activity type="STILL" conf="98" state="still" tsMs="1788858586172"/>
        <radio op="vodafone IT" rat="LTE" q="69.60" rsrp="-96" sinr="19" rsrq="-12"/>
        <radio op="I TIM" rat="LTE" q="75.00" rsrp="-95" sinr="20" rsrq="-13"/>
      </extensions>
    </trkpt>
    <trkpt lat="45.6041204" lon="10.4593328">
      <ele>264.3000183105469</ele>
      <time>2026-09-08T11:10:22.226+02:00</time>
      <extensions>
        <activity type="STILL" conf="99" state="still" tsMs="1788858617548"/>
        <radio op="vodafone IT" rat="LTE" q="79.20" rsrp="-92" sinr="19" rsrq="-7"/>
        <radio op="I TIM" rat="LTE" q="69.00" rsrp="-95" sinr="18" rsrq="-8"/>
      </extensions>
    </trkpt>
    <trkpt lat="45.6047763" lon="10.4592306">
      <ele>269.5</ele>
      <time>2026-09-08T11:54:39.077+02:00</time>
      <extensions>
        <activity type="ON_FOOT" conf="87" state="moving" tsMs="1788861278563"/>
        <radio op="vodafone IT" rat="LTE" q="28.80" rsrp="-109" sinr="13" rsrq="-6"/>
        <radio op="I TIM" rat="LTE" q="32.30" rsrp="-108" sinr="14" rsrq="-8"/>
      </extensions>
    </trkpt>
    <trkpt lat="45.6047656" lon="10.4592362">
      <ele>264.3000183105469</ele>
      <time>2026-09-08T11:54:52.938+02:00</time>
      <extensions>
        <activity type="UNKNOWN" conf="40" state="unknown" tsMs="1788861282061"/>
        <radio op="vodafone IT" rat="LTE" q="32.30" rsrp="-108" sinr="14" rsrq="-8"/>
        <radio op="I TIM" rat="LTE" q="40.00" rsrp="-109" sinr="21" rsrq="-9"/>
      </extensions>
    </trkpt>
    <trkpt lat="45.6049566" lon="10.4594815">
      <ele>263.9000244140625</ele>
      <time>2026-09-08T11:55:03.303+02:00</time>
      <extensions>
        <activity type="UNKNOWN" conf="40" state="unknown" tsMs="1788861282061"/>
        <radio op="vodafone IT" rat="LTE" q="40.00" rsrp="-109" sinr="20" rsrq="-10"/>
        <radio op="I TIM" rat="LTE" q="31.50" rsrp="-104" sinr="10" rsrq="-10"/>
      </extensions>
    </trkpt>
    <trkpt lat="45.6048794" lon="10.4594175">
      <ele>264.4000244140625</ele>
      <time>2026-09-08T11:55:12.759+02:00</time>
      <extensions>
        <activity type="ON_FOOT" conf="88" state="moving" tsMs="1788861297402"/>
        <radio op="vodafone IT" rat="LTE" q="50.60" rsrp="-102" sinr="17" rsrq="-8"/>
        <radio op="I TIM" rat="LTE" q="41.80" rsrp="-106" sinr="17" rsrq="-9"/>
      </extensions>
    </trkpt>
    <trkpt lat="45.6048216" lon="10.4594106">
      <ele>264.3000183105469</ele>
      <time>2026-09-08T11:55:23.8+02:00</time>
      <extensions>
        <activity type="UNKNOWN" conf="40" state="unknown" tsMs="1788861312427"/>
        <radio op="vodafone IT" rat="LTE" q="46.00" rsrp="-105" sinr="18" rsrq="-7"/>
        <radio op="I TIM" rat="LTE" q="36.00" rsrp="-105" sinr="13" rsrq="-7"/>
      </extensions>
    </trkpt>
    <trkpt lat="45.6047668" lon="10.4593091">
      <ele>264.3000183105469</ele>
      <time>2026-09-08T11:55:33.903+02:00</time>
      <extensions>
        <activity type="UNKNOWN" conf="40" state="unknown" tsMs="1788861312427"/>
        <radio op="vodafone IT" rat="LTE" q="33.60" rsrp="-109" sinr="16" rsrq="-12"/>
        <radio op="I TIM" rat="LTE" q="35.70" rsrp="-104" sinr="12" rsrq="-10"/>
      </extensions>
    </trkpt>
    <trkpt lat="45.6047711" lon="10.4593016">
      <ele>264.4000244140625</ele>
      <time>2026-09-08T11:55:39.382+02:00</time>
      <extensions>
        <activity type="UNKNOWN" conf="40" state="unknown" tsMs="1788861327455"/>
        <radio op="vodafone IT" rat="LTE" q="30.00" rsrp="-110" sinr="15" rsrq="-8"/>
        <radio op="I TIM" rat="LTE" q="48.00" rsrp="-105" sinr="19" rsrq="-12"/>
      </extensions>
    </trkpt>
    <trkpt lat="45.6047791" lon="10.4593126">
      <ele>264.3000183105469</ele>
      <time>2026-09-08T11:55:53.498+02:00</time>
      <extensions>
        <activity type="UNKNOWN" conf="40" state="unknown" tsMs="1788861342479"/>
        <radio op="vodafone IT" rat="LTE" q="36.80" rsrp="-109" sinr="18" rsrq="-10"/>
        <radio op="I TIM" rat="LTE" q="38.00" rsrp="-106" sinr="15" rsrq="-10"/>
      </extensions>
    </trkpt>
    <trkpt lat="45.6047863" lon="10.4593272">
      <ele>264.3000183105469</ele>
      <time>2026-09-08T11:55:59.441+02:00</time>
      <extensions>
        <activity type="UNKNOWN" conf="40" state="unknown" tsMs="1788861342479"/>
        <radio op="vodafone IT" rat="LTE" q="18.70" rsrp="-114" sinr="12" rsrq="-10"/>
        <radio op="I TIM" rat="LTE" q="43.70" rsrp="-106" sinr="18" rsrq="-6"/>
      </extensions>
    </trkpt>
    <trkpt lat="45.6047964" lon="10.4593153">
      <ele>264.3000183105469</ele>
      <time>2026-09-08T11:56:12.917+02:00</time>
      <extensions>
        <activity type="UNKNOWN" conf="40" state="unknown" tsMs="1788861357512"/>
        <radio op="vodafone IT" rat="LTE" q="42.50" rsrp="-108" sinr="20" rsrq="-9"/>
        <radio op="I TIM" rat="LTE" q="30.40" rsrp="-109" sinr="14" rsrq="-10"/>
      </extensions>
    </trkpt>
    <trkpt lat="45.6047933" lon="10.4593106">
      <ele>264.4000244140625</ele>
      <time>2026-09-08T11:56:19.502+02:00</time>
      <extensions>
        <activity type="UNKNOWN" conf="40" state="unknown" tsMs="1788861372527"/>
        <radio op="vodafone IT" rat="LTE" q="12.00" rsrp="-117" sinr="10" rsrq="-11"/>
        <radio op="I TIM" rat="LTE" q="24.70" rsrp="-112" sinr="14" rsrq="-9"/>
      </extensions>
    </trkpt>
    <trkpt lat="45.604786" lon="10.4592996">
      <ele>264.4000244140625</ele>
      <time>2026-09-08T11:56:32.299+02:00</time>
      <extensions>
        <activity type="STILL" conf="100" state="still" tsMs="1788861387549"/>
        <radio op="vodafone IT" rat="LTE" q="10.40" rsrp="-117" sinr="8" rsrq="-11"/>
        <radio op="I TIM" rat="LTE" rsrp="-115" rsrq="-7"/>
      </extensions>
    </trkpt>
    <trkpt lat="45.6046379" lon="10.459172">
      <ele>264.4000244140625</ele>
      <time>2026-09-08T11:57:05.242+02:00</time>
      <extensions>
        <activity type="UNKNOWN" conf="40" state="unknown" tsMs="1788861422359"/>
        <radio op="vodafone IT" rat="LTE" q="19.00" rsrp="-115" sinr="14" rsrq="-8"/>
        <radio op="I TIM" rat="LTE" q="34.00" rsrp="-108" sinr="15" rsrq="-7"/>
      </extensions>
    </trkpt>
    <trkpt lat="45.604624" lon="10.4593696">
      <ele>264.3000183105469</ele>
      <time>2026-09-08T11:57:31.538+02:00</time>
      <extensions>
        <activity type="UNKNOWN" conf="40" state="unknown" tsMs="1788861450513"/>
        <radio op="vodafone IT" rat="LTE" q="55.20" rsrp="-101" sinr="18" rsrq="-7"/>
        <radio op="I TIM" rat="LTE" q="70.00" rsrp="-97" sinr="24" rsrq="-6"/>
      </extensions>
    </trkpt>
    <trkpt lat="45.6046912" lon="10.4591894">
      <ele>264.3000183105469</ele>
      <time>2026-09-08T11:57:58.04+02:00</time>
      <extensions>
        <activity type="UNKNOWN" conf="40" state="unknown" tsMs="1788861482483"/>
        <radio op="vodafone IT" rat="LTE" q="43.70" rsrp="-106" sinr="18" rsrq="-12"/>
        <radio op="I TIM" rat="LTE" q="60.00" rsrp="-101" sinr="23" rsrq="-7"/>
      </extensions>
    </trkpt>
    <trkpt lat="45.6046008" lon="10.4593236">
      <ele>264.3000183105469</ele>
      <time>2026-09-08T11:58:37.185+02:00</time>
      <extensions>
        <activity type="STILL" conf="61" state="still" tsMs="1788861511375"/>
        <radio op="vodafone IT" rat="LTE" q="50.00" rsrp="-105" sinr="20" rsrq="-10"/>
        <radio op="I TIM" rat="LTE" q="47.50" rsrp="-106" sinr="20" rsrq="-11"/>
      </extensions>
    </trkpt>
    <trkpt lat="45.6047453" lon="10.4593395">
      <ele>264.3000183105469</ele>
      <time>2026-09-08T11:59:08.238+02:00</time>
      <extensions>
        <activity type="UNKNOWN" conf="40" state="unknown" tsMs="1788861542472"/>
        <radio op="vodafone IT" rat="LTE" q="41.40" rsrp="-107" sinr="18" rsrq="-6"/>
        <radio op="I TIM" rat="LTE" q="47.50" rsrp="-106" sinr="21" rsrq="-7"/>
      </extensions>
    </trkpt>
    <trkpt lat="45.60474" lon="10.4593141">
      <ele>264.3000183105469</ele>
      <time>2026-09-08T11:59:39.381+02:00</time>
      <extensions>
        <activity type="STILL" conf="54" state="still" tsMs="1788861578879"/>
        <radio op="vodafone IT" rat="LTE" q="45.60" rsrp="-106" sinr="19" rsrq="-10"/>
        <radio op="I TIM" rat="LTE" q="45.60" rsrp="-106" sinr="19" rsrq="-10"/>
      </extensions>
    </trkpt>
    <trkpt lat="45.6046701" lon="10.4591629">
      <ele>264.3000183105469</ele>
      <time>2026-09-08T12:00:10.445+02:00</time>
      <extensions>
        <activity type="UNKNOWN" conf="40" state="unknown" tsMs="1788861604738"/>
        <radio op="vodafone IT" rat="LTE" q="39.60" rsrp="-107" sinr="17" rsrq="-9"/>
        <radio op="I TIM" rat="LTE" q="47.50" rsrp="-106" sinr="20" rsrq="-9"/>
      </extensions>
    </trkpt>
    <trkpt lat="45.604702" lon="10.4591724">
      <ele>264.3000183105469</ele>
      <time>2026-09-08T12:00:41.563+02:00</time>
      <extensions>
        <activity type="STILL" conf="74" state="still" tsMs="1788861637569"/>
        <radio op="vodafone IT" rat="LTE" q="50.00" rsrp="-105" sinr="21" rsrq="-7"/>
        <radio op="I TIM" rat="LTE" q="52.50" rsrp="-104" sinr="20" rsrq="-10"/>
      </extensions>
    </trkpt>
    <trkpt lat="45.6046898" lon="10.4592869">
      <ele>264.4000244140625</ele>
      <time>2026-09-08T12:01:12.721+02:00</time>
      <extensions>
        <activity type="UNKNOWN" conf="40" state="unknown" tsMs="1788861668782"/>
        <radio op="vodafone IT" rat="LTE" q="39.90" rsrp="-106" sinr="16" rsrq="-8"/>
        <radio op="I TIM" rat="LTE" q="45.00" rsrp="-107" sinr="20" rsrq="-11"/>
      </extensions>
    </trkpt>
    <trkpt lat="45.6047114" lon="10.4592643">
      <ele>264.4000244140625</ele>
      <time>2026-09-08T12:01:43.936+02:00</time>
      <extensions>
        <activity type="UNKNOWN" conf="40" state="unknown" tsMs="1788861699884"/>
        <radio op="vodafone IT" rat="LTE" q="48.40" rsrp="-103" sinr="17" rsrq="-8"/>
        <radio op="I TIM" rat="LTE" q="57.50" rsrp="-102" sinr="22" rsrq="-10"/>
      </extensions>
    </trkpt>
    <trkpt lat="45.6047087" lon="10.4592647">
      <ele>264.4000244140625</ele>
      <time>2026-09-08T12:02:15.121+02:00</time>
      <extensions>
        <activity type="STILL" conf="74" state="still" tsMs="1788861731118"/>
        <radio op="vodafone IT" rat="LTE" q="34.20" rsrp="-107" sinr="14" rsrq="-8"/>
        <radio op="I TIM" rat="LTE" q="65.00" rsrp="-99" sinr="21" rsrq="-11"/>
      </extensions>
    </trkpt>
    <trkpt lat="45.6046278" lon="10.4593746">
      <ele>264.3000183105469</ele>
      <time>2026-09-08T12:02:41.609+02:00</time>
      <extensions>
        <activity type="STILL" conf="98" state="still" tsMs="1788861762217"/>
        <radio op="vodafone IT" rat="LTE" q="34.00" rsrp="-105" sinr="12" rsrq="-7"/>
        <radio op="I TIM" rat="LTE" q="55.20" rsrp="-102" sinr="19" rsrq="-8"/>
      </extensions>
    </trkpt>
    <trkpt lat="45.6047383" lon="10.4593152">
      <ele>264.3000183105469</ele>
      <time>2026-09-08T12:03:16.777+02:00</time>
      <extensions>
        <activity type="UNKNOWN" conf="40" state="unknown" tsMs="1788861792436"/>
        <radio op="vodafone IT" rat="LTE" q="32.30" rsrp="-106" sinr="12" rsrq="-7"/>
        <radio op="I TIM" rat="LTE" q="45.60" rsrp="-101" sinr="14" rsrq="-10"/>
      </extensions>
    </trkpt>
    <trkpt lat="45.604734" lon="10.4593128">
      <ele>264.3000183105469</ele>
      <time>2026-09-08T12:03:18.721+02:00</time>
      <extensions>
        <activity type="UNKNOWN" conf="40" state="unknown" tsMs="1788861802487"/>
        <radio op="vodafone IT" rat="LTE" q="32.30" rsrp="-106" sinr="12" rsrq="-7"/>
        <radio op="I TIM" rat="LTE" q="57.60" rsrp="-101" sinr="19" rsrq="-9"/>
      </extensions>
    </trkpt>
    <trkpt lat="45.6046777" lon="10.4591011">
      <ele>264.4000244140625</ele>
      <time>2026-09-08T12:03:58.081+02:00</time>
      <extensions>
        <activity type="UNKNOWN" conf="40" state="unknown" tsMs="1788861834383"/>
        <radio op="vodafone IT" rat="LTE" q="34.20" rsrp="-106" sinr="13" rsrq="-7"/>
        <radio op="I TIM" rat="LTE" q="60.00" rsrp="-101" sinr="21" rsrq="-10"/>
      </extensions>
    </trkpt>
    <trkpt lat="45.6047502" lon="10.4593391">
      <ele>264.3000183105469</ele>
      <time>2026-09-08T12:04:29.173+02:00</time>
      <extensions>
        <activity type="STILL" conf="64" state="still" tsMs="1788861865194"/>
        <radio op="vodafone IT" rat="LTE" q="50.60" rsrp="-103" sinr="18" rsrq="-6"/>
        <radio op="I TIM" rat="LTE" q="60.00" rsrp="-101" sinr="21" rsrq="-10"/>
      </extensions>
    </trkpt>
    <trkpt lat="45.6047375" lon="10.4592684">
      <ele>264.3000183105469</ele>
      <time>2026-09-08T12:05:00.3+02:00</time>
      <extensions>
        <activity type="STILL" conf="85" state="still" tsMs="1788861896330"/>
        <radio op="vodafone IT" rat="LTE" q="57.50" rsrp="-100" sinr="18" rsrq="-8"/>
        <radio op="I TIM" rat="LTE" q="60.00" rsrp="-101" sinr="21" rsrq="-6"/>
      </extensions>
    </trkpt>
    <trkpt lat="45.6047154" lon="10.4593092">
      <ele>264.3000183105469</ele>
      <time>2026-09-08T12:05:31.33+02:00</time>
      <extensions>
        <activity type="UNKNOWN" conf="40" state="unknown" tsMs="1788861927446"/>
        <radio op="vodafone IT" rat="LTE" q="43.20" rsrp="-107" sinr="19" rsrq="-10"/>
        <radio op="I TIM" rat="LTE" q="50.60" rsrp="-103" sinr="18" rsrq="-8"/>
      </extensions>
    </trkpt>
    <trkpt lat="45.6046766" lon="10.459222">
      <ele>264.3000183105469</ele>
      <time>2026-09-08T12:06:02.451+02:00</time>
      <extensions>
        <activity type="STILL" conf="67" state="still" tsMs="1788861958553"/>
        <radio op="vodafone IT" rat="LTE" q="50.40" rsrp="-104" sinr="19" rsrq="-11"/>
        <radio op="I TIM" rat="LTE" q="55.00" rsrp="-103" sinr="22" rsrq="-9"/>
      </extensions>
    </trkpt>
    <trkpt lat="45.6046833" lon="10.4590084">
      <ele>264.3000183105469</ele>
      <time>2026-09-08T12:06:33.672+02:00</time>
      <extensions>
        <activity type="UNKNOWN" conf="40" state="unknown" tsMs="1788861989765"/>
        <radio op="vodafone IT" rat="LTE" q="34.20" rsrp="-106" sinr="13" rsrq="-9"/>
        <radio op="I TIM" rat="LTE" q="33.60" rsrp="-109" sinr="16" rsrq="-8"/>
      </extensions>
    </trkpt>
    <trkpt lat="45.6044762" lon="10.4588538">
      <ele>266.2102882287762</ele>
      <time>2026-09-08T12:06:59.752+02:00</time>
      <extensions>
        <activity type="ON_FOOT" conf="89" state="moving" tsMs="1788862021044"/>
        <radio op="vodafone IT" rat="LTE" q="55.00" rsrp="-103" sinr="21" rsrq="-9"/>
        <radio op="I TIM" rat="LTE" q="82.50" rsrp="-92" sinr="20" rsrq="-13"/>
      </extensions>
    </trkpt>
    <trkpt lat="45.6042418" lon="10.458202">
      <ele>264.20001220703125</ele>
      <time>2026-09-08T12:07:35.437+02:00</time>
      <extensions>
        <activity type="UNKNOWN" conf="40" state="unknown" tsMs="1788862051517"/>
        <radio op="vodafone IT" rat="LTE" q="39.90" rsrp="-106" sinr="16" rsrq="-9"/>
        <radio op="I TIM" rat="LTE" q="36.10" rsrp="-106" sinr="14" rsrq="-10"/>
      </extensions>
    </trkpt>
    <trkpt lat="45.6044077" lon="10.4585501">
      <ele>264.20001220703125</ele>
      <time>2026-09-08T12:08:06.649+02:00</time>
      <extensions>
        <activity type="UNKNOWN" conf="40" state="unknown" tsMs="1788862082698"/>
        <radio op="vodafone IT" rat="LTE" q="52.50" rsrp="-104" sinr="20" rsrq="-12"/>
        <radio op="I TIM" rat="LTE" q="55.00" rsrp="-103" sinr="20" rsrq="-12"/>
      </extensions>
    </trkpt>
    <trkpt lat="45.6044065" lon="10.4589921">
      <ele>264.3000183105469</ele>
      <time>2026-09-08T12:08:37.836+02:00</time>
      <extensions>
        <activity type="ON_FOOT" conf="96" state="moving" tsMs="1788862114065"/>
        <radio op="vodafone IT" rat="LTE" q="65.00" rsrp="-99" sinr="23" rsrq="-9"/>
        <radio op="I TIM" rat="LTE" q="85.00" rsrp="-91" sinr="23" rsrq="-8"/>
      </extensions>
    </trkpt>
    <trkpt lat="45.6044065" lon="10.4589921">
      <ele>261.09783496735076</ele>
      <time>2026-09-08T12:09:28.625+02:00</time>
      <extensions>
        <activity type="ON_FOOT" conf="97" state="moving" tsMs="1788862161912"/>
        <radio op="vodafone IT" rat="LTE" rsrp="-94" rsrq="-10"/>
        <radio op="I TIM" rat="LTE" q="62.50" rsrp="-100" sinr="24" rsrq="-12"/>
      </extensions>
    </trkpt>
    <trkpt lat="45.6044065" lon="10.4589921">
      <ele>261.09572045216305</ele>
      <time>2026-09-08T12:09:35.847+02:00</time>
      <extensions>
        <activity type="UNKNOWN" conf="40" state="unknown" tsMs="1788862184263"/>
        <radio op="vodafone IT" rat="LTE" q="33.00" rsrp="-110" sinr="17" rsrq="-8"/>
        <radio op="I TIM" rat="LTE" q="30.80" rsrp="-111" sinr="17" rsrq="-11"/>
      </extensions>
    </trkpt>
    <trkpt lat="45.6043422" lon="10.4575646">
      <ele>259.73196645857104</ele>
      <time>2026-09-08T12:10:18.264+02:00</time>
      <extensions>
        <activity type="IN_VEHICLE" conf="86" state="moving" tsMs="1788862217275"/>
        <radio op="vodafone IT" rat="LTE" q="34.50" rsrp="-102" sinr="10" rsrq="-8"/>
        <radio op="I TIM" rat="LTE" q="40.00" rsrp="-105" sinr="15" rsrq="-9"/>
      </extensions>
    </trkpt>
    <trkpt lat="45.6037072" lon="10.4575992">
      <ele>264.1000061035156</ele>
      <time>2026-09-08T12:10:38.614+02:00</time>
      <extensions>
        <activity type="UNKNOWN" conf="40" state="unknown" tsMs="1788862221315"/>
        <radio op="vodafone IT" rat="LTE" q="96.00" rsrp="-79" sinr="19" rsrq="-11"/>
        <radio op="I TIM" rat="LTE" q="92.00" rsrp="-81" sinr="18" rsrq="-8"/>
      </extensions>
    </trkpt>
    <trkpt lat="45.6035604" lon="10.4577002">
      <ele>264.1000061035156</ele>
      <time>2026-09-08T12:10:40.624+02:00</time>
      <extensions>
        <activity type="IN_VEHICLE" conf="81" state="moving" tsMs="1788862243736"/>
        <radio op="vodafone IT" rat="LTE" q="100.00" rsrp="-68" sinr="29" rsrq="-7"/>
        <radio op="I TIM" rat="LTE" q="100.00" rsrp="-77" sinr="24" rsrq="-7"/>
      </extensions>
    </trkpt>
    <trkpt lat="45.6044636" lon="10.4627312">
      <ele>267.4000244140625</ele>
      <time>2026-09-08T12:11:31.076+02:00</time>
      <extensions>
        <activity type="IN_VEHICLE" conf="97" state="moving" tsMs="1788862287442"/>
        <radio op="vodafone IT" rat="LTE" q="68.00" rsrp="-84" sinr="12" rsrq="-8"/>
        <radio op="I TIM" rat="LTE" rsrp="-90" rsrq="-11"/>
      </extensions>
    </trkpt>
    <trkpt lat="45.6049557" lon="10.4638148">
      <ele>267.4000244140625</ele>
      <time>2026-09-08T12:11:37.625+02:00</time>
      <extensions>
        <activity type="IN_VEHICLE" conf="97" state="moving" tsMs="1788862287442"/>
        <radio op="vodafone IT" rat="LTE" q="88.00" rsrp="-80" sinr="17" rsrq="-6"/>
        <radio op="I TIM" rat="LTE" rsrp="-101" rsrq="-11"/>
      </extensions>
    </trkpt>
    <trkpt lat="45.6048467" lon="10.4677347">
      <ele>272.31842707791986</ele>
      <time>2026-09-08T12:12:19.628+02:00</time>
      <extensions>
        <activity type="IN_VEHICLE" conf="97" state="moving" tsMs="1788862329544"/>
        <radio op="vodafone IT" rat="LTE" q="82.50" rsrp="-92" sinr="20" rsrq="-5"/>
        <radio op="I TIM" rat="LTE" q="72.60" rsrp="-92" sinr="17" rsrq="-8"/>
      </extensions>
    </trkpt>
    <trkpt lat="45.6123745" lon="10.4892744">
      <ele>244.4747887196702</ele>
      <time>2026-09-08T12:14:06.623+02:00</time>
      <extensions>
        <activity type="IN_VEHICLE" conf="97" state="moving" tsMs="1788862436857"/>
        <radio op="vodafone IT" rat="LTE" q="9.00" rsrp="-107" sinr="0" rsrq="-12"/>
        <radio op="I TIM" rat="LTE" q="17.60" rsrp="-103" sinr="3" rsrq="-14"/>
      </extensions>
    </trkpt>
    <trkpt lat="45.6098447" lon="10.4963531">
      <ele>211.73053550742873</ele>
      <time>2026-09-08T12:14:45.621+02:00</time>
      <extensions>
        <activity type="IN_VEHICLE" conf="96" state="moving" tsMs="1788862493360"/>
        <radio op="vodafone IT" rat="LTE" q="50.40" rsrp="-97" sinr="13" rsrq="-16"/>
        <radio op="I TIM" rat="LTE" rsrp="-106" rsrq="-17"/>
      </extensions>
    </trkpt>
    <trkpt lat="45.6099426" lon="10.4996019">
      <ele>194.98222066823638</ele>
      <time>2026-09-08T12:15:26.919+02:00</time>
      <extensions>
        <activity type="IN_VEHICLE" conf="97" state="moving" tsMs="1788862526353"/>
        <radio op="vodafone IT" rat="LTE" q="52.80" rsrp="-92" sinr="11" rsrq="-10"/>
        <radio op="I TIM" rat="LTE" q="18.50" rsrp="-88" sinr="0" rsrq="-14"/>
      </extensions>
    </trkpt>
    <trkpt lat="45.610048" lon="10.4994767">
      <ele>194.8597431713981</ele>
      <time>2026-09-08T12:15:31.929+02:00</time>
      <extensions>
        <activity type="IN_VEHICLE" conf="97" state="moving" tsMs="1788862526353"/>
        <radio op="vodafone IT" rat="LTE" q="24.00" rsrp="-101" sinr="5" rsrq="-12"/>
        <radio op="I TIM" rat="LTE" rsrp="-102" rsrq="-18"/>
      </extensions>
    </trkpt>
    <trkpt lat="45.609916" lon="10.4995971">
      <ele>197.40000915527344</ele>
      <time>2026-09-08T12:16:14.095+02:00</time>
      <extensions>
        <activity type="STILL" conf="55" state="still" tsMs="1788862572787"/>
        <radio op="vodafone IT" rat="LTE" q="62.00" rsrp="-94" sinr="15" rsrq="-10"/>
        <radio op="I TIM" rat="LTE" q="23.20" rsrp="-96" sinr="3" rsrq="-13"/>
      </extensions>
    </trkpt>
    <trkpt lat="45.6099103" lon="10.4995864">
      <ele>197.40000915527344</ele>
      <time>2026-09-08T12:16:45.379+02:00</time>
      <extensions>
        <activity type="UNKNOWN" conf="40" state="unknown" tsMs="1788862599743"/>
        <radio op="vodafone IT" rat="LTE" q="21.60" rsrp="-101" sinr="4" rsrq="-12"/>
        <radio op="I TIM" rat="LTE" q="24.20" rsrp="-103" sinr="6" rsrq="-11"/>
      </extensions>
    </trkpt>
    <trkpt lat="45.609916" lon="10.4996427">
      <ele>197.40000915527344</ele>
      <time>2026-09-08T12:17:16.605+02:00</time>
      <extensions>
        <activity type="ON_FOOT" conf="83" state="moving" tsMs="1788862632771"/>
        <radio op="vodafone IT" rat="LTE" q="58.90" rsrp="-94" sinr="14" rsrq="-10"/>
        <radio op="I TIM" rat="LTE" q="31.50" rsrp="-90" sinr="4" rsrq="-13"/>
      </extensions>
    </trkpt>
    <trkpt lat="45.6099594" lon="10.4996395">
      <ele>198.70315340975992</ele>
      <time>2026-09-08T12:17:47.9+02:00</time>
      <extensions>
        <activity type="STILL" conf="99" state="still" tsMs="1788862663994"/>
        <radio op="vodafone IT" rat="LTE" q="51.00" rsrp="-95" sinr="12" rsrq="-7"/>
        <radio op="I TIM" rat="LTE" q="24.80" rsrp="-94" sinr="3" rsrq="-15"/>
      </extensions>
    </trkpt>
    <trkpt lat="45.6099248" lon="10.4996152">
      <ele>198.81308443102395</ele>
      <time>2026-09-08T12:18:18.984+02:00</time>
      <extensions>
        <activity type="STILL" conf="79" state="still" tsMs="1788862695138"/>
        <radio op="vodafone IT" rat="LTE" q="19.50" rsrp="-86" sinr="0" rsrq="-10"/>
        <radio op="I TIM" rat="LTE" q="15.00" rsrp="-95" sinr="0" rsrq="-12"/>
      </extensions>
    </trkpt>
    <trkpt lat="45.6099137" lon="10.4995962">
      <ele>198.4782443738955</ele>
      <time>2026-09-08T12:18:50.5+02:00</time>
      <extensions>
        <activity type="STILL" conf="60" state="still" tsMs="1788862726059"/>
        <radio op="vodafone IT" rat="LTE" q="60.80" rsrp="-87" sinr="11" rsrq="-6"/>
        <radio op="I TIM" rat="LTE" q="36.00" rsrp="-95" sinr="7" rsrq="-14"/>
      </extensions>
    </trkpt>
    <trkpt lat="45.6098796" lon="10.499566">
      <ele>198.12047292401866</ele>
      <time>2026-09-08T12:19:21.646+02:00</time>
      <extensions>
        <activity type="STILL" conf="99" state="still" tsMs="1788862757631"/>
        <radio op="vodafone IT" rat="LTE" q="74.10" rsrp="-86" sinr="14" rsrq="-10"/>
        <radio op="I TIM" rat="LTE" q="24.00" rsrp="-85" sinr="1" rsrq="-14"/>
      </extensions>
    </trkpt>
    <trkpt lat="45.6098524" lon="10.499464">
      <ele>194.10000610351562</ele>
      <time>2026-09-08T13:10:51.619+02:00</time>
      <extensions>
        <activity type="UNKNOWN" conf="40" state="unknown" tsMs="1788865867897"/>
        <radio op="vodafone IT" rat="LTE" q="11.00" rsrp="-103" sinr="0" rsrq="-14"/>
        <radio op="I TIM" rat="LTE" q="15.00" rsrp="-95" sinr="0" rsrq="-13"/>
      </extensions>
    </trkpt>
    <trkpt lat="45.6099523" lon="10.4996568">
      <ele>197.40000915527344</ele>
      <time>2026-09-08T13:11:18.573+02:00</time>
      <extensions>
        <activity type="UNKNOWN" conf="40" state="unknown" tsMs="1788865878221"/>
        <radio op="vodafone IT" rat="LTE" q="27.30" rsrp="-104" sinr="8" rsrq="-12"/>
        <radio op="I TIM" rat="LTE" rsrp="-97" rsrq="-14"/>
      </extensions>
    </trkpt>
    <trkpt lat="45.6099" lon="10.4990811">
      <ele>194.10000610351562</ele>
      <time>2026-09-08T13:12:02.277+02:00</time>
      <extensions>
        <activity type="UNKNOWN" conf="40" state="unknown" tsMs="1788865916904"/>
        <radio op="vodafone IT" rat="LTE" q="14.40" rsrp="-113" sinr="7" rsrq="-11"/>
        <radio op="I TIM" rat="LTE" rsrp="-110" rsrq="-12"/>
      </extensions>
    </trkpt>
    <trkpt lat="45.6108113" lon="10.5008879">
      <ele>186.9774532736036</ele>
      <time>2026-09-08T13:12:53.618+02:00</time>
      <extensions>
        <activity type="IN_VEHICLE" conf="82" state="moving" tsMs="1788865966508"/>
        <radio op="vodafone IT" rat="LTE" q="22.00" rsrp="-105" sinr="6" rsrq="-10"/>
        <radio op="I TIM" rat="LTE" q="11.20" rsrp="-111" sinr="3" rsrq="-16"/>
      </extensions>
    </trkpt>
    <trkpt lat="45.6110893" lon="10.495622">
      <ele>213.85658133697953</ele>
      <time>2026-09-08T13:13:49.203+02:00</time>
      <extensions>
        <activity type="IN_VEHICLE" conf="95" state="moving" tsMs="1788866025460"/>
        <radio op="vodafone IT" rat="LTE" q="80.00" rsrp="-93" sinr="25" rsrq="-9"/>
        <radio op="I TIM" rat="LTE" rsrp="-115" rsrq="-15"/>
      </extensions>
    </trkpt>
    <trkpt lat="45.6110972" lon="10.4956199">
      <ele>213.85658133697953</ele>
      <time>2026-09-08T13:13:55.618+02:00</time>
      <extensions>
        <activity type="STILL" conf="99" state="still" tsMs="1788866044946"/>
        <radio op="vodafone IT" rat="LTE" q="77.50" rsrp="-94" sinr="24" rsrq="-10"/>
        <radio op="I TIM" rat="LTE" rsrp="-116" rsrq="-15"/>
      </extensions>
    </trkpt>
    <trkpt lat="45.6146663" lon="10.4972308">
      <ele>222.8996240158291</ele>
      <time>2026-09-08T13:14:47.618+02:00</time>
      <extensions>
        <activity type="IN_VEHICLE" conf="92" state="moving" tsMs="1788866084461"/>
        <radio op="vodafone IT" rat="LTE" q="64.40" rsrp="-97" sinr="18" rsrq="-10"/>
        <radio op="I TIM" rat="LTE" q="28.60" rsrp="-103" sinr="8" rsrq="-12"/>
      </extensions>
    </trkpt>
    <trkpt lat="45.6177198" lon="10.493886">
      <ele>220.602679283323</ele>
      <time>2026-09-08T13:15:55.215+02:00</time>
      <extensions>
        <activity type="IN_VEHICLE" conf="90" state="moving" tsMs="1788866143879"/>
        <radio op="vodafone IT" rat="LTE" q="9.50" rsrp="-106" sinr="0" rsrq="-12"/>
        <radio op="I TIM" rat="LTE" q="30.40" rsrp="-106" sinr="11" rsrq="-12"/>
      </extensions>
    </trkpt>
    <trkpt lat="45.6174601" lon="10.493467">
      <ele>220.60689329906668</ele>
      <time>2026-09-08T13:16:01.618+02:00</time>
      <extensions>
        <activity type="IN_VEHICLE" conf="86" state="moving" tsMs="1788866171095"/>
        <radio op="vodafone IT" rat="LTE" q="46.00" rsrp="-105" sinr="18" rsrq="-10"/>
        <radio op="I TIM" rat="LTE" q="34.00" rsrp="-105" sinr="12" rsrq="-12"/>
      </extensions>
    </trkpt>
    <trkpt lat="45.6176288" lon="10.4941527">
      <ele>223.8000030517578</ele>
      <time>2026-09-08T13:16:46.877+02:00</time>
      <extensions>
        <activity type="IN_VEHICLE" conf="82" state="moving" tsMs="1788866205868"/>
        <radio op="vodafone IT" rat="LTE" q="50.60" rsrp="-103" sinr="18" rsrq="-7"/>
        <radio op="I TIM" rat="LTE" q="33.60" rsrp="-104" sinr="11" rsrq="-11"/>
      </extensions>
    </trkpt>
    <trkpt lat="45.6177796" lon="10.4934848">
      <ele>223.8000030517578</ele>
      <time>2026-09-08T13:17:27.107+02:00</time>
      <extensions>
        <activity type="TILTING" conf="100" state="moving" tsMs="1788866230701"/>
        <radio op="vodafone IT" rat="LTE" q="60.00" rsrp="-101" sinr="20" rsrq="-11"/>
        <radio op="I TIM" rat="LTE" q="37.50" rsrp="-100" sinr="10" rsrq="-13"/>
      </extensions>
    </trkpt>
    <trkpt lat="45.6177715" lon="10.493266">
      <ele>223.8000030517578</ele>
      <time>2026-09-08T13:17:58.229+02:00</time>
      <extensions>
        <activity type="STILL" conf="98" state="still" tsMs="1788866276607"/>
        <radio op="vodafone IT" rat="LTE" q="50.40" rsrp="-104" sinr="19" rsrq="-9"/>
        <radio op="I TIM" rat="LTE" q="62.40" rsrp="-99" sinr="19" rsrq="-11"/>
      </extensions>
    </trkpt>
    <trkpt lat="45.6177542" lon="10.4931826">
      <ele>223.8000030517578</ele>
      <time>2026-09-08T13:18:28.604+02:00</time>
      <extensions>
        <activity type="UNKNOWN" conf="40" state="unknown" tsMs="1788866281298"/>
        <radio op="vodafone IT" rat="LTE" q="55.20" rsrp="-102" sinr="19" rsrq="-6"/>
        <radio op="I TIM" rat="LTE" q="70.00" rsrp="-97" sinr="20" rsrq="-12"/>
      </extensions>
    </trkpt>
    <trkpt lat="45.6176399" lon="10.4942036">
      <ele>223.8000030517578</ele>
      <time>2026-09-08T13:18:57.084+02:00</time>
      <extensions>
        <activity type="ON_FOOT" conf="97" state="moving" tsMs="1788866340654"/>
        <radio op="vodafone IT" rat="LTE" q="82.50" rsrp="-92" sinr="29" rsrq="-10"/>
        <radio op="I TIM" rat="LTE" q="50.60" rsrp="-102" sinr="17" rsrq="-12"/>
      </extensions>
    </trkpt>
    <trkpt lat="45.617616" lon="10.4942147">
      <ele>223.8000030517578</ele>
      <time>2026-09-08T13:19:35.92+02:00</time>
      <extensions>
        <activity type="ON_FOOT" conf="97" state="moving" tsMs="1788866359041"/>
        <radio op="vodafone IT" rat="LTE" q="72.50" rsrp="-96" sinr="25" rsrq="-9"/>
        <radio op="I TIM" rat="LTE" q="72.50" rsrp="-96" sinr="21" rsrq="-12"/>
      </extensions>
    </trkpt>
    <trkpt lat="45.6176683" lon="10.4942143">
      <ele>223.8000030517578</ele>
      <time>2026-09-08T13:20:04.361+02:00</time>
      <extensions>
        <activity type="UNKNOWN" conf="40" state="unknown" tsMs="1788866403492"/>
        <radio op="vodafone IT" rat="LTE" q="62.50" rsrp="-100" sinr="21" rsrq="-7"/>
        <radio op="I TIM" rat="LTE" q="76.80" rsrp="-93" sinr="19" rsrq="-11"/>
      </extensions>
    </trkpt>
    <trkpt lat="45.617587" lon="10.4942163">
      <ele>223.8000030517578</ele>
      <time>2026-09-08T13:20:47.292+02:00</time>
      <extensions>
        <activity type="STILL" conf="99" state="still" tsMs="1788866441871"/>
        <radio op="vodafone IT" rat="LTE" q="65.00" rsrp="-99" sinr="25" rsrq="-9"/>
        <radio op="I TIM" rat="LTE" q="39.00" rsrp="-99" sinr="10" rsrq="-13"/>
      </extensions>
    </trkpt>
    <trkpt lat="45.6176255" lon="10.4942328">
      <ele>223.8000030517578</ele>
      <time>2026-09-08T13:21:27.318+02:00</time>
      <extensions>
        <activity type="STILL" conf="99" state="still" tsMs="1788866481468"/>
        <radio op="vodafone IT" rat="LTE" q="70.00" rsrp="-97" sinr="23" rsrq="-10"/>
        <radio op="I TIM" rat="LTE" q="44.20" rsrp="-99" sinr="12" rsrq="-12"/>
      </extensions>
    </trkpt>
    <trkpt lat="45.6175875" lon="10.4942182">
      <ele>223.8000030517578</ele>
      <time>2026-09-08T13:22:11.714+02:00</time>
      <extensions>
        <activity type="STILL" conf="99" state="still" tsMs="1788866530476"/>
        <radio op="vodafone IT" rat="LTE" q="67.50" rsrp="-98" sinr="22" rsrq="-7"/>
        <radio op="I TIM" rat="LTE" q="54.60" rsrp="-99" sinr="16" rsrq="-12"/>
      </extensions>
    </trkpt>
    <trkpt lat="45.6178771" lon="10.4940226">
      <ele>223.8000030517578</ele>
      <time>2026-09-08T13:26:23.438+02:00</time>
      <extensions>
        <activity type="UNKNOWN" conf="40" state="unknown" tsMs="1788866779933"/>
        <radio op="vodafone IT" rat="LTE" q="60.00" rsrp="-101" sinr="20" rsrq="-7"/>
        <radio op="I TIM" rat="LTE" q="55.10" rsrp="-96" sinr="14" rsrq="-12"/>
      </extensions>
    </trkpt>
    <trkpt lat="45.6177073" lon="10.494273">
      <ele>223.8000030517578</ele>
      <time>2026-09-08T13:26:55.545+02:00</time>
      <extensions>
        <activity type="STILL" conf="42" state="still" tsMs="1788866814033"/>
        <radio op="vodafone IT" rat="LTE" q="32.40" rsrp="-107" sinr="13" rsrq="-12"/>
        <radio op="I TIM" rat="LTE" q="86.40" rsrp="-89" sinr="19" rsrq="-11"/>
      </extensions>
    </trkpt>
    <trkpt lat="45.6177112" lon="10.4942915">
      <ele>223.8000030517578</ele>
      <time>2026-09-08T13:27:27.665+02:00</time>
      <extensions>
        <activity type="UNKNOWN" conf="40" state="unknown" tsMs="1788866846161"/>
        <radio op="vodafone IT" rat="LTE" q="55.20" rsrp="-101" sinr="18" rsrq="-9"/>
        <radio op="I TIM" rat="LTE" q="80.50" rsrp="-90" sinr="18" rsrq="-10"/>
      </extensions>
    </trkpt>
    <trkpt lat="45.6176442" lon="10.4943115">
      <ele>223.8000030517578</ele>
      <time>2026-09-08T13:27:58.811+02:00</time>
      <extensions>
        <activity type="UNKNOWN" conf="40" state="unknown" tsMs="1788866875212"/>
        <radio op="vodafone IT" rat="LTE" q="45.00" rsrp="-100" sinr="13" rsrq="-11"/>
        <radio op="I TIM" rat="LTE" q="80.00" rsrp="-93" sinr="22" rsrq="-11"/>
      </extensions>
    </trkpt>
    <trkpt lat="45.6176973" lon="10.4941929">
      <ele>223.8000030517578</ele>
      <time>2026-09-08T13:28:29.973+02:00</time>
      <extensions>
        <activity type="UNKNOWN" conf="40" state="unknown" tsMs="1788866904104"/>
        <radio op="vodafone IT" rat="LTE" q="52.20" rsrp="-96" sinr="13" rsrq="-11"/>
        <radio op="I TIM" rat="LTE" q="76.80" rsrp="-93" sinr="19" rsrq="-11"/>
      </extensions>
    </trkpt>
    <trkpt lat="45.6176506" lon="10.4941906">
      <ele>223.8000030517578</ele>
      <time>2026-09-08T13:29:01.17+02:00</time>
      <extensions>
        <activity type="STILL" conf="36" state="still" tsMs="1788866935272"/>
        <radio op="vodafone IT" rat="LTE" q="70.00" rsrp="-97" sinr="23" rsrq="-10"/>
        <radio op="I TIM" rat="LTE" q="63.00" rsrp="-90" sinr="13" rsrq="-11"/>
      </extensions>
    </trkpt>
    <trkpt lat="45.6176222" lon="10.4942041">
      <ele>223.8000030517578</ele>
      <time>2026-09-08T13:29:45.546+02:00</time>
      <extensions>
        <activity type="STILL" conf="99" state="still" tsMs="1788866983246"/>
        <radio op="vodafone IT" rat="LTE" q="70.00" rsrp="-97" sinr="24" rsrq="-10"/>
        <radio op="I TIM" rat="LTE" q="54.00" rsrp="-98" sinr="15" rsrq="-11"/>
      </extensions>
    </trkpt>
    <trkpt lat="45.6175883" lon="10.4942189">
      <ele>223.8000030517578</ele>
      <time>2026-09-08T13:30:40.613+02:00</time>
      <extensions>
        <activity type="STILL" conf="99" state="still" tsMs="1788867035615"/>
        <radio op="vodafone IT" rat="LTE" q="62.50" rsrp="-100" sinr="20" rsrq="-10"/>
        <radio op="I TIM" rat="LTE" q="70.00" rsrp="-97" sinr="23" rsrq="-11"/>
      </extensions>
    </trkpt>
    <trkpt lat="45.6176173" lon="10.4942116">
      <ele>223.8000030517578</ele>
      <time>2026-09-08T13:32:06.9+02:00</time>
      <extensions>
        <activity type="STILL" conf="99" state="still" tsMs="1788867125474"/>
        <radio op="vodafone IT" rat="LTE" q="70.00" rsrp="-97" sinr="24" rsrq="-8"/>
        <radio op="I TIM" rat="LTE" q="64.40" rsrp="-97" sinr="18" rsrq="-11"/>
      </extensions>
    </trkpt>
    <trkpt lat="45.6175877" lon="10.4942163">
      <ele>223.8000030517578</ele>
      <time>2026-09-08T13:32:44.077+02:00</time>
      <extensions>
        <activity type="STILL" conf="99" state="still" tsMs="1788867163197"/>
        <radio op="vodafone IT" rat="LTE" q="72.50" rsrp="-96" sinr="24" rsrq="-9"/>
        <radio op="I TIM" rat="LTE" q="44.80" rsrp="-97" sinr="11" rsrq="-11"/>
      </extensions>
    </trkpt>
    <trkpt lat="45.6172868" lon="10.4943715">
      <ele>221.70001220703125</ele>
      <time>2026-09-08T14:42:07.912+02:00</time>
      <extensions>
        <activity type="STILL" conf="100" state="still" tsMs="1788871301552"/>
        <radio op="vodafone IT" rat="LTE" q="100.00" rsrp="-85" sinr="26" rsrq="-7"/>
        <radio op="I TIM" rat="LTE" q="59.50" rsrp="-90" sinr="12" rsrq="-12"/>
      </extensions>
    </trkpt>
    <trkpt lat="45.6119349" lon="10.4957583">
      <ele>220.20001220703125</ele>
      <time>2026-09-08T14:42:51.638+02:00</time>
      <extensions>
        <activity type="IN_VEHICLE" conf="96" state="moving" tsMs="1788871364776"/>
        <radio op="vodafone IT" rat="LTE" q="69.60" rsrp="-96" sinr="19" rsrq="-9"/>
        <radio op="I TIM" rat="LTE" rsrp="-113" rsrq="-19"/>
      </extensions>
    </trkpt>
    <trkpt lat="45.6110573" lon="10.4955624">
      <ele>217.40000915527344</ele>
      <time>2026-09-08T14:43:22.888+02:00</time>
      <extensions>
        <activity type="IN_VEHICLE" conf="96" state="moving" tsMs="1788871399358"/>
        <radio op="vodafone IT" rat="LTE" q="70.00" rsrp="-97" sinr="23" rsrq="-9"/>
        <radio op="I TIM" rat="LTE" rsrp="-111" rsrq="-15"/>
      </extensions>
    </trkpt>
    <trkpt lat="45.6114232" lon="10.4943069">
      <ele>221.90000915527344</ele>
      <time>2026-09-08T14:43:58.155+02:00</time>
      <extensions>
        <activity type="IN_VEHICLE" conf="97" state="moving" tsMs="1788871436491"/>
        <radio op="vodafone IT" rat="LTE" q="55.20" rsrp="-101" sinr="18" rsrq="-9"/>
        <radio op="I TIM" rat="LTE" rsrp="-116" rsrq="-18"/>
      </extensions>
    </trkpt>
    <trkpt lat="45.6121154" lon="10.4901458">
      <ele>233.90000915527344</ele>
      <time>2026-09-08T14:44:31.97+02:00</time>
      <extensions>
        <activity type="IN_VEHICLE" conf="96" state="moving" tsMs="1788871471290"/>
        <radio op="vodafone IT" rat="LTE" rsrp="-103" rsrq="-17"/>
        <radio op="I TIM" rat="LTE" q="11.90" rsrp="-108" sinr="2" rsrq="-14"/>
      </extensions>
    </trkpt>
    <trkpt lat="45.6123233" lon="10.489586">
      <ele>233.90000915527344</ele>
      <time>2026-09-08T14:44:37.637+02:00</time>
      <extensions>
        <activity type="IN_VEHICLE" conf="96" state="moving" tsMs="1788871471290"/>
        <radio op="vodafone IT" rat="LTE" rsrp="-110" rsrq="-19"/>
        <radio op="I TIM" rat="LTE" rsrp="-112" rsrq="-16"/>
      </extensions>
    </trkpt>
    <trkpt lat="45.606201" lon="10.4688794">
      <ele>259.95867012780195</ele>
      <time>2026-09-08T14:46:12.087+02:00</time>
      <extensions>
        <activity type="IN_VEHICLE" conf="96" state="moving" tsMs="1788871569694"/>
        <radio op="vodafone IT" rat="LTE" q="82.50" rsrp="-92" sinr="25" rsrq="-9"/>
        <radio op="I TIM" rat="LTE" q="44.20" rsrp="-99" sinr="12" rsrq="-6"/>
      </extensions>
    </trkpt>
    <trkpt lat="45.6059794" lon="10.4680478">
      <ele>268.9727566918554</ele>
      <time>2026-09-08T14:46:23.209+02:00</time>
      <extensions>
        <activity type="IN_VEHICLE" conf="96" state="moving" tsMs="1788871580816"/>
        <radio op="vodafone IT" rat="LTE" rsrp="-77" rsrq="-8"/>
        <radio op="I TIM" rat="LTE" q="95.00" rsrp="-87" sinr="21" rsrq="-7"/>
      </extensions>
    </trkpt>
    <trkpt lat="45.6054387" lon="10.4669605">
      <ele>265.28625083785766</ele>
      <time>2026-09-08T14:47:03.637+02:00</time>
      <extensions>
        <activity type="IN_VEHICLE" conf="96" state="moving" tsMs="1788871622886"/>
        <radio op="vodafone IT" rat="LTE" q="92.50" rsrp="-88" sinr="21" rsrq="-6"/>
        <radio op="I TIM" rat="LTE" q="37.80" rsrp="-98" sinr="9" rsrq="-12"/>
      </extensions>
    </trkpt>
    <trkpt lat="45.6046397" lon="10.4631463">
      <ele>267.5</ele>
      <time>2026-09-08T14:47:37.655+02:00</time>
      <extensions>
        <activity type="IN_VEHICLE" conf="97" state="moving" tsMs="1788871652780"/>
        <radio op="vodafone IT" rat="LTE" q="23.40" rsrp="-86" sinr="1" rsrq="-11"/>
        <radio op="I TIM" rat="LTE" q="52.00" rsrp="-85" sinr="8" rsrq="-7"/>
      </extensions>
    </trkpt>
    <trkpt lat="45.6045689" lon="10.4624444">
      <ele>267.5</ele>
      <time>2026-09-08T14:47:43.942+02:00</time>
      <extensions>
        <activity type="IN_VEHICLE" conf="97" state="moving" tsMs="1788871668048"/>
        <radio op="vodafone IT" rat="LTE" q="96.00" rsrp="-78" sinr="19" rsrq="-14"/>
        <radio op="I TIM" rat="LTE" rsrp="-95" rsrq="-12"/>
      </extensions>
    </trkpt>
    <trkpt lat="45.6031523" lon="10.4579293">
      <ele>264.20001220703125</ele>
      <time>2026-09-08T14:48:17.694+02:00</time>
      <extensions>
        <activity type="IN_VEHICLE" conf="97" state="moving" tsMs="1788871694955"/>
        <radio op="vodafone IT" rat="LTE" q="100.00" rsrp="-76" sinr="29" rsrq="-8"/>
        <radio op="I TIM" rat="LTE" q="100.00" rsrp="-77" sinr="23" rsrq="-9"/>
      </extensions>
    </trkpt>
    <trkpt lat="45.6022227" lon="10.4550231">
      <ele>261.9000244140625</ele>
      <time>2026-09-08T14:48:55.384+02:00</time>
      <extensions>
        <activity type="IN_VEHICLE" conf="97" state="moving" tsMs="1788871730809"/>
        <radio op="vodafone IT" rat="LTE" rsrp="-100" rsrq="-9"/>
        <radio op="I TIM" rat="LTE" rsrp="-100" rsrq="-13"/>
      </extensions>
    </trkpt>
    <trkpt lat="45.6020425" lon="10.4546854">
      <ele>261.9000244140625</ele>
      <time>2026-09-08T14:49:01.638+02:00</time>
      <extensions>
        <activity type="IN_VEHICLE" conf="97" state="moving" tsMs="1788871745782"/>
        <radio op="vodafone IT" rat="LTE" rsrp="-97" rsrq="-10"/>
        <radio op="I TIM" rat="LTE" q="24.30" rsrp="-98" sinr="4" rsrq="-13"/>
      </extensions>
    </trkpt>
    <trkpt lat="45.6013551" lon="10.4536477">
      <ele>261.1000061035156</ele>
      <time>2026-09-08T14:49:39.464+02:00</time>
      <extensions>
        <activity type="IN_VEHICLE" conf="97" state="moving" tsMs="1788871778316"/>
        <radio op="vodafone IT" rat="LTE" q="34.00" rsrp="-91" sinr="5" rsrq="-11"/>
        <radio op="I TIM" rat="LTE" rsrp="-97" rsrq="-13"/>
      </extensions>
    </trkpt>
    <trkpt lat="45.6017897" lon="10.4552568">
      <ele>261.1000061035156</ele>
      <time>2026-09-08T14:50:10.495+02:00</time>
      <extensions>
        <activity type="IN_VEHICLE" conf="98" state="moving" tsMs="1788871807259"/>
        <radio op="vodafone IT" rat="LTE" q="21.00" rsrp="-95" sinr="2" rsrq="-12"/>
        <radio op="I TIM" rat="LTE" q="89.70" rsrp="-86" sinr="18" rsrq="-11"/>
      </extensions>
    </trkpt>
    <trkpt lat="45.6021219" lon="10.4532145">
      <ele>261.9000244140625</ele>
      <time>2026-09-08T14:50:41.016+02:00</time>
      <extensions>
        <activity type="STILL" conf="25" state="still" tsMs="1788871835724"/>
        <radio op="vodafone IT" rat="LTE" rsrp="-97" rsrq="-8"/>
        <radio op="I TIM" rat="LTE" q="43.40" rsrp="-94" sinr="9" rsrq="-11"/>
      </extensions>
    </trkpt>
    <trkpt lat="45.6019707" lon="10.4531388">
      <ele>261.9000244140625</ele>
      <time>2026-09-08T14:50:47.638+02:00</time>
      <extensions>
        <activity type="UNKNOWN" conf="40" state="unknown" tsMs="1788871851068"/>
        <radio op="vodafone IT" rat="LTE" q="23.00" rsrp="-102" sinr="5" rsrq="-9"/>
        <radio op="I TIM" rat="LTE" q="60.80" rsrp="-93" sinr="14" rsrq="-10"/>
      </extensions>
    </trkpt>
    <trkpt lat="45.6021807" lon="10.4534565">
      <ele>263.2507609426357</ele>
      <time>2026-09-08T14:51:23.205+02:00</time>
      <extensions>
        <activity type="ON_FOOT" conf="96" state="moving" tsMs="1788871882534"/>
        <radio op="vodafone IT" rat="LTE" q="36.00" rsrp="-105" sinr="13" rsrq="-7"/>
        <radio op="I TIM" rat="LTE" q="28.60" rsrp="-99" sinr="6" rsrq="-10"/>
      </extensions>
    </trkpt>
    <trkpt lat="45.6026388" lon="10.4535717">
      <ele>263.0317492756022</ele>
      <time>2026-09-08T14:51:55.627+02:00</time>
      <extensions>
        <activity type="ON_FOOT" conf="97" state="moving" tsMs="1788871909945"/>
        <radio op="vodafone IT" rat="LTE" q="25.20" rsrp="-107" sinr="9" rsrq="-8"/>
        <radio op="I TIM" rat="LTE" q="34.50" rsrp="-102" sinr="10" rsrq="-12"/>
      </extensions>
    </trkpt>
    <trkpt lat="45.6025609" lon="10.4537033">
      <ele>263.51302752428217</ele>
      <time>2026-09-08T14:52:26.869+02:00</time>
      <extensions>
        <activity type="ON_FOOT" conf="91" state="moving" tsMs="1788871942878"/>
        <radio op="vodafone IT" rat="LTE" q="10.80" rsrp="-107" sinr="1" rsrq="-14"/>
        <radio op="I TIM" rat="LTE" q="6.00" rsrp="-113" sinr="0" rsrq="-11"/>
      </extensions>
    </trkpt>
    <trkpt lat="45.6025632" lon="10.4536977">
      <ele>261.5</ele>
      <time>2026-09-08T14:53:04.663+02:00</time>
      <extensions>
        <activity type="UNKNOWN" conf="40" state="unknown" tsMs="1788871980034"/>
        <radio op="vodafone IT" rat="LTE" q="10.20" rsrp="-108" sinr="1" rsrq="-13"/>
        <radio op="I TIM" rat="LTE" q="24.70" rsrp="-112" sinr="14" rsrq="-11"/>
      </extensions>
    </trkpt>
    <trkpt lat="45.6025612" lon="10.4536929">
      <ele>261.5</ele>
      <time>2026-09-08T14:53:36.23+02:00</time>
      <extensions>
        <activity type="STILL" conf="99" state="still" tsMs="1788872012191"/>
        <radio op="vodafone IT" rat="LTE" q="9.60" rsrp="-109" sinr="1" rsrq="-10"/>
        <radio op="I TIM" rat="LTE" q="27.00" rsrp="-110" sinr="13" rsrq="-8"/>
      </extensions>
    </trkpt>
    <trkpt lat="45.6025597" lon="10.4536918">
      <ele>261.5</ele>
      <time>2026-09-08T14:54:14.222+02:00</time>
      <extensions>
        <activity type="STILL" conf="99" state="still" tsMs="1788872049370"/>
        <radio op="vodafone IT" rat="LTE" q="9.00" rsrp="-107" sinr="0" rsrq="-12"/>
        <radio op="I TIM" rat="LTE" q="22.80" rsrp="-113" sinr="14" rsrq="-10"/>
      </extensions>
    </trkpt>
    <trkpt lat="45.6025543" lon="10.453702">
      <ele>261.5</ele>
      <time>2026-09-08T14:54:48.731+02:00</time>
      <extensions>
        <activity type="STILL" conf="99" state="still" tsMs="1788872087275"/>
        <radio op="vodafone IT" rat="LTE" rsrp="-108" rsrq="-11"/>
        <radio op="I TIM" rat="LTE" q="34.50" rsrp="-110" sinr="18" rsrq="-11"/>
      </extensions>
    </trkpt>
    <trkpt lat="45.6025605" lon="10.4536975">
      <ele>261.5</ele>
      <time>2026-09-08T14:55:27.977+02:00</time>
      <extensions>
        <activity type="STILL" conf="99" state="still" tsMs="1788872127167"/>
        <radio op="vodafone IT" rat="LTE" q="8.50" rsrp="-108" sinr="0" rsrq="-13"/>
        <radio op="I TIM" rat="LTE" q="23.80" rsrp="-111" sinr="12" rsrq="-12"/>
      </extensions>
    </trkpt>
    <trkpt lat="45.6215631" lon="10.4883283">
      <ele>278.9361473327803</ele>
      <time>2026-09-08T15:13:23.643+02:00</time>
      <extensions>
        <activity type="IN_VEHICLE" conf="94" state="moving" tsMs="1788873198251"/>
        <radio op="vodafone IT" rat="LTE" rsrp="-111" rsrq="-13"/>
        <radio op="I TIM" rat="LTE" q="9.00" rsrp="-116" sinr="5" rsrq="-14"/>
      </extensions>
    </trkpt>
    <trkpt lat="45.6236947" lon="10.4933273">
      <ele>276.95910702974356</ele>
      <time>2026-09-08T15:14:06.475+02:00</time>
      <extensions>
        <activity type="IN_VEHICLE" conf="97" state="moving" tsMs="1788873243000"/>
        <radio op="vodafone IT" rat="LTE" q="8.00" rsrp="-117" sinr="5" rsrq="-14"/>
        <radio op="I TIM" rat="LTE" q="4.80" rsrp="-119" sinr="3" rsrq="-13"/>
      </extensions>
    </trkpt>
    <trkpt lat="45.6237717" lon="10.4927545">
      <ele>278.507609388026</ele>
      <time>2026-09-08T15:14:57.63+02:00</time>
      <extensions>
        <activity type="ON_FOOT" conf="94" state="moving" tsMs="1788873296290"/>
        <radio op="vodafone IT" rat="LTE" q="1.00" rsrp="-124" sinr="5" rsrq="-10"/>
        <radio op="I TIM" rat="LTE" rsrp="-120" rsrq="-12"/>
      </extensions>
    </trkpt>
    <trkpt lat="45.6237717" lon="10.4927545">
      <ele>277.84922475252586</ele>
      <time>2026-09-08T15:15:29.048+02:00</time>
      <extensions>
        <activity type="ON_FOOT" conf="83" state="moving" tsMs="1788873324618"/>
        <radio op="vodafone IT" rat="LTE" rsrq="-25"/>
        <radio op="I TIM" rat="LTE" rsrp="-133" rsrq="-18"/>
      </extensions>
    </trkpt>
    <trkpt lat="45.6238209" lon="10.4926966">
      <ele>288.0</ele>
      <time>2026-09-08T15:16:00.339+02:00</time>
      <extensions>
        <activity type="STILL" conf="38" state="still" tsMs="1788873356444"/>
        <radio op="vodafone IT" rat="LTE" rsrq="-20"/>
        <radio op="I TIM" rat="LTE" rsrp="-133" rsrq="-18"/>
      </extensions>
    </trkpt>
    <trkpt lat="45.6237544" lon="10.4927905">
      <ele>288.1000061035156</ele>
      <time>2026-09-08T15:16:31.448+02:00</time>
      <extensions>
        <activity type="ON_FOOT" conf="90" state="moving" tsMs="1788873387498"/>
        <radio op="vodafone IT" rat="LTE" q="5.40" rsrp="-119" sinr="4" rsrq="-10"/>
        <radio op="I TIM" rat="LTE" q="19.20" rsrp="-109" sinr="7" rsrq="-11"/>
      </extensions>
    </trkpt>
    <trkpt lat="45.6237902" lon="10.4927651">
      <ele>290.6501260534824</ele>
      <time>2026-09-08T15:17:20.18+02:00</time>
      <extensions>
        <activity type="STILL" conf="50" state="still" tsMs="1788873435619"/>
        <radio op="vodafone IT" rat="LTE" rsrp="-120" rsrq="-12"/>
        <radio op="I TIM" rat="LTE" q="15.60" rsrp="-112" sinr="7" rsrq="-11"/>
      </extensions>
    </trkpt>
    <trkpt lat="45.6237563" lon="10.4927847">
      <ele>290.3701760949268</ele>
      <time>2026-09-08T15:18:00.858+02:00</time>
      <extensions>
        <activity type="STILL" conf="99" state="still" tsMs="1788873478449"/>
        <radio op="vodafone IT" rat="LTE" rsrp="-124" rsrq="-15"/>
        <radio op="I TIM" rat="LTE" rsrp="-122" rsrq="-13"/>
      </extensions>
    </trkpt>
    <trkpt lat="45.6237665" lon="10.4927793">
      <ele>288.1000061035156</ele>
      <time>2026-09-08T15:18:24.729+02:00</time>
      <extensions>
        <activity type="STILL" conf="100" state="still" tsMs="1788873483812"/>
        <radio op="vodafone IT" rat="LTE" rsrp="-124" rsrq="-12"/>
        <radio op="I TIM" rat="LTE" rsrp="-123" rsrq="-15"/>
      </extensions>
    </trkpt>
    <trkpt lat="45.6237763" lon="10.4927868">
      <ele>288.1000061035156</ele>
      <time>2026-09-08T15:18:56.239+02:00</time>
      <extensions>
        <activity type="STILL" conf="99" state="still" tsMs="1788873530641"/>
        <radio op="vodafone IT" rat="LTE" q="3.50" rsrp="-120" sinr="2" rsrq="-11"/>
        <radio op="I TIM" rat="LTE" rsrp="-122" rsrq="-14"/>
      </extensions>
    </trkpt>
    <trkpt lat="45.6236846" lon="10.4933553">
      <ele>285.6000061035156</ele>
      <time>2026-09-08T18:27:43.595+02:00</time>
      <extensions>
        <activity type="STILL" conf="100" state="still" tsMs="1788884844401"/>
        <radio op="vodafone IT" rat="LTE" rsrp="-104" rsrq="-13"/>
        <radio op="I TIM" rat="LTE" q="11.70" rsrp="-112" sinr="4" rsrq="-13"/>
      </extensions>
    </trkpt>
    <trkpt lat="45.6236949" lon="10.4933761">
      <ele>285.70001220703125</ele>
      <time>2026-09-08T18:27:54.126+02:00</time>
      <extensions>
        <activity type="UNKNOWN" conf="40" state="unknown" tsMs="1788884861898"/>
        <radio op="vodafone IT" rat="LTE" rsrp="-104" rsrq="-11"/>
        <radio op="I TIM" rat="LTE" q="10.80" rsrp="-113" sinr="4" rsrq="-13"/>
      </extensions>
    </trkpt>
    <trkpt lat="45.6236978" lon="10.4933765">
      <ele>285.6000061035156</ele>
      <time>2026-09-08T18:28:04.085+02:00</time>
      <extensions>
        <activity type="UNKNOWN" conf="40" state="unknown" tsMs="1788884861898"/>
        <radio op="vodafone IT" rat="LTE" rsrp="-106" rsrq="-13"/>
        <radio op="I TIM" rat="LTE" q="13.20" rsrp="-113" sinr="6" rsrq="-13"/>
      </extensions>
    </trkpt>
    <trkpt lat="45.6236975" lon="10.493376">
      <ele>285.6000061035156</ele>
      <time>2026-09-08T18:28:05.092+02:00</time>
      <extensions>
        <activity type="UNKNOWN" conf="40" state="unknown" tsMs="1788884878444"/>
        <radio op="vodafone IT" rat="LTE" rsrp="-101" rsrq="-13"/>
        <radio op="I TIM" rat="LTE" q="25.20" rsrp="-107" sinr="9" rsrq="-11"/>
      </extensions>
    </trkpt>
    <trkpt lat="45.6234811" lon="10.4927684">
      <ele>288.1000061035156</ele>
      <time>2026-09-08T18:28:45.008+02:00</time>
      <extensions>
        <activity type="IN_VEHICLE" conf="97" state="moving" tsMs="1788884923428"/>
        <radio op="vodafone IT" rat="LTE" rsrp="-102" rsrq="-15"/>
        <radio op="I TIM" rat="LTE" q="19.20" rsrp="-109" sinr="7" rsrq="-12"/>
      </extensions>
    </trkpt>
    <trkpt lat="45.621169" lon="10.4882514">
      <ele>288.1000061035156</ele>
      <time>2026-09-08T18:29:16.315+02:00</time>
      <extensions>
        <activity type="IN_VEHICLE" conf="96" state="moving" tsMs="1788884951060"/>
        <radio op="vodafone IT" rat="LTE" rsrp="-97" rsrq="-13"/>
        <radio op="I TIM" rat="LTE" rsrp="-111" rsrq="-17"/>
      </extensions>
    </trkpt>
    <trkpt lat="45.6176534" lon="10.4837715">
      <ele>285.9288803882199</ele>
      <time>2026-09-08T18:29:47.548+02:00</time>
      <extensions>
        <activity type="IN_VEHICLE" conf="96" state="moving" tsMs="1788884984715"/>
        <radio op="vodafone IT" rat="LTE" q="31.90" rsrp="-96" sinr="6" rsrq="-10"/>
        <radio op="I TIM" rat="LTE" rsrp="-105" rsrq="-11"/>
      </extensions>
    </trkpt>
    <trkpt lat="45.6133232" lon="10.4817357">
      <ele>281.8548731634264</ele>
      <time>2026-09-08T18:30:18.924+02:00</time>
      <extensions>
        <activity type="IN_VEHICLE" conf="97" state="moving" tsMs="1788885015909"/>
        <radio op="vodafone IT" rat="LTE" q="67.20" rsrp="-97" sinr="19" rsrq="-8"/>
        <radio op="I TIM" rat="LTE" rsrp="-114" rsrq="-16"/>
      </extensions>
    </trkpt>
    <trkpt lat="45.6129042" lon="10.4816238">
      <ele>281.8548731634264</ele>
      <time>2026-09-08T18:30:25.07+02:00</time>
      <extensions>
        <activity type="IN_VEHICLE" conf="97" state="moving" tsMs="1788885029925"/>
        <radio op="vodafone IT" rat="LTE" q="30.60" rsrp="-108" sinr="13" rsrq="-7"/>
        <radio op="I TIM" rat="LTE" rsrp="-118" rsrq="-18"/>
      </extensions>
    </trkpt>
    <trkpt lat="45.6102501" lon="10.4783439">
      <ele>281.83572094774604</ele>
      <time>2026-09-08T18:31:00.147+02:00</time>
      <extensions>
        <activity type="IN_VEHICLE" conf="97" state="moving" tsMs="1788885056809"/>
        <radio op="vodafone IT" rat="LTE" q="64.00" rsrp="-93" sinr="15" rsrq="-7"/>
        <radio op="I TIM" rat="LTE" rsrp="-114" rsrq="-16"/>
      </extensions>
    </trkpt>
    <trkpt lat="45.6077407" lon="10.4719811">
      <ele>281.2079774883773</ele>
      <time>2026-09-08T18:31:31.8+02:00</time>
      <extensions>
        <activity type="IN_VEHICLE" conf="97" state="moving" tsMs="1788885087258"/>
        <radio op="vodafone IT" rat="LTE" q="100.00" rsrp="-84" sinr="26" rsrq="-6"/>
        <radio op="I TIM" rat="LTE" q="100.00" rsrp="-79" sinr="22" rsrq="-8"/>
      </extensions>
    </trkpt>
    <trkpt lat="45.6054779" lon="10.4654725">
      <ele>276.0813481274571</ele>
      <time>2026-09-08T18:32:04.54+02:00</time>
      <extensions>
        <activity type="IN_VEHICLE" conf="97" state="moving" tsMs="1788885118977"/>
        <radio op="vodafone IT" rat="LTE" q="100.00" rsrp="-76" sinr="29" rsrq="-6"/>
        <radio op="I TIM" rat="LTE" q="49.50" rsrp="-92" sinr="10" rsrq="-9"/>
      </extensions>
    </trkpt>
    <trkpt lat="45.605375" lon="10.4652013">
      <ele>276.0600821719209</ele>
      <time>2026-09-08T18:32:07.07+02:00</time>
      <extensions>
        <activity type="IN_VEHICLE" conf="97" state="moving" tsMs="1788885133980"/>
        <radio op="vodafone IT" rat="LTE" q="88.00" rsrp="-74" sinr="17" rsrq="-6"/>
        <radio op="I TIM" rat="LTE" q="49.40" rsrp="-87" sinr="8" rsrq="-9"/>
      </extensions>
    </trkpt>
    <trkpt lat="45.60403" lon="10.4602729">
      <ele>274.5331793997994</ele>
      <time>2026-09-08T18:32:45.399+02:00</time>
      <extensions>
        <activity type="IN_VEHICLE" conf="96" state="moving" tsMs="1788885160787"/>
        <radio op="vodafone IT" rat="LTE" q="100.00" rsrp="-83" sinr="29" rsrq="-5"/>
        <radio op="I TIM" rat="LTE" q="52.80" rsrp="-92" sinr="11" rsrq="-12"/>
      </extensions>
    </trkpt>
    <trkpt lat="45.6031175" lon="10.4576798">
      <ele>272.1117172556528</ele>
      <time>2026-09-08T18:33:21.437+02:00</time>
      <extensions>
        <activity type="IN_VEHICLE" conf="96" state="moving" tsMs="1788885197825"/>
        <radio op="vodafone IT" rat="LTE" q="100.00" rsrp="-73" sinr="27" rsrq="-11"/>
        <radio op="I TIM" rat="LTE" q="96.00" rsrp="-76" sinr="19" rsrq="-11"/>
      </extensions>
    </trkpt>
    <trkpt lat="45.6014848" lon="10.4537258">
      <ele>267.70001220703125</ele>
      <time>2026-09-08T18:34:05.362+02:00</time>
      <extensions>
        <activity type="IN_VEHICLE" conf="97" state="moving" tsMs="1788885240667"/>
        <radio op="vodafone IT" rat="LTE" q="35.00" rsrp="-100" sinr="9" rsrq="-11"/>
        <radio op="I TIM" rat="LTE" q="66.00" rsrp="-95" sinr="17" rsrq="-12"/>
      </extensions>
    </trkpt>
    <trkpt lat="45.5990859" lon="10.4498963">
      <ele>266.4272108210977</ele>
      <time>2026-09-08T18:34:53.758+02:00</time>
      <extensions>
        <activity type="IN_VEHICLE" conf="87" state="moving" tsMs="1788885290719"/>
        <radio op="vodafone IT" rat="LTE" rsrp="-99" rsrq="-12"/>
        <radio op="I TIM" rat="LTE" q="36.30" rsrp="-92" sinr="6" rsrq="-13"/>
      </extensions>
    </trkpt>
    <trkpt lat="45.5966308" lon="10.4450782">
      <ele>267.0793912250139</ele>
      <time>2026-09-08T18:35:28.579+02:00</time>
      <extensions>
        <activity type="IN_VEHICLE" conf="97" state="moving" tsMs="1788885327608"/>
        <radio op="vodafone IT" rat="LTE" q="46.80" rsrp="-89" sinr="8" rsrq="-12"/>
        <radio op="I TIM" rat="LTE" q="43.20" rsrp="-89" sinr="7" rsrq="-14"/>
      </extensions>
    </trkpt>
    <trkpt lat="45.5951204" lon="10.4433058">
      <ele>256.3999938964844</ele>
      <time>2026-09-08T18:36:03.745+02:00</time>
      <extensions>
        <activity type="IN_VEHICLE" conf="97" state="moving" tsMs="1788885362645"/>
        <radio op="vodafone IT" rat="LTE" q="19.20" rsrp="-93" sinr="1" rsrq="-12"/>
        <radio op="I TIM" rat="LTE" q="40.00" rsrp="-83" sinr="5" rsrq="-12"/>
      </extensions>
    </trkpt>
    <trkpt lat="45.5951707" lon="10.4430041">
      <ele>265.2037093589595</ele>
      <time>2026-09-08T18:36:10.07+02:00</time>
      <extensions>
        <activity type="IN_VEHICLE" conf="97" state="moving" tsMs="1788885362645"/>
        <radio op="vodafone IT" rat="LTE" q="39.00" rsrp="-86" sinr="5" rsrq="-9"/>
        <radio op="I TIM" rat="LTE" q="64.00" rsrp="-84" sinr="11" rsrq="-10"/>
      </extensions>
    </trkpt>
    <trkpt lat="45.5951432" lon="10.4429925">
      <ele>266.25089692467344</ele>
      <time>2026-09-08T18:36:51.07+02:00</time>
      <extensions>
        <activity type="STILL" conf="70" state="still" tsMs="1788885419100"/>
        <radio op="vodafone IT" rat="LTE" q="40.30" rsrp="-94" sinr="8" rsrq="-10"/>
        <radio op="I TIM" rat="LTE" q="39.00" rsrp="-86" sinr="5" rsrq="-10"/>
      </extensions>
    </trkpt>
    <trkpt lat="45.5955054" lon="10.4430958">
      <ele>256.29998779296875</ele>
      <time>2026-09-08T18:37:31.373+02:00</time>
      <extensions>
        <activity type="ON_FOOT" conf="85" state="moving" tsMs="1788885450299"/>
        <radio op="vodafone IT" rat="LTE" rsrp="-97" rsrq="-12"/>
        <radio op="I TIM" rat="LTE" q="54.00" rsrp="-89" sinr="10" rsrq="-10"/>
      </extensions>
    </trkpt>
    <trkpt lat="45.5954926" lon="10.4432675">
      <ele>256.3999938964844</ele>
      <time>2026-09-08T18:38:03.263+02:00</time>
      <extensions>
        <activity type="UNKNOWN" conf="40" state="unknown" tsMs="1788885482761"/>
        <radio op="vodafone IT" rat="LTE" q="17.00" rsrp="-108" sinr="5" rsrq="-8"/>
        <radio op="I TIM" rat="LTE" q="37.20" rsrp="-94" sinr="7" rsrq="-10"/>
      </extensions>
    </trkpt>
    <trkpt lat="45.5955134" lon="10.4432572">
      <ele>256.3999938964844</ele>
      <time>2026-09-08T18:38:35.702+02:00</time>
      <extensions>
        <activity type="UNKNOWN" conf="40" state="unknown" tsMs="1788885514644"/>
        <radio op="vodafone IT" rat="LTE" q="22.40" rsrp="-109" sinr="9" rsrq="-8"/>
        <radio op="I TIM" rat="LTE" q="45.60" rsrp="-101" sinr="14" rsrq="-8"/>
      </extensions>
    </trkpt>
    <trkpt lat="45.5954888" lon="10.4432381">
      <ele>256.3999938964844</ele>
      <time>2026-09-08T18:39:19.183+02:00</time>
      <extensions>
        <activity type="UNKNOWN" conf="40" state="unknown" tsMs="1788885559139"/>
        <radio op="vodafone IT" rat="LTE" q="28.00" rsrp="-97" sinr="5" rsrq="-12"/>
        <radio op="I TIM" rat="LTE" q="31.90" rsrp="-96" sinr="6" rsrq="-7"/>
      </extensions>
    </trkpt>
    <trkpt lat="45.5955022" lon="10.4432821">
      <ele>256.3999938964844</ele>
      <time>2026-09-08T18:39:50.289+02:00</time>
      <extensions>
        <activity type="UNKNOWN" conf="40" state="unknown" tsMs="1788885585112"/>
        <radio op="vodafone IT" rat="LTE" q="28.80" rsrp="-93" sinr="4" rsrq="-10"/>
        <radio op="I TIM" rat="LTE" q="42.00" rsrp="-95" sinr="9" rsrq="-10"/>
      </extensions>
    </trkpt>
    <trkpt lat="45.5954952" lon="10.4432661">
      <ele>256.3999938964844</ele>
      <time>2026-09-08T18:40:20.669+02:00</time>
      <extensions>
        <activity type="UNKNOWN" conf="40" state="unknown" tsMs="1788885621624"/>
        <radio op="vodafone IT" rat="LTE" q="41.60" rsrp="-93" sinr="8" rsrq="-10"/>
        <radio op="I TIM" rat="LTE" q="42.00" rsrp="-97" sinr="10" rsrq="-9"/>
      </extensions>
    </trkpt>
    <trkpt lat="45.595491" lon="10.4432591">
      <ele>256.3999938964844</ele>
      <time>2026-09-08T18:40:54.057+02:00</time>
      <extensions>
        <activity type="STILL" conf="52" state="still" tsMs="1788885652795"/>
        <radio op="vodafone IT" rat="LTE" q="41.60" rsrp="-93" sinr="8" rsrq="-9"/>
        <radio op="I TIM" rat="LTE" q="43.20" rsrp="-98" sinr="11" rsrq="-11"/>
      </extensions>
    </trkpt>
    <trkpt lat="45.5953032" lon="10.4429179">
      <ele>256.20001220703125</ele>
      <time>2026-09-08T18:42:37.983+02:00</time>
      <extensions>
        <activity type="ON_FOOT" conf="86" state="moving" tsMs="1788885757838"/>
        <radio op="vodafone IT" rat="LTE" q="56.00" rsrp="-78" sinr="9" rsrq="-10"/>
        <radio op="I TIM" rat="LTE" q="100.00" rsrp="-81" sinr="23" rsrq="-8"/>
      </extensions>
    </trkpt>
    <trkpt lat="45.5954449" lon="10.4425103">
      <ele>256.29998779296875</ele>
      <time>2026-09-08T18:43:08.004+02:00</time>
      <extensions>
        <activity type="ON_FOOT" conf="96" state="moving" tsMs="1788885788692"/>
        <radio op="vodafone IT" rat="LTE" q="37.00" rsrp="-88" sinr="5" rsrq="-10"/>
        <radio op="I TIM" rat="LTE" q="87.50" rsrp="-90" sinr="22" rsrq="-7"/>
      </extensions>
    </trkpt>
    <trkpt lat="45.5955115" lon="10.4424695">
      <ele>256.29998779296875</ele>
      <time>2026-09-08T18:43:42.488+02:00</time>
      <extensions>
        <activity type="ON_FOOT" conf="89" state="moving" tsMs="1788885818987"/>
        <radio op="vodafone IT" rat="LTE" q="35.00" rsrp="-100" sinr="9" rsrq="-12"/>
        <radio op="I TIM" rat="LTE" q="30.40" rsrp="-106" sinr="11" rsrq="-12"/>
      </extensions>
    </trkpt>
    <trkpt lat="45.5957036" lon="10.4423989">
      <ele>256.29998779296875</ele>
      <time>2026-09-08T18:44:34.054+02:00</time>
      <extensions>
        <activity type="UNKNOWN" conf="40" state="unknown" tsMs="1788885856728"/>
        <radio op="vodafone IT" rat="LTE" q="14.40" rsrp="-107" sinr="3" rsrq="-11"/>
        <radio op="I TIM" rat="LTE" rsrp="-101" rsrq="-11"/>
      </extensions>
    </trkpt>
    <trkpt lat="45.5956634" lon="10.4424151">
      <ele>256.29998779296875</ele>
      <time>2026-09-08T18:45:04.078+02:00</time>
      <extensions>
        <activity type="STILL" conf="98" state="still" tsMs="1788885905242"/>
        <radio op="vodafone IT" rat="LTE" q="24.00" rsrp="-105" sinr="7" rsrq="-7"/>
        <radio op="I TIM" rat="LTE" q="28.80" rsrp="-101" sinr="7" rsrq="-11"/>
      </extensions>
    </trkpt>
    <trkpt lat="45.5956762" lon="10.4424163">
      <ele>256.29998779296875</ele>
      <time>2026-09-08T18:46:19.727+02:00</time>
      <extensions>
        <activity type="STILL" conf="53" state="still" tsMs="1788885975596"/>
        <radio op="vodafone IT" rat="LTE" q="15.60" rsrp="-112" sinr="7" rsrq="-9"/>
        <radio op="I TIM" rat="LTE" q="24.00" rsrp="-110" sinr="11" rsrq="-10"/>
      </extensions>
    </trkpt>
    <trkpt lat="45.5956441" lon="10.4424299">
      <ele>256.29998779296875</ele>
      <time>2026-09-08T18:47:46.668+02:00</time>
      <extensions>
        <activity type="STILL" conf="70" state="still" tsMs="1788886066322"/>
        <radio op="vodafone IT" rat="LTE" rsrp="-113" rsrq="-7"/>
        <radio op="I TIM" rat="LTE" q="28.80" rsrp="-109" sinr="13" rsrq="-9"/>
      </extensions>
    </trkpt>
    <trkpt lat="45.5955427" lon="10.4424197">
      <ele>256.29998779296875</ele>
      <time>2026-09-08T18:48:18.231+02:00</time>
      <extensions>
        <activity type="ON_FOOT" conf="90" state="moving" tsMs="1788886097331"/>
        <radio op="vodafone IT" rat="LTE" q="37.40" rsrp="-103" sinr="12" rsrq="-8"/>
        <radio op="I TIM" rat="LTE" q="42.50" rsrp="-108" sinr="20" rsrq="-11"/>
      </extensions>
    </trkpt>
    <trkpt lat="45.5954641" lon="10.4424818">
      <ele>256.29998779296875</ele>
      <time>2026-09-08T18:49:15.319+02:00</time>
      <extensions>
        <activity type="ON_FOOT" conf="81" state="moving" tsMs="1788886155455"/>
        <radio op="vodafone IT" rat="LTE" q="30.60" rsrp="-107" sinr="12" rsrq="-7"/>
        <radio op="I TIM" rat="LTE" q="44.10" rsrp="-104" sinr="16" rsrq="-9"/>
      </extensions>
    </trkpt>
    <trkpt lat="45.5955333" lon="10.4424464">
      <ele>256.29998779296875</ele>
      <time>2026-09-08T18:49:53.104+02:00</time>
      <extensions>
        <activity type="ON_FOOT" conf="86" state="moving" tsMs="1788886187303"/>
        <radio op="vodafone IT" rat="LTE" q="24.00" rsrp="-109" sinr="10" rsrq="-8"/>
        <radio op="I TIM" rat="LTE" q="25.60" rsrp="-109" sinr="11" rsrq="-11"/>
      </extensions>
    </trkpt>
    <trkpt lat="45.595491" lon="10.4424647">
      <ele>256.3999938964844</ele>
      <time>2026-09-08T18:51:43.817+02:00</time>
      <extensions>
        <activity type="UNKNOWN" conf="40" state="unknown" tsMs="1788886299528"/>
        <radio op="vodafone IT" rat="LTE" q="39.10" rsrp="-102" sinr="12" rsrq="-9"/>
        <radio op="I TIM" rat="LTE" q="48.40" rsrp="-103" sinr="17" rsrq="-8"/>
      </extensions>
    </trkpt>
    <trkpt lat="45.5954549" lon="10.4424971">
      <ele>256.3999938964844</ele>
      <time>2026-09-08T18:52:47.997+02:00</time>
      <extensions>
        <activity type="STILL" conf="97" state="still" tsMs="1788886359718"/>
        <radio op="vodafone IT" rat="LTE" q="28.60" rsrp="-103" sinr="8" rsrq="-9"/>
        <radio op="I TIM" rat="LTE" q="31.50" rsrp="-104" sinr="10" rsrq="-9"/>
      </extensions>
    </trkpt>
    <trkpt lat="45.5954473" lon="10.4425029">
      <ele>256.3999938964844</ele>
      <time>2026-09-08T18:53:20.115+02:00</time>
      <extensions>
        <activity type="UNKNOWN" conf="40" state="unknown" tsMs="1788886399714"/>
        <radio op="vodafone IT" rat="LTE" q="36.40" rsrp="-99" sinr="9" rsrq="-9"/>
        <radio op="I TIM" rat="LTE" q="28.80" rsrp="-101" sinr="7" rsrq="-12"/>
      </extensions>
    </trkpt>
    <trkpt lat="45.5956819" lon="10.4423877">
      <ele>256.29998779296875</ele>
      <time>2026-09-08T18:53:51.101+02:00</time>
      <extensions>
        <activity type="UNKNOWN" conf="40" state="unknown" tsMs="1788886426310"/>
        <radio op="vodafone IT" rat="LTE" rsrp="-113" rsrq="-9"/>
        <radio op="I TIM" rat="LTE" q="30.40" rsrp="-109" sinr="14" rsrq="-12"/>
      </extensions>
    </trkpt>
    <trkpt lat="45.5956805" lon="10.4423927">
      <ele>256.29998779296875</ele>
      <time>2026-09-08T18:54:23.434+02:00</time>
      <extensions>
        <activity type="UNKNOWN" conf="40" state="unknown" tsMs="1788886460159"/>
        <radio op="vodafone IT" rat="LTE" q="14.30" rsrp="-112" sinr="6" rsrq="-12"/>
        <radio op="I TIM" rat="LTE" q="16.80" rsrp="-113" sinr="9" rsrq="-10"/>
      </extensions>
    </trkpt>
    <trkpt lat="45.5956881" lon="10.4424039">
      <ele>256.29998779296875</ele>
      <time>2026-09-08T18:55:01.262+02:00</time>
      <extensions>
        <activity type="ON_FOOT" conf="84" state="moving" tsMs="1788886497158"/>
        <radio op="vodafone IT" rat="LTE" q="20.80" rsrp="-109" sinr="8" rsrq="-9"/>
        <radio op="I TIM" rat="LTE" q="12.00" rsrp="-113" sinr="5" rsrq="-9"/>
      </extensions>
    </trkpt>
    <trkpt lat="45.5955704" lon="10.4424574">
      <ele>256.29998779296875</ele>
      <time>2026-09-08T18:55:55.4+02:00</time>
      <extensions>
        <activity type="UNKNOWN" conf="40" state="unknown" tsMs="1788886551557"/>
        <radio op="vodafone IT" rat="LTE" q="28.90" rsrp="-108" sinr="12" rsrq="-12"/>
        <radio op="I TIM" rat="LTE" q="14.70" rsrp="-104" sinr="2" rsrq="-12"/>
      </extensions>
    </trkpt>
    <trkpt lat="45.5956159" lon="10.4424025">
      <ele>256.29998779296875</ele>
      <time>2026-09-08T18:56:38.001+02:00</time>
      <extensions>
        <activity type="UNKNOWN" conf="40" state="unknown" tsMs="1788886594755"/>
        <radio op="vodafone IT" rat="LTE" q="27.20" rsrp="-109" sinr="12" rsrq="-8"/>
        <radio op="I TIM" rat="LTE" q="44.10" rsrp="-104" sinr="16" rsrq="-9"/>
      </extensions>
    </trkpt>
    <trkpt lat="45.5954712" lon="10.4425476">
      <ele>256.3999938964844</ele>
      <time>2026-09-08T18:58:04.179+02:00</time>
      <extensions>
        <activity type="UNKNOWN" conf="40" state="unknown" tsMs="1788886684326"/>
        <radio op="vodafone IT" rat="LTE" q="18.00" rsrp="-107" sinr="5" rsrq="-8"/>
        <radio op="I TIM" rat="LTE" q="28.60" rsrp="-103" sinr="8" rsrq="-8"/>
      </extensions>
    </trkpt>
    <trkpt lat="45.5954334" lon="10.4426087">
      <ele>256.3999938964844</ele>
      <time>2026-09-08T18:58:36.14+02:00</time>
      <extensions>
        <activity type="UNKNOWN" conf="40" state="unknown" tsMs="1788886716012"/>
        <radio op="vodafone IT" rat="LTE" q="24.00" rsrp="-105" sinr="7" rsrq="-8"/>
        <radio op="I TIM" rat="LTE" q="36.00" rsrp="-105" sinr="13" rsrq="-9"/>
      </extensions>
    </trkpt>
    <trkpt lat="45.5954283" lon="10.4426205">
      <ele>256.29998779296875</ele>
      <time>2026-09-08T18:59:07.288+02:00</time>
      <extensions>
        <activity type="ON_FOOT" conf="85" state="moving" tsMs="1788886742107"/>
        <radio op="vodafone IT" rat="LTE" q="26.40" rsrp="-103" sinr="7" rsrq="-9"/>
        <radio op="I TIM" rat="LTE" q="39.60" rsrp="-103" sinr="13" rsrq="-11"/>
      </extensions>
    </trkpt>
    <trkpt lat="45.5954326" lon="10.4426398">
      <ele>256.3999938964844</ele>
      <time>2026-09-08T18:59:51.533+02:00</time>
      <extensions>
        <activity type="UNKNOWN" conf="40" state="unknown" tsMs="1788886791344"/>
        <radio op="vodafone IT" rat="LTE" q="25.60" rsrp="-109" sinr="11" rsrq="-10"/>
        <radio op="I TIM" rat="LTE" q="33.60" rsrp="-104" sinr="11" rsrq="-7"/>
      </extensions>
    </trkpt>
    <trkpt lat="45.5954428" lon="10.4426258">
      <ele>256.29998779296875</ele>
      <time>2026-09-08T19:00:22.727+02:00</time>
      <extensions>
        <activity type="UNKNOWN" conf="40" state="unknown" tsMs="1788886818340"/>
        <radio op="vodafone IT" rat="LTE" q="14.40" rsrp="-113" sinr="7" rsrq="-11"/>
        <radio op="I TIM" rat="LTE" q="15.40" rsrp="-111" sinr="6" rsrq="-10"/>
      </extensions>
    </trkpt>
    <trkpt lat="45.5954378" lon="10.4426047">
      <ele>253.98413460919235</ele>
      <time>2026-09-08T19:00:55.629+02:00</time>
      <extensions>
        <activity type="STILL" conf="34" state="still" tsMs="1788886850755"/>
        <radio op="vodafone IT" rat="LTE" q="26.00" rsrp="-105" sinr="8" rsrq="-12"/>
        <radio op="I TIM" rat="LTE" q="17.60" rsrp="-103" sinr="3" rsrq="-10"/>
      </extensions>
    </trkpt>
    <trkpt lat="45.5952432" lon="10.4430497">
      <ele>256.29998779296875</ele>
      <time>2026-09-08T19:02:39.151+02:00</time>
      <extensions>
        <activity type="ON_FOOT" conf="96" state="moving" tsMs="1788886959015"/>
        <radio op="vodafone IT" rat="LTE" q="29.00" rsrp="-96" sinr="5" rsrq="-16"/>
        <radio op="I TIM" rat="LTE" q="24.50" rsrp="-90" sinr="2" rsrq="-9"/>
      </extensions>
    </trkpt>
    <trkpt lat="45.595558" lon="10.4430866">
      <ele>258.28995097376117</ele>
      <time>2026-09-08T19:03:26.043+02:00</time>
      <extensions>
        <activity type="ON_FOOT" conf="95" state="moving" tsMs="1788887002353"/>
        <radio op="vodafone IT" rat="LTE" q="12.60" rsrp="-107" sinr="2" rsrq="-11"/>
        <radio op="I TIM" rat="LTE" q="9.60" rsrp="-113" sinr="3" rsrq="-11"/>
      </extensions>
    </trkpt>
    <trkpt lat="45.5957024" lon="10.4429872">
      <ele>256.3999938964844</ele>
      <time>2026-09-08T19:04:08.478+02:00</time>
      <extensions>
        <activity type="ON_FOOT" conf="90" state="moving" tsMs="1788887044637"/>
        <radio op="vodafone IT" rat="LTE" rsrp="-116" rsrq="-15"/>
        <radio op="I TIM" rat="LTE" q="4.50" rsrp="-120" sinr="4" rsrq="-13"/>
      </extensions>
    </trkpt>
    <trkpt lat="45.5956484" lon="10.443196">
      <ele>256.3999938964844</ele>
      <time>2026-09-08T19:04:50.174+02:00</time>
      <extensions>
        <activity type="ON_FOOT" conf="90" state="moving" tsMs="1788887086435"/>
        <radio op="vodafone IT" rat="LTE" q="18.00" rsrp="-107" sinr="5" rsrq="-10"/>
        <radio op="I TIM" rat="LTE" q="5.00" rsrp="-115" sinr="0" rsrq="-14"/>
      </extensions>
    </trkpt>
    <trkpt lat="45.5956625" lon="10.443152">
      <ele>256.3999938964844</ele>
      <time>2026-09-08T19:05:24.452+02:00</time>
      <extensions>
        <activity type="UNKNOWN" conf="40" state="unknown" tsMs="1788887124343"/>
        <radio op="vodafone IT" rat="LTE" q="22.40" rsrp="-109" sinr="9" rsrq="-11"/>
        <radio op="I TIM" rat="LTE" q="8.00" rsrp="-109" sinr="0" rsrq="-11"/>
      </extensions>
    </trkpt>
    <trkpt lat="45.5956101" lon="10.443106">
      <ele>256.3999938964844</ele>
      <time>2026-09-08T19:06:50.689+02:00</time>
      <extensions>
        <activity type="UNKNOWN" conf="40" state="unknown" tsMs="1788887207110"/>
        <radio op="vodafone IT" rat="LTE" q="30.40" rsrp="-106" sinr="11" rsrq="-10"/>
        <radio op="I TIM" rat="LTE" q="10.20" rsrp="-108" sinr="1" rsrq="-11"/>
      </extensions>
    </trkpt>
    <trkpt lat="45.5956054" lon="10.4431489">
      <ele>256.3999938964844</ele>
      <time>2026-09-08T19:07:27.729+02:00</time>
      <extensions>
        <activity type="STILL" conf="64" state="still" tsMs="1788887245344"/>
        <radio op="vodafone IT" rat="LTE" q="8.00" rsrp="-115" sinr="3" rsrq="-12"/>
        <radio op="I TIM" rat="LTE" q="9.80" rsrp="-111" sinr="2" rsrq="-13"/>
      </extensions>
    </trkpt>
    <trkpt lat="45.5955147" lon="10.4432902">
      <ele>254.62651276281326</ele>
      <time>2026-09-08T19:09:50.811+02:00</time>
      <extensions>
        <activity type="UNKNOWN" conf="40" state="unknown" tsMs="1788887386759"/>
        <radio op="vodafone IT" rat="LTE" q="45.00" rsrp="-100" sinr="13" rsrq="-9"/>
        <radio op="I TIM" rat="LTE" q="12.60" rsrp="-116" sinr="9" rsrq="-12"/>
      </extensions>
    </trkpt>
    <trkpt lat="45.5954935" lon="10.443272">
      <ele>256.3999938964844</ele>
      <time>2026-09-08T19:10:24.99+02:00</time>
      <extensions>
        <activity type="ON_FOOT" conf="77" state="moving" tsMs="1788887422725"/>
        <radio op="vodafone IT" rat="LTE" q="29.40" rsrp="-104" sinr="9" rsrq="-8"/>
        <radio op="I TIM" rat="LTE" q="16.80" rsrp="-111" sinr="7" rsrq="-10"/>
      </extensions>
    </trkpt>
    <trkpt lat="45.5950989" lon="10.4431426">
      <ele>256.5</ele>
      <time>2026-09-08T19:11:10.135+02:00</time>
      <extensions>
        <activity type="ON_FOOT" conf="93" state="moving" tsMs="1788887465357"/>
        <radio op="vodafone IT" rat="LTE" q="18.00" rsrp="-95" sinr="1" rsrq="-12"/>
        <radio op="I TIM" rat="LTE" q="48.10" rsrp="-88" sinr="8" rsrq="-9"/>
      </extensions>
    </trkpt>
    <trkpt lat="45.5952387" lon="10.4433323">
      <ele>254.0164985514144</ele>
      <time>2026-09-08T19:11:42.31+02:00</time>
      <extensions>
        <activity type="UNKNOWN" conf="40" state="unknown" tsMs="1788887499126"/>
        <radio op="vodafone IT" rat="LTE" q="79.80" rsrp="-87" sinr="16" rsrq="-6"/>
        <radio op="I TIM" rat="LTE" q="73.60" rsrp="-93" sinr="18" rsrq="-10"/>
      </extensions>
    </trkpt>
    <trkpt lat="45.6027915" lon="10.4534781">
      <ele>257.70001220703125</ele>
      <time>2026-09-08T19:13:50.081+02:00</time>
      <extensions>
        <activity type="UNKNOWN" conf="40" state="unknown" tsMs="1788887618720"/>
        <radio op="vodafone IT" rat="LTE" q="66.00" rsrp="-95" sinr="17" rsrq="-7"/>
        <radio op="I TIM" rat="LTE" q="50.60" rsrp="-103" sinr="18" rsrq="-9"/>
      </extensions>
    </trkpt>
    <trkpt lat="45.6029056" lon="10.4534302">
      <ele>257.70001220703125</ele>
      <time>2026-09-08T19:14:24.007+02:00</time>
      <extensions>
        <activity type="UNKNOWN" conf="40" state="unknown" tsMs="1788887659352"/>
        <radio op="vodafone IT" rat="LTE" q="18.20" rsrp="-111" sinr="8" rsrq="-8"/>
        <radio op="I TIM" rat="LTE" q="28.50" rsrp="-106" sinr="10" rsrq="-9"/>
      </extensions>
    </trkpt>
    <trkpt lat="45.602555" lon="10.453684">
      <ele>261.5</ele>
      <time>2026-09-08T19:15:35.924+02:00</time>
      <extensions>
        <activity type="IN_VEHICLE" conf="72" state="moving" tsMs="1788887735905"/>
        <radio op="vodafone IT" rat="LTE" q="18.00" rsrp="-107" sinr="5" rsrq="-10"/>
        <radio op="I TIM" rat="LTE" q="26.60" rsrp="-106" sinr="9" rsrq="-13"/>
      </extensions>
    </trkpt>
    <trkpt lat="45.6025608" lon="10.4536867">
      <ele>261.5</ele>
      <time>2026-09-08T19:16:11.088+02:00</time>
      <extensions>
        <activity type="ON_FOOT" conf="86" state="moving" tsMs="1788887767752"/>
        <radio op="vodafone IT" rat="LTE" q="2.50" rsrp="-120" sinr="0" rsrq="-16"/>
        <radio op="I TIM" rat="LTE" q="4.50" rsrp="-116" sinr="0" rsrq="-14"/>
      </extensions>
    </trkpt>
    <trkpt lat="45.6025558" lon="10.4536859">
      <ele>261.5</ele>
      <time>2026-09-08T19:16:54.446+02:00</time>
      <extensions>
        <activity type="UNKNOWN" conf="40" state="unknown" tsMs="1788887813345"/>
        <radio op="vodafone IT" rat="LTE" q="5.40" rsrp="-116" sinr="1" rsrq="-11"/>
        <radio op="I TIM" rat="LTE" q="18.20" rsrp="-111" sinr="8" rsrq="-10"/>
      </extensions>
    </trkpt>
    <trkpt lat="45.6025574" lon="10.4536983">
      <ele>261.5</ele>
      <time>2026-09-08T19:17:38.135+02:00</time>
      <extensions>
        <activity type="UNKNOWN" conf="40" state="unknown" tsMs="1788887837759"/>
        <radio op="vodafone IT" rat="LTE" q="4.20" rsrp="-119" sinr="2" rsrq="-14"/>
        <radio op="I TIM" rat="LTE" q="8.80" rsrp="-114" sinr="3" rsrq="-10"/>
      </extensions>
    </trkpt>
    <trkpt lat="45.6025567" lon="10.4536962">
      <ele>261.5</ele>
      <time>2026-09-08T19:18:12.183+02:00</time>
      <extensions>
        <activity type="UNKNOWN" conf="40" state="unknown" tsMs="1788887891849"/>
        <radio op="vodafone IT" rat="LTE" rsrp="-123" rsrq="-17"/>
        <radio op="I TIM" rat="LTE" rsrp="-113" rsrq="-11"/>
      </extensions>
    </trkpt>
    <trkpt lat="45.6025568" lon="10.4536891">
      <ele>261.5</ele>
      <time>2026-09-08T19:19:13.469+02:00</time>
      <extensions>
        <activity type="STILL" conf="85" state="still" tsMs="1788887925879"/>
        <radio op="vodafone IT" rat="LTE" q="21.60" rsrp="-113" sinr="13" rsrq="-11"/>
        <radio op="I TIM" rat="LTE" q="5.60" rsrp="-118" sinr="3" rsrq="-12"/>
      </extensions>
    </trkpt>
    <trkpt lat="45.6025606" lon="10.4537054">
      <ele>261.5</ele>
      <time>2026-09-08T21:51:38.969+02:00</time>
      <extensions>
        <activity type="STILL" conf="100" state="still" tsMs="1788897088536"/>
        <radio op="vodafone IT" rat="LTE" rsrp="-111" rsrq="-15"/>
        <radio op="I TIM" rat="LTE" q="7.50" rsrp="-110" sinr="0" rsrq="-15"/>
      </extensions>
    </trkpt>
    <trkpt lat="45.6025812" lon="10.4537404">
      <ele>261.5</ele>
      <time>2026-09-08T21:52:40.594+02:00</time>
      <extensions>
        <activity type="STILL" conf="100" state="still" tsMs="1788897150257"/>
        <radio op="vodafone IT" rat="LTE" q="22.10" rsrp="-108" sinr="8" rsrq="-11"/>
        <radio op="I TIM" rat="LTE" q="16.00" rsrp="-105" sinr="3" rsrq="-13"/>
      </extensions>
    </trkpt>
  </trkseg></trk>
</gpx>
