<?xml version="1.0" encoding="UTF-8"?>
<gpx version="1.1" creator="CellGPX" xmlns="http://www.topografix.com/GPX/1/1">
  <trk><name>CellGPX</name><trkseg>
    <trkpt lat="45.6024705" lon="10.453651">
      <ele>261.6000061035156</ele>
      <time>2026-07-17T09:28:19.225+02:00</time>
      <extensions>
        <activity type="UNKNOWN" conf="40" state="unknown" tsMs="1784273287434"/>
        <radio op="vodafone IT" rat="LTE" q="17.00" rsrp="-108" sinr="5" rsrq="-12"/>
        <radio op="I TIM" rat="LTE" q="20.00" rsrp="-105" sinr="5" rsrq="-9"/>
      </extensions>
    </trkpt>
    <trkpt lat="45.6024713" lon="10.4536502">
      <ele>261.6000061035156</ele>
      <time>2026-07-17T09:28:29.196+02:00</time>
      <extensions>
        <activity type="STILL" conf="44" state="still" tsMs="1784273292473"/>
        <radio op="vodafone IT" rat="LTE" q="37.80" rsrp="-107" sinr="16" rsrq="-11"/>
        <radio op="I TIM" rat="LTE" q="28.80" rsrp="-107" sinr="11" rsrq="-9"/>
      </extensions>
    </trkpt>
    <trkpt lat="45.6024707" lon="10.4536509">
      <ele>261.6000061035156</ele>
      <time>2026-07-17T09:28:39.493+02:00</time>
      <extensions>
        <activity type="STILL" conf="100" state="still" tsMs="1784273316252"/>
        <radio op="vodafone IT" rat="LTE" q="22.40" rsrp="-111" sinr="11" rsrq="-9"/>
        <radio op="I TIM" rat="LTE" q="30.40" rsrp="-109" sinr="14" rsrq="-9"/>
      </extensions>
    </trkpt>
    <trkpt lat="45.6024669" lon="10.4536529">
      <ele>261.6000061035156</ele>
      <time>2026-07-17T09:28:49.32+02:00</time>
      <extensions>
        <activity type="STILL" conf="100" state="still" tsMs="1784273316252"/>
        <radio op="vodafone IT" rat="LTE" q="11.70" rsrp="-112" sinr="4" rsrq="-11"/>
        <radio op="I TIM" rat="LTE" rsrp="-107" rsrq="-14"/>
      </extensions>
    </trkpt>
    <trkpt lat="45.6024575" lon="10.4536626">
      <ele>261.6000061035156</ele>
      <time>2026-07-17T09:28:59.22+02:00</time>
      <extensions>
        <activity type="UNKNOWN" conf="40" state="unknown" tsMs="1784273321562"/>
        <radio op="vodafone IT" rat="LTE" q="13.00" rsrp="-115" sinr="8" rsrq="-10"/>
        <radio op="I TIM" rat="LTE" q="12.00" rsrp="-105" sinr="1" rsrq="-15"/>
      </extensions>
    </trkpt>
    <trkpt lat="45.6025023" lon="10.4536816">
      <ele>261.6000061035156</ele>
      <time>2026-07-17T09:29:09.697+02:00</time>
      <extensions>
        <activity type="UNKNOWN" conf="40" state="unknown" tsMs="1784273345411"/>
        <radio op="vodafone IT" rat="LTE" q="27.00" rsrp="-107" sinr="10" rsrq="-9"/>
        <radio op="I TIM" rat="LTE" rsrp="-103" rsrq="-13"/>
      </extensions>
    </trkpt>
    <trkpt lat="45.6025944" lon="10.4536232">
      <ele>261.5</ele>
      <time>2026-07-17T09:29:19.878+02:00</time>
      <extensions>
        <activity type="UNKNOWN" conf="40" state="unknown" tsMs="1784273345411"/>
        <radio op="vodafone IT" rat="LTE" q="25.20" rsrp="-107" sinr="9" rsrq="-7"/>
        <radio op="I TIM" rat="LTE" q="18.70" rsrp="-108" sinr="6" rsrq="-14"/>
      </extensions>
    </trkpt>
    <trkpt lat="45.6026602" lon="10.4535917">
      <ele>261.5</ele>
      <time>2026-07-17T09:29:29.247+02:00</time>
      <extensions>
        <activity type="ON_FOOT" conf="93" state="moving" tsMs="1784273369164"/>
        <radio op="vodafone IT" rat="LTE" q="13.20" rsrp="-113" sinr="6" rsrq="-9"/>
        <radio op="I TIM" rat="LTE" q="6.50" rsrp="-112" sinr="0" rsrq="-12"/>
      </extensions>
    </trkpt>
    <trkpt lat="45.6026386" lon="10.4535862">
      <ele>261.6000061035156</ele>
      <time>2026-07-17T09:29:40.154+02:00</time>
      <extensions>
        <activity type="UNKNOWN" conf="40" state="unknown" tsMs="1784273374589"/>
        <radio op="vodafone IT" rat="LTE" rsrp="-126" rsrq="-15"/>
        <radio op="I TIM" rat="LTE" q="11.70" rsrp="-116" sinr="8" rsrq="-13"/>
      </extensions>
    </trkpt>
    <trkpt lat="45.6026246" lon="10.4536033">
      <ele>261.6000061035156</ele>
      <time>2026-07-17T09:29:50.492+02:00</time>
      <extensions>
        <activity type="UNKNOWN" conf="40" state="unknown" tsMs="1784273374589"/>
        <radio op="vodafone IT" rat="LTE" q="4.50" rsrp="-116" sinr="0" rsrq="-11"/>
        <radio op="I TIM" rat="LTE" rsrp="-116" rsrq="-12"/>
      </extensions>
    </trkpt>
    <trkpt lat="45.6026161" lon="10.4536207">
      <ele>261.6000061035156</ele>
      <time>2026-07-17T09:30:00.317+02:00</time>
      <extensions>
        <activity type="UNKNOWN" conf="40" state="unknown" tsMs="1784273398132"/>
        <radio op="vodafone IT" rat="LTE" q="14.30" rsrp="-112" sinr="6" rsrq="-10"/>
        <radio op="I TIM" rat="LTE" q="15.60" rsrp="-113" sinr="8" rsrq="-14"/>
      </extensions>
    </trkpt>
    <trkpt lat="45.6026091" lon="10.4536371">
      <ele>261.6000061035156</ele>
      <time>2026-07-17T09:30:06.175+02:00</time>
      <extensions>
        <activity type="UNKNOWN" conf="40" state="unknown" tsMs="1784273408166"/>
        <radio op="vodafone IT" rat="LTE" q="10.80" rsrp="-113" sinr="4" rsrq="-11"/>
        <radio op="I TIM" rat="LTE" rsrp="-116" rsrq="-16"/>
      </extensions>
    </trkpt>
    <trkpt lat="45.6025551" lon="10.45366">
      <ele>261.6000061035156</ele>
      <time>2026-07-17T09:30:18.355+02:00</time>
      <extensions>
        <activity type="UNKNOWN" conf="40" state="unknown" tsMs="1784273413504"/>
        <radio op="vodafone IT" rat="LTE" q="5.40" rsrp="-119" sinr="4" rsrq="-9"/>
        <radio op="I TIM" rat="LTE" q="3.50" rsrp="-120" sinr="2" rsrq="-14"/>
      </extensions>
    </trkpt>
    <trkpt lat="45.6025644" lon="10.4536692">
      <ele>261.6000061035156</ele>
      <time>2026-07-17T09:30:26.755+02:00</time>
      <extensions>
        <activity type="UNKNOWN" conf="40" state="unknown" tsMs="1784273413504"/>
        <radio op="vodafone IT" rat="LTE" rsrp="-118" rsrq="-12"/>
        <radio op="I TIM" rat="LTE" q="8.10" rsrp="-116" sinr="4" rsrq="-13"/>
      </extensions>
    </trkpt>
    <trkpt lat="45.6025682" lon="10.4536657">
      <ele>261.6000061035156</ele>
      <time>2026-07-17T09:30:39.963+02:00</time>
      <extensions>
        <activity type="STILL" conf="96" state="still" tsMs="1784273437769"/>
        <radio op="vodafone IT" rat="LTE" q="7.20" rsrp="-117" sinr="4" rsrq="-11"/>
        <radio op="I TIM" rat="LTE" q="7.70" rsrp="-114" sinr="2" rsrq="-12"/>
      </extensions>
    </trkpt>
    <trkpt lat="45.6025622" lon="10.4536695">
      <ele>261.6000061035156</ele>
      <time>2026-07-17T09:30:50.358+02:00</time>
      <extensions>
        <activity type="UNKNOWN" conf="40" state="unknown" tsMs="1784273443166"/>
        <radio op="vodafone IT" rat="LTE" q="16.00" rsrp="-117" sinr="15" rsrq="-12"/>
        <radio op="I TIM" rat="LTE" q="15.40" rsrp="-114" sinr="9" rsrq="-11"/>
      </extensions>
    </trkpt>
    <trkpt lat="45.6025637" lon="10.453672">
      <ele>261.6000061035156</ele>
      <time>2026-07-17T09:30:54.479+02:00</time>
      <extensions>
        <activity type="UNKNOWN" conf="40" state="unknown" tsMs="1784273443166"/>
        <radio op="vodafone IT" rat="LTE" rsrp="-114" rsrq="-11"/>
        <radio op="I TIM" rat="LTE" q="21.60" rsrp="-107" sinr="7" rsrq="-12"/>
      </extensions>
    </trkpt>
    <trkpt lat="45.6025509" lon="10.4536633">
      <ele>261.6000061035156</ele>
      <time>2026-07-17T09:31:10.917+02:00</time>
      <extensions>
        <activity type="UNKNOWN" conf="40" state="unknown" tsMs="1784273469356"/>
        <radio op="vodafone IT" rat="LTE" q="5.60" rsrp="-117" sinr="2" rsrq="-11"/>
        <radio op="I TIM" rat="LTE" q="18.00" rsrp="-116" sinr="15" rsrq="-12"/>
      </extensions>
    </trkpt>
    <trkpt lat="45.6025527" lon="10.4536435">
      <ele>261.6000061035156</ele>
      <time>2026-07-17T09:31:15.258+02:00</time>
      <extensions>
        <activity type="UNKNOWN" conf="40" state="unknown" tsMs="1784273469356"/>
        <radio op="vodafone IT" rat="LTE" rsrp="-114" rsrq="-13"/>
        <radio op="I TIM" rat="LTE" q="44.10" rsrp="-104" sinr="16" rsrq="-9"/>
      </extensions>
    </trkpt>
    <trkpt lat="45.6025648" lon="10.4536581">
      <ele>261.6000061035156</ele>
      <time>2026-07-17T09:32:19.424+02:00</time>
      <extensions>
        <activity type="UNKNOWN" conf="40" state="unknown" tsMs="1784273536213"/>
        <radio op="vodafone IT" rat="LTE" q="12.10" rsrp="-114" sinr="6" rsrq="-10"/>
        <radio op="I TIM" rat="LTE" q="13.00" rsrp="-112" sinr="5" rsrq="-11"/>
      </extensions>
    </trkpt>
    <trkpt lat="45.6022657" lon="10.4535299">
      <ele>261.6000061035156</ele>
      <time>2026-07-17T09:32:58.396+02:00</time>
      <extensions>
        <activity type="ON_FOOT" conf="93" state="moving" tsMs="1784273573177"/>
        <radio op="vodafone IT" rat="LTE" q="11.20" rsrp="-111" sinr="3" rsrq="-10"/>
        <radio op="I TIM" rat="LTE" rsrp="-111" rsrq="-16"/>
      </extensions>
    </trkpt>
    <trkpt lat="45.6020701" lon="10.4533876">
      <ele>261.6000061035156</ele>
      <time>2026-07-17T09:33:43.153+02:00</time>
      <extensions>
        <activity type="ON_FOOT" conf="94" state="moving" tsMs="1784273617634"/>
        <radio op="vodafone IT" rat="LTE" q="34.20" rsrp="-106" sinr="13" rsrq="-8"/>
        <radio op="I TIM" rat="LTE" q="32.00" rsrp="-105" sinr="11" rsrq="-9"/>
      </extensions>
    </trkpt>
    <trkpt lat="45.6013516" lon="10.4536089">
      <ele>258.8189780029023</ele>
      <time>2026-07-17T09:34:35.082+02:00</time>
      <extensions>
        <activity type="ON_FOOT" conf="96" state="moving" tsMs="1784273670168"/>
        <radio op="vodafone IT" rat="LTE" q="50.00" rsrp="-100" sinr="15" rsrq="-7"/>
        <radio op="I TIM" rat="LTE" rsrp="-101" rsrq="-11"/>
      </extensions>
    </trkpt>
    <trkpt lat="45.6007572" lon="10.4533058">
      <ele>260.8000183105469</ele>
      <time>2026-07-17T09:35:16.399+02:00</time>
      <extensions>
        <activity type="ON_FOOT" conf="96" state="moving" tsMs="1784273714143"/>
        <radio op="vodafone IT" rat="LTE" q="54.00" rsrp="-98" sinr="15" rsrq="-10"/>
        <radio op="I TIM" rat="LTE" q="39.20" rsrp="-97" sinr="9" rsrq="-10"/>
      </extensions>
    </trkpt>
    <trkpt lat="45.6008454" lon="10.4528299">
      <ele>259.0</ele>
      <time>2026-07-17T09:35:47.005+02:00</time>
      <extensions>
        <activity type="ON_FOOT" conf="97" state="moving" tsMs="1784273744760"/>
        <radio op="vodafone IT" rat="LTE" rsrp="-114" rsrq="-9"/>
        <radio op="I TIM" rat="LTE" rsrp="-118" rsrq="-13"/>
      </extensions>
    </trkpt>
    <trkpt lat="45.6008309" lon="10.4528377">
      <ele>259.0</ele>
      <time>2026-07-17T09:36:28.091+02:00</time>
      <extensions>
        <activity type="UNKNOWN" conf="40" state="unknown" tsMs="1784273784048"/>
        <radio op="vodafone IT" rat="LTE" q="23.80" rsrp="-111" sinr="12" rsrq="-11"/>
        <radio op="I TIM" rat="LTE" q="32.40" rsrp="-107" sinr="13" rsrq="-11"/>
      </extensions>
    </trkpt>
    <trkpt lat="45.6008215" lon="10.4528252">
      <ele>259.0</ele>
      <time>2026-07-17T09:36:59.221+02:00</time>
      <extensions>
        <activity type="STILL" conf="99" state="still" tsMs="1784273815313"/>
        <radio op="vodafone IT" rat="LTE" rsrp="-109" rsrq="-9"/>
        <radio op="I TIM" rat="LTE" q="19.50" rsrp="-110" sinr="8" rsrq="-10"/>
      </extensions>
    </trkpt>
    <trkpt lat="45.6008308" lon="10.4528253">
      <ele>259.0</ele>
      <time>2026-07-17T09:37:29.808+02:00</time>
      <extensions>
        <activity type="STILL" conf="74" state="still" tsMs="1784273846477"/>
        <radio op="vodafone IT" rat="LTE" rsrp="-109" rsrq="-8"/>
        <radio op="I TIM" rat="LTE" rsrp="-113" rsrq="-11"/>
      </extensions>
    </trkpt>
    <trkpt lat="45.6008304" lon="10.4528183">
      <ele>259.0</ele>
      <time>2026-07-17T09:38:03.101+02:00</time>
      <extensions>
        <activity type="STILL" conf="35" state="still" tsMs="1784273878990"/>
        <radio op="vodafone IT" rat="LTE" rsrp="-111" rsrq="-10"/>
        <radio op="I TIM" rat="LTE" q="17.60" rsrp="-109" sinr="6" rsrq="-11"/>
      </extensions>
    </trkpt>
    <trkpt lat="45.6008307" lon="10.452815">
      <ele>259.0</ele>
      <time>2026-07-17T09:38:34.247+02:00</time>
      <extensions>
        <activity type="STILL" conf="65" state="still" tsMs="1784273910337"/>
        <radio op="vodafone IT" rat="LTE" rsrp="-109" rsrq="-9"/>
        <radio op="I TIM" rat="LTE" q="17.60" rsrp="-109" sinr="6" rsrq="-11"/>
      </extensions>
    </trkpt>
    <trkpt lat="45.6008225" lon="10.4528242">
      <ele>261.6000061035156</ele>
      <time>2026-07-17T09:39:05.481+02:00</time>
      <extensions>
        <activity type="UNKNOWN" conf="40" state="unknown" tsMs="1784273941424"/>
        <radio op="vodafone IT" rat="LTE" q="11.20" rsrp="-111" sinr="3" rsrq="-7"/>
        <radio op="I TIM" rat="LTE" q="17.00" rsrp="-108" sinr="5" rsrq="-10"/>
      </extensions>
    </trkpt>
    <trkpt lat="45.6008472" lon="10.4527779">
      <ele>259.0</ele>
      <time>2026-07-17T10:03:09.443+02:00</time>
      <extensions>
        <activity type="ON_FOOT" conf="96" state="moving" tsMs="1784275406249"/>
        <radio op="vodafone IT" rat="LTE" q="36.00" rsrp="-82" sinr="4" rsrq="-7"/>
        <radio op="I TIM" rat="LTE" rsrp="-92" rsrq="-10"/>
      </extensions>
    </trkpt>
    <trkpt lat="45.6009143" lon="10.4534244">
      <ele>259.0</ele>
      <time>2026-07-17T10:03:40.464+02:00</time>
      <extensions>
        <activity type="ON_FOOT" conf="97" state="moving" tsMs="1784275416909"/>
        <radio op="vodafone IT" rat="LTE" q="52.00" rsrp="-84" sinr="8" rsrq="-7"/>
        <radio op="I TIM" rat="LTE" q="54.40" rsrp="-91" sinr="11" rsrq="-13"/>
      </extensions>
    </trkpt>
    <trkpt lat="45.6009143" lon="10.4534244">
      <ele>259.0</ele>
      <time>2026-07-17T10:04:11.518+02:00</time>
      <extensions>
        <activity type="ON_FOOT" conf="94" state="moving" tsMs="1784275451149"/>
        <radio op="vodafone IT" rat="LTE" rsrp="-106" rsrq="-15"/>
        <radio op="I TIM" rat="LTE" rsrp="-103" rsrq="-13"/>
      </extensions>
    </trkpt>
    <trkpt lat="45.6011518" lon="10.4536381">
      <ele>257.9190174715683</ele>
      <time>2026-07-17T10:04:42.399+02:00</time>
      <extensions>
        <activity type="UNKNOWN" conf="40" state="unknown" tsMs="1784275477048"/>
        <radio op="vodafone IT" rat="LTE" q="9.00" rsrp="-110" sinr="1" rsrq="-12"/>
        <radio op="I TIM" rat="LTE" rsrp="-106" rsrq="-13"/>
      </extensions>
    </trkpt>
    <trkpt lat="45.6011506" lon="10.4536377">
      <ele>257.15181427600373</ele>
      <time>2026-07-17T10:05:36.251+02:00</time>
      <extensions>
        <activity type="UNKNOWN" conf="40" state="unknown" tsMs="1784275532015"/>
        <radio op="vodafone IT" rat="LTE" q="13.60" rsrp="-108" sinr="3" rsrq="-14"/>
        <radio op="I TIM" rat="LTE" q="7.20" rsrp="-117" sinr="4" rsrq="-13"/>
      </extensions>
    </trkpt>
    <trkpt lat="45.6011539" lon="10.4536391">
      <ele>258.59621444038714</ele>
      <time>2026-07-17T10:06:15.476+02:00</time>
      <extensions>
        <activity type="UNKNOWN" conf="40" state="unknown" tsMs="1784275553224"/>
        <radio op="vodafone IT" rat="LTE" q="8.80" rsrp="-117" sinr="6" rsrq="-10"/>
        <radio op="I TIM" rat="LTE" q="6.60" rsrp="-114" sinr="1" rsrq="-12"/>
      </extensions>
    </trkpt>
    <trkpt lat="45.6011914" lon="10.4536365">
      <ele>258.4594917514205</ele>
      <time>2026-07-17T10:06:57.93+02:00</time>
      <extensions>
        <activity type="UNKNOWN" conf="40" state="unknown" tsMs="1784275617221"/>
        <radio op="vodafone IT" rat="LTE" q="10.50" rsrp="-104" sinr="0" rsrq="-14"/>
        <radio op="I TIM" rat="LTE" q="37.80" rsrp="-98" sinr="9" rsrq="-7"/>
      </extensions>
    </trkpt>
    <trkpt lat="45.6012312" lon="10.4536293">
      <ele>257.86128922591513</ele>
      <time>2026-07-17T10:07:29.132+02:00</time>
      <extensions>
        <activity type="STILL" conf="96" state="still" tsMs="1784275645616"/>
        <radio op="vodafone IT" rat="LTE" rsrp="-96" rsrq="-15"/>
        <radio op="I TIM" rat="LTE" rsrp="-95" rsrq="-19"/>
      </extensions>
    </trkpt>
    <trkpt lat="45.6012552" lon="10.4534419">
      <ele>260.8000183105469</ele>
      <time>2026-07-17T11:03:49.132+02:00</time>
      <extensions>
        <activity type="ON_FOOT" conf="91" state="moving" tsMs="1784279042860"/>
        <radio op="vodafone IT" rat="LTE" q="57.60" rsrp="-93" sinr="13" rsrq="-10"/>
        <radio op="I TIM" rat="LTE" q="38.40" rsrp="-93" sinr="7" rsrq="-8"/>
      </extensions>
    </trkpt>
    <trkpt lat="45.6014495" lon="10.4535808">
      <ele>261.1000061035156</ele>
      <time>2026-07-17T11:04:29.985+02:00</time>
      <extensions>
        <activity type="ON_FOOT" conf="96" state="moving" tsMs="1784279065208"/>
        <radio op="vodafone IT" rat="LTE" q="46.00" rsrp="-102" sinr="15" rsrq="-9"/>
        <radio op="I TIM" rat="LTE" q="80.00" rsrp="-93" sinr="28" rsrq="-9"/>
      </extensions>
    </trkpt>
    <trkpt lat="45.6022432" lon="10.4534679">
      <ele>261.6000061035156</ele>
      <time>2026-07-17T11:05:09.927+02:00</time>
      <extensions>
        <activity type="ON_FOOT" conf="96" state="moving" tsMs="1784279109027"/>
        <radio op="vodafone IT" rat="LTE" q="28.50" rsrp="-106" sinr="10" rsrq="-10"/>
        <radio op="I TIM" rat="LTE" q="42.00" rsrp="-104" sinr="15" rsrq="-10"/>
      </extensions>
    </trkpt>
    <trkpt lat="45.602191" lon="10.4534079">
      <ele>261.6000061035156</ele>
      <time>2026-07-17T11:05:52.558+02:00</time>
      <extensions>
        <activity type="UNKNOWN" conf="40" state="unknown" tsMs="1784279151629"/>
        <radio op="vodafone IT" rat="LTE" q="19.50" rsrp="-110" sinr="8" rsrq="-9"/>
        <radio op="I TIM" rat="LTE" rsrp="-109" rsrq="-13"/>
      </extensions>
    </trkpt>
    <trkpt lat="45.6022381" lon="10.4534387">
      <ele>261.6000061035156</ele>
      <time>2026-07-17T11:06:23.947+02:00</time>
      <extensions>
        <activity type="STILL" conf="99" state="still" tsMs="1784279175236"/>
        <radio op="vodafone IT" rat="LTE" q="9.60" rsrp="-109" sinr="1" rsrq="-11"/>
        <radio op="I TIM" rat="LTE" rsrp="-112" rsrq="-13"/>
      </extensions>
    </trkpt>
    <trkpt lat="45.6025891" lon="10.4536086">
      <ele>261.5</ele>
      <time>2026-07-17T11:06:58.999+02:00</time>
      <extensions>
        <activity type="ON_FOOT" conf="96" state="moving" tsMs="1784279215042"/>
        <radio op="vodafone IT" rat="LTE" q="22.40" rsrp="-109" sinr="9" rsrq="-10"/>
        <radio op="I TIM" rat="LTE" q="33.60" rsrp="-101" sinr="9" rsrq="-11"/>
      </extensions>
    </trkpt>
    <trkpt lat="45.6025519" lon="10.4536688">
      <ele>261.6000061035156</ele>
      <time>2026-07-17T11:07:30.227+02:00</time>
      <extensions>
        <activity type="ON_FOOT" conf="84" state="moving" tsMs="1784279246434"/>
        <radio op="vodafone IT" rat="LTE" q="23.10" rsrp="-104" sinr="6" rsrq="-13"/>
        <radio op="I TIM" rat="LTE" q="6.30" rsrp="-116" sinr="2" rsrq="-11"/>
      </extensions>
    </trkpt>
    <trkpt lat="45.6025541" lon="10.4536767">
      <ele>261.6000061035156</ele>
      <time>2026-07-17T11:08:01.89+02:00</time>
      <extensions>
        <activity type="UNKNOWN" conf="40" state="unknown" tsMs="1784279278056"/>
        <radio op="vodafone IT" rat="LTE" q="8.00" rsrp="-109" sinr="0" rsrq="-11"/>
        <radio op="I TIM" rat="LTE" q="5.60" rsrp="-117" sinr="2" rsrq="-12"/>
      </extensions>
    </trkpt>
    <trkpt lat="45.6025527" lon="10.4536545">
      <ele>261.6000061035156</ele>
      <time>2026-07-17T11:08:33.328+02:00</time>
      <extensions>
        <activity type="UNKNOWN" conf="40" state="unknown" tsMs="1784279309722"/>
        <radio op="vodafone IT" rat="LTE" q="14.00" rsrp="-111" sinr="5" rsrq="-10"/>
        <radio op="I TIM" rat="LTE" q="19.80" rsrp="-107" sinr="6" rsrq="-13"/>
      </extensions>
    </trkpt>
    <trkpt lat="45.6025491" lon="10.4536694">
      <ele>261.6000061035156</ele>
      <time>2026-07-17T11:09:04.665+02:00</time>
      <extensions>
        <activity type="UNKNOWN" conf="40" state="unknown" tsMs="1784279341104"/>
        <radio op="vodafone IT" rat="OTHER"/>
        <radio op="I TIM" rat="LTE" q="3.60" rsrp="-121" sinr="4" rsrq="-11"/>
      </extensions>
    </trkpt>
    <trkpt lat="45.6026464" lon="10.4536952">
      <ele>261.6000061035156</ele>
      <time>2026-07-17T11:09:48.149+02:00</time>
      <extensions>
        <activity type="UNKNOWN" conf="40" state="unknown" tsMs="1784279381546"/>
        <radio op="vodafone IT" rat="WCDMA"/>
        <radio op="I TIM" rat="LTE" rsrp="-111" rsrq="-11"/>
      </extensions>
    </trkpt>
    <trkpt lat="45.6026625" lon="10.4537263">
      <ele>261.6000061035156</ele>
      <time>2026-07-17T11:10:25.148+02:00</time>
      <extensions>
        <activity type="UNKNOWN" conf="40" state="unknown" tsMs="1784279422814"/>
        <radio op="vodafone IT" rat="LTE" q="5.60" rsrp="-117" sinr="2" rsrq="-12"/>
        <radio op="I TIM" rat="LTE" q="14.40" rsrp="-116" sinr="11" rsrq="-11"/>
      </extensions>
    </trkpt>
    <trkpt lat="45.6025518" lon="10.4536672">
      <ele>261.6000061035156</ele>
      <time>2026-07-17T11:11:03.02+02:00</time>
      <extensions>
        <activity type="UNKNOWN" conf="40" state="unknown" tsMs="1784279461444"/>
        <radio op="vodafone IT" rat="LTE" q="5.40" rsrp="-116" sinr="1" rsrq="-12"/>
        <radio op="I TIM" rat="LTE" q="8.10" rsrp="-116" sinr="4" rsrq="-12"/>
      </extensions>
    </trkpt>
    <trkpt lat="45.6026711" lon="10.4538721">
      <ele>261.6000061035156</ele>
      <time>2026-07-17T11:11:42.148+02:00</time>
      <extensions>
        <activity type="UNKNOWN" conf="40" state="unknown" tsMs="1784279493669"/>
        <radio op="vodafone IT" rat="LTE" q="3.00" rsrp="-119" sinr="0" rsrq="-12"/>
        <radio op="I TIM" rat="LTE" q="22.80" rsrp="-106" sinr="7" rsrq="-13"/>
      </extensions>
    </trkpt>
    <trkpt lat="45.6026223" lon="10.4539878">
      <ele>261.6000061035156</ele>
      <time>2026-07-17T11:12:27.148+02:00</time>
      <extensions>
        <activity type="UNKNOWN" conf="40" state="unknown" tsMs="1784279542565"/>
        <radio op="vodafone IT" rat="LTE" q="6.00" rsrp="-115" sinr="1" rsrq="-12"/>
        <radio op="I TIM" rat="LTE" q="30.80" rsrp="-103" sinr="9" rsrq="-10"/>
      </extensions>
    </trkpt>
    <trkpt lat="45.6026418" lon="10.453917">
      <ele>261.6000061035156</ele>
      <time>2026-07-17T11:13:08.148+02:00</time>
      <extensions>
        <activity type="UNKNOWN" conf="40" state="unknown" tsMs="1784279579815"/>
        <radio op="vodafone IT" rat="LTE" q="12.10" rsrp="-114" sinr="6" rsrq="-12"/>
        <radio op="I TIM" rat="LTE" q="22.80" rsrp="-106" sinr="7" rsrq="-12"/>
      </extensions>
    </trkpt>
    <trkpt lat="45.6027036" lon="10.4538803">
      <ele>261.6000061035156</ele>
      <time>2026-07-17T11:13:52.148+02:00</time>
      <extensions>
        <activity type="UNKNOWN" conf="40" state="unknown" tsMs="1784279628947"/>
        <radio op="vodafone IT" rat="LTE" q="9.90" rsrp="-114" sinr="4" rsrq="-9"/>
        <radio op="I TIM" rat="LTE" q="24.00" rsrp="-105" sinr="7" rsrq="-13"/>
      </extensions>
    </trkpt>
    <trkpt lat="45.6025538" lon="10.4536603">
      <ele>261.6000061035156</ele>
      <time>2026-07-17T11:14:32.463+02:00</time>
      <extensions>
        <activity type="UNKNOWN" conf="40" state="unknown" tsMs="1784279666244"/>
        <radio op="vodafone IT" rat="LTE" q="6.30" rsrp="-116" sinr="2" rsrq="-12"/>
        <radio op="I TIM" rat="LTE" q="27.30" rsrp="-104" sinr="8" rsrq="-11"/>
      </extensions>
    </trkpt>
    <trkpt lat="45.6025601" lon="10.4536159">
      <ele>259.1146780699721</ele>
      <time>2026-07-17T11:15:10.388+02:00</time>
      <extensions>
        <activity type="UNKNOWN" conf="40" state="unknown" tsMs="1784279705434"/>
        <radio op="vodafone IT" rat="LTE" rsrp="-113" rsrq="-11"/>
        <radio op="I TIM" rat="LTE" q="8.40" rsrp="-111" sinr="1" rsrq="-12"/>
      </extensions>
    </trkpt>
    <trkpt lat="45.6025588" lon="10.4536855">
      <ele>261.6000061035156</ele>
      <time>2026-07-17T11:15:42.222+02:00</time>
      <extensions>
        <activity type="UNKNOWN" conf="40" state="unknown" tsMs="1784279738437"/>
        <radio op="vodafone IT" rat="LTE" q="6.40" rsrp="-117" sinr="3" rsrq="-13"/>
        <radio op="I TIM" rat="LTE" q="10.00" rsrp="-115" sinr="5" rsrq="-14"/>
      </extensions>
    </trkpt>
    <trkpt lat="45.6025535" lon="10.4536769">
      <ele>261.6000061035156</ele>
      <time>2026-07-17T11:16:13.724+02:00</time>
      <extensions>
        <activity type="ON_FOOT" conf="83" state="moving" tsMs="1784279769948"/>
        <radio op="vodafone IT" rat="LTE" q="6.30" rsrp="-116" sinr="2" rsrq="-10"/>
        <radio op="I TIM" rat="LTE" q="7.20" rsrp="-113" sinr="1" rsrq="-15"/>
      </extensions>
    </trkpt>
    <trkpt lat="45.602556" lon="10.4535737">
      <ele>261.6000061035156</ele>
      <time>2026-07-17T11:17:08.525+02:00</time>
      <extensions>
        <activity type="UNKNOWN" conf="40" state="unknown" tsMs="1784279812276"/>
        <radio op="vodafone IT" rat="LTE" q="13.20" rsrp="-114" sinr="7" rsrq="-12"/>
        <radio op="I TIM" rat="LTE" q="9.90" rsrp="-114" sinr="4" rsrq="-14"/>
      </extensions>
    </trkpt>
    <trkpt lat="45.6025673" lon="10.4537002">
      <ele>261.6000061035156</ele>
      <time>2026-07-17T11:17:57.644+02:00</time>
      <extensions>
        <activity type="UNKNOWN" conf="40" state="unknown" tsMs="1784279876319"/>
        <radio op="vodafone IT" rat="LTE" q="5.00" rsrp="-120" sinr="5" rsrq="-12"/>
        <radio op="I TIM" rat="LTE" q="32.00" rsrp="-109" sinr="15" rsrq="-11"/>
      </extensions>
    </trkpt>
    <trkpt lat="45.6025692" lon="10.4537489">
      <ele>261.6000061035156</ele>
      <time>2026-07-17T11:18:39.395+02:00</time>
      <extensions>
        <activity type="UNKNOWN" conf="40" state="unknown" tsMs="1784279916727"/>
        <radio op="vodafone IT" rat="LTE" q="24.70" rsrp="-112" sinr="14" rsrq="-11"/>
        <radio op="I TIM" rat="LTE" q="23.80" rsrp="-108" sinr="9" rsrq="-12"/>
      </extensions>
    </trkpt>
    <trkpt lat="45.6025697" lon="10.4537913">
      <ele>261.6000061035156</ele>
      <time>2026-07-17T11:21:33.242+02:00</time>
      <extensions>
        <activity type="UNKNOWN" conf="40" state="unknown" tsMs="1784280110087"/>
        <radio op="vodafone IT" rat="LTE" rsrp="-116" rsrq="-13"/>
        <radio op="I TIM" rat="LTE" rsrp="-116" rsrq="-15"/>
      </extensions>
    </trkpt>
    <trkpt lat="45.6025536" lon="10.4536536">
      <ele>259.9135319162545</ele>
      <time>2026-07-17T11:22:06.776+02:00</time>
      <extensions>
        <activity type="STILL" conf="34" state="still" tsMs="1784280126275"/>
        <radio op="vodafone IT" rat="LTE" q="4.50" rsrp="-120" sinr="4" rsrq="-13"/>
        <radio op="I TIM" rat="LTE" rsrp="-113" rsrq="-11"/>
      </extensions>
    </trkpt>
    <trkpt lat="45.6025703" lon="10.4536557">
      <ele>261.6000061035156</ele>
      <time>2026-07-17T11:22:55.859+02:00</time>
      <extensions>
        <activity type="UNKNOWN" conf="40" state="unknown" tsMs="1784280175261"/>
        <radio op="vodafone IT" rat="LTE" rsrp="-113" rsrq="-14"/>
        <radio op="I TIM" rat="LTE" rsrp="-118" rsrq="-15"/>
      </extensions>
    </trkpt>
    <trkpt lat="45.6025543" lon="10.4536295">
      <ele>261.6000061035156</ele>
      <time>2026-07-17T11:23:30.982+02:00</time>
      <extensions>
        <activity type="UNKNOWN" conf="40" state="unknown" tsMs="1784280209890"/>
        <radio op="vodafone IT" rat="LTE" q="11.00" rsrp="-114" sinr="5" rsrq="-12"/>
        <radio op="I TIM" rat="LTE" q="18.00" rsrp="-113" sinr="10" rsrq="-15"/>
      </extensions>
    </trkpt>
    <trkpt lat="45.6025663" lon="10.4537439">
      <ele>261.6000061035156</ele>
      <time>2026-07-17T11:24:17.266+02:00</time>
      <extensions>
        <activity type="UNKNOWN" conf="40" state="unknown" tsMs="1784280256884"/>
        <radio op="vodafone IT" rat="LTE" q="15.60" rsrp="-113" sinr="8" rsrq="-13"/>
        <radio op="I TIM" rat="LTE" rsrp="-119" rsrq="-13"/>
      </extensions>
    </trkpt>
    <trkpt lat="45.6025522" lon="10.4536243">
      <ele>261.6000061035156</ele>
      <time>2026-07-17T11:25:12.84+02:00</time>
      <extensions>
        <activity type="UNKNOWN" conf="40" state="unknown" tsMs="1784280311893"/>
        <radio op="vodafone IT" rat="LTE" q="15.00" rsrp="-110" sinr="5" rsrq="-14"/>
        <radio op="I TIM" rat="LTE" q="19.80" rsrp="-107" sinr="6" rsrq="-12"/>
      </extensions>
    </trkpt>
    <trkpt lat="45.6026878" lon="10.4538397">
      <ele>261.6000061035156</ele>
      <time>2026-07-17T13:17:07.231+02:00</time>
      <extensions>
        <activity type="ON_FOOT" conf="81" state="moving" tsMs="1784287016073"/>
        <radio op="vodafone IT" rat="LTE" q="18.70" rsrp="-108" sinr="6" rsrq="-12"/>
        <radio op="I TIM" rat="LTE" rsrp="-119" rsrq="-13"/>
      </extensions>
    </trkpt>
    <trkpt lat="45.602629" lon="10.4538163">
      <ele>261.6000061035156</ele>
      <time>2026-07-17T13:17:17.222+02:00</time>
      <extensions>
        <activity type="UNKNOWN" conf="40" state="unknown" tsMs="1784287019564"/>
        <radio op="vodafone IT" rat="LTE" q="9.60" rsrp="-113" sinr="3" rsrq="-12"/>
        <radio op="I TIM" rat="LTE" rsrp="-119" rsrq="-11"/>
      </extensions>
    </trkpt>
    <trkpt lat="45.6026178" lon="10.4538063">
      <ele>261.6000061035156</ele>
      <time>2026-07-17T13:17:27.293+02:00</time>
      <extensions>
        <activity type="STILL" conf="32" state="still" tsMs="1784287045183"/>
        <radio op="vodafone IT" rat="LTE" q="20.80" rsrp="-109" sinr="8" rsrq="-9"/>
        <radio op="I TIM" rat="LTE" q="22.40" rsrp="-109" sinr="9" rsrq="-10"/>
      </extensions>
    </trkpt>
    <trkpt lat="45.6026317" lon="10.4537834">
      <ele>261.6000061035156</ele>
      <time>2026-07-17T13:17:37.272+02:00</time>
      <extensions>
        <activity type="STILL" conf="32" state="still" tsMs="1784287045183"/>
        <radio op="vodafone IT" rat="LTE" q="11.00" rsrp="-114" sinr="5" rsrq="-12"/>
        <radio op="I TIM" rat="LTE" q="2.00" rsrp="-121" sinr="0" rsrq="-13"/>
      </extensions>
    </trkpt>
    <trkpt lat="45.6025827" lon="10.453693">
      <ele>261.6000061035156</ele>
      <time>2026-07-17T13:17:47.253+02:00</time>
      <extensions>
        <activity type="UNKNOWN" conf="40" state="unknown" tsMs="1784287050036"/>
        <radio op="vodafone IT" rat="LTE" q="19.80" rsrp="-107" sinr="6" rsrq="-10"/>
        <radio op="I TIM" rat="LTE" q="4.50" rsrp="-120" sinr="4" rsrq="-13"/>
      </extensions>
    </trkpt>
    <trkpt lat="45.6025825" lon="10.4536763">
      <ele>261.6000061035156</ele>
      <time>2026-07-17T13:17:57.233+02:00</time>
      <extensions>
        <activity type="UNKNOWN" conf="40" state="unknown" tsMs="1784287074204"/>
        <radio op="vodafone IT" rat="LTE" q="28.50" rsrp="-110" sinr="14" rsrq="-11"/>
        <radio op="I TIM" rat="LTE" q="9.60" rsrp="-117" sinr="7" rsrq="-12"/>
      </extensions>
    </trkpt>
    <trkpt lat="45.6026919" lon="10.4536311">
      <ele>261.6000061035156</ele>
      <time>2026-07-17T13:18:08.226+02:00</time>
      <extensions>
        <activity type="UNKNOWN" conf="40" state="unknown" tsMs="1784287084532"/>
        <radio op="vodafone IT" rat="LTE" q="14.40" rsrp="-109" sinr="4" rsrq="-11"/>
        <radio op="I TIM" rat="LTE" q="2.00" rsrp="-121" sinr="0" rsrq="-15"/>
      </extensions>
    </trkpt>
    <trkpt lat="45.6028481" lon="10.4534958">
      <ele>261.4000244140625</ele>
      <time>2026-07-17T13:18:18.222+02:00</time>
      <extensions>
        <activity type="IN_VEHICLE" conf="92" state="moving" tsMs="1784287095326"/>
        <radio op="vodafone IT" rat="LTE" q="23.40" rsrp="-107" sinr="8" rsrq="-12"/>
        <radio op="I TIM" rat="LTE" q="6.40" rsrp="-117" sinr="3" rsrq="-14"/>
      </extensions>
    </trkpt>
    <trkpt lat="45.6029212" lon="10.453579">
      <ele>261.4000244140625</ele>
      <time>2026-07-17T13:18:28.222+02:00</time>
      <extensions>
        <activity type="IN_VEHICLE" conf="92" state="moving" tsMs="1784287095326"/>
        <radio op="vodafone IT" rat="LTE" q="27.60" rsrp="-102" sinr="7" rsrq="-13"/>
        <radio op="I TIM" rat="LTE" q="8.80" rsrp="-117" sinr="6" rsrq="-13"/>
      </extensions>
    </trkpt>
    <trkpt lat="45.6029116" lon="10.453334">
      <ele>261.8000183105469</ele>
      <time>2026-07-17T13:18:38.222+02:00</time>
      <extensions>
        <activity type="UNKNOWN" conf="40" state="unknown" tsMs="1784287100476"/>
        <radio op="vodafone IT" rat="LTE" q="27.00" rsrp="-107" sinr="10" rsrq="-9"/>
        <radio op="I TIM" rat="LTE" rsrp="-112" rsrq="-12"/>
      </extensions>
    </trkpt>
    <trkpt lat="45.6024923" lon="10.4536489">
      <ele>261.4000244140625</ele>
      <time>2026-07-17T13:18:48.222+02:00</time>
      <extensions>
        <activity type="IN_VEHICLE" conf="92" state="moving" tsMs="1784287115498"/>
        <radio op="vodafone IT" rat="LTE" q="24.00" rsrp="-105" sinr="7" rsrq="-9"/>
        <radio op="I TIM" rat="LTE" q="7.00" rsrp="-115" sinr="2" rsrq="-16"/>
      </extensions>
    </trkpt>
    <trkpt lat="45.6017574" lon="10.4539468">
      <ele>261.4000244140625</ele>
      <time>2026-07-17T13:18:58.222+02:00</time>
      <extensions>
        <activity type="IN_VEHICLE" conf="96" state="moving" tsMs="1784287133789"/>
        <radio op="vodafone IT" rat="LTE" q="36.40" rsrp="-97" sinr="8" rsrq="-11"/>
        <radio op="I TIM" rat="LTE" q="14.40" rsrp="-113" sinr="7" rsrq="-15"/>
      </extensions>
    </trkpt>
    <trkpt lat="45.6017637" lon="10.4541014">
      <ele>261.4000244140625</ele>
      <time>2026-07-17T13:19:08.222+02:00</time>
      <extensions>
        <activity type="IN_VEHICLE" conf="88" state="moving" tsMs="1784287139192"/>
        <radio op="vodafone IT" rat="LTE" q="27.00" rsrp="-98" sinr="5" rsrq="-10"/>
        <radio op="I TIM" rat="LTE" rsrp="-112" rsrq="-14"/>
      </extensions>
    </trkpt>
    <trkpt lat="45.6018015" lon="10.4542284">
      <ele>260.8000183105469</ele>
      <time>2026-07-17T13:19:10.222+02:00</time>
      <extensions>
        <activity type="UNKNOWN" conf="40" state="unknown" tsMs="1784287143512"/>
        <radio op="vodafone IT" rat="LTE" q="33.60" rsrp="-101" sinr="9" rsrq="-11"/>
        <radio op="I TIM" rat="LTE" rsrp="-109" rsrq="-16"/>
      </extensions>
    </trkpt>
    <trkpt lat="45.6050233" lon="10.4647699">
      <ele>268.54178824414583</ele>
      <time>2026-07-17T13:20:16.222+02:00</time>
      <extensions>
        <activity type="IN_VEHICLE" conf="92" state="moving" tsMs="1784287214430"/>
        <radio op="vodafone IT" rat="LTE" q="85.00" rsrp="-91" sinr="27" rsrq="-9"/>
        <radio op="I TIM" rat="LTE" q="28.60" rsrp="-103" sinr="8" rsrq="-7"/>
      </extensions>
    </trkpt>
    <trkpt lat="45.605138" lon="10.4651232">
      <ele>268.5</ele>
      <time>2026-07-17T13:20:21.222+02:00</time>
      <extensions>
        <activity type="IN_VEHICLE" conf="92" state="moving" tsMs="1784287214430"/>
        <radio op="vodafone IT" rat="LTE" q="92.50" rsrp="-88" sinr="25" rsrq="-6"/>
        <radio op="I TIM" rat="LTE" q="30.00" rsrp="-105" sinr="10" rsrq="-8"/>
      </extensions>
    </trkpt>
    <trkpt lat="45.6082762" lon="10.475292">
      <ele>267.0</ele>
      <time>2026-07-17T13:21:46.221+02:00</time>
      <extensions>
        <activity type="IN_VEHICLE" conf="96" state="moving" tsMs="1784287305788"/>
        <radio op="vodafone IT" rat="LTE" q="75.00" rsrp="-95" sinr="20" rsrq="-7"/>
        <radio op="I TIM" rat="LTE" q="80.50" rsrp="-90" sinr="18" rsrq="-6"/>
      </extensions>
    </trkpt>
    <trkpt lat="45.6084042" lon="10.4757188">
      <ele>267.0</ele>
      <time>2026-07-17T13:21:48.221+02:00</time>
      <extensions>
        <activity type="IN_VEHICLE" conf="94" state="moving" tsMs="1784287325421"/>
        <radio op="vodafone IT" rat="LTE" q="16.80" rsrp="-113" sinr="9" rsrq="-9"/>
        <radio op="I TIM" rat="LTE" rsrp="-114" rsrq="-11"/>
      </extensions>
    </trkpt>
    <trkpt lat="45.6159909" lon="10.4831005">
      <ele>284.12385750478774</ele>
      <time>2026-07-17T13:22:55.22+02:00</time>
      <extensions>
        <activity type="IN_VEHICLE" conf="90" state="moving" tsMs="1784287369073"/>
        <radio op="vodafone IT" rat="LTE" q="34.20" rsrp="-106" sinr="13" rsrq="-12"/>
        <radio op="I TIM" rat="LTE" rsrp="-120" rsrq="-18"/>
      </extensions>
    </trkpt>
    <trkpt lat="45.6167396" lon="10.4832046">
      <ele>284.12385750478774</ele>
      <time>2026-07-17T13:23:00.221+02:00</time>
      <extensions>
        <activity type="IN_VEHICLE" conf="83" state="moving" tsMs="1784287374459"/>
        <radio op="vodafone IT" rat="LTE" q="6.00" rsrp="-115" sinr="1" rsrq="-15"/>
        <radio op="I TIM" rat="LTE" rsrp="-122" rsrq="-20"/>
      </extensions>
    </trkpt>
    <trkpt lat="45.6225076" lon="10.4906337">
      <ele>284.3663360016576</ele>
      <time>2026-07-17T13:23:54.222+02:00</time>
      <extensions>
        <activity type="IN_VEHICLE" conf="96" state="moving" tsMs="1784287423201"/>
        <radio op="vodafone IT" rat="LTE" rsrp="-105" rsrq="-11"/>
        <radio op="I TIM" rat="LTE" q="15.40" rsrp="-111" sinr="6" rsrq="-13"/>
      </extensions>
    </trkpt>
    <trkpt lat="45.6236372" lon="10.493479">
      <ele>278.9000244140625</ele>
      <time>2026-07-17T13:24:29.819+02:00</time>
      <extensions>
        <activity type="IN_VEHICLE" conf="95" state="moving" tsMs="1784287469048"/>
        <radio op="vodafone IT" rat="LTE" q="7.80" rsrp="-112" sinr="1" rsrq="-12"/>
        <radio op="I TIM" rat="LTE" q="4.50" rsrp="-120" sinr="4" rsrq="-13"/>
      </extensions>
    </trkpt>
    <trkpt lat="45.6236267" lon="10.4930491">
      <ele>277.5093845616178</ele>
      <time>2026-07-17T13:25:10.166+02:00</time>
      <extensions>
        <activity type="TILTING" conf="100" state="moving" tsMs="1784287493673"/>
        <radio op="vodafone IT" rat="LTE" q="6.50" rsrp="-112" sinr="0" rsrq="-15"/>
        <radio op="I TIM" rat="LTE" q="16.80" rsrp="-111" sinr="7" rsrq="-13"/>
      </extensions>
    </trkpt>
    <trkpt lat="45.6236049" lon="10.4929023">
      <ele>277.7878084896172</ele>
      <time>2026-07-17T13:25:52.622+02:00</time>
      <extensions>
        <activity type="ON_FOOT" conf="88" state="moving" tsMs="1784287551888"/>
        <radio op="vodafone IT" rat="LTE" q="4.80" rsrp="-117" sinr="1" rsrq="-14"/>
        <radio op="I TIM" rat="LTE" q="1.60" rsrp="-123" sinr="3" rsrq="-13"/>
      </extensions>
    </trkpt>
    <trkpt lat="45.6235378" lon="10.4925444">
      <ele>277.97697187318147</ele>
      <time>2026-07-17T13:26:23.512+02:00</time>
      <extensions>
        <activity type="UNKNOWN" conf="40" state="unknown" tsMs="1784287576582"/>
        <radio op="vodafone IT" rat="LTE" rsrp="-113" rsrq="-13"/>
        <radio op="I TIM" rat="LTE" q="14.30" rsrp="-112" sinr="6" rsrq="-13"/>
      </extensions>
    </trkpt>
    <trkpt lat="45.6237978" lon="10.4926623">
      <ele>278.9000244140625</ele>
      <time>2026-07-17T13:27:07.833+02:00</time>
      <extensions>
        <activity type="ON_FOOT" conf="83" state="moving" tsMs="1784287622072"/>
        <radio op="vodafone IT" rat="OTHER"/>
        <radio op="I TIM" rat="LTE" rsrp="-127" rsrq="-15"/>
      </extensions>
    </trkpt>
    <trkpt lat="45.6238054" lon="10.492729">
      <ele>281.67765316740656</ele>
      <time>2026-07-17T13:27:52.93+02:00</time>
      <extensions>
        <activity type="UNKNOWN" conf="40" state="unknown" tsMs="1784287671462"/>
        <radio op="vodafone IT" rat="LTE" rsrq="-20"/>
        <radio op="I TIM" rat="LTE" rsrq="-20"/>
      </extensions>
    </trkpt>
    <trkpt lat="45.6238086" lon="10.492728">
      <ele>287.1463696428218</ele>
      <time>2026-07-17T13:28:29.834+02:00</time>
      <extensions>
        <activity type="UNKNOWN" conf="40" state="unknown" tsMs="1784287708935"/>
        <radio op="vodafone IT" rat="LTE" q="15.00" rsrp="-115" sinr="10" rsrq="-12"/>
        <radio op="I TIM" rat="LTE" q="12.80" rsrp="-117" sinr="11" rsrq="-13"/>
      </extensions>
    </trkpt>
    <trkpt lat="45.6238007" lon="10.4927226">
      <ele>290.8000183105469</ele>
      <time>2026-07-17T13:29:10.34+02:00</time>
      <extensions>
        <activity type="ON_FOOT" conf="84" state="moving" tsMs="1784287747083"/>
        <radio op="vodafone IT" rat="LTE" q="3.50" rsrp="-118" sinr="0" rsrq="-14"/>
        <radio op="I TIM" rat="LTE" q="6.30" rsrp="-116" sinr="2" rsrq="-12"/>
      </extensions>
    </trkpt>
    <trkpt lat="45.6238062" lon="10.4927129">
      <ele>290.8000183105469</ele>
      <time>2026-07-17T13:29:42.085+02:00</time>
      <extensions>
        <activity type="UNKNOWN" conf="40" state="unknown" tsMs="1784287781099"/>
        <radio op="vodafone IT" rat="LTE" rsrp="-116" rsrq="-12"/>
        <radio op="I TIM" rat="LTE" q="5.40" rsrp="-116" sinr="1" rsrq="-13"/>
      </extensions>
    </trkpt>
    <trkpt lat="45.6238119" lon="10.49272">
      <ele>290.8000183105469</ele>
      <time>2026-07-17T13:30:14.996+02:00</time>
      <extensions>
        <activity type="UNKNOWN" conf="40" state="unknown" tsMs="1784287814072"/>
        <radio op="vodafone IT" rat="LTE" rsrp="-115" rsrq="-14"/>
        <radio op="I TIM" rat="LTE" q="13.20" rsrp="-114" sinr="7" rsrq="-12"/>
      </extensions>
    </trkpt>
    <trkpt lat="45.6237948" lon="10.4927193">
      <ele>287.7868276776396</ele>
      <time>2026-07-17T13:30:33.842+02:00</time>
      <extensions>
        <activity type="UNKNOWN" conf="40" state="unknown" tsMs="1784287818041"/>
        <radio op="vodafone IT" rat="LTE" q="11.70" rsrp="-112" sinr="4" rsrq="-11"/>
        <radio op="I TIM" rat="LTE" q="8.00" rsrp="-117" sinr="5" rsrq="-13"/>
      </extensions>
    </trkpt>
    <trkpt lat="45.6238137" lon="10.4927257">
      <ele>290.8000183105469</ele>
      <time>2026-07-17T13:31:10.922+02:00</time>
      <extensions>
        <activity type="UNKNOWN" conf="40" state="unknown" tsMs="1784287869367"/>
        <radio op="vodafone IT" rat="LTE" q="8.80" rsrp="-114" sinr="3" rsrq="-10"/>
        <radio op="I TIM" rat="LTE" q="1.00" rsrp="-123" sinr="0" rsrq="-15"/>
      </extensions>
    </trkpt>
    <trkpt lat="45.6238198" lon="10.4927232">
      <ele>290.8000183105469</ele>
      <time>2026-07-17T13:31:45.152+02:00</time>
      <extensions>
        <activity type="ON_FOOT" conf="87" state="moving" tsMs="1784287903276"/>
        <radio op="vodafone IT" rat="LTE" q="15.00" rsrp="-110" sinr="5" rsrq="-12"/>
        <radio op="I TIM" rat="LTE" q="19.50" rsrp="-110" sinr="8" rsrq="-12"/>
      </extensions>
    </trkpt>
    <trkpt lat="45.6238131" lon="10.492726">
      <ele>290.8000183105469</ele>
      <time>2026-07-17T13:32:37.508+02:00</time>
      <extensions>
        <activity type="STILL" conf="99" state="still" tsMs="1784287954460"/>
        <radio op="vodafone IT" rat="LTE" q="7.50" rsrp="-110" sinr="0" rsrq="-13"/>
        <radio op="I TIM" rat="LTE" q="22.40" rsrp="-109" sinr="9" rsrq="-12"/>
      </extensions>
    </trkpt>
    <trkpt lat="45.6238051" lon="10.4927178">
      <ele>290.8000183105469</ele>
      <time>2026-07-17T13:34:00.836+02:00</time>
      <extensions>
        <activity type="STILL" conf="99" state="still" tsMs="1784288032480"/>
        <radio op="vodafone IT" rat="LTE" q="15.40" rsrp="-111" sinr="6" rsrq="-13"/>
        <radio op="I TIM" rat="LTE" q="27.20" rsrp="-109" sinr="12" rsrq="-13"/>
      </extensions>
    </trkpt>
    <trkpt lat="45.6238119" lon="10.4927271">
      <ele>290.70001220703125</ele>
      <time>2026-07-17T14:48:13.677+02:00</time>
      <extensions>
        <activity type="ON_FOOT" conf="88" state="moving" tsMs="1784292496573"/>
        <radio op="vodafone IT" rat="LTE" q="4.20" rsrp="-118" sinr="1" rsrq="-11"/>
        <radio op="I TIM" rat="LTE" rsrp="-124" rsrq="-14"/>
      </extensions>
    </trkpt>
    <trkpt lat="45.6238217" lon="10.4927173">
      <ele>290.70001220703125</ele>
      <time>2026-07-17T14:48:45.496+02:00</time>
      <extensions>
        <activity type="UNKNOWN" conf="40" state="unknown" tsMs="1784292524343"/>
        <radio op="vodafone IT" rat="LTE" q="6.30" rsrp="-118" sinr="4" rsrq="-10"/>
        <radio op="I TIM" rat="LTE" rsrp="-125" rsrq="-13"/>
      </extensions>
    </trkpt>
    <trkpt lat="45.6238173" lon="10.4927123">
      <ele>293.40068521868415</ele>
      <time>2026-07-17T14:49:17.528+02:00</time>
      <extensions>
        <activity type="UNKNOWN" conf="40" state="unknown" tsMs="1784292553281"/>
        <radio op="vodafone IT" rat="LTE" rsrp="-115" rsrq="-12"/>
        <radio op="I TIM" rat="LTE" q="4.20" rsrp="-119" sinr="2" rsrq="-13"/>
      </extensions>
    </trkpt>
    <trkpt lat="45.6238212" lon="10.4927183">
      <ele>293.1301537227645</ele>
      <time>2026-07-17T14:49:49.42+02:00</time>
      <extensions>
        <activity type="UNKNOWN" conf="40" state="unknown" tsMs="1784292585581"/>
        <radio op="vodafone IT" rat="LTE" rsrp="-121" rsrq="-13"/>
        <radio op="I TIM" rat="LTE" rsrp="-122" rsrq="-13"/>
      </extensions>
    </trkpt>
    <trkpt lat="45.6238133" lon="10.4927185">
      <ele>293.06951108494803</ele>
      <time>2026-07-17T14:50:21.241+02:00</time>
      <extensions>
        <activity type="STILL" conf="99" state="still" tsMs="1784292617376"/>
        <radio op="vodafone IT" rat="LTE" rsrp="-121" rsrq="-14"/>
        <radio op="I TIM" rat="LTE" rsrp="-121" rsrq="-13"/>
      </extensions>
    </trkpt>
    <trkpt lat="45.6238196" lon="10.4927201">
      <ele>290.8000183105469</ele>
      <time>2026-07-17T14:50:53.259+02:00</time>
      <extensions>
        <activity type="STILL" conf="99" state="still" tsMs="1784292649354"/>
        <radio op="vodafone IT" rat="LTE" rsrp="-121" rsrq="-13"/>
        <radio op="I TIM" rat="LTE" rsrp="-118" rsrq="-15"/>
      </extensions>
    </trkpt>
    <trkpt lat="45.6238191" lon="10.4927212">
      <ele>290.70001220703125</ele>
      <time>2026-07-17T14:51:24.995+02:00</time>
      <extensions>
        <activity type="STILL" conf="99" state="still" tsMs="1784292680919"/>
        <radio op="vodafone IT" rat="LTE" rsrp="-121" rsrq="-15"/>
        <radio op="I TIM" rat="LTE" rsrp="-122" rsrq="-15"/>
      </extensions>
    </trkpt>
    <trkpt lat="45.6235699" lon="10.4928171">
      <ele>281.50497238798096</ele>
      <time>2026-07-17T15:15:39.635+02:00</time>
      <extensions>
        <activity type="ON_FOOT" conf="53" state="moving" tsMs="1784294136234"/>
        <radio op="vodafone IT" rat="LTE" q="17.60" rsrp="-109" sinr="6" rsrq="-10"/>
        <radio op="I TIM" rat="LTE" q="12.60" rsrp="-116" sinr="9" rsrq="-11"/>
      </extensions>
    </trkpt>
    <trkpt lat="45.6237223" lon="10.4935548">
      <ele>284.70796274301824</ele>
      <time>2026-07-17T15:16:45.068+02:00</time>
      <extensions>
        <activity type="ON_FOOT" conf="88" state="moving" tsMs="1784294202212"/>
        <radio op="vodafone IT" rat="LTE" q="13.30" rsrp="-106" sinr="2" rsrq="-14"/>
        <radio op="I TIM" rat="LTE" q="15.00" rsrp="-115" sinr="10" rsrq="-11"/>
      </extensions>
    </trkpt>
    <trkpt lat="45.6237678" lon="10.4936866">
      <ele>282.4306310900929</ele>
      <time>2026-07-17T15:17:15.866+02:00</time>
      <extensions>
        <activity type="STILL" conf="56" state="still" tsMs="1784294235852"/>
        <radio op="vodafone IT" rat="LTE" rsrp="-112" rsrq="-14"/>
        <radio op="I TIM" rat="LTE" rsrq="-20"/>
      </extensions>
    </trkpt>
    <trkpt lat="45.6237818" lon="10.493538">
      <ele>278.5</ele>
      <time>2026-07-17T15:17:49.007+02:00</time>
      <extensions>
        <activity type="UNKNOWN" conf="40" state="unknown" tsMs="1784294266929"/>
        <radio op="vodafone IT" rat="LTE" rsrp="-104" rsrq="-13"/>
        <radio op="I TIM" rat="LTE" q="14.30" rsrp="-112" sinr="6" rsrq="-13"/>
      </extensions>
    </trkpt>
    <trkpt lat="45.6237764" lon="10.4936197">
      <ele>278.70001220703125</ele>
      <time>2026-07-17T15:18:20.208+02:00</time>
      <extensions>
        <activity type="STILL" conf="63" state="still" tsMs="1784294299767"/>
        <radio op="vodafone IT" rat="LTE" rsrp="-104" rsrq="-14"/>
        <radio op="I TIM" rat="LTE" q="11.70" rsrp="-112" sinr="4" rsrq="-13"/>
      </extensions>
    </trkpt>
    <trkpt lat="45.6237709" lon="10.4936249">
      <ele>278.70001220703125</ele>
      <time>2026-07-17T15:18:51.409+02:00</time>
      <extensions>
        <activity type="STILL" conf="64" state="still" tsMs="1784294330913"/>
        <radio op="vodafone IT" rat="LTE" q="21.00" rsrp="-104" sinr="5" rsrq="-12"/>
        <radio op="I TIM" rat="LTE" q="13.00" rsrp="-112" sinr="5" rsrq="-12"/>
      </extensions>
    </trkpt>
    <trkpt lat="45.6237541" lon="10.4933657">
      <ele>275.9553070885212</ele>
      <time>2026-07-17T15:19:25.267+02:00</time>
      <extensions>
        <activity type="IN_VEHICLE" conf="96" state="moving" tsMs="1784294365586"/>
        <radio op="vodafone IT" rat="LTE" q="17.60" rsrp="-103" sinr="3" rsrq="-14"/>
        <radio op="I TIM" rat="LTE" q="13.50" rsrp="-110" sinr="4" rsrq="-13"/>
      </extensions>
    </trkpt>
    <trkpt lat="45.6196366" lon="10.4838946">
      <ele>278.3000183105469</ele>
      <time>2026-07-17T15:20:39.268+02:00</time>
      <extensions>
        <activity type="IN_VEHICLE" conf="88" state="moving" tsMs="1784294457953"/>
        <radio op="vodafone IT" rat="LTE" q="13.50" rsrp="-98" sinr="0" rsrq="-12"/>
        <radio op="I TIM" rat="LTE" q="6.50" rsrp="-112" sinr="0" rsrq="-14"/>
      </extensions>
    </trkpt>
    <trkpt lat="45.6118443" lon="10.480572">
      <ele>270.5</ele>
      <time>2026-07-17T15:21:47.268+02:00</time>
      <extensions>
        <activity type="IN_VEHICLE" conf="97" state="moving" tsMs="1784294511514"/>
        <radio op="vodafone IT" rat="LTE" q="43.20" rsrp="-98" sinr="11" rsrq="-11"/>
        <radio op="I TIM" rat="LTE" q="19.80" rsrp="-107" sinr="6" rsrq="-11"/>
      </extensions>
    </trkpt>
    <trkpt lat="45.6081758" lon="10.4758652">
      <ele>270.5</ele>
      <time>2026-07-17T15:22:22.328+02:00</time>
      <extensions>
        <activity type="IN_VEHICLE" conf="97" state="moving" tsMs="1784294538215"/>
        <radio op="vodafone IT" rat="LTE" q="28.00" rsrp="-105" sinr="9" rsrq="-13"/>
        <radio op="I TIM" rat="LTE" q="53.20" rsrp="-87" sinr="9" rsrq="-8"/>
      </extensions>
    </trkpt>
    <trkpt lat="45.6064096" lon="10.4687379">
      <ele>269.20001220703125</ele>
      <time>2026-07-17T15:22:53.608+02:00</time>
      <extensions>
        <activity type="IN_VEHICLE" conf="97" state="moving" tsMs="1784294568905"/>
        <radio op="vodafone IT" rat="LTE" q="100.00" rsrp="-81" sinr="28" rsrq="-4"/>
        <radio op="I TIM" rat="LTE" q="100.00" rsrp="-80" sinr="23" rsrq="-7"/>
      </extensions>
    </trkpt>
    <trkpt lat="45.6060258" lon="10.4672217">
      <ele>269.20001220703125</ele>
      <time>2026-07-17T15:22:59.268+02:00</time>
      <extensions>
        <activity type="IN_VEHICLE" conf="97" state="moving" tsMs="1784294584058"/>
        <radio op="vodafone IT" rat="LTE" q="100.00" rsrp="-78" sinr="29" rsrq="-8"/>
        <radio op="I TIM" rat="LTE" q="70.20" rsrp="-86" sinr="13" rsrq="-7"/>
      </extensions>
    </trkpt>
    <trkpt lat="45.6041312" lon="10.4618471">
      <ele>266.9000244140625</ele>
      <time>2026-07-17T15:23:35.053+02:00</time>
      <extensions>
        <activity type="IN_VEHICLE" conf="97" state="moving" tsMs="1784294610875"/>
        <radio op="vodafone IT" rat="LTE" q="100.00" rsrp="-82" sinr="21" rsrq="-6"/>
        <radio op="I TIM" rat="LTE" rsrp="-97" rsrq="-17"/>
      </extensions>
    </trkpt>
    <trkpt lat="45.6031984" lon="10.4576943">
      <ele>263.5</ele>
      <time>2026-07-17T15:24:06.271+02:00</time>
      <extensions>
        <activity type="IN_VEHICLE" conf="97" state="moving" tsMs="1784294641659"/>
        <radio op="vodafone IT" rat="LTE" q="100.00" rsrp="-74" sinr="28" rsrq="-7"/>
        <radio op="I TIM" rat="LTE" q="100.00" rsrp="-78" sinr="28" rsrq="-11"/>
      </extensions>
    </trkpt>
    <trkpt lat="45.6036884" lon="10.4576943">
      <ele>263.5</ele>
      <time>2026-07-17T15:24:12.268+02:00</time>
      <extensions>
        <activity type="IN_VEHICLE" conf="97" state="moving" tsMs="1784294656724"/>
        <radio op="vodafone IT" rat="LTE" q="92.50" rsrp="-88" sinr="27" rsrq="-7"/>
        <radio op="I TIM" rat="LTE" q="92.50" rsrp="-88" sinr="21" rsrq="-12"/>
      </extensions>
    </trkpt>
    <trkpt lat="45.6038629" lon="10.4579438">
      <ele>264.3000183105469</ele>
      <time>2026-07-17T15:24:47.671+02:00</time>
      <extensions>
        <activity type="IN_VEHICLE" conf="97" state="moving" tsMs="1784294683466"/>
        <radio op="vodafone IT" rat="LTE" q="100.00" rsrp="-82" sinr="25" rsrq="-6"/>
        <radio op="I TIM" rat="LTE" q="97.50" rsrp="-86" sinr="25" rsrq="-11"/>
      </extensions>
    </trkpt>
    <trkpt lat="45.6038525" lon="10.4577267">
      <ele>263.5</ele>
      <time>2026-07-17T15:25:18.934+02:00</time>
      <extensions>
        <activity type="IN_VEHICLE" conf="97" state="moving" tsMs="1784294714190"/>
        <radio op="vodafone IT" rat="LTE" q="87.50" rsrp="-90" sinr="21" rsrq="-8"/>
        <radio op="I TIM" rat="LTE" q="95.00" rsrp="-87" sinr="20" rsrq="-11"/>
      </extensions>
    </trkpt>
    <trkpt lat="45.6040705" lon="10.4581438">
      <ele>264.3000183105469</ele>
      <time>2026-07-17T15:25:55.701+02:00</time>
      <extensions>
        <activity type="IN_VEHICLE" conf="85" state="moving" tsMs="1784294755180"/>
        <radio op="vodafone IT" rat="LTE" q="57.50" rsrp="-102" sinr="20" rsrq="-8"/>
        <radio op="I TIM" rat="LTE" q="36.00" rsrp="-105" sinr="13" rsrq="-8"/>
      </extensions>
    </trkpt>
    <trkpt lat="45.6026763" lon="10.4585819">
      <ele>264.3000183105469</ele>
      <time>2026-07-17T15:26:56.26+02:00</time>
      <extensions>
        <activity type="UNKNOWN" conf="40" state="unknown" tsMs="1784294824710"/>
        <radio op="vodafone IT" rat="LTE" q="57.50" rsrp="-102" sinr="24" rsrq="-7"/>
        <radio op="I TIM" rat="LTE" q="42.50" rsrp="-108" sinr="21" rsrq="-13"/>
      </extensions>
    </trkpt>
    <trkpt lat="45.6026763" lon="10.4585819">
      <ele>264.3000183105469</ele>
      <time>2026-07-17T15:27:15.296+02:00</time>
      <extensions>
        <activity type="UNKNOWN" conf="40" state="unknown" tsMs="1784294845879"/>
        <radio op="vodafone IT" rat="LTE" q="37.80" rsrp="-107" sinr="16" rsrq="-8"/>
        <radio op="I TIM" rat="LTE" q="35.20" rsrp="-109" sinr="17" rsrq="-10"/>
      </extensions>
    </trkpt>
    <trkpt lat="45.6026763" lon="10.4585819">
      <ele>264.3000183105469</ele>
      <time>2026-07-17T15:27:52.225+02:00</time>
      <extensions>
        <activity type="ON_FOOT" conf="88" state="moving" tsMs="1784294871322"/>
        <radio op="vodafone IT" rat="LTE" q="35.70" rsrp="-108" sinr="16" rsrq="-8"/>
        <radio op="I TIM" rat="LTE" q="35.20" rsrp="-109" sinr="17" rsrq="-12"/>
      </extensions>
    </trkpt>
    <trkpt lat="45.6026763" lon="10.4585819">
      <ele>264.3000183105469</ele>
      <time>2026-07-17T15:27:59.47+02:00</time>
      <extensions>
        <activity type="ON_FOOT" conf="88" state="moving" tsMs="1784294871322"/>
        <radio op="vodafone IT" rat="LTE" q="35.20" rsrp="-109" sinr="17" rsrq="-7"/>
        <radio op="I TIM" rat="LTE" q="20.80" rsrp="-112" sinr="11" rsrq="-7"/>
      </extensions>
    </trkpt>
    <trkpt lat="45.6046763" lon="10.4576134">
      <ele>262.6000061035156</ele>
      <time>2026-07-17T15:29:31.092+02:00</time>
      <extensions>
        <activity type="UNKNOWN" conf="40" state="unknown" tsMs="1784294975993"/>
        <radio op="vodafone IT" rat="LTE" q="35.20" rsrp="-109" sinr="17" rsrq="-12"/>
        <radio op="I TIM" rat="LTE" q="28.50" rsrp="-110" sinr="14" rsrq="-12"/>
      </extensions>
    </trkpt>
    <trkpt lat="45.6045262" lon="10.4577744">
      <ele>264.3000183105469</ele>
      <time>2026-07-17T15:29:38.66+02:00</time>
      <extensions>
        <activity type="UNKNOWN" conf="40" state="unknown" tsMs="1784294975993"/>
        <radio op="vodafone IT" rat="LTE" q="44.00" rsrp="-105" sinr="17" rsrq="-10"/>
        <radio op="I TIM" rat="LTE" q="23.80" rsrp="-111" sinr="12" rsrq="-11"/>
      </extensions>
    </trkpt>
    <trkpt lat="45.6046763" lon="10.4576134">
      <ele>262.6000061035156</ele>
      <time>2026-07-17T15:30:02.42+02:00</time>
      <extensions>
        <activity type="UNKNOWN" conf="40" state="unknown" tsMs="1784294981455"/>
        <radio op="vodafone IT" rat="LTE" q="50.60" rsrp="-102" sinr="17" rsrq="-8"/>
        <radio op="I TIM" rat="LTE" q="33.60" rsrp="-109" sinr="16" rsrq="-8"/>
      </extensions>
    </trkpt>
    <trkpt lat="45.6041522" lon="10.4580723">
      <ele>264.3000183105469</ele>
      <time>2026-07-17T15:30:41.826+02:00</time>
      <extensions>
        <activity type="ON_FOOT" conf="91" state="moving" tsMs="1784295038647"/>
        <radio op="vodafone IT" rat="LTE" q="27.00" rsrp="-110" sinr="13" rsrq="-7"/>
        <radio op="I TIM" rat="LTE" q="28.80" rsrp="-109" sinr="13" rsrq="-12"/>
      </extensions>
    </trkpt>
    <trkpt lat="45.6041301" lon="10.4581899">
      <ele>264.20001220703125</ele>
      <time>2026-07-17T15:30:50.683+02:00</time>
      <extensions>
        <activity type="STILL" conf="54" state="still" tsMs="1784295059197"/>
        <radio op="vodafone IT" rat="LTE" q="27.30" rsrp="-112" sinr="16" rsrq="-6"/>
        <radio op="I TIM" rat="LTE" q="27.00" rsrp="-110" sinr="13" rsrq="-12"/>
      </extensions>
    </trkpt>
    <trkpt lat="45.6041246" lon="10.4582416">
      <ele>264.20001220703125</ele>
      <time>2026-07-17T15:31:27.941+02:00</time>
      <extensions>
        <activity type="UNKNOWN" conf="40" state="unknown" tsMs="1784295080612"/>
        <radio op="vodafone IT" rat="LTE" q="47.50" rsrp="-106" sinr="21" rsrq="-10"/>
        <radio op="I TIM" rat="LTE" q="33.60" rsrp="-109" sinr="16" rsrq="-12"/>
      </extensions>
    </trkpt>
    <trkpt lat="45.6041246" lon="10.4582416">
      <ele>264.20001220703125</ele>
      <time>2026-07-17T15:31:35.258+02:00</time>
      <extensions>
        <activity type="UNKNOWN" conf="40" state="unknown" tsMs="1784295103703"/>
        <radio op="vodafone IT" rat="LTE" q="31.50" rsrp="-110" sinr="16" rsrq="-10"/>
        <radio op="I TIM" rat="LTE" q="30.00" rsrp="-110" sinr="15" rsrq="-11"/>
      </extensions>
    </trkpt>
    <trkpt lat="45.6041246" lon="10.4582416">
      <ele>264.20001220703125</ele>
      <time>2026-07-17T15:31:50.625+02:00</time>
      <extensions>
        <activity type="UNKNOWN" conf="40" state="unknown" tsMs="1784295109063"/>
        <radio op="vodafone IT" rat="LTE" q="41.80" rsrp="-106" sinr="17" rsrq="-8"/>
        <radio op="I TIM" rat="LTE" q="27.20" rsrp="-109" sinr="12" rsrq="-11"/>
      </extensions>
    </trkpt>
    <trkpt lat="45.6041184" lon="10.4582386">
      <ele>264.3000183105469</ele>
      <time>2026-07-17T15:32:38.967+02:00</time>
      <extensions>
        <activity type="UNKNOWN" conf="40" state="unknown" tsMs="1784295152981"/>
        <radio op="vodafone IT" rat="LTE" q="12.60" rsrp="-116" sinr="9" rsrq="-9"/>
        <radio op="I TIM" rat="LTE" q="20.80" rsrp="-109" sinr="8" rsrq="-13"/>
      </extensions>
    </trkpt>
    <trkpt lat="45.604088" lon="10.4581467">
      <ele>264.3000183105469</ele>
      <time>2026-07-17T15:32:46.792+02:00</time>
      <extensions>
        <activity type="UNKNOWN" conf="40" state="unknown" tsMs="1784295174806"/>
        <radio op="vodafone IT" rat="LTE" q="7.20" rsrp="-119" sinr="7" rsrq="-9"/>
        <radio op="I TIM" rat="LTE" q="22.40" rsrp="-109" sinr="9" rsrq="-13"/>
      </extensions>
    </trkpt>
    <trkpt lat="45.6041175" lon="10.4582253">
      <ele>264.20001220703125</ele>
      <time>2026-07-17T15:33:26.9+02:00</time>
      <extensions>
        <activity type="UNKNOWN" conf="40" state="unknown" tsMs="1784295201600"/>
        <radio op="vodafone IT" rat="LTE" q="24.00" rsrp="-109" sinr="10" rsrq="-8"/>
        <radio op="I TIM" rat="LTE" q="22.40" rsrp="-109" sinr="9" rsrq="-13"/>
      </extensions>
    </trkpt>
    <trkpt lat="45.6041225" lon="10.4582606">
      <ele>264.20001220703125</ele>
      <time>2026-07-17T15:33:58.182+02:00</time>
      <extensions>
        <activity type="UNKNOWN" conf="40" state="unknown" tsMs="1784295233828"/>
        <radio op="vodafone IT" rat="LTE" q="27.30" rsrp="-112" sinr="16" rsrq="-9"/>
        <radio op="I TIM" rat="LTE" q="32.00" rsrp="-109" sinr="15" rsrq="-13"/>
      </extensions>
    </trkpt>
    <trkpt lat="45.6040733" lon="10.4581431">
      <ele>264.3000183105469</ele>
      <time>2026-07-17T15:35:18.257+02:00</time>
      <extensions>
        <activity type="UNKNOWN" conf="40" state="unknown" tsMs="1784295316783"/>
        <radio op="vodafone IT" rat="LTE" q="42.00" rsrp="-105" sinr="16" rsrq="-9"/>
        <radio op="I TIM" rat="LTE" q="35.20" rsrp="-109" sinr="17" rsrq="-14"/>
      </extensions>
    </trkpt>
    <trkpt lat="45.6044349" lon="10.4578273">
      <ele>264.3000183105469</ele>
      <time>2026-07-17T15:35:30.873+02:00</time>
      <extensions>
        <activity type="UNKNOWN" conf="40" state="unknown" tsMs="1784295320693"/>
        <radio op="vodafone IT" rat="LTE" q="35.70" rsrp="-108" sinr="16" rsrq="-12"/>
        <radio op="I TIM" rat="LTE" q="33.00" rsrp="-110" sinr="17" rsrq="-12"/>
      </extensions>
    </trkpt>
    <trkpt lat="45.604127" lon="10.4582221">
      <ele>264.20001220703125</ele>
      <time>2026-07-17T15:36:05.47+02:00</time>
      <extensions>
        <activity type="UNKNOWN" conf="40" state="unknown" tsMs="1784295360320"/>
        <radio op="vodafone IT" rat="LTE" q="27.20" rsrp="-109" sinr="12" rsrq="-10"/>
        <radio op="I TIM" rat="LTE" q="27.20" rsrp="-108" sinr="11" rsrq="-10"/>
      </extensions>
    </trkpt>
    <trkpt lat="45.6040765" lon="10.4581429">
      <ele>264.3000183105469</ele>
      <time>2026-07-17T15:36:52.155+02:00</time>
      <extensions>
        <activity type="STILL" conf="60" state="still" tsMs="1784295409644"/>
        <radio op="vodafone IT" rat="LTE" q="6.60" rsrp="-119" sinr="6" rsrq="-12"/>
        <radio op="I TIM" rat="LTE" q="10.40" rsrp="-117" sinr="8" rsrq="-11"/>
      </extensions>
    </trkpt>
    <trkpt lat="45.6040856" lon="10.4581459">
      <ele>264.3000183105469</ele>
      <time>2026-07-17T15:38:04.698+02:00</time>
      <extensions>
        <activity type="STILL" conf="99" state="still" tsMs="1784295483616"/>
        <radio op="vodafone IT" rat="LTE" q="19.80" rsrp="-114" sinr="13" rsrq="-11"/>
        <radio op="I TIM" rat="LTE" q="17.60" rsrp="-114" sinr="11" rsrq="-12"/>
      </extensions>
    </trkpt>
    <trkpt lat="45.6040834" lon="10.4581145">
      <ele>264.20001220703125</ele>
      <time>2026-07-17T15:38:32.665+02:00</time>
      <extensions>
        <activity type="STILL" conf="54" state="still" tsMs="1784295513000"/>
        <radio op="vodafone IT" rat="LTE" q="39.60" rsrp="-107" sinr="17" rsrq="-8"/>
        <radio op="I TIM" rat="LTE" q="35.70" rsrp="-108" sinr="16" rsrq="-11"/>
      </extensions>
    </trkpt>
    <trkpt lat="45.6041875" lon="10.4583187">
      <ele>264.3000183105469</ele>
      <time>2026-07-17T15:39:03.157+02:00</time>
      <extensions>
        <activity type="UNKNOWN" conf="40" state="unknown" tsMs="1784295552913"/>
        <radio op="vodafone IT" rat="LTE" q="28.80" rsrp="-109" sinr="13" rsrq="-7"/>
        <radio op="I TIM" rat="LTE" q="25.50" rsrp="-110" sinr="12" rsrq="-13"/>
      </extensions>
    </trkpt>
    <trkpt lat="45.6040645" lon="10.4581398">
      <ele>264.3000183105469</ele>
      <time>2026-07-17T15:39:40.915+02:00</time>
      <extensions>
        <activity type="UNKNOWN" conf="40" state="unknown" tsMs="1784295583333"/>
        <radio op="vodafone IT" rat="LTE" q="12.00" rsrp="-113" sinr="5" rsrq="-9"/>
        <radio op="I TIM" rat="LTE" q="24.00" rsrp="-113" sinr="15" rsrq="-12"/>
      </extensions>
    </trkpt>
    <trkpt lat="45.6040636" lon="10.4581392">
      <ele>264.3000183105469</ele>
      <time>2026-07-17T15:40:17.088+02:00</time>
      <extensions>
        <activity type="ON_FOOT" conf="94" state="moving" tsMs="1784295616153"/>
        <radio op="vodafone IT" rat="LTE" q="36.00" rsrp="-110" sinr="19" rsrq="-10"/>
        <radio op="I TIM" rat="LTE" q="25.20" rsrp="-113" sinr="16" rsrq="-13"/>
      </extensions>
    </trkpt>
    <trkpt lat="45.6040979" lon="10.4581846">
      <ele>264.3000183105469</ele>
      <time>2026-07-17T15:40:24.882+02:00</time>
      <extensions>
        <activity type="ON_FOOT" conf="94" state="moving" tsMs="1784295616153"/>
        <radio op="vodafone IT" rat="LTE" q="23.40" rsrp="-112" sinr="13" rsrq="-8"/>
        <radio op="I TIM" rat="LTE" q="26.60" rsrp="-111" sinr="14" rsrq="-12"/>
      </extensions>
    </trkpt>
    <trkpt lat="45.6041199" lon="10.4581944">
      <ele>264.20001220703125</ele>
      <time>2026-07-17T15:40:32.27+02:00</time>
      <extensions>
        <activity type="UNKNOWN" conf="40" state="unknown" tsMs="1784295641182"/>
        <radio op="vodafone IT" rat="LTE" q="24.00" rsrp="-109" sinr="10" rsrq="-12"/>
        <radio op="I TIM" rat="LTE" q="22.10" rsrp="-112" sinr="12" rsrq="-11"/>
      </extensions>
    </trkpt>
    <trkpt lat="45.6040715" lon="10.4581388">
      <ele>264.3000183105469</ele>
      <time>2026-07-17T15:41:09.254+02:00</time>
      <extensions>
        <activity type="UNKNOWN" conf="40" state="unknown" tsMs="1784295662729"/>
        <radio op="vodafone IT" rat="LTE" q="24.70" rsrp="-112" sinr="14" rsrq="-8"/>
        <radio op="I TIM" rat="LTE" q="24.70" rsrp="-112" sinr="14" rsrq="-12"/>
      </extensions>
    </trkpt>
    <trkpt lat="45.6039763" lon="10.4581733">
      <ele>264.3000183105469</ele>
      <time>2026-07-17T15:41:20.39+02:00</time>
      <extensions>
        <activity type="UNKNOWN" conf="40" state="unknown" tsMs="1784295667353"/>
        <radio op="vodafone IT" rat="LTE" q="25.20" rsrp="-111" sinr="13" rsrq="-8"/>
        <radio op="I TIM" rat="LTE" q="28.00" rsrp="-111" sinr="15" rsrq="-12"/>
      </extensions>
    </trkpt>
    <trkpt lat="45.6041722" lon="10.458325">
      <ele>264.20001220703125</ele>
      <time>2026-07-17T15:41:45.913+02:00</time>
      <extensions>
        <activity type="UNKNOWN" conf="40" state="unknown" tsMs="1784295716221"/>
        <radio op="vodafone IT" rat="LTE" q="19.50" rsrp="-112" sinr="10" rsrq="-11"/>
        <radio op="I TIM" rat="LTE" q="18.20" rsrp="-112" sinr="9" rsrq="-12"/>
      </extensions>
    </trkpt>
    <trkpt lat="45.6041272" lon="10.4582526">
      <ele>264.20001220703125</ele>
      <time>2026-07-17T15:42:18.645+02:00</time>
      <extensions>
        <activity type="UNKNOWN" conf="40" state="unknown" tsMs="1784295720400"/>
        <radio op="vodafone IT" rat="LTE" q="20.90" rsrp="-114" sinr="14" rsrq="-11"/>
        <radio op="I TIM" rat="LTE" q="18.70" rsrp="-114" sinr="12" rsrq="-10"/>
      </extensions>
    </trkpt>
    <trkpt lat="45.604108" lon="10.458289">
      <ele>264.20001220703125</ele>
      <time>2026-07-17T15:42:45.499+02:00</time>
      <extensions>
        <activity type="UNKNOWN" conf="40" state="unknown" tsMs="1784295769081"/>
        <radio op="vodafone IT" rat="LTE" q="12.00" rsrp="-117" sinr="10" rsrq="-11"/>
        <radio op="I TIM" rat="LTE" q="10.50" rsrp="-118" sinr="10" rsrq="-12"/>
      </extensions>
    </trkpt>
    <trkpt lat="45.604113" lon="10.4582444">
      <ele>264.20001220703125</ele>
      <time>2026-07-17T15:43:20.195+02:00</time>
      <extensions>
        <activity type="STILL" conf="99" state="still" tsMs="1784295797151"/>
        <radio op="vodafone IT" rat="LTE" q="12.80" rsrp="-117" sinr="11" rsrq="-12"/>
        <radio op="I TIM" rat="LTE" q="9.80" rsrp="-118" sinr="9" rsrq="-12"/>
      </extensions>
    </trkpt>
    <trkpt lat="45.6041175" lon="10.4582253">
      <ele>264.20001220703125</ele>
      <time>2026-07-17T15:43:51.434+02:00</time>
      <extensions>
        <activity type="STILL" conf="99" state="still" tsMs="1784295827715"/>
        <radio op="vodafone IT" rat="LTE" q="12.80" rsrp="-117" sinr="11" rsrq="-12"/>
        <radio op="I TIM" rat="LTE" q="10.50" rsrp="-118" sinr="10" rsrq="-10"/>
      </extensions>
    </trkpt>
    <trkpt lat="45.604146" lon="10.4582437">
      <ele>264.20001220703125</ele>
      <time>2026-07-17T15:44:22.958+02:00</time>
      <extensions>
        <activity type="STILL" conf="59" state="still" tsMs="1784295858610"/>
        <radio op="vodafone IT" rat="LTE" q="28.50" rsrp="-110" sinr="14" rsrq="-10"/>
        <radio op="I TIM" rat="LTE" q="28.00" rsrp="-111" sinr="15" rsrq="-11"/>
      </extensions>
    </trkpt>
    <trkpt lat="45.6041188" lon="10.4582245">
      <ele>264.20001220703125</ele>
      <time>2026-07-17T15:44:54.632+02:00</time>
      <extensions>
        <activity type="UNKNOWN" conf="40" state="unknown" tsMs="1784295889847"/>
        <radio op="vodafone IT" rat="LTE" q="28.00" rsrp="-111" sinr="15" rsrq="-9"/>
        <radio op="I TIM" rat="LTE" q="30.00" rsrp="-110" sinr="15" rsrq="-12"/>
      </extensions>
    </trkpt>
    <trkpt lat="45.6040708" lon="10.45815">
      <ele>264.3000183105469</ele>
      <time>2026-07-17T15:45:36.008+02:00</time>
      <extensions>
        <activity type="UNKNOWN" conf="40" state="unknown" tsMs="1784295932241"/>
        <radio op="vodafone IT" rat="LTE" q="16.50" rsrp="-114" sinr="10" rsrq="-11"/>
        <radio op="I TIM" rat="LTE" q="22.80" rsrp="-113" sinr="14" rsrq="-12"/>
      </extensions>
    </trkpt>
    <trkpt lat="45.6040813" lon="10.4581125">
      <ele>264.3000183105469</ele>
      <time>2026-07-17T15:46:07.201+02:00</time>
      <extensions>
        <activity type="TILTING" conf="100" state="moving" tsMs="1784295963753"/>
        <radio op="vodafone IT" rat="LTE" q="11.20" rsrp="-117" sinr="9" rsrq="-10"/>
        <radio op="I TIM" rat="LTE" q="14.30" rsrp="-114" sinr="8" rsrq="-10"/>
      </extensions>
    </trkpt>
    <trkpt lat="45.6041249" lon="10.4582985">
      <ele>264.3000183105469</ele>
      <time>2026-07-17T15:46:35.208+02:00</time>
      <extensions>
        <activity type="UNKNOWN" conf="40" state="unknown" tsMs="1784295992169"/>
        <radio op="vodafone IT" rat="LTE" q="27.20" rsrp="-109" sinr="12" rsrq="-8"/>
        <radio op="I TIM" rat="LTE" q="28.80" rsrp="-109" sinr="13" rsrq="-11"/>
      </extensions>
    </trkpt>
    <trkpt lat="45.6040811" lon="10.4580971">
      <ele>264.3000183105469</ele>
      <time>2026-07-17T15:47:36.672+02:00</time>
      <extensions>
        <activity type="STILL" conf="99" state="still" tsMs="1784296054633"/>
        <radio op="vodafone IT" rat="LTE" q="9.00" rsrp="-119" sinr="10" rsrq="-9"/>
        <radio op="I TIM" rat="LTE" q="13.50" rsrp="-116" sinr="10" rsrq="-10"/>
      </extensions>
    </trkpt>
    <trkpt lat="45.6040839" lon="10.4581402">
      <ele>264.3000183105469</ele>
      <time>2026-07-17T15:48:24.345+02:00</time>
      <extensions>
        <activity type="STILL" conf="99" state="still" tsMs="1784296099016"/>
        <radio op="vodafone IT" rat="LTE" q="10.50" rsrp="-118" sinr="10" rsrq="-8"/>
        <radio op="I TIM" rat="LTE" q="12.60" rsrp="-116" sinr="9" rsrq="-11"/>
      </extensions>
    </trkpt>
    <trkpt lat="45.6040768" lon="10.4581182">
      <ele>264.3000183105469</ele>
      <time>2026-07-17T15:49:08.296+02:00</time>
      <extensions>
        <activity type="STILL" conf="99" state="still" tsMs="1784296142261"/>
        <radio op="vodafone IT" rat="LTE" q="11.70" rsrp="-116" sinr="8" rsrq="-12"/>
        <radio op="I TIM" rat="LTE" q="20.40" rsrp="-113" sinr="12" rsrq="-10"/>
      </extensions>
    </trkpt>
    <trkpt lat="45.6040894" lon="10.45812">
      <ele>264.3000183105469</ele>
      <time>2026-07-17T15:49:57.478+02:00</time>
      <extensions>
        <activity type="STILL" conf="38" state="still" tsMs="1784296194563"/>
        <radio op="vodafone IT" rat="LTE" q="7.80" rsrp="-119" sinr="8" rsrq="-11"/>
        <radio op="I TIM" rat="LTE" q="17.60" rsrp="-114" sinr="11" rsrq="-9"/>
      </extensions>
    </trkpt>
    <trkpt lat="45.6040752" lon="10.4581077">
      <ele>264.3000183105469</ele>
      <time>2026-07-17T15:50:46.66+02:00</time>
      <extensions>
        <activity type="STILL" conf="96" state="still" tsMs="1784296242420"/>
        <radio op="vodafone IT" rat="LTE" q="12.60" rsrp="-116" sinr="9" rsrq="-13"/>
        <radio op="I TIM" rat="LTE" q="9.00" rsrp="-116" sinr="5" rsrq="-10"/>
      </extensions>
    </trkpt>
    <trkpt lat="45.6040961" lon="10.4582307">
      <ele>264.20001220703125</ele>
      <time>2026-07-17T15:52:19.201+02:00</time>
      <extensions>
        <activity type="UNKNOWN" conf="40" state="unknown" tsMs="1784296350152"/>
        <radio op="vodafone IT" rat="LTE" q="17.60" rsrp="-114" sinr="11" rsrq="-13"/>
        <radio op="I TIM" rat="LTE" q="15.00" rsrp="-115" sinr="10" rsrq="-12"/>
      </extensions>
    </trkpt>
    <trkpt lat="45.6040765" lon="10.4581429">
      <ele>264.3000183105469</ele>
      <time>2026-07-17T15:52:56.213+02:00</time>
      <extensions>
        <activity type="UNKNOWN" conf="40" state="unknown" tsMs="1784296372065"/>
        <radio op="vodafone IT" rat="LTE" q="15.40" rsrp="-114" sinr="9" rsrq="-9"/>
        <radio op="I TIM" rat="LTE" q="16.80" rsrp="-113" sinr="9" rsrq="-10"/>
      </extensions>
    </trkpt>
    <trkpt lat="45.6045707" lon="10.4577035">
      <ele>264.3000183105469</ele>
      <time>2026-07-17T15:53:39.07+02:00</time>
      <extensions>
        <activity type="UNKNOWN" conf="40" state="unknown" tsMs="1784296411863"/>
        <radio op="vodafone IT" rat="LTE" q="10.40" rsrp="-117" sinr="8" rsrq="-9"/>
        <radio op="I TIM" rat="LTE" q="5.40" rsrp="-116" sinr="1" rsrq="-11"/>
      </extensions>
    </trkpt>
    <trkpt lat="45.6039307" lon="10.4579209">
      <ele>262.6000061035156</ele>
      <time>2026-07-17T15:54:26.136+02:00</time>
      <extensions>
        <activity type="UNKNOWN" conf="40" state="unknown" tsMs="1784296469259"/>
        <radio op="vodafone IT" rat="LTE" q="12.00" rsrp="-115" sinr="7" rsrq="-9"/>
        <radio op="I TIM" rat="LTE" q="7.00" rsrp="-118" sinr="5" rsrq="-9"/>
      </extensions>
    </trkpt>
    <trkpt lat="45.6035084" lon="10.459264">
      <ele>264.3000183105469</ele>
      <time>2026-07-17T15:56:14.939+02:00</time>
      <extensions>
        <activity type="UNKNOWN" conf="40" state="unknown" tsMs="1784296574460"/>
        <radio op="vodafone IT" rat="LTE" q="45.60" rsrp="-106" sinr="19" rsrq="-9"/>
        <radio op="I TIM" rat="LTE" q="21.00" rsrp="-111" sinr="10" rsrq="-12"/>
      </extensions>
    </trkpt>
    <trkpt lat="45.6035084" lon="10.459264">
      <ele>264.3000183105469</ele>
      <time>2026-07-17T15:56:27.483+02:00</time>
      <extensions>
        <activity type="UNKNOWN" conf="40" state="unknown" tsMs="1784296578193"/>
        <radio op="vodafone IT" rat="LTE" q="45.60" rsrp="-106" sinr="19" rsrq="-8"/>
        <radio op="I TIM" rat="LTE" q="15.60" rsrp="-113" sinr="8" rsrq="-8"/>
      </extensions>
    </trkpt>
    <trkpt lat="45.6044583" lon="10.4587906">
      <ele>264.3000183105469</ele>
      <time>2026-07-17T15:57:24.086+02:00</time>
      <extensions>
        <activity type="ON_FOOT" conf="94" state="moving" tsMs="1784296643433"/>
        <radio op="vodafone IT" rat="LTE" q="38.40" rsrp="-109" sinr="19" rsrq="-11"/>
        <radio op="I TIM" rat="LTE" q="36.00" rsrp="-110" sinr="19" rsrq="-9"/>
      </extensions>
    </trkpt>
    <trkpt lat="45.6041165" lon="10.4593169">
      <ele>264.3000183105469</ele>
      <time>2026-07-17T15:57:36.23+02:00</time>
      <extensions>
        <activity type="ON_FOOT" conf="88" state="moving" tsMs="1784296647214"/>
        <radio op="vodafone IT" rat="LTE" q="26.60" rsrp="-111" sinr="14" rsrq="-8"/>
        <radio op="I TIM" rat="LTE" q="58.90" rsrp="-94" sinr="14" rsrq="-9"/>
      </extensions>
    </trkpt>
    <trkpt lat="45.6043284" lon="10.4592116">
      <ele>269.7767111136882</ele>
      <time>2026-07-17T15:58:11.899+02:00</time>
      <extensions>
        <activity type="ON_FOOT" conf="91" state="moving" tsMs="1784296686055"/>
        <radio op="vodafone IT" rat="LTE" q="52.80" rsrp="-101" sinr="17" rsrq="-6"/>
        <radio op="I TIM" rat="LTE" q="82.50" rsrp="-92" sinr="28" rsrq="-7"/>
      </extensions>
    </trkpt>
    <trkpt lat="45.6043268" lon="10.4595372">
      <ele>268.1399260581063</ele>
      <time>2026-07-17T15:58:47.49+02:00</time>
      <extensions>
        <activity type="ON_FOOT" conf="91" state="moving" tsMs="1784296722755"/>
        <radio op="vodafone IT" rat="LTE" q="57.20" rsrp="-99" sinr="17" rsrq="-10"/>
        <radio op="I TIM" rat="LTE" q="85.00" rsrp="-91" sinr="26" rsrq="-11"/>
      </extensions>
    </trkpt>
    <trkpt lat="45.6043119" lon="10.4596163">
      <ele>269.23290402129834</ele>
      <time>2026-07-17T15:59:17.571+02:00</time>
      <extensions>
        <activity type="UNKNOWN" conf="40" state="unknown" tsMs="1784296755050"/>
        <radio op="vodafone IT" rat="LTE" q="50.40" rsrp="-104" sinr="19" rsrq="-9"/>
        <radio op="I TIM" rat="LTE" q="72.50" rsrp="-96" sinr="23" rsrq="-12"/>
      </extensions>
    </trkpt>
    <trkpt lat="45.6044033" lon="10.4597556">
      <ele>268.81626236841106</ele>
      <time>2026-07-17T15:59:50.759+02:00</time>
      <extensions>
        <activity type="UNKNOWN" conf="40" state="unknown" tsMs="1784296789416"/>
        <radio op="vodafone IT" rat="LTE" q="57.50" rsrp="-102" sinr="21" rsrq="-7"/>
        <radio op="I TIM" rat="LTE" q="85.00" rsrp="-91" sinr="25" rsrq="-9"/>
      </extensions>
    </trkpt>
    <trkpt lat="45.6044922" lon="10.4596907">
      <ele>264.4000244140625</ele>
      <time>2026-07-17T16:00:16.732+02:00</time>
      <extensions>
        <activity type="UNKNOWN" conf="40" state="unknown" tsMs="1784296821378"/>
        <radio op="vodafone IT" rat="LTE" q="20.80" rsrp="-112" sinr="11" rsrq="-10"/>
        <radio op="I TIM" rat="LTE" q="82.50" rsrp="-92" sinr="28" rsrq="-13"/>
      </extensions>
    </trkpt>
    <trkpt lat="45.6045103" lon="10.4597341">
      <ele>269.21277174466206</ele>
      <time>2026-07-17T16:00:52.402+02:00</time>
      <extensions>
        <activity type="STILL" conf="96" state="still" tsMs="1784296849384"/>
        <radio op="vodafone IT" rat="LTE" q="20.80" rsrp="-112" sinr="11" rsrq="-8"/>
        <radio op="I TIM" rat="LTE" q="82.50" rsrp="-92" sinr="28" rsrq="-11"/>
      </extensions>
    </trkpt>
    <trkpt lat="45.6045011" lon="10.459736">
      <ele>264.4000244140625</ele>
      <time>2026-07-17T16:01:23.597+02:00</time>
      <extensions>
        <activity type="STILL" conf="99" state="still" tsMs="1784296879865"/>
        <radio op="vodafone IT" rat="LTE" q="23.80" rsrp="-111" sinr="12" rsrq="-7"/>
        <radio op="I TIM" rat="LTE" rsrp="-92" rsrq="-8"/>
      </extensions>
    </trkpt>
    <trkpt lat="45.6044666" lon="10.4597557">
      <ele>264.4000244140625</ele>
      <time>2026-07-17T16:01:54.835+02:00</time>
      <extensions>
        <activity type="STILL" conf="53" state="still" tsMs="1784296910853"/>
        <radio op="vodafone IT" rat="LTE" q="22.50" rsrp="-110" sinr="10" rsrq="-12"/>
        <radio op="I TIM" rat="LTE" q="72.50" rsrp="-96" sinr="24" rsrq="-9"/>
      </extensions>
    </trkpt>
    <trkpt lat="45.6044553" lon="10.4596615">
      <ele>264.4000244140625</ele>
      <time>2026-07-17T16:02:26.212+02:00</time>
      <extensions>
        <activity type="ON_FOOT" conf="97" state="moving" tsMs="1784296942340"/>
        <radio op="vodafone IT" rat="LTE" q="13.00" rsrp="-112" sinr="5" rsrq="-10"/>
        <radio op="I TIM" rat="LTE" q="64.80" rsrp="-98" sinr="19" rsrq="-12"/>
      </extensions>
    </trkpt>
    <trkpt lat="45.6045741" lon="10.4594119">
      <ele>264.4000244140625</ele>
      <time>2026-07-17T16:02:57.482+02:00</time>
      <extensions>
        <activity type="ON_FOOT" conf="96" state="moving" tsMs="1784296973654"/>
        <radio op="vodafone IT" rat="LTE" q="67.50" rsrp="-98" sinr="26" rsrq="-12"/>
        <radio op="I TIM" rat="LTE" q="67.50" rsrp="-98" sinr="21" rsrq="-11"/>
      </extensions>
    </trkpt>
    <trkpt lat="45.6042923" lon="10.4593982">
      <ele>266.2097304594405</ele>
      <time>2026-07-17T16:03:28.816+02:00</time>
      <extensions>
        <activity type="ON_FOOT" conf="94" state="moving" tsMs="1784297004958"/>
        <radio op="vodafone IT" rat="LTE" q="52.50" rsrp="-104" sinr="26" rsrq="-10"/>
        <radio op="I TIM" rat="LTE" q="48.00" rsrp="-105" sinr="19" rsrq="-9"/>
      </extensions>
    </trkpt>
    <trkpt lat="45.6044111" lon="10.4592439">
      <ele>264.4000244140625</ele>
      <time>2026-07-17T16:03:59.97+02:00</time>
      <extensions>
        <activity type="ON_FOOT" conf="94" state="moving" tsMs="1784297036287"/>
        <radio op="vodafone IT" rat="LTE" q="67.50" rsrp="-98" sinr="25" rsrq="-13"/>
        <radio op="I TIM" rat="LTE" q="70.00" rsrp="-97" sinr="27" rsrq="-10"/>
      </extensions>
    </trkpt>
    <trkpt lat="45.6044072" lon="10.4592312">
      <ele>264.4000244140625</ele>
      <time>2026-07-17T16:04:31.165+02:00</time>
      <extensions>
        <activity type="STILL" conf="96" state="still" tsMs="1784297067332"/>
        <radio op="vodafone IT" rat="LTE" q="54.40" rsrp="-91" sinr="11" rsrq="-7"/>
        <radio op="I TIM" rat="LTE" q="72.50" rsrp="-96" sinr="24" rsrq="-9"/>
      </extensions>
    </trkpt>
    <trkpt lat="45.6044152" lon="10.4592207">
      <ele>264.4000244140625</ele>
      <time>2026-07-17T16:05:02.512+02:00</time>
      <extensions>
        <activity type="UNKNOWN" conf="40" state="unknown" tsMs="1784297098590"/>
        <radio op="vodafone IT" rat="LTE" q="37.80" rsrp="-98" sinr="9" rsrq="-10"/>
        <radio op="I TIM" rat="LTE" q="65.00" rsrp="-99" sinr="23" rsrq="-10"/>
      </extensions>
    </trkpt>
    <trkpt lat="45.6044081" lon="10.459217">
      <ele>264.4000244140625</ele>
      <time>2026-07-17T16:05:33.506+02:00</time>
      <extensions>
        <activity type="UNKNOWN" conf="40" state="unknown" tsMs="1784297129621"/>
        <radio op="vodafone IT" rat="LTE" q="80.00" rsrp="-93" sinr="24" rsrq="-6"/>
        <radio op="I TIM" rat="LTE" q="90.00" rsrp="-89" sinr="25" rsrq="-9"/>
      </extensions>
    </trkpt>
    <trkpt lat="45.6043781" lon="10.4591784">
      <ele>264.4000244140625</ele>
      <time>2026-07-17T16:06:04.405+02:00</time>
      <extensions>
        <activity type="STILL" conf="36" state="still" tsMs="1784297159531"/>
        <radio op="vodafone IT" rat="LTE" q="97.50" rsrp="-86" sinr="25" rsrq="-8"/>
        <radio op="I TIM" rat="LTE" q="90.00" rsrp="-89" sinr="24" rsrq="-11"/>
      </extensions>
    </trkpt>
    <trkpt lat="45.6043904" lon="10.4591911">
      <ele>264.4000244140625</ele>
      <time>2026-07-17T16:06:35.372+02:00</time>
      <extensions>
        <activity type="STILL" conf="67" state="still" tsMs="1784297191415"/>
        <radio op="vodafone IT" rat="LTE" q="92.50" rsrp="-88" sinr="28" rsrq="-11"/>
        <radio op="I TIM" rat="LTE" q="85.00" rsrp="-91" sinr="24" rsrq="-13"/>
      </extensions>
    </trkpt>
    <trkpt lat="45.6044143" lon="10.459229">
      <ele>264.4000244140625</ele>
      <time>2026-07-17T16:07:06.208+02:00</time>
      <extensions>
        <activity type="STILL" conf="98" state="still" tsMs="1784297222358"/>
        <radio op="vodafone IT" rat="LTE" q="80.00" rsrp="-93" sinr="25" rsrq="-9"/>
        <radio op="I TIM" rat="LTE" q="92.50" rsrp="-88" sinr="27" rsrq="-12"/>
      </extensions>
    </trkpt>
    <trkpt lat="45.6044497" lon="10.4588063">
      <ele>264.4000244140625</ele>
      <time>2026-07-17T16:10:20.101+02:00</time>
      <extensions>
        <activity type="ON_FOOT" conf="86" state="moving" tsMs="1784297416683"/>
        <radio op="vodafone IT" rat="LTE" q="50.00" rsrp="-105" sinr="20" rsrq="-10"/>
        <radio op="I TIM" rat="LTE" q="82.50" rsrp="-92" sinr="25" rsrq="-7"/>
      </extensions>
    </trkpt>
    <trkpt lat="45.6042443" lon="10.4589758">
      <ele>262.5709716821708</ele>
      <time>2026-07-17T16:10:51.675+02:00</time>
      <extensions>
        <activity type="ON_FOOT" conf="96" state="moving" tsMs="1784297450323"/>
        <radio op="vodafone IT" rat="LTE" q="23.40" rsrp="-112" sinr="13" rsrq="-12"/>
        <radio op="I TIM" rat="LTE" q="65.00" rsrp="-99" sinr="25" rsrq="-10"/>
      </extensions>
    </trkpt>
    <trkpt lat="45.6042443" lon="10.4589758">
      <ele>260.3736470442319</ele>
      <time>2026-07-17T16:11:39.091+02:00</time>
      <extensions>
        <activity type="ON_FOOT" conf="96" state="moving" tsMs="1784297490295"/>
        <radio op="vodafone IT" rat="LTE" q="18.70" rsrp="-114" sinr="12" rsrq="-11"/>
        <radio op="I TIM" rat="LTE" q="16.00" rsrp="-115" sinr="11" rsrq="-8"/>
      </extensions>
    </trkpt>
    <trkpt lat="45.6042443" lon="10.4589758">
      <ele>260.3587734520147</ele>
      <time>2026-07-17T16:11:46.358+02:00</time>
      <extensions>
        <activity type="UNKNOWN" conf="40" state="unknown" tsMs="1784297514796"/>
        <radio op="vodafone IT" rat="LTE" q="13.60" rsrp="-117" sinr="12" rsrq="-9"/>
        <radio op="I TIM" rat="LTE" q="16.00" rsrp="-115" sinr="11" rsrq="-7"/>
      </extensions>
    </trkpt>
    <trkpt lat="45.6043242" lon="10.4576114">
      <ele>257.77540828763875</ele>
      <time>2026-07-17T16:12:26.611+02:00</time>
      <extensions>
        <activity type="IN_VEHICLE" conf="81" state="moving" tsMs="1784297541880"/>
        <radio op="vodafone IT" rat="LTE" q="45.00" rsrp="-100" sinr="13" rsrq="-9"/>
        <radio op="I TIM" rat="LTE" q="80.00" rsrp="-93" sinr="24" rsrq="-10"/>
      </extensions>
    </trkpt>
    <trkpt lat="45.603145" lon="10.4576961">
      <ele>261.70001220703125</ele>
      <time>2026-07-17T16:12:57.902+02:00</time>
      <extensions>
        <activity type="IN_VEHICLE" conf="87" state="moving" tsMs="1784297573308"/>
        <radio op="vodafone IT" rat="LTE" rsrp="-73" rsrq="-9"/>
        <radio op="I TIM" rat="LTE" q="68.00" rsrp="-75" sinr="12" rsrq="-7"/>
      </extensions>
    </trkpt>
    <trkpt lat="45.6021929" lon="10.4549686">
      <ele>258.6490129949881</ele>
      <time>2026-07-17T16:13:29.084+02:00</time>
      <extensions>
        <activity type="IN_VEHICLE" conf="89" state="moving" tsMs="1784297604533"/>
        <radio op="vodafone IT" rat="LTE" q="18.00" rsrp="-105" sinr="4" rsrq="-11"/>
        <radio op="I TIM" rat="LTE" q="11.50" rsrp="-102" sinr="0" rsrq="-10"/>
      </extensions>
    </trkpt>
    <trkpt lat="45.6021325" lon="10.4531922">
      <ele>257.45944545918655</ele>
      <time>2026-07-17T16:14:00.324+02:00</time>
      <extensions>
        <activity type="IN_VEHICLE" conf="85" state="moving" tsMs="1784297635814"/>
        <radio op="vodafone IT" rat="LTE" q="27.50" rsrp="-100" sinr="6" rsrq="-14"/>
        <radio op="I TIM" rat="LTE" q="18.00" rsrp="-105" sinr="4" rsrq="-14"/>
      </extensions>
    </trkpt>
    <trkpt lat="45.6016507" lon="10.4529854">
      <ele>261.6000061035156</ele>
      <time>2026-07-17T16:14:31.623+02:00</time>
      <extensions>
        <activity type="UNKNOWN" conf="40" state="unknown" tsMs="1784297667099"/>
        <radio op="vodafone IT" rat="LTE" q="16.50" rsrp="-92" sinr="0" rsrq="-14"/>
        <radio op="I TIM" rat="LTE" q="22.50" rsrp="-100" sinr="4" rsrq="-13"/>
      </extensions>
    </trkpt>
    <trkpt lat="45.6018168" lon="10.452974">
      <ele>261.6000061035156</ele>
      <time>2026-07-17T16:15:02.747+02:00</time>
      <extensions>
        <activity type="ON_FOOT" conf="82" state="moving" tsMs="1784297698286"/>
        <radio op="vodafone IT" rat="LTE" q="23.10" rsrp="-92" sinr="2" rsrq="-15"/>
        <radio op="I TIM" rat="LTE" q="40.60" rsrp="-96" sinr="9" rsrq="-12"/>
      </extensions>
    </trkpt>
    <trkpt lat="45.601991" lon="10.4531644">
      <ele>261.6000061035156</ele>
      <time>2026-07-17T16:15:10.266+02:00</time>
      <extensions>
        <activity type="UNKNOWN" conf="40" state="unknown" tsMs="1784297713980"/>
        <radio op="vodafone IT" rat="LTE" q="19.20" rsrp="-93" sinr="1" rsrq="-11"/>
        <radio op="I TIM" rat="LTE" q="62.90" rsrp="-88" sinr="12" rsrq="-12"/>
      </extensions>
    </trkpt>
    <trkpt lat="45.6021173" lon="10.4531427">
      <ele>261.70001220703125</ele>
      <time>2026-07-17T16:15:51.628+02:00</time>
      <extensions>
        <activity type="UNKNOWN" conf="40" state="unknown" tsMs="1784297748284"/>
        <radio op="vodafone IT" rat="LTE" q="60.00" rsrp="-95" sinr="15" rsrq="-11"/>
        <radio op="I TIM" rat="LTE" q="27.00" rsrp="-95" sinr="4" rsrq="-12"/>
      </extensions>
    </trkpt>
    <trkpt lat="45.6021807" lon="10.4532241">
      <ele>261.70001220703125</ele>
      <time>2026-07-17T16:16:22.891+02:00</time>
      <extensions>
        <activity type="UNKNOWN" conf="40" state="unknown" tsMs="1784297782248"/>
        <radio op="vodafone IT" rat="LTE" q="30.60" rsrp="-107" sinr="12" rsrq="-11"/>
        <radio op="I TIM" rat="LTE" rsrp="-105" rsrq="-14"/>
      </extensions>
    </trkpt>
    <trkpt lat="45.6025086" lon="10.4535771">
      <ele>261.6000061035156</ele>
      <time>2026-07-17T16:16:54.225+02:00</time>
      <extensions>
        <activity type="ON_FOOT" conf="95" state="moving" tsMs="1784297810603"/>
        <radio op="vodafone IT" rat="LTE" q="17.60" rsrp="-109" sinr="6" rsrq="-10"/>
        <radio op="I TIM" rat="LTE" q="46.80" rsrp="-99" sinr="13" rsrq="-12"/>
      </extensions>
    </trkpt>
    <trkpt lat="45.6024956" lon="10.4536139">
      <ele>261.6000061035156</ele>
      <time>2026-07-17T16:16:59.484+02:00</time>
      <extensions>
        <activity type="ON_FOOT" conf="97" state="moving" tsMs="1784297823191"/>
        <radio op="vodafone IT" rat="LTE" q="25.50" rsrp="-108" sinr="10" rsrq="-10"/>
        <radio op="I TIM" rat="LTE" rsrp="-102" rsrq="-14"/>
      </extensions>
    </trkpt>
    <trkpt lat="45.6025519" lon="10.4536732">
      <ele>261.6000061035156</ele>
      <time>2026-07-17T16:17:35.697+02:00</time>
      <extensions>
        <activity type="UNKNOWN" conf="40" state="unknown" tsMs="1784297850272"/>
        <radio op="vodafone IT" rat="LTE" q="18.00" rsrp="-107" sinr="5" rsrq="-12"/>
        <radio op="I TIM" rat="LTE" q="1.50" rsrp="-122" sinr="0" rsrq="-11"/>
      </extensions>
    </trkpt>
    <trkpt lat="45.6025486" lon="10.4536769">
      <ele>259.6831145321529</ele>
      <time>2026-07-17T16:18:07.307+02:00</time>
      <extensions>
        <activity type="UNKNOWN" conf="40" state="unknown" tsMs="1784297883463"/>
        <radio op="vodafone IT" rat="LTE" q="9.90" rsrp="-114" sinr="4" rsrq="-12"/>
        <radio op="I TIM" rat="LTE" q="9.90" rsrp="-116" sinr="6" rsrq="-15"/>
      </extensions>
    </trkpt>
    <trkpt lat="45.602556" lon="10.4536876">
      <ele>261.6000061035156</ele>
      <time>2026-07-17T16:18:33.122+02:00</time>
      <extensions>
        <activity type="UNKNOWN" conf="40" state="unknown" tsMs="1784297909451"/>
        <radio op="vodafone IT" rat="LTE" rsrp="-112" rsrq="-13"/>
        <radio op="I TIM" rat="LTE" q="17.00" rsrp="-115" sinr="12" rsrq="-11"/>
      </extensions>
    </trkpt>
    <trkpt lat="45.6025529" lon="10.453681">
      <ele>261.6000061035156</ele>
      <time>2026-07-17T16:19:09.376+02:00</time>
      <extensions>
        <activity type="UNKNOWN" conf="40" state="unknown" tsMs="1784297943997"/>
        <radio op="vodafone IT" rat="LTE" q="10.50" rsrp="-110" sinr="2" rsrq="-10"/>
        <radio op="I TIM" rat="LTE" q="14.40" rsrp="-116" sinr="11" rsrq="-11"/>
      </extensions>
    </trkpt>
    <trkpt lat="45.6025509" lon="10.4536833">
      <ele>261.6000061035156</ele>
      <time>2026-07-17T16:19:41.32+02:00</time>
      <extensions>
        <activity type="STILL" conf="24" state="still" tsMs="1784297977437"/>
        <radio op="vodafone IT" rat="LTE" q="8.80" rsrp="-114" sinr="3" rsrq="-12"/>
        <radio op="I TIM" rat="LTE" q="21.60" rsrp="-113" sinr="13" rsrq="-11"/>
      </extensions>
    </trkpt>
    <trkpt lat="45.6025527" lon="10.4536729">
      <ele>261.6000061035156</ele>
      <time>2026-07-17T16:20:13.255+02:00</time>
      <extensions>
        <activity type="STILL" conf="38" state="still" tsMs="1784298009248"/>
        <radio op="vodafone IT" rat="LTE" q="9.90" rsrp="-114" sinr="4" rsrq="-12"/>
        <radio op="I TIM" rat="LTE" q="21.60" rsrp="-113" sinr="13" rsrq="-11"/>
      </extensions>
    </trkpt>
  </trkseg></trk>
</gpx>
