<?xml version="1.0" encoding="UTF-8"?>
<gpx version="1.1" creator="CellGPX" xmlns="http://www.topografix.com/GPX/1/1">
  <trk><name>CellGPX</name><trkseg>
    <trkpt lat="45.6022337" lon="10.4534132">
      <ele>261.8000183105469</ele>
      <time>2026-03-30T12:09:25.943+02:00</time>
      <extensions>
        <activity type="ON_FOOT" conf="94" state="moving" tsMs="1774865362163"/>
        <radio op="vodafone IT" rat="LTE" q="35.00" rsrp="-100" sinr="9" rsrq="-8"/>
        <radio op="I TIM" rat="LTE" q="9.00" rsrp="-110" sinr="1" rsrq="-14"/>
      </extensions>
    </trkpt>
    <trkpt lat="45.6014636" lon="10.4536174">
      <ele>261.0</ele>
      <time>2026-03-30T12:09:58.045+02:00</time>
      <extensions>
        <activity type="ON_FOOT" conf="96" state="moving" tsMs="1774865393676"/>
        <radio op="vodafone IT" rat="LTE" q="43.20" rsrp="-101" sinr="13" rsrq="-7"/>
        <radio op="I TIM" rat="LTE" q="17.10" rsrp="-106" sinr="4" rsrq="-14"/>
      </extensions>
    </trkpt>
    <trkpt lat="45.601036" lon="10.4533514">
      <ele>261.0</ele>
      <time>2026-03-30T12:10:30.876+02:00</time>
      <extensions>
        <activity type="ON_FOOT" conf="95" state="moving" tsMs="1774865425535"/>
        <radio op="vodafone IT" rat="LTE" q="62.10" rsrp="-98" sinr="18" rsrq="-10"/>
        <radio op="I TIM" rat="LTE" q="18.20" rsrp="-99" sinr="2" rsrq="-10"/>
      </extensions>
    </trkpt>
    <trkpt lat="45.6008728" lon="10.4531039">
      <ele>259.70001220703125</ele>
      <time>2026-03-30T12:11:09.255+02:00</time>
      <extensions>
        <activity type="ON_FOOT" conf="98" state="moving" tsMs="1774865464966"/>
        <radio op="vodafone IT" rat="LTE" q="47.50" rsrp="-100" sinr="14" rsrq="-5"/>
        <radio op="I TIM" rat="LTE" q="29.70" rsrp="-98" sinr="6" rsrq="-10"/>
      </extensions>
    </trkpt>
    <trkpt lat="45.6002756" lon="10.4521129">
      <ele>258.8000183105469</ele>
      <time>2026-03-30T12:11:59.116+02:00</time>
      <extensions>
        <activity type="ON_FOOT" conf="97" state="moving" tsMs="1774865513929"/>
        <radio op="vodafone IT" rat="LTE" q="26.00" rsrp="-105" sinr="8" rsrq="-11"/>
        <radio op="I TIM" rat="LTE" q="23.10" rsrp="-104" sinr="6" rsrq="-10"/>
      </extensions>
    </trkpt>
    <trkpt lat="45.6003847" lon="10.4518933">
      <ele>258.8000183105469</ele>
      <time>2026-03-30T12:12:09.565+02:00</time>
      <extensions>
        <activity type="ON_FOOT" conf="96" state="moving" tsMs="1774865524867"/>
        <radio op="vodafone IT" rat="LTE" q="45.60" rsrp="-101" sinr="14" rsrq="-7"/>
        <radio op="I TIM" rat="LTE" q="34.50" rsrp="-102" sinr="10" rsrq="-10"/>
      </extensions>
    </trkpt>
    <trkpt lat="45.6003962" lon="10.4518646">
      <ele>258.8000183105469</ele>
      <time>2026-03-30T12:12:10.566+02:00</time>
      <extensions>
        <activity type="ON_FOOT" conf="97" state="moving" tsMs="1774865541040"/>
        <radio op="vodafone IT" rat="LTE" q="37.40" rsrp="-103" sinr="12" rsrq="-11"/>
        <radio op="I TIM" rat="LTE" q="28.60" rsrp="-103" sinr="8" rsrq="-9"/>
      </extensions>
    </trkpt>
    <trkpt lat="45.6004021" lon="10.4518573">
      <ele>258.4000244140625</ele>
      <time>2026-03-30T12:12:54.454+02:00</time>
      <extensions>
        <activity type="ON_FOOT" conf="93" state="moving" tsMs="1774865573755"/>
        <radio op="vodafone IT" rat="LTE" q="35.00" rsrp="-100" sinr="9" rsrq="-9"/>
        <radio op="I TIM" rat="LTE" q="18.90" rsrp="-104" sinr="4" rsrq="-11"/>
      </extensions>
    </trkpt>
    <trkpt lat="45.5999708" lon="10.4514604">
      <ele>258.4000244140625</ele>
      <time>2026-03-30T12:13:02.565+02:00</time>
      <extensions>
        <activity type="ON_FOOT" conf="93" state="moving" tsMs="1774865573755"/>
        <radio op="vodafone IT" rat="LTE" q="45.90" rsrp="-98" sinr="12" rsrq="-10"/>
        <radio op="I TIM" rat="LTE" q="36.40" rsrp="-97" sinr="8" rsrq="-8"/>
      </extensions>
    </trkpt>
    <trkpt lat="45.5999516" lon="10.4515391">
      <ele>258.3000183105469</ele>
      <time>2026-03-30T12:13:35.856+02:00</time>
      <extensions>
        <activity type="ON_FOOT" conf="87" state="moving" tsMs="1774865610564"/>
        <radio op="vodafone IT" rat="LTE" q="39.00" rsrp="-99" sinr="10" rsrq="-6"/>
        <radio op="I TIM" rat="LTE" q="9.60" rsrp="-117" sinr="7" rsrq="-10"/>
      </extensions>
    </trkpt>
    <trkpt lat="45.5999673" lon="10.4515244">
      <ele>258.3000183105469</ele>
      <time>2026-03-30T12:14:02.566+02:00</time>
      <extensions>
        <activity type="UNKNOWN" conf="40" state="unknown" tsMs="1774865642948"/>
        <radio op="vodafone IT" rat="LTE" q="40.30" rsrp="-94" sinr="8" rsrq="-12"/>
        <radio op="I TIM" rat="LTE" q="23.40" rsrp="-107" sinr="8" rsrq="-11"/>
      </extensions>
    </trkpt>
    <trkpt lat="45.5999624" lon="10.4515258">
      <ele>258.3000183105469</ele>
      <time>2026-03-30T12:14:48.192+02:00</time>
      <extensions>
        <activity type="STILL" conf="99" state="still" tsMs="1774865685932"/>
        <radio op="vodafone IT" rat="LTE" q="51.00" rsrp="-91" sinr="10" rsrq="-11"/>
        <radio op="I TIM" rat="LTE" q="22.80" rsrp="-106" sinr="7" rsrq="-10"/>
      </extensions>
    </trkpt>
    <trkpt lat="45.5999641" lon="10.4515201">
      <ele>258.3000183105469</ele>
      <time>2026-03-30T12:15:18.253+02:00</time>
      <extensions>
        <activity type="STILL" conf="64" state="still" tsMs="1774865717198"/>
        <radio op="vodafone IT" rat="LTE" q="51.00" rsrp="-91" sinr="10" rsrq="-11"/>
        <radio op="I TIM" rat="LTE" q="15.30" rsrp="-108" sinr="4" rsrq="-11"/>
      </extensions>
    </trkpt>
    <trkpt lat="45.5999599" lon="10.4515276">
      <ele>258.3000183105469</ele>
      <time>2026-03-30T12:15:51.716+02:00</time>
      <extensions>
        <activity type="STILL" conf="55" state="still" tsMs="1774865747572"/>
        <radio op="vodafone IT" rat="LTE" q="54.40" rsrp="-93" sinr="12" rsrq="-8"/>
        <radio op="I TIM" rat="LTE" q="14.40" rsrp="-109" sinr="4" rsrq="-10"/>
      </extensions>
    </trkpt>
    <trkpt lat="45.5999567" lon="10.4515211">
      <ele>258.3000183105469</ele>
      <time>2026-03-30T12:16:23.051+02:00</time>
      <extensions>
        <activity type="STILL" conf="97" state="still" tsMs="1774865779034"/>
        <radio op="vodafone IT" rat="LTE" q="33.60" rsrp="-97" sinr="7" rsrq="-7"/>
        <radio op="I TIM" rat="LTE" q="12.80" rsrp="-109" sinr="3" rsrq="-13"/>
      </extensions>
    </trkpt>
    <trkpt lat="45.5999348" lon="10.4515149">
      <ele>258.4000244140625</ele>
      <time>2026-03-30T12:16:49.702+02:00</time>
      <extensions>
        <activity type="STILL" conf="43" state="still" tsMs="1774865810653"/>
        <radio op="vodafone IT" rat="LTE" q="31.90" rsrp="-96" sinr="6" rsrq="-10"/>
        <radio op="I TIM" rat="LTE" q="19.00" rsrp="-106" sinr="5" rsrq="-11"/>
      </extensions>
    </trkpt>
    <trkpt lat="45.6000084" lon="10.4512621">
      <ele>258.1000061035156</ele>
      <time>2026-03-30T13:01:54.699+02:00</time>
      <extensions>
        <activity type="UNKNOWN" conf="40" state="unknown" tsMs="1774868503883"/>
        <radio op="vodafone IT" rat="LTE" q="34.10" rsrp="-94" sinr="6" rsrq="-8"/>
        <radio op="I TIM" rat="LTE" q="26.00" rsrp="-105" sinr="8" rsrq="-12"/>
      </extensions>
    </trkpt>
    <trkpt lat="45.6001143" lon="10.4514189">
      <ele>258.3000183105469</ele>
      <time>2026-03-30T13:02:04.8+02:00</time>
      <extensions>
        <activity type="UNKNOWN" conf="40" state="unknown" tsMs="1774868503883"/>
        <radio op="vodafone IT" rat="LTE" q="45.50" rsrp="-90" sinr="8" rsrq="-8"/>
        <radio op="I TIM" rat="LTE" q="41.40" rsrp="-102" sinr="13" rsrq="-12"/>
      </extensions>
    </trkpt>
    <trkpt lat="45.6001883" lon="10.4515789">
      <ele>258.8000183105469</ele>
      <time>2026-03-30T13:02:14.856+02:00</time>
      <extensions>
        <activity type="ON_FOOT" conf="95" state="moving" tsMs="1774868519474"/>
        <radio op="vodafone IT" rat="LTE" q="52.00" rsrp="-82" sinr="8" rsrq="-12"/>
        <radio op="I TIM" rat="LTE" q="53.20" rsrp="-97" sinr="14" rsrq="-12"/>
      </extensions>
    </trkpt>
    <trkpt lat="45.6002655" lon="10.4517433">
      <ele>259.5</ele>
      <time>2026-03-30T13:02:24.817+02:00</time>
      <extensions>
        <activity type="ON_FOOT" conf="97" state="moving" tsMs="1774868534486"/>
        <radio op="vodafone IT" rat="LTE" q="24.80" rsrp="-94" sinr="3" rsrq="-12"/>
        <radio op="I TIM" rat="LTE" q="23.00" rsrp="-102" sinr="5" rsrq="-12"/>
      </extensions>
    </trkpt>
    <trkpt lat="45.6002904" lon="10.4518685">
      <ele>259.20001220703125</ele>
      <time>2026-03-30T13:02:35.36+02:00</time>
      <extensions>
        <activity type="ON_FOOT" conf="97" state="moving" tsMs="1774868534486"/>
        <radio op="vodafone IT" rat="LTE" q="59.50" rsrp="-90" sinr="12" rsrq="-8"/>
        <radio op="I TIM" rat="LTE" q="28.60" rsrp="-103" sinr="8" rsrq="-13"/>
      </extensions>
    </trkpt>
    <trkpt lat="45.6003786" lon="10.4519716">
      <ele>259.0</ele>
      <time>2026-03-30T13:02:45.379+02:00</time>
      <extensions>
        <activity type="UNKNOWN" conf="40" state="unknown" tsMs="1774868548732"/>
        <radio op="vodafone IT" rat="LTE" q="24.80" rsrp="-94" sinr="3" rsrq="-11"/>
        <radio op="I TIM" rat="LTE" q="10.00" rsrp="-105" sinr="0" rsrq="-13"/>
      </extensions>
    </trkpt>
    <trkpt lat="45.6004424" lon="10.4521202">
      <ele>258.8000183105469</ele>
      <time>2026-03-30T13:02:55.342+02:00</time>
      <extensions>
        <activity type="ON_FOOT" conf="93" state="moving" tsMs="1774868563754"/>
        <radio op="vodafone IT" rat="LTE" q="57.80" rsrp="-91" sinr="12" rsrq="-10"/>
        <radio op="I TIM" rat="LTE" q="26.00" rsrp="-99" sinr="5" rsrq="-11"/>
      </extensions>
    </trkpt>
    <trkpt lat="45.6005303" lon="10.4522507">
      <ele>258.9000244140625</ele>
      <time>2026-03-30T13:03:05.567+02:00</time>
      <extensions>
        <activity type="ON_FOOT" conf="93" state="moving" tsMs="1774868563754"/>
        <radio op="vodafone IT" rat="LTE" q="33.00" rsrp="-92" sinr="5" rsrq="-10"/>
        <radio op="I TIM" rat="LTE" q="12.60" rsrp="-104" sinr="1" rsrq="-12"/>
      </extensions>
    </trkpt>
    <trkpt lat="45.6006122" lon="10.4523541">
      <ele>259.4000244140625</ele>
      <time>2026-03-30T13:03:15.597+02:00</time>
      <extensions>
        <activity type="UNKNOWN" conf="40" state="unknown" tsMs="1774868578767"/>
        <radio op="vodafone IT" rat="LTE" q="19.80" rsrp="-92" sinr="1" rsrq="-13"/>
        <radio op="I TIM" rat="LTE" rsrp="-101" rsrq="-15"/>
      </extensions>
    </trkpt>
    <trkpt lat="45.6006662" lon="10.4524603">
      <ele>259.6000061035156</ele>
      <time>2026-03-30T13:03:25.68+02:00</time>
      <extensions>
        <activity type="ON_FOOT" conf="96" state="moving" tsMs="1774868593787"/>
        <radio op="vodafone IT" rat="LTE" q="36.00" rsrp="-95" sinr="7" rsrq="-9"/>
        <radio op="I TIM" rat="LTE" q="22.00" rsrp="-103" sinr="5" rsrq="-12"/>
      </extensions>
    </trkpt>
    <trkpt lat="45.6007198" lon="10.4526">
      <ele>261.3000183105469</ele>
      <time>2026-03-30T13:03:35.836+02:00</time>
      <extensions>
        <activity type="ON_FOOT" conf="97" state="moving" tsMs="1774868609560"/>
        <radio op="vodafone IT" rat="LTE" q="30.60" rsrp="-91" sinr="4" rsrq="-13"/>
        <radio op="I TIM" rat="LTE" q="39.00" rsrp="-99" sinr="10" rsrq="-10"/>
      </extensions>
    </trkpt>
    <trkpt lat="45.6007775" lon="10.4527577">
      <ele>261.0</ele>
      <time>2026-03-30T13:03:45.567+02:00</time>
      <extensions>
        <activity type="ON_FOOT" conf="97" state="moving" tsMs="1774868609560"/>
        <radio op="vodafone IT" rat="LTE" q="68.20" rsrp="-94" sinr="17" rsrq="-7"/>
        <radio op="I TIM" rat="LTE" q="54.00" rsrp="-98" sinr="15" rsrq="-8"/>
      </extensions>
    </trkpt>
    <trkpt lat="45.6008376" lon="10.4529084">
      <ele>261.0</ele>
      <time>2026-03-30T13:03:55.698+02:00</time>
      <extensions>
        <activity type="ON_FOOT" conf="53" state="moving" tsMs="1774868620034"/>
        <radio op="vodafone IT" rat="LTE" q="30.00" rsrp="-100" sinr="7" rsrq="-7"/>
        <radio op="I TIM" rat="LTE" q="32.50" rsrp="-100" sinr="8" rsrq="-9"/>
      </extensions>
    </trkpt>
    <trkpt lat="45.6009395" lon="10.4530482">
      <ele>261.0</ele>
      <time>2026-03-30T13:04:05.78+02:00</time>
      <extensions>
        <activity type="ON_FOOT" conf="53" state="moving" tsMs="1774868620034"/>
        <radio op="vodafone IT" rat="LTE" q="43.20" rsrp="-101" sinr="13" rsrq="-8"/>
        <radio op="I TIM" rat="LTE" rsrp="-103" rsrq="-14"/>
      </extensions>
    </trkpt>
    <trkpt lat="45.6010564" lon="10.4532053">
      <ele>261.0</ele>
      <time>2026-03-30T13:04:16.096+02:00</time>
      <extensions>
        <activity type="UNKNOWN" conf="40" state="unknown" tsMs="1774868635709"/>
        <radio op="vodafone IT" rat="LTE" q="34.50" rsrp="-102" sinr="10" rsrq="-7"/>
        <radio op="I TIM" rat="LTE" q="22.50" rsrp="-100" sinr="4" rsrq="-10"/>
      </extensions>
    </trkpt>
    <trkpt lat="45.6011646" lon="10.4533634">
      <ele>261.0</ele>
      <time>2026-03-30T13:04:25.923+02:00</time>
      <extensions>
        <activity type="UNKNOWN" conf="40" state="unknown" tsMs="1774868651369"/>
        <radio op="vodafone IT" rat="LTE" q="26.60" rsrp="-106" sinr="9" rsrq="-8"/>
        <radio op="I TIM" rat="LTE" q="17.50" rsrp="-100" sinr="2" rsrq="-12"/>
      </extensions>
    </trkpt>
    <trkpt lat="45.6012886" lon="10.4535301">
      <ele>261.0</ele>
      <time>2026-03-30T13:04:36.198+02:00</time>
      <extensions>
        <activity type="UNKNOWN" conf="40" state="unknown" tsMs="1774868651369"/>
        <radio op="vodafone IT" rat="LTE" q="45.00" rsrp="-100" sinr="13" rsrq="-7"/>
        <radio op="I TIM" rat="LTE" q="17.50" rsrp="-100" sinr="2" rsrq="-13"/>
      </extensions>
    </trkpt>
    <trkpt lat="45.6014448" lon="10.4535954">
      <ele>261.20001220703125</ele>
      <time>2026-03-30T13:04:46.016+02:00</time>
      <extensions>
        <activity type="ON_FOOT" conf="78" state="moving" tsMs="1774868667053"/>
        <radio op="vodafone IT" rat="LTE" q="43.50" rsrp="-96" sinr="10" rsrq="-8"/>
        <radio op="I TIM" rat="LTE" q="42.00" rsrp="-95" sinr="9" rsrq="-10"/>
      </extensions>
    </trkpt>
    <trkpt lat="45.6015788" lon="10.4536028">
      <ele>261.20001220703125</ele>
      <time>2026-03-30T13:04:55.963+02:00</time>
      <extensions>
        <activity type="ON_FOOT" conf="72" state="moving" tsMs="1774868682728"/>
        <radio op="vodafone IT" rat="LTE" q="34.20" rsrp="-107" sinr="14" rsrq="-6"/>
        <radio op="I TIM" rat="LTE" q="50.00" rsrp="-100" sinr="15" rsrq="-12"/>
      </extensions>
    </trkpt>
    <trkpt lat="45.6017283" lon="10.4535198">
      <ele>261.70001220703125</ele>
      <time>2026-03-30T13:05:06.459+02:00</time>
      <extensions>
        <activity type="ON_FOOT" conf="72" state="moving" tsMs="1774868682728"/>
        <radio op="vodafone IT" rat="LTE" q="57.20" rsrp="-99" sinr="17" rsrq="-10"/>
        <radio op="I TIM" rat="LTE" q="37.70" rsrp="-96" sinr="8" rsrq="-10"/>
      </extensions>
    </trkpt>
    <trkpt lat="45.6018649" lon="10.4534583">
      <ele>261.70001220703125</ele>
      <time>2026-03-30T13:05:16.538+02:00</time>
      <extensions>
        <activity type="UNKNOWN" conf="40" state="unknown" tsMs="1774868698358"/>
        <radio op="vodafone IT" rat="LTE" q="19.50" rsrp="-110" sinr="8" rsrq="-8"/>
        <radio op="I TIM" rat="LTE" rsrp="-104" rsrq="-13"/>
      </extensions>
    </trkpt>
    <trkpt lat="45.6019953" lon="10.4534054">
      <ele>261.8000183105469</ele>
      <time>2026-03-30T13:05:26.568+02:00</time>
      <extensions>
        <activity type="ON_FOOT" conf="90" state="moving" tsMs="1774868714221"/>
        <radio op="vodafone IT" rat="LTE" q="7.00" rsrp="-111" sinr="0" rsrq="-10"/>
        <radio op="I TIM" rat="LTE" q="13.60" rsrp="-108" sinr="3" rsrq="-14"/>
      </extensions>
    </trkpt>
    <trkpt lat="45.6020825" lon="10.4534717">
      <ele>261.6000061035156</ele>
      <time>2026-03-30T13:05:36.635+02:00</time>
      <extensions>
        <activity type="ON_FOOT" conf="90" state="moving" tsMs="1774868714221"/>
        <radio op="vodafone IT" rat="LTE" q="16.20" rsrp="-98" sinr="1" rsrq="-12"/>
        <radio op="I TIM" rat="LTE" q="21.60" rsrp="-98" sinr="3" rsrq="-11"/>
      </extensions>
    </trkpt>
    <trkpt lat="45.602102" lon="10.4534808">
      <ele>261.70001220703125</ele>
      <time>2026-03-30T13:05:46.594+02:00</time>
      <extensions>
        <activity type="ON_FOOT" conf="99" state="moving" tsMs="1774868729894"/>
        <radio op="vodafone IT" rat="LTE" q="63.80" rsrp="-96" sinr="17" rsrq="-6"/>
        <radio op="I TIM" rat="LTE" q="17.40" rsrp="-96" sinr="1" rsrq="-13"/>
      </extensions>
    </trkpt>
    <trkpt lat="45.6020178" lon="10.4534302">
      <ele>261.70001220703125</ele>
      <time>2026-03-30T13:05:53.567+02:00</time>
      <extensions>
        <activity type="ON_FOOT" conf="97" state="moving" tsMs="1774868745580"/>
        <radio op="vodafone IT" rat="LTE" q="69.00" rsrp="-95" sinr="18" rsrq="-13"/>
        <radio op="I TIM" rat="LTE" q="27.00" rsrp="-98" sinr="5" rsrq="-10"/>
      </extensions>
    </trkpt>
    <trkpt lat="45.6019854" lon="10.4534375">
      <ele>261.70001220703125</ele>
      <time>2026-03-30T13:06:06.567+02:00</time>
      <extensions>
        <activity type="ON_FOOT" conf="97" state="moving" tsMs="1774868745580"/>
        <radio op="vodafone IT" rat="LTE" q="52.90" rsrp="-102" sinr="18" rsrq="-6"/>
        <radio op="I TIM" rat="LTE" q="15.60" rsrp="-99" sinr="1" rsrq="-11"/>
      </extensions>
    </trkpt>
    <trkpt lat="45.6019705" lon="10.4534294">
      <ele>261.6000061035156</ele>
      <time>2026-03-30T13:06:08.567+02:00</time>
      <extensions>
        <activity type="UNKNOWN" conf="40" state="unknown" tsMs="1774868756033"/>
        <radio op="vodafone IT" rat="LTE" rsrp="-101" rsrq="-8"/>
        <radio op="I TIM" rat="LTE" q="26.40" rsrp="-92" sinr="3" rsrq="-10"/>
      </extensions>
    </trkpt>
    <trkpt lat="45.6021328" lon="10.4534166">
      <ele>261.70001220703125</ele>
      <time>2026-03-30T13:06:47.602+02:00</time>
      <extensions>
        <activity type="STILL" conf="97" state="still" tsMs="1774868805136"/>
        <radio op="vodafone IT" rat="LTE" q="47.50" rsrp="-100" sinr="14" rsrq="-7"/>
        <radio op="I TIM" rat="LTE" q="33.80" rsrp="-99" sinr="8" rsrq="-10"/>
      </extensions>
    </trkpt>
    <trkpt lat="45.602144" lon="10.4533739">
      <ele>261.70001220703125</ele>
      <time>2026-03-30T13:07:14.819+02:00</time>
      <extensions>
        <activity type="STILL" conf="97" state="still" tsMs="1774868838143"/>
        <radio op="vodafone IT" rat="LTE" q="15.40" rsrp="-103" sinr="2" rsrq="-10"/>
        <radio op="I TIM" rat="LTE" q="44.80" rsrp="-97" sinr="11" rsrq="-11"/>
      </extensions>
    </trkpt>
    <trkpt lat="45.6021432" lon="10.4533032">
      <ele>261.70001220703125</ele>
      <time>2026-03-30T13:07:49.114+02:00</time>
      <extensions>
        <activity type="UNKNOWN" conf="40" state="unknown" tsMs="1774868863918"/>
        <radio op="vodafone IT" rat="LTE" q="18.00" rsrp="-110" sinr="7" rsrq="-9"/>
        <radio op="I TIM" rat="LTE" q="12.60" rsrp="-104" sinr="1" rsrq="-10"/>
      </extensions>
    </trkpt>
    <trkpt lat="45.6020846" lon="10.4534575">
      <ele>261.3000183105469</ele>
      <time>2026-03-30T13:08:20.215+02:00</time>
      <extensions>
        <activity type="STILL" conf="95" state="still" tsMs="1774868896322"/>
        <radio op="vodafone IT" rat="LTE" rsrp="-103" rsrq="-6"/>
        <radio op="I TIM" rat="LTE" q="47.60" rsrp="-97" sinr="12" rsrq="-10"/>
      </extensions>
    </trkpt>
    <trkpt lat="45.602125" lon="10.453441">
      <ele>261.8000183105469</ele>
      <time>2026-03-30T13:08:58.802+02:00</time>
      <extensions>
        <activity type="UNKNOWN" conf="40" state="unknown" tsMs="1774868937988"/>
        <radio op="vodafone IT" rat="LTE" q="32.00" rsrp="-105" sinr="11" rsrq="-8"/>
        <radio op="I TIM" rat="LTE" q="25.20" rsrp="-104" sinr="7" rsrq="-12"/>
      </extensions>
    </trkpt>
    <trkpt lat="45.6025818" lon="10.4535101">
      <ele>261.9000244140625</ele>
      <time>2026-03-30T13:09:40.662+02:00</time>
      <extensions>
        <activity type="ON_FOOT" conf="93" state="moving" tsMs="1774868976604"/>
        <radio op="vodafone IT" rat="LTE" q="13.50" rsrp="-110" sinr="4" rsrq="-8"/>
        <radio op="I TIM" rat="LTE" q="14.40" rsrp="-107" sinr="3" rsrq="-12"/>
      </extensions>
    </trkpt>
    <trkpt lat="45.6025711" lon="10.4535931">
      <ele>262.0</ele>
      <time>2026-03-30T13:11:00.909+02:00</time>
      <extensions>
        <activity type="UNKNOWN" conf="40" state="unknown" tsMs="1774869042942"/>
        <radio op="vodafone IT" rat="LTE" q="0.80" rsrp="-124" sinr="3" rsrq="-12"/>
        <radio op="I TIM" rat="LTE" q="2.40" rsrp="-123" sinr="7" rsrq="-11"/>
      </extensions>
    </trkpt>
    <trkpt lat="45.6025719" lon="10.4536055">
      <ele>263.74142684948697</ele>
      <time>2026-03-30T13:11:37.301+02:00</time>
      <extensions>
        <activity type="UNKNOWN" conf="40" state="unknown" tsMs="1774869092053"/>
        <radio op="vodafone IT" rat="LTE" rsrp="-127" rsrq="-14"/>
        <radio op="I TIM" rat="LTE" rsrp="-126" rsrq="-11"/>
      </extensions>
    </trkpt>
    <trkpt lat="45.6025742" lon="10.4536096">
      <ele>262.0</ele>
      <time>2026-03-30T13:12:13.435+02:00</time>
      <extensions>
        <activity type="UNKNOWN" conf="40" state="unknown" tsMs="1774869130947"/>
        <radio op="vodafone IT" rat="LTE" rsrp="-121" rsrq="-16"/>
        <radio op="I TIM" rat="LTE" q="5.60" rsrp="-117" sinr="2" rsrq="-13"/>
      </extensions>
    </trkpt>
    <trkpt lat="45.6021601" lon="10.453249">
      <ele>261.70001220703125</ele>
      <time>2026-03-30T13:59:25.329+02:00</time>
      <extensions>
        <activity type="ON_FOOT" conf="92" state="moving" tsMs="1774871982382"/>
        <radio op="vodafone IT" rat="LTE" q="9.60" rsrp="-113" sinr="3" rsrq="-10"/>
        <radio op="I TIM" rat="LTE" q="7.50" rsrp="-110" sinr="0" rsrq="-12"/>
      </extensions>
    </trkpt>
    <trkpt lat="45.6021486" lon="10.4532961">
      <ele>261.70001220703125</ele>
      <time>2026-03-30T14:00:07.778+02:00</time>
      <extensions>
        <activity type="UNKNOWN" conf="40" state="unknown" tsMs="1774872004663"/>
        <radio op="vodafone IT" rat="LTE" q="9.80" rsrp="-111" sinr="2" rsrq="-11"/>
        <radio op="I TIM" rat="LTE" rsrp="-101" rsrq="-13"/>
      </extensions>
    </trkpt>
    <trkpt lat="45.603167" lon="10.4576281">
      <ele>265.17573315942576</ele>
      <time>2026-03-30T14:01:13.078+02:00</time>
      <extensions>
        <activity type="UNKNOWN" conf="40" state="unknown" tsMs="1774872067669"/>
        <radio op="vodafone IT" rat="LTE" rsrp="-76" rsrq="-6"/>
        <radio op="I TIM" rat="LTE" q="75.00" rsrp="-95" sinr="25" rsrq="-8"/>
      </extensions>
    </trkpt>
    <trkpt lat="45.6033073" lon="10.4582289">
      <ele>265.17573315942576</ele>
      <time>2026-03-30T14:01:19.58+02:00</time>
      <extensions>
        <activity type="IN_VEHICLE" conf="90" state="moving" tsMs="1774872083498"/>
        <radio op="vodafone IT" rat="LTE" rsrp="-68" rsrq="-7"/>
        <radio op="I TIM" rat="LTE" q="100.00" rsrp="-85" sinr="24" rsrq="-9"/>
      </extensions>
    </trkpt>
    <trkpt lat="45.6038401" lon="10.4600655">
      <ele>264.6000061035156</ele>
      <time>2026-03-30T14:01:33.685+02:00</time>
      <extensions>
        <activity type="IN_VEHICLE" conf="92" state="moving" tsMs="1774872093312"/>
        <radio op="vodafone IT" rat="LTE" rsrp="-71" rsrq="-8"/>
        <radio op="I TIM" rat="LTE" q="82.80" rsrp="-89" sinr="18" rsrq="-11"/>
      </extensions>
    </trkpt>
    <trkpt lat="45.6045726" lon="10.4647145">
      <ele>268.6000061035156</ele>
      <time>2026-03-30T14:02:05.273+02:00</time>
      <extensions>
        <activity type="IN_VEHICLE" conf="96" state="moving" tsMs="1774872120301"/>
        <radio op="vodafone IT" rat="LTE" q="87.50" rsrp="-90" sinr="27" rsrq="-6"/>
        <radio op="I TIM" rat="LTE" q="24.00" rsrp="-101" sinr="5" rsrq="-12"/>
      </extensions>
    </trkpt>
    <trkpt lat="45.6054086" lon="10.4653381">
      <ele>268.6000061035156</ele>
      <time>2026-03-30T14:02:15.601+02:00</time>
      <extensions>
        <activity type="IN_VEHICLE" conf="96" state="moving" tsMs="1774872135414"/>
        <radio op="vodafone IT" rat="LTE" q="62.50" rsrp="-100" sinr="21" rsrq="-6"/>
        <radio op="I TIM" rat="LTE" q="26.00" rsrp="-105" sinr="8" rsrq="-13"/>
      </extensions>
    </trkpt>
    <trkpt lat="45.6059172" lon="10.4669095">
      <ele>268.6000061035156</ele>
      <time>2026-03-30T14:02:25.601+02:00</time>
      <extensions>
        <activity type="IN_VEHICLE" conf="87" state="moving" tsMs="1774872145235"/>
        <radio op="vodafone IT" rat="LTE" q="60.00" rsrp="-101" sinr="20" rsrq="-10"/>
        <radio op="I TIM" rat="LTE" q="46.00" rsrp="-105" sinr="18" rsrq="-11"/>
      </extensions>
    </trkpt>
    <trkpt lat="45.6060776" lon="10.4674675">
      <ele>268.6000061035156</ele>
      <time>2026-03-30T14:02:28.601+02:00</time>
      <extensions>
        <activity type="IN_VEHICLE" conf="88" state="moving" tsMs="1774872150617"/>
        <radio op="vodafone IT" rat="LTE" q="59.80" rsrp="-99" sinr="18" rsrq="-8"/>
        <radio op="I TIM" rat="LTE" q="70.00" rsrp="-97" sinr="21" rsrq="-11"/>
      </extensions>
    </trkpt>
    <trkpt lat="45.6066356" lon="10.4695846">
      <ele>268.6000061035156</ele>
      <time>2026-03-30T14:02:40.601+02:00</time>
      <extensions>
        <activity type="UNKNOWN" conf="40" state="unknown" tsMs="1774872165958"/>
        <radio op="vodafone IT" rat="LTE" q="27.00" rsrp="-110" sinr="13" rsrq="-7"/>
        <radio op="I TIM" rat="LTE" q="60.00" rsrp="-101" sinr="20" rsrq="-10"/>
      </extensions>
    </trkpt>
    <trkpt lat="45.6072206" lon="10.4718275">
      <ele>268.1000061035156</ele>
      <time>2026-03-30T14:02:51.6+02:00</time>
      <extensions>
        <activity type="UNKNOWN" conf="40" state="unknown" tsMs="1774872171391"/>
        <radio op="vodafone IT" rat="LTE" q="50.40" rsrp="-101" sinr="16" rsrq="-6"/>
        <radio op="I TIM" rat="LTE" q="49.40" rsrp="-99" sinr="14" rsrq="-10"/>
      </extensions>
    </trkpt>
    <trkpt lat="45.6079819" lon="10.4742347">
      <ele>268.1000061035156</ele>
      <time>2026-03-30T14:03:02.601+02:00</time>
      <extensions>
        <activity type="UNKNOWN" conf="40" state="unknown" tsMs="1774872186259"/>
        <radio op="vodafone IT" rat="LTE" q="41.60" rsrp="-99" sinr="11" rsrq="-12"/>
        <radio op="I TIM" rat="LTE" q="66.00" rsrp="-92" sinr="15" rsrq="-13"/>
      </extensions>
    </trkpt>
    <trkpt lat="45.6088972" lon="10.476617">
      <ele>271.0</ele>
      <time>2026-03-30T14:03:16.6+02:00</time>
      <extensions>
        <activity type="IN_VEHICLE" conf="83" state="moving" tsMs="1774872191644"/>
        <radio op="vodafone IT" rat="LTE" q="11.20" rsrp="-111" sinr="3" rsrq="-13"/>
        <radio op="I TIM" rat="LTE" q="27.30" rsrp="-104" sinr="8" rsrq="-12"/>
      </extensions>
    </trkpt>
    <trkpt lat="45.6091679" lon="10.4770646">
      <ele>271.0</ele>
      <time>2026-03-30T14:03:18.601+02:00</time>
      <extensions>
        <activity type="IN_VEHICLE" conf="96" state="moving" tsMs="1774872202481"/>
        <radio op="vodafone IT" rat="LTE" q="14.40" rsrp="-113" sinr="7" rsrq="-11"/>
        <radio op="I TIM" rat="LTE" q="14.00" rsrp="-111" sinr="5" rsrq="-13"/>
      </extensions>
    </trkpt>
    <trkpt lat="45.6124025" lon="10.4814718">
      <ele>273.76769297592136</ele>
      <time>2026-03-30T14:03:57.752+02:00</time>
      <extensions>
        <activity type="IN_VEHICLE" conf="95" state="moving" tsMs="1774872234756"/>
        <radio op="vodafone IT" rat="LTE" q="23.40" rsrp="-107" sinr="8" rsrq="-11"/>
        <radio op="I TIM" rat="LTE" rsrp="-114" rsrq="-14"/>
      </extensions>
    </trkpt>
    <trkpt lat="45.6161028" lon="10.4833657">
      <ele>278.17940040663484</ele>
      <time>2026-03-30T14:04:28.984+02:00</time>
      <extensions>
        <activity type="IN_VEHICLE" conf="91" state="moving" tsMs="1774872268438"/>
        <radio op="vodafone IT" rat="LTE" q="21.60" rsrp="-113" sinr="13" rsrq="-9"/>
        <radio op="I TIM" rat="LTE" rsrp="-120" rsrq="-17"/>
      </extensions>
    </trkpt>
    <trkpt lat="45.6201615" lon="10.485119">
      <ele>279.7194464130016</ele>
      <time>2026-03-30T14:05:03.6+02:00</time>
      <extensions>
        <activity type="IN_VEHICLE" conf="96" state="moving" tsMs="1774872299840"/>
        <radio op="vodafone IT" rat="LTE" rsrp="-109" rsrq="-14"/>
        <radio op="I TIM" rat="LTE" q="12.60" rsrp="-111" sinr="4" rsrq="-14"/>
      </extensions>
    </trkpt>
    <trkpt lat="45.6237606" lon="10.4939552">
      <ele>281.8635984818301</ele>
      <time>2026-03-30T14:05:53.236+02:00</time>
      <extensions>
        <activity type="IN_VEHICLE" conf="96" state="moving" tsMs="1774872347391"/>
        <radio op="vodafone IT" rat="LTE" q="19.80" rsrp="-107" sinr="6" rsrq="-10"/>
        <radio op="I TIM" rat="LTE" q="7.20" rsrp="-117" sinr="4" rsrq="-12"/>
      </extensions>
    </trkpt>
    <trkpt lat="45.6242497" lon="10.4947601">
      <ele>281.85933098163275</ele>
      <time>2026-03-30T14:05:59.601+02:00</time>
      <extensions>
        <activity type="IN_VEHICLE" conf="92" state="moving" tsMs="1774872352745"/>
        <radio op="vodafone IT" rat="LTE" q="72.20" rsrp="-87" sinr="14" rsrq="-10"/>
        <radio op="I TIM" rat="LTE" q="17.10" rsrp="-106" sinr="4" rsrq="-12"/>
      </extensions>
    </trkpt>
    <trkpt lat="45.6248068" lon="10.4959071">
      <ele>279.6000061035156</ele>
      <time>2026-03-30T14:06:07.6+02:00</time>
      <extensions>
        <activity type="IN_VEHICLE" conf="96" state="moving" tsMs="1774872356270"/>
        <radio op="vodafone IT" rat="LTE" q="80.00" rsrp="-82" sinr="15" rsrq="-10"/>
        <radio op="I TIM" rat="LTE" rsrp="-107" rsrq="-15"/>
      </extensions>
    </trkpt>
    <trkpt lat="45.6243217" lon="10.4946247">
      <ele>279.6000061035156</ele>
      <time>2026-03-30T14:07:14.6+02:00</time>
      <extensions>
        <activity type="IN_VEHICLE" conf="93" state="moving" tsMs="1774872427690"/>
        <radio op="vodafone IT" rat="LTE" q="7.20" rsrp="-116" sinr="3" rsrq="-11"/>
        <radio op="I TIM" rat="LTE" q="5.60" rsrp="-117" sinr="2" rsrq="-13"/>
      </extensions>
    </trkpt>
    <trkpt lat="45.6245023" lon="10.4946501">
      <ele>282.8089019616326</ele>
      <time>2026-03-30T14:08:07.602+02:00</time>
      <extensions>
        <activity type="STILL" conf="100" state="still" tsMs="1774872487234"/>
        <radio op="vodafone IT" rat="LTE" q="11.00" rsrp="-114" sinr="5" rsrq="-13"/>
        <radio op="I TIM" rat="LTE" q="9.60" rsrp="-113" sinr="3" rsrq="-14"/>
      </extensions>
    </trkpt>
    <trkpt lat="45.6244874" lon="10.4946805">
      <ele>282.98175649841266</ele>
      <time>2026-03-30T14:09:00.601+02:00</time>
      <extensions>
        <activity type="UNKNOWN" conf="40" state="unknown" tsMs="1774872529619"/>
        <radio op="vodafone IT" rat="LTE" q="13.60" rsrp="-108" sinr="3" rsrq="-13"/>
        <radio op="I TIM" rat="LTE" q="33.60" rsrp="-104" sinr="11" rsrq="-12"/>
      </extensions>
    </trkpt>
    <trkpt lat="45.6244874" lon="10.4946805">
      <ele>279.20001220703125</ele>
      <time>2026-03-30T14:09:41.527+02:00</time>
      <extensions>
        <activity type="ON_FOOT" conf="88" state="moving" tsMs="1774872580685"/>
        <radio op="vodafone IT" rat="LTE" q="33.60" rsrp="-104" sinr="11" rsrq="-9"/>
        <radio op="I TIM" rat="LTE" q="9.00" rsrp="-115" sinr="4" rsrq="-13"/>
      </extensions>
    </trkpt>
    <trkpt lat="45.6236714" lon="10.4937664">
      <ele>280.1000061035156</ele>
      <time>2026-03-30T14:10:19.105+02:00</time>
      <extensions>
        <activity type="ON_FOOT" conf="96" state="moving" tsMs="1774872618114"/>
        <radio op="vodafone IT" rat="LTE" q="16.50" rsrp="-114" sinr="10" rsrq="-12"/>
        <radio op="I TIM" rat="LTE" rsrp="-115" rsrq="-13"/>
      </extensions>
    </trkpt>
    <trkpt lat="45.6236567" lon="10.4927802">
      <ele>279.20001220703125</ele>
      <time>2026-03-30T14:11:12.205+02:00</time>
      <extensions>
        <activity type="ON_FOOT" conf="93" state="moving" tsMs="1774872668060"/>
        <radio op="vodafone IT" rat="LTE" q="5.40" rsrp="-116" sinr="1" rsrq="-11"/>
        <radio op="I TIM" rat="LTE" q="10.00" rsrp="-115" sinr="5" rsrq="-12"/>
      </extensions>
    </trkpt>
    <trkpt lat="45.6238314" lon="10.4926324">
      <ele>282.61151059772635</ele>
      <time>2026-03-30T14:11:43.738+02:00</time>
      <extensions>
        <activity type="UNKNOWN" conf="40" state="unknown" tsMs="1774872699248"/>
        <radio op="vodafone IT" rat="LTE" q="9.00" rsrp="-115" sinr="4" rsrq="-9"/>
        <radio op="I TIM" rat="LTE" q="9.60" rsrp="-117" sinr="7" rsrq="-12"/>
      </extensions>
    </trkpt>
    <trkpt lat="45.6236675" lon="10.4927756">
      <ele>290.06835974418186</ele>
      <time>2026-03-30T14:12:50.19+02:00</time>
      <extensions>
        <activity type="UNKNOWN" conf="40" state="unknown" tsMs="1774872764680"/>
        <radio op="vodafone IT" rat="LTE" q="7.20" rsrp="-116" sinr="3" rsrq="-12"/>
        <radio op="I TIM" rat="LTE" q="26.00" rsrp="-112" sinr="15" rsrq="-12"/>
      </extensions>
    </trkpt>
    <trkpt lat="45.6236589" lon="10.4927845">
      <ele>290.22002134240654</ele>
      <time>2026-03-30T14:13:24.401+02:00</time>
      <extensions>
        <activity type="UNKNOWN" conf="40" state="unknown" tsMs="1774872787030"/>
        <radio op="vodafone IT" rat="LTE" q="7.20" rsrp="-116" sinr="3" rsrq="-12"/>
        <radio op="I TIM" rat="LTE" q="23.40" rsrp="-112" sinr="13" rsrq="-12"/>
      </extensions>
    </trkpt>
    <trkpt lat="45.6236712" lon="10.4927671">
      <ele>291.2753863534187</ele>
      <time>2026-03-30T14:13:55.805+02:00</time>
      <extensions>
        <activity type="STILL" conf="43" state="still" tsMs="1774872831620"/>
        <radio op="vodafone IT" rat="LTE" q="7.20" rsrp="-116" sinr="3" rsrq="-12"/>
        <radio op="I TIM" rat="LTE" q="23.40" rsrp="-112" sinr="13" rsrq="-12"/>
      </extensions>
    </trkpt>
    <trkpt lat="45.6236647" lon="10.49278">
      <ele>289.6167419075466</ele>
      <time>2026-03-30T14:14:27.368+02:00</time>
      <extensions>
        <activity type="UNKNOWN" conf="40" state="unknown" tsMs="1774872863255"/>
        <radio op="vodafone IT" rat="LTE" rsrp="-117" rsrq="-12"/>
        <radio op="I TIM" rat="LTE" q="42.00" rsrp="-97" sinr="10" rsrq="-10"/>
      </extensions>
    </trkpt>
    <trkpt lat="45.6237761" lon="10.4927297">
      <ele>286.3000183105469</ele>
      <time>2026-03-30T14:15:00.085+02:00</time>
      <extensions>
        <activity type="UNKNOWN" conf="40" state="unknown" tsMs="1774872894743"/>
        <radio op="vodafone IT" rat="LTE" q="2.50" rsrp="-120" sinr="0" rsrq="-13"/>
        <radio op="I TIM" rat="LTE" q="34.00" rsrp="-108" sinr="15" rsrq="-11"/>
      </extensions>
    </trkpt>
    <trkpt lat="45.6237916" lon="10.4927311">
      <ele>289.9115128320557</ele>
      <time>2026-03-30T14:15:31.648+02:00</time>
      <extensions>
        <activity type="UNKNOWN" conf="40" state="unknown" tsMs="1774872930407"/>
        <radio op="vodafone IT" rat="LTE" q="8.80" rsrp="-117" sinr="6" rsrq="-13"/>
        <radio op="I TIM" rat="LTE" q="4.20" rsrp="-119" sinr="2" rsrq="-13"/>
      </extensions>
    </trkpt>
    <trkpt lat="45.6237694" lon="10.4927378">
      <ele>290.6280983751125</ele>
      <time>2026-03-30T14:16:03.243+02:00</time>
      <extensions>
        <activity type="UNKNOWN" conf="40" state="unknown" tsMs="1774872962222"/>
        <radio op="vodafone IT" rat="LTE" q="9.90" rsrp="-116" sinr="6" rsrq="-11"/>
        <radio op="I TIM" rat="LTE" q="13.00" rsrp="-115" sinr="8" rsrq="-13"/>
      </extensions>
    </trkpt>
    <trkpt lat="45.6237874" lon="10.4927202">
      <ele>289.86352788417804</ele>
      <time>2026-03-30T14:16:34.848+02:00</time>
      <extensions>
        <activity type="UNKNOWN" conf="40" state="unknown" tsMs="1774872993847"/>
        <radio op="vodafone IT" rat="LTE" q="7.20" rsrp="-119" sinr="7" rsrq="-13"/>
        <radio op="I TIM" rat="LTE" q="4.00" rsrp="-120" sinr="3" rsrq="-13"/>
      </extensions>
    </trkpt>
    <trkpt lat="45.6237948" lon="10.4927263">
      <ele>290.5152073140065</ele>
      <time>2026-03-30T14:17:06.404+02:00</time>
      <extensions>
        <activity type="UNKNOWN" conf="40" state="unknown" tsMs="1774873025524"/>
        <radio op="vodafone IT" rat="LTE" rsrp="-118" rsrq="-14"/>
        <radio op="I TIM" rat="LTE" q="18.00" rsrp="-110" sinr="7" rsrq="-12"/>
      </extensions>
    </trkpt>
    <trkpt lat="45.6238012" lon="10.4927195">
      <ele>289.32892138909574</ele>
      <time>2026-03-30T14:17:37.988+02:00</time>
      <extensions>
        <activity type="UNKNOWN" conf="40" state="unknown" tsMs="1774873056827"/>
        <radio op="vodafone IT" rat="LTE" rsrp="-121" rsrq="-15"/>
        <radio op="I TIM" rat="LTE" q="21.00" rsrp="-110" sinr="9" rsrq="-12"/>
      </extensions>
    </trkpt>
    <trkpt lat="45.6238204" lon="10.4927028">
      <ele>286.3000183105469</ele>
      <time>2026-03-30T14:18:09.653+02:00</time>
      <extensions>
        <activity type="ON_FOOT" conf="89" state="moving" tsMs="1774873088361"/>
        <radio op="vodafone IT" rat="LTE" rsrp="-112" rsrq="-12"/>
        <radio op="I TIM" rat="LTE" q="19.50" rsrp="-110" sinr="8" rsrq="-11"/>
      </extensions>
    </trkpt>
    <trkpt lat="45.6238237" lon="10.4926968">
      <ele>286.3000183105469</ele>
      <time>2026-03-30T14:18:41.248+02:00</time>
      <extensions>
        <activity type="UNKNOWN" conf="40" state="unknown" tsMs="1774873120207"/>
        <radio op="vodafone IT" rat="LTE" q="9.60" rsrp="-109" sinr="1" rsrq="-11"/>
        <radio op="I TIM" rat="LTE" q="9.60" rsrp="-113" sinr="3" rsrq="-13"/>
      </extensions>
    </trkpt>
    <trkpt lat="45.6237918" lon="10.4927251">
      <ele>286.3000183105469</ele>
      <time>2026-03-30T14:19:12.795+02:00</time>
      <extensions>
        <activity type="ON_FOOT" conf="88" state="moving" tsMs="1774873151541"/>
        <radio op="vodafone IT" rat="LTE" q="18.00" rsrp="-107" sinr="5" rsrq="-10"/>
        <radio op="I TIM" rat="LTE" q="10.80" rsrp="-116" sinr="7" rsrq="-12"/>
      </extensions>
    </trkpt>
    <trkpt lat="45.6237801" lon="10.4927401">
      <ele>288.2328602749892</ele>
      <time>2026-03-30T14:19:59.689+02:00</time>
      <extensions>
        <activity type="STILL" conf="99" state="still" tsMs="1774873195049"/>
        <radio op="vodafone IT" rat="LTE" q="18.70" rsrp="-108" sinr="6" rsrq="-13"/>
        <radio op="I TIM" rat="LTE" rsrp="-117" rsrq="-16"/>
      </extensions>
    </trkpt>
    <trkpt lat="45.6237674" lon="10.4927359">
      <ele>288.23713726007514</ele>
      <time>2026-03-30T14:20:49.329+02:00</time>
      <extensions>
        <activity type="STILL" conf="99" state="still" tsMs="1774873241073"/>
        <radio op="vodafone IT" rat="LTE" rsrp="-108" rsrq="-14"/>
        <radio op="I TIM" rat="LTE" q="6.60" rsrp="-114" sinr="1" rsrq="-14"/>
      </extensions>
    </trkpt>
    <trkpt lat="45.6237803" lon="10.4927437">
      <ele>288.14313407727616</ele>
      <time>2026-03-30T14:21:54.234+02:00</time>
      <extensions>
        <activity type="STILL" conf="99" state="still" tsMs="1774873304046"/>
        <radio op="vodafone IT" rat="LTE" rsrp="-118" rsrq="-15"/>
        <radio op="I TIM" rat="LTE" rsrp="-113" rsrq="-14"/>
      </extensions>
    </trkpt>
    <trkpt lat="45.6238111" lon="10.4927191">
      <ele>286.3000183105469</ele>
      <time>2026-03-30T17:21:33.193+02:00</time>
      <extensions>
        <activity type="IN_VEHICLE" conf="77" state="moving" tsMs="1774884092948"/>
        <radio op="vodafone IT" rat="LTE" rsrp="-121" rsrq="-14"/>
        <radio op="I TIM" rat="LTE" q="3.50" rsrp="-118" sinr="0" rsrq="-14"/>
      </extensions>
    </trkpt>
    <trkpt lat="45.6238142" lon="10.4927096">
      <ele>286.3000183105469</ele>
      <time>2026-03-30T17:22:08.639+02:00</time>
      <extensions>
        <activity type="STILL" conf="99" state="still" tsMs="1774884124610"/>
        <radio op="vodafone IT" rat="LTE" q="2.00" rsrp="-121" sinr="0" rsrq="-11"/>
        <radio op="I TIM" rat="LTE" rsrp="-119" rsrq="-14"/>
      </extensions>
    </trkpt>
    <trkpt lat="45.6238186" lon="10.4927116">
      <ele>286.3000183105469</ele>
      <time>2026-03-30T17:22:45.12+02:00</time>
      <extensions>
        <activity type="STILL" conf="99" state="still" tsMs="1774884150394"/>
        <radio op="vodafone IT" rat="LTE" q="2.70" rsrp="-122" sinr="4" rsrq="-13"/>
        <radio op="I TIM" rat="LTE" q="3.60" rsrp="-119" sinr="1" rsrq="-13"/>
      </extensions>
    </trkpt>
    <trkpt lat="45.6238125" lon="10.4927123">
      <ele>286.3000183105469</ele>
      <time>2026-03-30T17:24:30.541+02:00</time>
      <extensions>
        <activity type="STILL" conf="99" state="still" tsMs="1774884247656"/>
        <radio op="vodafone IT" rat="LTE" q="3.60" rsrp="-121" sinr="4" rsrq="-13"/>
        <radio op="I TIM" rat="LTE" rsrp="-120" rsrq="-14"/>
      </extensions>
    </trkpt>
    <trkpt lat="45.6237737" lon="10.4927313">
      <ele>286.4000244140625</ele>
      <time>2026-03-30T17:33:57.795+02:00</time>
      <extensions>
        <activity type="IN_VEHICLE" conf="88" state="moving" tsMs="1774884849641"/>
        <radio op="vodafone IT" rat="LTE" q="2.00" rsrp="-121" sinr="0" rsrq="-13"/>
        <radio op="I TIM" rat="LTE" rsrp="-119" rsrq="-14"/>
      </extensions>
    </trkpt>
    <trkpt lat="45.6238165" lon="10.492707">
      <ele>286.3000183105469</ele>
      <time>2026-03-30T17:34:35.89+02:00</time>
      <extensions>
        <activity type="UNKNOWN" conf="40" state="unknown" tsMs="1774884859578"/>
        <radio op="vodafone IT" rat="LTE" q="4.80" rsrp="-121" sinr="7" rsrq="-13"/>
        <radio op="I TIM" rat="LTE" rsrp="-118" rsrq="-14"/>
      </extensions>
    </trkpt>
    <trkpt lat="45.6237997" lon="10.4927168">
      <ele>286.3000183105469</ele>
      <time>2026-03-30T17:35:07.74+02:00</time>
      <extensions>
        <activity type="STILL" conf="99" state="still" tsMs="1774884903517"/>
        <radio op="vodafone IT" rat="LTE" q="1.20" rsrp="-123" sinr="1" rsrq="-15"/>
        <radio op="I TIM" rat="LTE" rsrp="-117" rsrq="-16"/>
      </extensions>
    </trkpt>
    <trkpt lat="45.6238137" lon="10.4927118">
      <ele>286.3000183105469</ele>
      <time>2026-03-30T17:35:59.76+02:00</time>
      <extensions>
        <activity type="IN_VEHICLE" conf="76" state="moving" tsMs="1774884957290"/>
        <radio op="vodafone IT" rat="LTE" q="0.80" rsrp="-124" sinr="3" rsrq="-16"/>
        <radio op="I TIM" rat="LTE" rsrp="-130" rsrq="-17"/>
      </extensions>
    </trkpt>
    <trkpt lat="45.6237953" lon="10.4927219">
      <ele>286.3000183105469</ele>
      <time>2026-03-30T17:36:40.715+02:00</time>
      <extensions>
        <activity type="STILL" conf="99" state="still" tsMs="1774884997312"/>
        <radio op="vodafone IT" rat="LTE" q="0.60" rsrp="-124" sinr="1" rsrq="-15"/>
        <radio op="I TIM" rat="LTE" rsrp="-122" rsrq="-14"/>
      </extensions>
    </trkpt>
    <trkpt lat="45.6237965" lon="10.4927161">
      <ele>286.3000183105469</ele>
      <time>2026-03-30T17:37:12.419+02:00</time>
      <extensions>
        <activity type="STILL" conf="99" state="still" tsMs="1774885027907"/>
        <radio op="vodafone IT" rat="LTE" q="0.80" rsrp="-124" sinr="3" rsrq="-15"/>
        <radio op="I TIM" rat="LTE" rsrp="-115" rsrq="-19"/>
      </extensions>
    </trkpt>
    <trkpt lat="45.6237998" lon="10.4927139">
      <ele>286.3000183105469</ele>
      <time>2026-03-30T17:38:00.637+02:00</time>
      <extensions>
        <activity type="STILL" conf="99" state="still" tsMs="1774885059666"/>
        <radio op="vodafone IT" rat="LTE" rsrp="-122" rsrq="-14"/>
        <radio op="I TIM" rat="LTE" rsrp="-123" rsrq="-14"/>
      </extensions>
    </trkpt>
    <trkpt lat="45.6238163" lon="10.4927059">
      <ele>286.3000183105469</ele>
      <time>2026-03-30T17:45:40.1+02:00</time>
      <extensions>
        <activity type="IN_VEHICLE" conf="96" state="moving" tsMs="1774885540050"/>
        <radio op="vodafone IT" rat="OTHER"/>
        <radio op="I TIM" rat="LTE" rsrp="-120" rsrq="-13"/>
      </extensions>
    </trkpt>
    <trkpt lat="45.6237982" lon="10.4927135">
      <ele>286.3000183105469</ele>
      <time>2026-03-30T17:46:17.107+02:00</time>
      <extensions>
        <activity type="UNKNOWN" conf="40" state="unknown" tsMs="1774885576909"/>
        <radio op="vodafone IT" rat="OTHER"/>
        <radio op="I TIM" rat="LTE" q="5.00" rsrp="-115" sinr="0" rsrq="-12"/>
      </extensions>
    </trkpt>
    <trkpt lat="45.6238122" lon="10.4927079">
      <ele>284.60405554568916</ele>
      <time>2026-03-30T17:47:10.016+02:00</time>
      <extensions>
        <activity type="UNKNOWN" conf="40" state="unknown" tsMs="1774885626897"/>
        <radio op="vodafone IT" rat="OTHER"/>
        <radio op="I TIM" rat="LTE" rsrp="-119" rsrq="-14"/>
      </extensions>
    </trkpt>
    <trkpt lat="45.6238215" lon="10.4926984">
      <ele>284.6404323094899</ele>
      <time>2026-03-30T17:47:46.213+02:00</time>
      <extensions>
        <activity type="STILL" conf="99" state="still" tsMs="1774885652708"/>
        <radio op="vodafone IT" rat="OTHER"/>
        <radio op="I TIM" rat="LTE" rsrp="-119" rsrq="-14"/>
      </extensions>
    </trkpt>
    <trkpt lat="45.6238187" lon="10.4926989">
      <ele>286.3000183105469</ele>
      <time>2026-03-30T18:01:44.381+02:00</time>
      <extensions>
        <activity type="TILTING" conf="100" state="moving" tsMs="1774886496999"/>
        <radio op="vodafone IT" rat="LTE" q="10.40" rsrp="-117" sinr="8" rsrq="-14"/>
        <radio op="I TIM" rat="LTE" q="9.00" rsrp="-116" sinr="5" rsrq="-13"/>
      </extensions>
    </trkpt>
    <trkpt lat="45.6238053" lon="10.4927169">
      <ele>286.3000183105469</ele>
      <time>2026-03-30T18:02:37.518+02:00</time>
      <extensions>
        <activity type="UNKNOWN" conf="40" state="unknown" tsMs="1774886552472"/>
        <radio op="vodafone IT" rat="LTE" q="8.80" rsrp="-117" sinr="6" rsrq="-13"/>
        <radio op="I TIM" rat="LTE" q="9.80" rsrp="-118" sinr="9" rsrq="-13"/>
      </extensions>
    </trkpt>
    <trkpt lat="45.6236932" lon="10.4927738">
      <ele>284.0954705047983</ele>
      <time>2026-03-30T18:03:12.071+02:00</time>
      <extensions>
        <activity type="UNKNOWN" conf="40" state="unknown" tsMs="1774886587371"/>
        <radio op="vodafone IT" rat="LTE" q="21.60" rsrp="-113" sinr="13" rsrq="-11"/>
        <radio op="I TIM" rat="LTE" q="36.10" rsrp="-106" sinr="14" rsrq="-12"/>
      </extensions>
    </trkpt>
    <trkpt lat="45.6236932" lon="10.4927738">
      <ele>284.02274396206917</ele>
      <time>2026-03-30T18:03:51.538+02:00</time>
      <extensions>
        <activity type="STILL" conf="41" state="still" tsMs="1774886630949"/>
        <radio op="vodafone IT" rat="LTE" q="27.60" rsrp="-113" sinr="18" rsrq="-11"/>
        <radio op="I TIM" rat="LTE" q="6.60" rsrp="-119" sinr="6" rsrq="-14"/>
      </extensions>
    </trkpt>
    <trkpt lat="45.6237902" lon="10.492716">
      <ele>284.2366473140275</ele>
      <time>2026-03-30T18:04:35.772+02:00</time>
      <extensions>
        <activity type="UNKNOWN" conf="40" state="unknown" tsMs="1774886674700"/>
        <radio op="vodafone IT" rat="LTE" q="11.70" rsrp="-116" sinr="8" rsrq="-13"/>
        <radio op="I TIM" rat="LTE" q="18.00" rsrp="-110" sinr="7" rsrq="-12"/>
      </extensions>
    </trkpt>
    <trkpt lat="45.6237208" lon="10.49316">
      <ele>273.44971776736645</ele>
      <time>2026-03-30T18:06:02.111+02:00</time>
      <extensions>
        <activity type="ON_FOOT" conf="85" state="moving" tsMs="1774886761939"/>
        <radio op="vodafone IT" rat="LTE" q="11.90" rsrp="-108" sinr="2" rsrq="-12"/>
        <radio op="I TIM" rat="LTE" q="40.00" rsrp="-105" sinr="15" rsrq="-12"/>
      </extensions>
    </trkpt>
    <trkpt lat="45.6238713" lon="10.4933765">
      <ele>279.5</ele>
      <time>2026-03-30T18:06:18.123+02:00</time>
      <extensions>
        <activity type="ON_FOOT" conf="96" state="moving" tsMs="1774886783090"/>
        <radio op="vodafone IT" rat="LTE" rsrp="-108" rsrq="-13"/>
        <radio op="I TIM" rat="LTE" rsrp="-105" rsrq="-13"/>
      </extensions>
    </trkpt>
    <trkpt lat="45.6238882" lon="10.4933903">
      <ele>277.3000183105469</ele>
      <time>2026-03-30T18:06:22.806+02:00</time>
      <extensions>
        <activity type="ON_FOOT" conf="96" state="moving" tsMs="1774886788482"/>
        <radio op="vodafone IT" rat="LTE" q="48.30" rsrp="-104" sinr="18" rsrq="-13"/>
        <radio op="I TIM" rat="LTE" q="16.20" rsrp="-107" sinr="4" rsrq="-13"/>
      </extensions>
    </trkpt>
    <trkpt lat="45.6237388" lon="10.4939248">
      <ele>276.17189513003325</ele>
      <time>2026-03-30T18:06:53.655+02:00</time>
      <extensions>
        <activity type="ON_FOOT" conf="96" state="moving" tsMs="1774886810042"/>
        <radio op="vodafone IT" rat="LTE" q="19.20" rsrp="-109" sinr="7" rsrq="-11"/>
        <radio op="I TIM" rat="LTE" q="12.00" rsrp="-110" sinr="3" rsrq="-13"/>
      </extensions>
    </trkpt>
    <trkpt lat="45.6241978" lon="10.4948622">
      <ele>279.5</ele>
      <time>2026-03-30T18:07:24.921+02:00</time>
      <extensions>
        <activity type="ON_FOOT" conf="96" state="moving" tsMs="1774886841573"/>
        <radio op="vodafone IT" rat="LTE" q="25.20" rsrp="-107" sinr="9" rsrq="-12"/>
        <radio op="I TIM" rat="LTE" rsrp="-107" rsrq="-15"/>
      </extensions>
    </trkpt>
    <trkpt lat="45.6244265" lon="10.4945532">
      <ele>277.5910168182636</ele>
      <time>2026-03-30T18:08:12.137+02:00</time>
      <extensions>
        <activity type="ON_FOOT" conf="90" state="moving" tsMs="1774886884418"/>
        <radio op="vodafone IT" rat="LTE" q="31.50" rsrp="-104" sinr="10" rsrq="-12"/>
        <radio op="I TIM" rat="LTE" q="24.70" rsrp="-106" sinr="8" rsrq="-13"/>
      </extensions>
    </trkpt>
    <trkpt lat="45.6230986" lon="10.4915881">
      <ele>269.0</ele>
      <time>2026-03-30T18:08:51.136+02:00</time>
      <extensions>
        <activity type="IN_VEHICLE" conf="88" state="moving" tsMs="1774886920456"/>
        <radio op="vodafone IT" rat="LTE" q="9.60" rsrp="-109" sinr="1" rsrq="-13"/>
        <radio op="I TIM" rat="LTE" rsrp="-115" rsrq="-17"/>
      </extensions>
    </trkpt>
    <trkpt lat="45.6224778" lon="10.4899775">
      <ele>263.0</ele>
      <time>2026-03-30T18:09:01.137+02:00</time>
      <extensions>
        <activity type="IN_VEHICLE" conf="88" state="moving" tsMs="1774886920456"/>
        <radio op="vodafone IT" rat="LTE" q="7.50" rsrp="-110" sinr="0" rsrq="-14"/>
        <radio op="I TIM" rat="LTE" q="4.00" rsrp="-117" sinr="0" rsrq="-13"/>
      </extensions>
    </trkpt>
    <trkpt lat="45.6215284" lon="10.4882393">
      <ele>267.0</ele>
      <time>2026-03-30T18:09:11.137+02:00</time>
      <extensions>
        <activity type="IN_VEHICLE" conf="96" state="moving" tsMs="1774886947579"/>
        <radio op="vodafone IT" rat="LTE" q="3.60" rsrp="-119" sinr="1" rsrq="-11"/>
        <radio op="I TIM" rat="LTE" rsrp="-115" rsrq="-16"/>
      </extensions>
    </trkpt>
    <trkpt lat="45.6206832" lon="10.486258">
      <ele>270.0</ele>
      <time>2026-03-30T18:09:21.137+02:00</time>
      <extensions>
        <activity type="IN_VEHICLE" conf="96" state="moving" tsMs="1774886958367"/>
        <radio op="vodafone IT" rat="LTE" q="13.30" rsrp="-106" sinr="2" rsrq="-10"/>
        <radio op="I TIM" rat="LTE" rsrp="-119" rsrq="-12"/>
      </extensions>
    </trkpt>
    <trkpt lat="45.619769" lon="10.4842624">
      <ele>270.0</ele>
      <time>2026-03-30T18:09:31.136+02:00</time>
      <extensions>
        <activity type="IN_VEHICLE" conf="97" state="moving" tsMs="1774886969146"/>
        <radio op="vodafone IT" rat="LTE" rsrp="-116" rsrq="-15"/>
        <radio op="I TIM" rat="LTE" rsrp="-123" rsrq="-14"/>
      </extensions>
    </trkpt>
    <trkpt lat="45.6182965" lon="10.4834615">
      <ele>265.0</ele>
      <time>2026-03-30T18:09:42.136+02:00</time>
      <extensions>
        <activity type="IN_VEHICLE" conf="96" state="moving" tsMs="1774886979921"/>
        <radio op="vodafone IT" rat="LTE" q="33.00" rsrp="-103" sinr="10" rsrq="-8"/>
        <radio op="I TIM" rat="LTE" q="7.20" rsrp="-116" sinr="3" rsrq="-10"/>
      </extensions>
    </trkpt>
    <trkpt lat="45.6165541" lon="10.4831825">
      <ele>267.0</ele>
      <time>2026-03-30T18:09:52.136+02:00</time>
      <extensions>
        <activity type="IN_VEHICLE" conf="95" state="moving" tsMs="1774886990694"/>
        <radio op="vodafone IT" rat="LTE" q="14.40" rsrp="-109" sinr="4" rsrq="-13"/>
        <radio op="I TIM" rat="LTE" q="4.50" rsrp="-116" sinr="0" rsrq="-14"/>
      </extensions>
    </trkpt>
    <trkpt lat="45.6147705" lon="10.4826963">
      <ele>267.0</ele>
      <time>2026-03-30T18:10:02.137+02:00</time>
      <extensions>
        <activity type="IN_VEHICLE" conf="92" state="moving" tsMs="1774887001529"/>
        <radio op="vodafone IT" rat="LTE" q="50.40" rsrp="-101" sinr="16" rsrq="-8"/>
        <radio op="I TIM" rat="LTE" rsrp="-119" rsrq="-15"/>
      </extensions>
    </trkpt>
    <trkpt lat="45.6132704" lon="10.4817458">
      <ele>266.0</ele>
      <time>2026-03-30T18:10:12.137+02:00</time>
      <extensions>
        <activity type="IN_VEHICLE" conf="91" state="moving" tsMs="1774887012363"/>
        <radio op="vodafone IT" rat="LTE" q="46.20" rsrp="-104" sinr="17" rsrq="-10"/>
        <radio op="I TIM" rat="LTE" rsrp="-116" rsrq="-16"/>
      </extensions>
    </trkpt>
    <trkpt lat="45.6122964" lon="10.4812633">
      <ele>270.0</ele>
      <time>2026-03-30T18:10:23.137+02:00</time>
      <extensions>
        <activity type="IN_VEHICLE" conf="92" state="moving" tsMs="1774887023150"/>
        <radio op="vodafone IT" rat="LTE" q="8.80" rsrp="-114" sinr="3" rsrq="-14"/>
        <radio op="I TIM" rat="LTE" q="7.70" rsrp="-114" sinr="2" rsrq="-13"/>
      </extensions>
    </trkpt>
    <trkpt lat="45.6120298" lon="10.4809594">
      <ele>270.0</ele>
      <time>2026-03-30T18:10:33.138+02:00</time>
      <extensions>
        <activity type="IN_VEHICLE" conf="87" state="moving" tsMs="1774887033969"/>
        <radio op="vodafone IT" rat="LTE" q="30.80" rsrp="-103" sinr="9" rsrq="-9"/>
        <radio op="I TIM" rat="LTE" q="20.80" rsrp="-109" sinr="8" rsrq="-13"/>
      </extensions>
    </trkpt>
    <trkpt lat="45.6119018" lon="10.4806798">
      <ele>271.0</ele>
      <time>2026-03-30T18:10:40.138+02:00</time>
      <extensions>
        <activity type="IN_VEHICLE" conf="88" state="moving" tsMs="1774887039414"/>
        <radio op="vodafone IT" rat="LTE" q="23.00" rsrp="-102" sinr="5" rsrq="-12"/>
        <radio op="I TIM" rat="LTE" q="16.80" rsrp="-111" sinr="7" rsrq="-11"/>
      </extensions>
    </trkpt>
    <trkpt lat="45.60871" lon="10.4764525">
      <ele>269.4000244140625</ele>
      <time>2026-03-30T18:11:14.93+02:00</time>
      <extensions>
        <activity type="IN_VEHICLE" conf="96" state="moving" tsMs="1774887072164"/>
        <radio op="vodafone IT" rat="LTE" q="15.00" rsrp="-100" sinr="1" rsrq="-13"/>
        <radio op="I TIM" rat="LTE" q="60.00" rsrp="-101" sinr="22" rsrq="-9"/>
      </extensions>
    </trkpt>
    <trkpt lat="45.6074683" lon="10.470409">
      <ele>268.1000061035156</ele>
      <time>2026-03-30T18:11:46.187+02:00</time>
      <extensions>
        <activity type="IN_VEHICLE" conf="89" state="moving" tsMs="1774887101069"/>
        <radio op="vodafone IT" rat="LTE" q="72.50" rsrp="-96" sinr="22" rsrq="-4"/>
        <radio op="I TIM" rat="LTE" q="100.00" rsrp="-81" sinr="22" rsrq="-11"/>
      </extensions>
    </trkpt>
    <trkpt lat="45.6064397" lon="10.4686318">
      <ele>264.3509449745239</ele>
      <time>2026-03-30T18:12:17.438+02:00</time>
      <extensions>
        <activity type="IN_VEHICLE" conf="93" state="moving" tsMs="1774887133559"/>
        <radio op="vodafone IT" rat="LTE" q="77.50" rsrp="-94" sinr="20" rsrq="-7"/>
        <radio op="I TIM" rat="LTE" q="76.00" rsrp="-76" sinr="14" rsrq="-9"/>
      </extensions>
    </trkpt>
    <trkpt lat="45.6054048" lon="10.4652304">
      <ele>262.59415404767674</ele>
      <time>2026-03-30T18:12:56.138+02:00</time>
      <extensions>
        <activity type="UNKNOWN" conf="40" state="unknown" tsMs="1774887179765"/>
        <radio op="vodafone IT" rat="LTE" q="88.00" rsrp="-76" sinr="17" rsrq="-9"/>
        <radio op="I TIM" rat="LTE" q="26.00" rsrp="-99" sinr="5" rsrq="-12"/>
      </extensions>
    </trkpt>
    <trkpt lat="45.6046746" lon="10.464418">
      <ele>262.0863522973458</ele>
      <time>2026-03-30T18:13:31.868+02:00</time>
      <extensions>
        <activity type="IN_VEHICLE" conf="94" state="moving" tsMs="1774887206760"/>
        <radio op="vodafone IT" rat="LTE" q="86.40" rsrp="-89" sinr="19" rsrq="-6"/>
        <radio op="I TIM" rat="LTE" q="26.40" rsrp="-101" sinr="6" rsrq="-10"/>
      </extensions>
    </trkpt>
    <trkpt lat="45.6050153" lon="10.4639152">
      <ele>262.18798143341235</ele>
      <time>2026-03-30T18:13:40.137+02:00</time>
      <extensions>
        <activity type="IN_VEHICLE" conf="92" state="moving" tsMs="1774887217534"/>
        <radio op="vodafone IT" rat="LTE" q="92.50" rsrp="-88" sinr="28" rsrq="-6"/>
        <radio op="I TIM" rat="LTE" q="62.00" rsrp="-94" sinr="15" rsrq="-10"/>
      </extensions>
    </trkpt>
    <trkpt lat="45.6042965" lon="10.4614256">
      <ele>262.8893762258166</ele>
      <time>2026-03-30T18:14:16.137+02:00</time>
      <extensions>
        <activity type="IN_VEHICLE" conf="94" state="moving" tsMs="1774887264339"/>
        <radio op="vodafone IT" rat="LTE" q="85.00" rsrp="-91" sinr="24" rsrq="-8"/>
        <radio op="I TIM" rat="LTE" q="44.00" rsrp="-105" sinr="17" rsrq="-12"/>
      </extensions>
    </trkpt>
    <trkpt lat="45.6035952" lon="10.4586111">
      <ele>261.1700713512926</ele>
      <time>2026-03-30T18:14:56.423+02:00</time>
      <extensions>
        <activity type="IN_VEHICLE" conf="96" state="moving" tsMs="1774887291197"/>
        <radio op="vodafone IT" rat="LTE" q="72.50" rsrp="-96" sinr="26" rsrq="-10"/>
        <radio op="I TIM" rat="LTE" q="77.50" rsrp="-94" sinr="20" rsrq="-11"/>
      </extensions>
    </trkpt>
    <trkpt lat="45.6035218" lon="10.4585608">
      <ele>261.1700713512926</ele>
      <time>2026-03-30T18:15:02.137+02:00</time>
      <extensions>
        <activity type="IN_VEHICLE" conf="93" state="moving" tsMs="1774887296574"/>
        <radio op="vodafone IT" rat="LTE" q="82.50" rsrp="-92" sinr="30" rsrq="-8"/>
        <radio op="I TIM" rat="LTE" q="92.50" rsrp="-88" sinr="27" rsrq="-11"/>
      </extensions>
    </trkpt>
    <trkpt lat="45.6034783" lon="10.4586091">
      <ele>264.0</ele>
      <time>2026-03-30T18:15:16.138+02:00</time>
      <extensions>
        <activity type="UNKNOWN" conf="40" state="unknown" tsMs="1774887300095"/>
        <radio op="vodafone IT" rat="LTE" rsrp="-86" rsrq="-6"/>
        <radio op="I TIM" rat="LTE" q="95.00" rsrp="-87" sinr="25" rsrq="-11"/>
      </extensions>
    </trkpt>
    <trkpt lat="45.6034783" lon="10.4586091">
      <ele>264.0</ele>
      <time>2026-03-30T18:15:16.806+02:00</time>
      <extensions>
        <activity type="UNKNOWN" conf="40" state="unknown" tsMs="1774887322539"/>
        <radio op="vodafone IT" rat="LTE" q="90.00" rsrp="-89" sinr="29" rsrq="-6"/>
        <radio op="I TIM" rat="LTE" q="75.00" rsrp="-95" sinr="26" rsrq="-11"/>
      </extensions>
    </trkpt>
    <trkpt lat="45.6037957" lon="10.4583527">
      <ele>264.4000244140625</ele>
      <time>2026-03-30T18:15:48.035+02:00</time>
      <extensions>
        <activity type="TILTING" conf="100" state="moving" tsMs="1774887340002"/>
        <radio op="vodafone IT" rat="LTE" q="100.00" rsrp="-84" sinr="23" rsrq="-7"/>
        <radio op="I TIM" rat="LTE" q="100.00" rsrp="-82" sinr="25" rsrq="-11"/>
      </extensions>
    </trkpt>
    <trkpt lat="45.6036998" lon="10.4585666">
      <ele>264.4000244140625</ele>
      <time>2026-03-30T18:15:55.137+02:00</time>
      <extensions>
        <activity type="TILTING" conf="100" state="moving" tsMs="1774887340002"/>
        <radio op="vodafone IT" rat="LTE" q="97.50" rsrp="-86" sinr="22" rsrq="-8"/>
        <radio op="I TIM" rat="LTE" q="97.50" rsrp="-86" sinr="22" rsrq="-11"/>
      </extensions>
    </trkpt>
    <trkpt lat="45.6036998" lon="10.4585666">
      <ele>264.3000183105469</ele>
      <time>2026-03-30T18:16:29.433+02:00</time>
      <extensions>
        <activity type="ON_FOOT" conf="97" state="moving" tsMs="1774887387291"/>
        <radio op="vodafone IT" rat="LTE" q="48.30" rsrp="-102" sinr="16" rsrq="-9"/>
        <radio op="I TIM" rat="LTE" q="62.40" rsrp="-99" sinr="19" rsrq="-12"/>
      </extensions>
    </trkpt>
    <trkpt lat="45.6041119" lon="10.4587393">
      <ele>264.4000244140625</ele>
      <time>2026-03-30T18:16:50.143+02:00</time>
      <extensions>
        <activity type="ON_FOOT" conf="96" state="moving" tsMs="1774887413832"/>
        <radio op="vodafone IT" rat="LTE" q="20.80" rsrp="-112" sinr="11" rsrq="-12"/>
        <radio op="I TIM" rat="LTE" q="14.30" rsrp="-112" sinr="6" rsrq="-11"/>
      </extensions>
    </trkpt>
    <trkpt lat="45.6041119" lon="10.4587393">
      <ele>264.4000244140625</ele>
      <time>2026-03-30T18:16:55.693+02:00</time>
      <extensions>
        <activity type="ON_FOOT" conf="96" state="moving" tsMs="1774887413832"/>
        <radio op="vodafone IT" rat="LTE" q="18.00" rsrp="-113" sinr="10" rsrq="-9"/>
        <radio op="I TIM" rat="LTE" q="9.10" rsrp="-112" sinr="2" rsrq="-13"/>
      </extensions>
    </trkpt>
    <trkpt lat="45.6046082" lon="10.4587129">
      <ele>264.4000244140625</ele>
      <time>2026-03-30T18:17:41.327+02:00</time>
      <extensions>
        <activity type="ON_FOOT" conf="84" state="moving" tsMs="1774887456931"/>
        <radio op="vodafone IT" rat="LTE" q="14.40" rsrp="-113" sinr="7" rsrq="-9"/>
        <radio op="I TIM" rat="LTE" q="4.20" rsrp="-118" sinr="1" rsrq="-13"/>
      </extensions>
    </trkpt>
    <trkpt lat="45.6045935" lon="10.4587773">
      <ele>264.4000244140625</ele>
      <time>2026-03-30T18:18:01.952+02:00</time>
      <extensions>
        <activity type="STILL" conf="99" state="still" tsMs="1774887487649"/>
        <radio op="vodafone IT" rat="LTE" q="12.10" rsrp="-114" sinr="6" rsrq="-10"/>
        <radio op="I TIM" rat="LTE" q="46.20" rsrp="-103" sinr="16" rsrq="-12"/>
      </extensions>
    </trkpt>
    <trkpt lat="45.6046022" lon="10.4585841">
      <ele>264.4000244140625</ele>
      <time>2026-03-30T18:18:32.827+02:00</time>
      <extensions>
        <activity type="STILL" conf="43" state="still" tsMs="1774887509219"/>
        <radio op="vodafone IT" rat="LTE" q="7.80" rsrp="-119" sinr="8" rsrq="-12"/>
        <radio op="I TIM" rat="LTE" q="60.00" rsrp="-101" sinr="21" rsrq="-9"/>
      </extensions>
    </trkpt>
    <trkpt lat="45.6045791" lon="10.4586057">
      <ele>264.4000244140625</ele>
      <time>2026-03-30T18:19:04.052+02:00</time>
      <extensions>
        <activity type="STILL" conf="53" state="still" tsMs="1774887540840"/>
        <radio op="vodafone IT" rat="LTE" q="43.20" rsrp="-107" sinr="19" rsrq="-7"/>
        <radio op="I TIM" rat="LTE" q="39.90" rsrp="-106" sinr="16" rsrq="-10"/>
      </extensions>
    </trkpt>
    <trkpt lat="45.604464" lon="10.4587422">
      <ele>264.4000244140625</ele>
      <time>2026-03-30T18:19:37.009+02:00</time>
      <extensions>
        <activity type="ON_FOOT" conf="89" state="moving" tsMs="1774887574259"/>
        <radio op="vodafone IT" rat="LTE" q="52.50" rsrp="-104" sinr="20" rsrq="-10"/>
        <radio op="I TIM" rat="LTE" q="77.50" rsrp="-94" sinr="28" rsrq="-9"/>
      </extensions>
    </trkpt>
    <trkpt lat="45.6041993" lon="10.4593372">
      <ele>264.3000183105469</ele>
      <time>2026-03-30T18:20:08.205+02:00</time>
      <extensions>
        <activity type="ON_FOOT" conf="83" state="moving" tsMs="1774887602895"/>
        <radio op="vodafone IT" rat="LTE" q="34.20" rsrp="-107" sinr="14" rsrq="-11"/>
        <radio op="I TIM" rat="LTE" q="62.50" rsrp="-100" sinr="25" rsrq="-12"/>
      </extensions>
    </trkpt>
    <trkpt lat="45.6043666" lon="10.4597857">
      <ele>264.20001220703125</ele>
      <time>2026-03-30T18:20:39.466+02:00</time>
      <extensions>
        <activity type="UNKNOWN" conf="40" state="unknown" tsMs="1774887634161"/>
        <radio op="vodafone IT" rat="LTE" q="43.70" rsrp="-106" sinr="18" rsrq="-12"/>
        <radio op="I TIM" rat="LTE" q="82.50" rsrp="-92" sinr="24" rsrq="-12"/>
      </extensions>
    </trkpt>
    <trkpt lat="45.6043616" lon="10.4597336">
      <ele>264.20001220703125</ele>
      <time>2026-03-30T18:21:10.711+02:00</time>
      <extensions>
        <activity type="STILL" conf="43" state="still" tsMs="1774887667683"/>
        <radio op="vodafone IT" rat="LTE" q="30.40" rsrp="-109" sinr="14" rsrq="-10"/>
        <radio op="I TIM" rat="LTE" q="60.00" rsrp="-100" sinr="19" rsrq="-12"/>
      </extensions>
    </trkpt>
    <trkpt lat="45.6043457" lon="10.4596415">
      <ele>264.3000183105469</ele>
      <time>2026-03-30T18:21:37.779+02:00</time>
      <extensions>
        <activity type="STILL" conf="68" state="still" tsMs="1774887698958"/>
        <radio op="vodafone IT" rat="LTE" q="56.70" rsrp="-98" sinr="16" rsrq="-10"/>
        <radio op="I TIM" rat="LTE" q="100.00" rsrp="-85" sinr="27" rsrq="-13"/>
      </extensions>
    </trkpt>
    <trkpt lat="45.6043634" lon="10.4597816">
      <ele>264.3000183105469</ele>
      <time>2026-03-30T18:22:15.234+02:00</time>
      <extensions>
        <activity type="UNKNOWN" conf="40" state="unknown" tsMs="1774887729739"/>
        <radio op="vodafone IT" rat="LTE" q="67.50" rsrp="-98" sinr="20" rsrq="-8"/>
        <radio op="I TIM" rat="LTE" q="90.00" rsrp="-89" sinr="24" rsrq="-12"/>
      </extensions>
    </trkpt>
    <trkpt lat="45.6044906" lon="10.4597792">
      <ele>264.3000183105469</ele>
      <time>2026-03-30T18:22:45.966+02:00</time>
      <extensions>
        <activity type="ON_FOOT" conf="87" state="moving" tsMs="1774887738793"/>
        <radio op="vodafone IT" rat="LTE" q="20.90" rsrp="-114" sinr="14" rsrq="-11"/>
        <radio op="I TIM" rat="LTE" q="57.50" rsrp="-102" sinr="22" rsrq="-12"/>
      </extensions>
    </trkpt>
    <trkpt lat="45.604572" lon="10.4595495">
      <ele>264.3000183105469</ele>
      <time>2026-03-30T18:23:22.621+02:00</time>
      <extensions>
        <activity type="UNKNOWN" conf="40" state="unknown" tsMs="1774887800347"/>
        <radio op="vodafone IT" rat="LTE" q="55.00" rsrp="-103" sinr="22" rsrq="-11"/>
        <radio op="I TIM" rat="LTE" q="90.00" rsrp="-89" sinr="27" rsrq="-12"/>
      </extensions>
    </trkpt>
    <trkpt lat="45.6045394" lon="10.4594161">
      <ele>264.3000183105469</ele>
      <time>2026-03-30T18:24:04.464+02:00</time>
      <extensions>
        <activity type="UNKNOWN" conf="40" state="unknown" tsMs="1774887839783"/>
        <radio op="vodafone IT" rat="LTE" q="34.00" rsrp="-108" sinr="15" rsrq="-9"/>
        <radio op="I TIM" rat="LTE" q="90.00" rsrp="-89" sinr="28" rsrq="-12"/>
      </extensions>
    </trkpt>
    <trkpt lat="45.6045871" lon="10.4594056">
      <ele>264.3000183105469</ele>
      <time>2026-03-30T18:25:14.207+02:00</time>
      <extensions>
        <activity type="UNKNOWN" conf="40" state="unknown" tsMs="1774887908754"/>
        <radio op="vodafone IT" rat="LTE" q="31.50" rsrp="-110" sinr="16" rsrq="-8"/>
        <radio op="I TIM" rat="LTE" q="80.00" rsrp="-93" sinr="30" rsrq="-12"/>
      </extensions>
    </trkpt>
    <trkpt lat="45.6044842" lon="10.459468">
      <ele>264.3000183105469</ele>
      <time>2026-03-30T18:26:20.305+02:00</time>
      <extensions>
        <activity type="ON_FOOT" conf="86" state="moving" tsMs="1774887976357"/>
        <radio op="vodafone IT" rat="LTE" q="47.50" rsrp="-106" sinr="21" rsrq="-9"/>
        <radio op="I TIM" rat="LTE" q="44.10" rsrp="-104" sinr="16" rsrq="-10"/>
      </extensions>
    </trkpt>
    <trkpt lat="45.604324" lon="10.4595298">
      <ele>264.3000183105469</ele>
      <time>2026-03-30T18:27:20.048+02:00</time>
      <extensions>
        <activity type="UNKNOWN" conf="40" state="unknown" tsMs="1774888035349"/>
        <radio op="vodafone IT" rat="LTE" q="65.00" rsrp="-99" sinr="26" rsrq="-11"/>
        <radio op="I TIM" rat="LTE" q="65.00" rsrp="-99" sinr="25" rsrq="-11"/>
      </extensions>
    </trkpt>
    <trkpt lat="45.6043064" lon="10.4593953">
      <ele>264.3000183105469</ele>
      <time>2026-03-30T18:28:17.989+02:00</time>
      <extensions>
        <activity type="ON_FOOT" conf="89" state="moving" tsMs="1774888097362"/>
        <radio op="vodafone IT" rat="LTE" q="19.80" rsrp="-114" sinr="13" rsrq="-10"/>
        <radio op="I TIM" rat="LTE" q="52.50" rsrp="-104" sinr="22" rsrq="-13"/>
      </extensions>
    </trkpt>
    <trkpt lat="45.6044254" lon="10.4592313">
      <ele>264.3000183105469</ele>
      <time>2026-03-30T18:28:55.52+02:00</time>
      <extensions>
        <activity type="ON_FOOT" conf="83" state="moving" tsMs="1774888135606"/>
        <radio op="vodafone IT" rat="LTE" q="75.00" rsrp="-95" sinr="25" rsrq="-11"/>
        <radio op="I TIM" rat="LTE" q="77.50" rsrp="-94" sinr="24" rsrq="-12"/>
      </extensions>
    </trkpt>
    <trkpt lat="45.6044246" lon="10.459243">
      <ele>264.3000183105469</ele>
      <time>2026-03-30T18:29:55.329+02:00</time>
      <extensions>
        <activity type="STILL" conf="99" state="still" tsMs="1774888195363"/>
        <radio op="vodafone IT" rat="LTE" q="35.70" rsrp="-108" sinr="16" rsrq="-12"/>
        <radio op="I TIM" rat="LTE" q="58.00" rsrp="-96" sinr="15" rsrq="-11"/>
      </extensions>
    </trkpt>
    <trkpt lat="45.6043998" lon="10.4591918">
      <ele>264.3000183105469</ele>
      <time>2026-03-30T18:30:41.269+02:00</time>
      <extensions>
        <activity type="UNKNOWN" conf="40" state="unknown" tsMs="1774888241358"/>
        <radio op="vodafone IT" rat="LTE" q="47.50" rsrp="-106" sinr="22" rsrq="-12"/>
        <radio op="I TIM" rat="LTE" rsrp="-92" rsrq="-12"/>
      </extensions>
    </trkpt>
    <trkpt lat="45.6043897" lon="10.4592068">
      <ele>264.3000183105469</ele>
      <time>2026-03-30T18:31:27.024+02:00</time>
      <extensions>
        <activity type="UNKNOWN" conf="40" state="unknown" tsMs="1774888295394"/>
        <radio op="vodafone IT" rat="LTE" q="56.00" rsrp="-97" sinr="15" rsrq="-9"/>
        <radio op="I TIM" rat="LTE" q="82.50" rsrp="-92" sinr="24" rsrq="-13"/>
      </extensions>
    </trkpt>
    <trkpt lat="45.6037245" lon="10.4590657">
      <ele>264.3000183105469</ele>
      <time>2026-03-30T18:32:31.874+02:00</time>
      <extensions>
        <activity type="ON_FOOT" conf="96" state="moving" tsMs="1774888352033"/>
        <radio op="vodafone IT" rat="LTE" q="95.00" rsrp="-87" sinr="23" rsrq="-11"/>
        <radio op="I TIM" rat="LTE" q="100.00" rsrp="-76" sinr="21" rsrq="-12"/>
      </extensions>
    </trkpt>
    <trkpt lat="45.6035721" lon="10.4585202">
      <ele>264.0</ele>
      <time>2026-03-30T18:33:12.554+02:00</time>
      <extensions>
        <activity type="ON_FOOT" conf="93" state="moving" tsMs="1774888391974"/>
        <radio op="vodafone IT" rat="LTE" q="95.00" rsrp="-87" sinr="27" rsrq="-10"/>
        <radio op="I TIM" rat="LTE" q="88.00" rsrp="-80" sinr="17" rsrq="-12"/>
      </extensions>
    </trkpt>
    <trkpt lat="45.6038644" lon="10.4579822">
      <ele>264.4000244140625</ele>
      <time>2026-03-30T18:33:48.141+02:00</time>
      <extensions>
        <activity type="IN_VEHICLE" conf="89" state="moving" tsMs="1774888418449"/>
        <radio op="vodafone IT" rat="LTE" q="55.20" rsrp="-101" sinr="18" rsrq="-12"/>
        <radio op="I TIM" rat="LTE" q="80.00" rsrp="-93" sinr="23" rsrq="-11"/>
      </extensions>
    </trkpt>
    <trkpt lat="45.603787" lon="10.4578492">
      <ele>264.4000244140625</ele>
      <time>2026-03-30T18:33:59.141+02:00</time>
      <extensions>
        <activity type="IN_VEHICLE" conf="89" state="moving" tsMs="1774888418449"/>
        <radio op="vodafone IT" rat="LTE" q="56.70" rsrp="-98" sinr="16" rsrq="-12"/>
        <radio op="I TIM" rat="LTE" q="90.00" rsrp="-89" sinr="25" rsrq="-10"/>
      </extensions>
    </trkpt>
    <trkpt lat="45.6037863" lon="10.4578193">
      <ele>264.4000244140625</ele>
      <time>2026-03-30T18:34:09.141+02:00</time>
      <extensions>
        <activity type="IN_VEHICLE" conf="86" state="moving" tsMs="1774888445302"/>
        <radio op="vodafone IT" rat="LTE" q="55.00" rsrp="-100" sinr="17" rsrq="-11"/>
        <radio op="I TIM" rat="LTE" q="84.00" rsrp="-90" sinr="19" rsrq="-11"/>
      </extensions>
    </trkpt>
    <trkpt lat="45.6037633" lon="10.4577514">
      <ele>264.4000244140625</ele>
      <time>2026-03-30T18:34:19.141+02:00</time>
      <extensions>
        <activity type="IN_VEHICLE" conf="87" state="moving" tsMs="1774888456038"/>
        <radio op="vodafone IT" rat="LTE" q="54.00" rsrp="-98" sinr="15" rsrq="-12"/>
        <radio op="I TIM" rat="LTE" q="90.00" rsrp="-89" sinr="20" rsrq="-11"/>
      </extensions>
    </trkpt>
    <trkpt lat="45.6036721" lon="10.4576547">
      <ele>264.4000244140625</ele>
      <time>2026-03-30T18:34:29.141+02:00</time>
      <extensions>
        <activity type="UNKNOWN" conf="40" state="unknown" tsMs="1774888466747"/>
        <radio op="vodafone IT" rat="LTE" q="50.60" rsrp="-102" sinr="17" rsrq="-12"/>
        <radio op="I TIM" rat="LTE" q="85.00" rsrp="-91" sinr="20" rsrq="-11"/>
      </extensions>
    </trkpt>
    <trkpt lat="45.6033003" lon="10.4578374">
      <ele>264.4000244140625</ele>
      <time>2026-03-30T18:34:40.141+02:00</time>
      <extensions>
        <activity type="IN_VEHICLE" conf="84" state="moving" tsMs="1774888477480"/>
        <radio op="vodafone IT" rat="LTE" q="90.00" rsrp="-89" sinr="28" rsrq="-6"/>
        <radio op="I TIM" rat="LTE" q="68.00" rsrp="-77" sinr="12" rsrq="-7"/>
      </extensions>
    </trkpt>
    <trkpt lat="45.6029897" lon="10.4571968">
      <ele>264.4000244140625</ele>
      <time>2026-03-30T18:34:50.14+02:00</time>
      <extensions>
        <activity type="UNKNOWN" conf="40" state="unknown" tsMs="1774888488299"/>
        <radio op="vodafone IT" rat="LTE" q="65.00" rsrp="-99" sinr="20" rsrq="-12"/>
        <radio op="I TIM" rat="LTE" q="91.20" rsrp="-87" sinr="19" rsrq="-11"/>
      </extensions>
    </trkpt>
    <trkpt lat="45.6027483" lon="10.4563672">
      <ele>264.4000244140625</ele>
      <time>2026-03-30T18:35:00.14+02:00</time>
      <extensions>
        <activity type="IN_VEHICLE" conf="89" state="moving" tsMs="1774888499016"/>
        <radio op="vodafone IT" rat="LTE" q="14.40" rsrp="-107" sinr="3" rsrq="-12"/>
        <radio op="I TIM" rat="LTE" q="55.10" rsrp="-96" sinr="14" rsrq="-11"/>
      </extensions>
    </trkpt>
    <trkpt lat="45.6023979" lon="10.4552171">
      <ele>264.4000244140625</ele>
      <time>2026-03-30T18:35:10.141+02:00</time>
      <extensions>
        <activity type="IN_VEHICLE" conf="85" state="moving" tsMs="1774888509677"/>
        <radio op="vodafone IT" rat="LTE" q="7.80" rsrp="-112" sinr="1" rsrq="-12"/>
        <radio op="I TIM" rat="LTE" q="15.40" rsrp="-103" sinr="2" rsrq="-15"/>
      </extensions>
    </trkpt>
    <trkpt lat="45.6018186" lon="10.4542695">
      <ele>261.0</ele>
      <time>2026-03-30T18:35:21.141+02:00</time>
      <extensions>
        <activity type="IN_VEHICLE" conf="90" state="moving" tsMs="1774888520363"/>
        <radio op="vodafone IT" rat="LTE" rsrp="-113" rsrq="-15"/>
        <radio op="I TIM" rat="LTE" q="35.10" rsrp="-98" sinr="8" rsrq="-13"/>
      </extensions>
    </trkpt>
    <trkpt lat="45.6016531" lon="10.4535533">
      <ele>261.0</ele>
      <time>2026-03-30T18:35:31.141+02:00</time>
      <extensions>
        <activity type="IN_VEHICLE" conf="95" state="moving" tsMs="1774888531113"/>
        <radio op="vodafone IT" rat="LTE" q="6.60" rsrp="-114" sinr="1" rsrq="-14"/>
        <radio op="I TIM" rat="LTE" rsrp="-100" rsrq="-14"/>
      </extensions>
    </trkpt>
    <trkpt lat="45.6020601" lon="10.4532898">
      <ele>257.0</ele>
      <time>2026-03-30T18:35:39.14+02:00</time>
      <extensions>
        <activity type="IN_VEHICLE" conf="96" state="moving" tsMs="1774888536484"/>
        <radio op="vodafone IT" rat="LTE" q="8.40" rsrp="-113" sinr="2" rsrq="-14"/>
        <radio op="I TIM" rat="LTE" q="29.40" rsrp="-104" sinr="9" rsrq="-10"/>
      </extensions>
    </trkpt>
    <trkpt lat="45.6021941" lon="10.4532296">
      <ele>261.70001220703125</ele>
      <time>2026-03-30T18:36:16.313+02:00</time>
      <extensions>
        <activity type="UNKNOWN" conf="40" state="unknown" tsMs="1774888576345"/>
        <radio op="vodafone IT" rat="LTE" q="26.60" rsrp="-106" sinr="9" rsrq="-11"/>
        <radio op="I TIM" rat="LTE" q="17.60" rsrp="-103" sinr="3" rsrq="-10"/>
      </extensions>
    </trkpt>
    <trkpt lat="45.6023722" lon="10.4536751">
      <ele>262.1000061035156</ele>
      <time>2026-03-30T18:36:46.648+02:00</time>
      <extensions>
        <activity type="ON_FOOT" conf="96" state="moving" tsMs="1774888580031"/>
        <radio op="vodafone IT" rat="LTE" q="12.60" rsrp="-111" sinr="4" rsrq="-9"/>
        <radio op="I TIM" rat="LTE" rsrp="-111" rsrq="-16"/>
      </extensions>
    </trkpt>
    <trkpt lat="45.6024653" lon="10.4537216">
      <ele>261.9000244140625</ele>
      <time>2026-03-30T18:36:57.185+02:00</time>
      <extensions>
        <activity type="ON_FOOT" conf="97" state="moving" tsMs="1774888600363"/>
        <radio op="vodafone IT" rat="LTE" q="6.60" rsrp="-114" sinr="1" rsrq="-12"/>
        <radio op="I TIM" rat="LTE" rsrp="-102" rsrq="-9"/>
      </extensions>
    </trkpt>
    <trkpt lat="45.6026042" lon="10.4536429">
      <ele>262.0</ele>
      <time>2026-03-30T18:37:07.223+02:00</time>
      <extensions>
        <activity type="ON_FOOT" conf="95" state="moving" tsMs="1774888626259"/>
        <radio op="vodafone IT" rat="LTE" rsrp="-122" rsrq="-13"/>
        <radio op="I TIM" rat="LTE" q="7.80" rsrp="-112" sinr="1" rsrq="-14"/>
      </extensions>
    </trkpt>
    <trkpt lat="45.6026128" lon="10.4536523">
      <ele>262.0</ele>
      <time>2026-03-30T18:37:17.144+02:00</time>
      <extensions>
        <activity type="UNKNOWN" conf="40" state="unknown" tsMs="1774888634630"/>
        <radio op="vodafone IT" rat="LTE" q="12.10" rsrp="-114" sinr="6" rsrq="-10"/>
        <radio op="I TIM" rat="LTE" q="2.00" rsrp="-123" sinr="5" rsrq="-14"/>
      </extensions>
    </trkpt>
    <trkpt lat="45.6026081" lon="10.4536485">
      <ele>262.0</ele>
      <time>2026-03-30T18:37:24.133+02:00</time>
      <extensions>
        <activity type="UNKNOWN" conf="40" state="unknown" tsMs="1774888644976"/>
        <radio op="vodafone IT" rat="LTE" rsrp="-118" rsrq="-12"/>
        <radio op="I TIM" rat="LTE" q="2.50" rsrp="-120" sinr="0" rsrq="-12"/>
      </extensions>
    </trkpt>
    <trkpt lat="45.6025966" lon="10.4536441">
      <ele>262.0</ele>
      <time>2026-03-30T18:37:35.991+02:00</time>
      <extensions>
        <activity type="UNKNOWN" conf="40" state="unknown" tsMs="1774888644976"/>
        <radio op="vodafone IT" rat="LTE" q="12.10" rsrp="-114" sinr="6" rsrq="-12"/>
        <radio op="I TIM" rat="LTE" q="12.00" rsrp="-119" sinr="15" rsrq="-12"/>
      </extensions>
    </trkpt>
    <trkpt lat="45.6025979" lon="10.4536398">
      <ele>262.0</ele>
      <time>2026-03-30T18:37:42.495+02:00</time>
      <extensions>
        <activity type="UNKNOWN" conf="40" state="unknown" tsMs="1774888667807"/>
        <radio op="vodafone IT" rat="LTE" q="7.20" rsrp="-117" sinr="4" rsrq="-12"/>
        <radio op="I TIM" rat="LTE" q="4.00" rsrp="-121" sinr="5" rsrq="-10"/>
      </extensions>
    </trkpt>
    <trkpt lat="45.6025954" lon="10.4536326">
      <ele>262.0</ele>
      <time>2026-03-30T18:37:57.296+02:00</time>
      <extensions>
        <activity type="UNKNOWN" conf="40" state="unknown" tsMs="1774888673157"/>
        <radio op="vodafone IT" rat="LTE" q="3.50" rsrp="-118" sinr="0" rsrq="-14"/>
        <radio op="I TIM" rat="LTE" rsrp="-122" rsrq="-15"/>
      </extensions>
    </trkpt>
    <trkpt lat="45.6025906" lon="10.4536218">
      <ele>262.0</ele>
      <time>2026-03-30T18:38:05.193+02:00</time>
      <extensions>
        <activity type="UNKNOWN" conf="40" state="unknown" tsMs="1774888673157"/>
        <radio op="vodafone IT" rat="LTE" q="7.20" rsrp="-116" sinr="3" rsrq="-14"/>
        <radio op="I TIM" rat="LTE" q="6.00" rsrp="-113" sinr="0" rsrq="-12"/>
      </extensions>
    </trkpt>
    <trkpt lat="45.6025891" lon="10.4536222">
      <ele>262.0</ele>
      <time>2026-03-30T18:38:11.823+02:00</time>
      <extensions>
        <activity type="UNKNOWN" conf="40" state="unknown" tsMs="1774888697112"/>
        <radio op="vodafone IT" rat="LTE" q="8.00" rsrp="-117" sinr="5" rsrq="-14"/>
        <radio op="I TIM" rat="LTE" q="11.00" rsrp="-115" sinr="6" rsrq="-12"/>
      </extensions>
    </trkpt>
    <trkpt lat="45.6025855" lon="10.4536206">
      <ele>262.0</ele>
      <time>2026-03-30T18:38:27.629+02:00</time>
      <extensions>
        <activity type="UNKNOWN" conf="40" state="unknown" tsMs="1774888702540"/>
        <radio op="vodafone IT" rat="LTE" q="5.50" rsrp="-120" sinr="6" rsrq="-13"/>
        <radio op="I TIM" rat="LTE" q="12.60" rsrp="-111" sinr="4" rsrq="-12"/>
      </extensions>
    </trkpt>
    <trkpt lat="45.6025869" lon="10.4536212">
      <ele>262.0</ele>
      <time>2026-03-30T18:38:35.056+02:00</time>
      <extensions>
        <activity type="UNKNOWN" conf="40" state="unknown" tsMs="1774888702540"/>
        <radio op="vodafone IT" rat="LTE" rsrp="-113" rsrq="-13"/>
        <radio op="I TIM" rat="LTE" q="13.50" rsrp="-116" sinr="10" rsrq="-10"/>
      </extensions>
    </trkpt>
    <trkpt lat="45.6025881" lon="10.4536214">
      <ele>262.0</ele>
      <time>2026-03-30T18:38:48.281+02:00</time>
      <extensions>
        <activity type="UNKNOWN" conf="40" state="unknown" tsMs="1774888726283"/>
        <radio op="vodafone IT" rat="LTE" q="11.00" rsrp="-114" sinr="5" rsrq="-14"/>
        <radio op="I TIM" rat="LTE" q="3.00" rsrp="-119" sinr="0" rsrq="-11"/>
      </extensions>
    </trkpt>
    <trkpt lat="45.6025899" lon="10.453628">
      <ele>262.0</ele>
      <time>2026-03-30T18:38:57.355+02:00</time>
      <extensions>
        <activity type="UNKNOWN" conf="40" state="unknown" tsMs="1774888731647"/>
        <radio op="vodafone IT" rat="LTE" q="19.20" rsrp="-113" sinr="11" rsrq="-12"/>
        <radio op="I TIM" rat="LTE" q="9.00" rsrp="-116" sinr="5" rsrq="-11"/>
      </extensions>
    </trkpt>
    <trkpt lat="45.6025901" lon="10.4536204">
      <ele>262.0</ele>
      <time>2026-03-30T18:39:08.529+02:00</time>
      <extensions>
        <activity type="UNKNOWN" conf="40" state="unknown" tsMs="1774888731647"/>
        <radio op="vodafone IT" rat="LTE" q="17.60" rsrp="-114" sinr="11" rsrq="-12"/>
        <radio op="I TIM" rat="LTE" rsrp="-120" rsrq="-11"/>
      </extensions>
    </trkpt>
    <trkpt lat="45.6025635" lon="10.453604">
      <ele>262.0</ele>
      <time>2026-03-30T18:39:17.401+02:00</time>
      <extensions>
        <activity type="UNKNOWN" conf="40" state="unknown" tsMs="1774888755262"/>
        <radio op="vodafone IT" rat="LTE" q="11.20" rsrp="-117" sinr="9" rsrq="-12"/>
        <radio op="I TIM" rat="LTE" q="18.00" rsrp="-113" sinr="10" rsrq="-13"/>
      </extensions>
    </trkpt>
    <trkpt lat="45.6025661" lon="10.4536076">
      <ele>262.0</ele>
      <time>2026-03-30T18:39:24.683+02:00</time>
      <extensions>
        <activity type="UNKNOWN" conf="40" state="unknown" tsMs="1774888760611"/>
        <radio op="vodafone IT" rat="LTE" q="17.10" rsrp="-116" sinr="14" rsrq="-11"/>
        <radio op="I TIM" rat="LTE" q="20.80" rsrp="-112" sinr="11" rsrq="-12"/>
      </extensions>
    </trkpt>
    <trkpt lat="45.6025686" lon="10.4536053">
      <ele>262.0</ele>
      <time>2026-03-30T18:39:27.763+02:00</time>
      <extensions>
        <activity type="UNKNOWN" conf="40" state="unknown" tsMs="1774888760611"/>
        <radio op="vodafone IT" rat="LTE" q="10.40" rsrp="-117" sinr="8" rsrq="-11"/>
        <radio op="I TIM" rat="LTE" q="20.80" rsrp="-112" sinr="11" rsrq="-13"/>
      </extensions>
    </trkpt>
    <trkpt lat="45.6025717" lon="10.4536305">
      <ele>262.0</ele>
      <time>2026-03-30T18:39:46.406+02:00</time>
      <extensions>
        <activity type="STILL" conf="100" state="still" tsMs="1774888784452"/>
        <radio op="vodafone IT" rat="LTE" q="14.40" rsrp="-116" sinr="11" rsrq="-11"/>
        <radio op="I TIM" rat="LTE" q="21.00" rsrp="-111" sinr="10" rsrq="-13"/>
      </extensions>
    </trkpt>
    <trkpt lat="45.6025744" lon="10.4536405">
      <ele>262.0</ele>
      <time>2026-03-30T18:39:53.824+02:00</time>
      <extensions>
        <activity type="STILL" conf="100" state="still" tsMs="1774888789837"/>
        <radio op="vodafone IT" rat="LTE" q="7.00" rsrp="-111" sinr="0" rsrq="-10"/>
        <radio op="I TIM" rat="LTE" q="22.50" rsrp="-110" sinr="10" rsrq="-12"/>
      </extensions>
    </trkpt>
    <trkpt lat="45.6025718" lon="10.4536263">
      <ele>262.0</ele>
      <time>2026-03-30T18:40:09.449+02:00</time>
      <extensions>
        <activity type="STILL" conf="52" state="still" tsMs="1774888795012"/>
        <radio op="vodafone IT" rat="LTE" q="11.20" rsrp="-111" sinr="3" rsrq="-13"/>
        <radio op="I TIM" rat="LTE" q="21.00" rsrp="-111" sinr="10" rsrq="-12"/>
      </extensions>
    </trkpt>
    <trkpt lat="45.6025887" lon="10.4536748">
      <ele>262.0</ele>
      <time>2026-03-30T18:59:49.541+02:00</time>
      <extensions>
        <activity type="IN_VEHICLE" conf="92" state="moving" tsMs="1774889989445"/>
        <radio op="vodafone IT" rat="LTE" rsrp="-116" rsrq="-12"/>
        <radio op="I TIM" rat="LTE" rsrp="-116" rsrq="-13"/>
      </extensions>
    </trkpt>
    <trkpt lat="45.6025715" lon="10.4536012">
      <ele>259.95736179013267</ele>
      <time>2026-03-30T19:00:21.1+02:00</time>
      <extensions>
        <activity type="STILL" conf="99" state="still" tsMs="1774890021115"/>
        <radio op="vodafone IT" rat="LTE" rsrp="-116" rsrq="-10"/>
        <radio op="I TIM" rat="LTE" q="6.40" rsrp="-117" sinr="3" rsrq="-13"/>
      </extensions>
    </trkpt>
    <trkpt lat="45.6025708" lon="10.4535992">
      <ele>260.1194328232399</ele>
      <time>2026-03-30T19:00:52.645+02:00</time>
      <extensions>
        <activity type="STILL" conf="99" state="still" tsMs="1774890049417"/>
        <radio op="vodafone IT" rat="LTE" q="3.50" rsrp="-118" sinr="0" rsrq="-11"/>
        <radio op="I TIM" rat="LTE" rsrp="-117" rsrq="-11"/>
      </extensions>
    </trkpt>
    <trkpt lat="45.6025734" lon="10.4536061">
      <ele>262.0</ele>
      <time>2026-03-30T19:10:41.276+02:00</time>
      <extensions>
        <activity type="STILL" conf="70" state="still" tsMs="1774890636804"/>
        <radio op="vodafone IT" rat="LTE" q="12.60" rsrp="-111" sinr="4" rsrq="-11"/>
        <radio op="I TIM" rat="LTE" q="16.50" rsrp="-110" sinr="6" rsrq="-12"/>
      </extensions>
    </trkpt>
    <trkpt lat="45.6025733" lon="10.4536097">
      <ele>262.0</ele>
      <time>2026-03-30T19:11:54.607+02:00</time>
      <extensions>
        <activity type="STILL" conf="96" state="still" tsMs="1774890709434"/>
        <radio op="vodafone IT" rat="LTE" q="9.80" rsrp="-111" sinr="2" rsrq="-12"/>
        <radio op="I TIM" rat="LTE" q="10.50" rsrp="-110" sinr="2" rsrq="-13"/>
      </extensions>
    </trkpt>
    <trkpt lat="45.6025735" lon="10.4536069">
      <ele>260.2958571015373</ele>
      <time>2026-03-30T19:13:00.21+02:00</time>
      <extensions>
        <activity type="STILL" conf="51" state="still" tsMs="1774890775510"/>
        <radio op="vodafone IT" rat="LTE" q="9.80" rsrp="-111" sinr="2" rsrq="-13"/>
        <radio op="I TIM" rat="LTE" q="19.20" rsrp="-109" sinr="7" rsrq="-13"/>
      </extensions>
    </trkpt>
    <trkpt lat="45.602571" lon="10.4536013">
      <ele>260.2561912992218</ele>
      <time>2026-03-30T19:30:42.1+02:00</time>
      <extensions>
        <activity type="IN_VEHICLE" conf="76" state="moving" tsMs="1774891839802"/>
        <radio op="vodafone IT" rat="LTE" rsrp="-122" rsrq="-14"/>
        <radio op="I TIM" rat="LTE" q="5.40" rsrp="-116" sinr="1" rsrq="-12"/>
      </extensions>
    </trkpt>
    <trkpt lat="45.6025725" lon="10.4536087">
      <ele>260.02385228728025</ele>
      <time>2026-03-30T19:31:58.218+02:00</time>
      <extensions>
        <activity type="STILL" conf="99" state="still" tsMs="1774891912834"/>
        <radio op="vodafone IT" rat="LTE" q="2.50" rsrp="-120" sinr="0" rsrq="-11"/>
        <radio op="I TIM" rat="LTE" q="6.30" rsrp="-116" sinr="2" rsrq="-12"/>
      </extensions>
    </trkpt>
    <trkpt lat="45.6025704" lon="10.4535999">
      <ele>260.3302994923474</ele>
      <time>2026-03-30T19:32:36.682+02:00</time>
      <extensions>
        <activity type="IN_VEHICLE" conf="78" state="moving" tsMs="1774891955239"/>
        <radio op="vodafone IT" rat="LTE" q="3.50" rsrp="-120" sinr="2" rsrq="-12"/>
        <radio op="I TIM" rat="LTE" q="3.50" rsrp="-118" sinr="0" rsrq="-13"/>
      </extensions>
    </trkpt>
    <trkpt lat="45.6025705" lon="10.453599">
      <ele>262.0</ele>
      <time>2026-03-30T19:34:07.561+02:00</time>
      <extensions>
        <activity type="STILL" conf="99" state="still" tsMs="1774892036844"/>
        <radio op="vodafone IT" rat="LTE" q="6.00" rsrp="-120" sinr="7" rsrq="-12"/>
        <radio op="I TIM" rat="LTE" rsrp="-118" rsrq="-13"/>
      </extensions>
    </trkpt>
    <trkpt lat="45.6025736" lon="10.4536103">
      <ele>262.0</ele>
      <time>2026-03-30T19:34:53.256+02:00</time>
      <extensions>
        <activity type="STILL" conf="99" state="still" tsMs="1774892077834"/>
        <radio op="vodafone IT" rat="LTE" q="3.00" rsrp="-120" sinr="1" rsrq="-12"/>
        <radio op="I TIM" rat="LTE" q="5.60" rsrp="-118" sinr="3" rsrq="-12"/>
      </extensions>
    </trkpt>
    <trkpt lat="45.6025732" lon="10.4536024">
      <ele>262.0</ele>
      <time>2026-03-30T21:11:43.132+02:00</time>
      <extensions>
        <activity type="STILL" conf="100" state="still" tsMs="1774897892985"/>
        <radio op="vodafone IT" rat="LTE" rsrp="-114" rsrq="-8"/>
        <radio op="I TIM" rat="LTE" q="7.80" rsrp="-112" sinr="1" rsrq="-13"/>
      </extensions>
    </trkpt>
    <trkpt lat="45.6025757" lon="10.4536242">
      <ele>262.0</ele>
      <time>2026-03-30T21:12:45.358+02:00</time>
      <extensions>
        <activity type="STILL" conf="100" state="still" tsMs="1774897955256"/>
        <radio op="vodafone IT" rat="LTE" rsrp="-115" rsrq="-10"/>
        <radio op="I TIM" rat="LTE" q="6.00" rsrp="-113" sinr="0" rsrq="-13"/>
      </extensions>
    </trkpt>
    <trkpt lat="45.6025716" lon="10.4536273">
      <ele>262.0</ele>
      <time>2026-03-30T21:13:47.482+02:00</time>
      <extensions>
        <activity type="STILL" conf="100" state="still" tsMs="1774898017420"/>
        <radio op="vodafone IT" rat="LTE" rsrp="-117" rsrq="-10"/>
        <radio op="I TIM" rat="LTE" rsrp="-113" rsrq="-14"/>
      </extensions>
    </trkpt>
    <trkpt lat="45.6025702" lon="10.4536139">
      <ele>262.0</ele>
      <time>2026-03-30T21:14:49.601+02:00</time>
      <extensions>
        <activity type="STILL" conf="100" state="still" tsMs="1774898079501"/>
        <radio op="vodafone IT" rat="LTE" rsrp="-117" rsrq="-13"/>
        <radio op="I TIM" rat="LTE" rsrp="-113" rsrq="-14"/>
      </extensions>
    </trkpt>
  </trkseg></trk>
</gpx>
