<?xml version="1.0" encoding="UTF-8"?>
<gpx version="1.1" creator="CellGPX" xmlns="http://www.topografix.com/GPX/1/1">
  <trk><name>CellGPX</name><trkseg>
    <trkpt lat="45.6025628" lon="10.4536463">
      <ele>262.0</ele>
      <time>2026-04-23T03:59:22.847+02:00</time>
      <extensions>
        <activity type="STILL" conf="100" state="still" tsMs="1776909542211"/>
        <radio op="vodafone IT" rat="LTE" q="24.20" rsrp="-103" sinr="6" rsrq="-9"/>
        <radio op="I TIM" rat="LTE" q="20.70" rsrp="-102" sinr="4" rsrq="-9"/>
      </extensions>
    </trkpt>
    <trkpt lat="45.6025631" lon="10.4536454">
      <ele>262.0</ele>
      <time>2026-04-23T04:00:14.902+02:00</time>
      <extensions>
        <activity type="STILL" conf="100" state="still" tsMs="1776909604519"/>
        <radio op="vodafone IT" rat="LTE" q="24.20" rsrp="-103" sinr="6" rsrq="-9"/>
        <radio op="I TIM" rat="LTE" rsrp="-102" rsrq="-8"/>
      </extensions>
    </trkpt>
    <trkpt lat="45.6025637" lon="10.4536465">
      <ele>262.0</ele>
      <time>2026-04-23T04:01:17.163+02:00</time>
      <extensions>
        <activity type="STILL" conf="100" state="still" tsMs="1776909666804"/>
        <radio op="vodafone IT" rat="LTE" q="29.90" rsrp="-102" sinr="8" rsrq="-8"/>
        <radio op="I TIM" rat="LTE" q="26.40" rsrp="-101" sinr="6" rsrq="-9"/>
      </extensions>
    </trkpt>
    <trkpt lat="45.6099447" lon="10.4956669">
      <ele>262.0</ele>
      <time>2026-04-23T12:09:39.675+02:00</time>
      <extensions>
        <activity type="UNKNOWN" conf="40" state="unknown" tsMs="1776939001331"/>
        <radio op="vodafone IT" rat="LTE" q="28.80" rsrp="-109" sinr="13" rsrq="-9"/>
        <radio op="I TIM" rat="LTE" rsrp="-108" rsrq="-14"/>
      </extensions>
    </trkpt>
    <trkpt lat="45.6099615" lon="10.4996606">
      <ele>194.00001525878906</ele>
      <time>2026-04-23T12:10:43.34+02:00</time>
      <extensions>
        <activity type="UNKNOWN" conf="40" state="unknown" tsMs="1776939024352"/>
        <radio op="vodafone IT" rat="LTE" q="35.70" rsrp="-104" sinr="12" rsrq="-10"/>
        <radio op="I TIM" rat="LTE" rsrp="-104" rsrq="-13"/>
      </extensions>
    </trkpt>
    <trkpt lat="45.609936" lon="10.4996305">
      <ele>194.00001525878906</ele>
      <time>2026-04-23T12:11:15.304+02:00</time>
      <extensions>
        <activity type="UNKNOWN" conf="40" state="unknown" tsMs="1776939069941"/>
        <radio op="vodafone IT" rat="LTE" q="37.70" rsrp="-96" sinr="8" rsrq="-11"/>
        <radio op="I TIM" rat="LTE" rsrp="-96" rsrq="-15"/>
      </extensions>
    </trkpt>
    <trkpt lat="45.6098936" lon="10.4996604">
      <ele>196.7735883412113</ele>
      <time>2026-04-23T12:11:57.629+02:00</time>
      <extensions>
        <activity type="ON_FOOT" conf="93" state="moving" tsMs="1776939111955"/>
        <radio op="vodafone IT" rat="LTE" q="59.40" rsrp="-92" sinr="13" rsrq="-10"/>
        <radio op="I TIM" rat="LTE" rsrp="-88" rsrq="-14"/>
      </extensions>
    </trkpt>
    <trkpt lat="45.6098959" lon="10.4996241">
      <ele>194.00001525878906</ele>
      <time>2026-04-23T12:12:28.721+02:00</time>
      <extensions>
        <activity type="STILL" conf="71" state="still" tsMs="1776939144307"/>
        <radio op="vodafone IT" rat="LTE" q="51.20" rsrp="-93" sinr="11" rsrq="-10"/>
        <radio op="I TIM" rat="LTE" q="66.50" rsrp="-90" sinr="14" rsrq="-11"/>
      </extensions>
    </trkpt>
    <trkpt lat="45.6098888" lon="10.4996398">
      <ele>194.00001525878906</ele>
      <time>2026-04-23T12:12:59.94+02:00</time>
      <extensions>
        <activity type="STILL" conf="97" state="still" tsMs="1776939175400"/>
        <radio op="vodafone IT" rat="LTE" q="57.60" rsrp="-93" sinr="13" rsrq="-6"/>
        <radio op="I TIM" rat="LTE" q="49.00" rsrp="-90" sinr="9" rsrq="-12"/>
      </extensions>
    </trkpt>
    <trkpt lat="45.6098934" lon="10.4996602">
      <ele>194.00001525878906</ele>
      <time>2026-04-23T12:13:31.272+02:00</time>
      <extensions>
        <activity type="STILL" conf="81" state="still" tsMs="1776939206763"/>
        <radio op="vodafone IT" rat="LTE" q="43.50" rsrp="-96" sinr="10" rsrq="-11"/>
        <radio op="I TIM" rat="LTE" q="49.00" rsrp="-90" sinr="9" rsrq="-12"/>
      </extensions>
    </trkpt>
    <trkpt lat="45.6098913" lon="10.4996401">
      <ele>194.00001525878906</ele>
      <time>2026-04-23T12:14:02.484+02:00</time>
      <extensions>
        <activity type="STILL" conf="78" state="still" tsMs="1776939238063"/>
        <radio op="vodafone IT" rat="LTE" q="32.50" rsrp="-100" sinr="8" rsrq="-11"/>
        <radio op="I TIM" rat="LTE" q="42.90" rsrp="-92" sinr="8" rsrq="-11"/>
      </extensions>
    </trkpt>
    <trkpt lat="45.6098973" lon="10.4996406">
      <ele>194.00001525878906</ele>
      <time>2026-04-23T12:14:30.423+02:00</time>
      <extensions>
        <activity type="UNKNOWN" conf="40" state="unknown" tsMs="1776939269244"/>
        <radio op="vodafone IT" rat="LTE" q="22.50" rsrp="-100" sinr="4" rsrq="-11"/>
        <radio op="I TIM" rat="LTE" q="54.40" rsrp="-91" sinr="11" rsrq="-13"/>
      </extensions>
    </trkpt>
    <trkpt lat="45.6098947" lon="10.4996482">
      <ele>194.00001525878906</ele>
      <time>2026-04-23T12:15:04.25+02:00</time>
      <extensions>
        <activity type="STILL" conf="98" state="still" tsMs="1776939299863"/>
        <radio op="vodafone IT" rat="LTE" q="32.40" rsrp="-98" sinr="7" rsrq="-11"/>
        <radio op="I TIM" rat="LTE" q="56.10" rsrp="-92" sinr="12" rsrq="-13"/>
      </extensions>
    </trkpt>
    <trkpt lat="45.609952" lon="10.4996087">
      <ele>189.8199372238454</ele>
      <time>2026-04-23T12:20:19.972+02:00</time>
      <extensions>
        <activity type="ON_FOOT" conf="92" state="moving" tsMs="1776939615989"/>
        <radio op="vodafone IT" rat="LTE" q="35.20" rsrp="-103" sinr="11" rsrq="-7"/>
        <radio op="I TIM" rat="LTE" q="32.00" rsrp="-105" sinr="11" rsrq="-12"/>
      </extensions>
    </trkpt>
    <trkpt lat="45.610001" lon="10.4997259">
      <ele>192.497207112759</ele>
      <time>2026-04-23T12:20:58.797+02:00</time>
      <extensions>
        <activity type="UNKNOWN" conf="40" state="unknown" tsMs="1776939650966"/>
        <radio op="vodafone IT" rat="LTE" q="36.00" rsrp="-105" sinr="13" rsrq="-7"/>
        <radio op="I TIM" rat="LTE" q="22.00" rsrp="-103" sinr="5" rsrq="-10"/>
      </extensions>
    </trkpt>
    <trkpt lat="45.6113812" lon="10.4991212">
      <ele>197.50001525878906</ele>
      <time>2026-04-23T12:21:57.677+02:00</time>
      <extensions>
        <activity type="IN_VEHICLE" conf="93" state="moving" tsMs="1776939724736"/>
        <radio op="vodafone IT" rat="LTE" q="16.50" rsrp="-110" sinr="6" rsrq="-11"/>
        <radio op="I TIM" rat="LTE" q="0.90" rsrp="-124" sinr="4" rsrq="-15"/>
      </extensions>
    </trkpt>
    <trkpt lat="45.6110572" lon="10.4955563">
      <ele>217.40000915527344</ele>
      <time>2026-04-23T12:22:34.305+02:00</time>
      <extensions>
        <activity type="IN_VEHICLE" conf="94" state="moving" tsMs="1776939752965"/>
        <radio op="vodafone IT" rat="LTE" q="61.60" rsrp="-97" sinr="17" rsrq="-9"/>
        <radio op="I TIM" rat="LTE" q="4.20" rsrp="-119" sinr="2" rsrq="-14"/>
      </extensions>
    </trkpt>
    <trkpt lat="45.617734" lon="10.4937585">
      <ele>222.85627822346868</ele>
      <time>2026-04-23T12:24:24.864+02:00</time>
      <extensions>
        <activity type="IN_VEHICLE" conf="82" state="moving" tsMs="1776939863137"/>
        <radio op="vodafone IT" rat="LTE" q="65.00" rsrp="-99" sinr="22" rsrq="-10"/>
        <radio op="I TIM" rat="LTE" q="38.00" rsrp="-106" sinr="15" rsrq="-11"/>
      </extensions>
    </trkpt>
    <trkpt lat="45.6176565" lon="10.4941059">
      <ele>225.8000030517578</ele>
      <time>2026-04-23T12:24:55.412+02:00</time>
      <extensions>
        <activity type="UNKNOWN" conf="40" state="unknown" tsMs="1776939889945"/>
        <radio op="vodafone IT" rat="LTE" q="50.40" rsrp="-104" sinr="19" rsrq="-7"/>
        <radio op="I TIM" rat="LTE" q="58.00" rsrp="-96" sinr="15" rsrq="-12"/>
      </extensions>
    </trkpt>
    <trkpt lat="45.6176435" lon="10.4941124">
      <ele>225.8000030517578</ele>
      <time>2026-04-23T12:25:30.334+02:00</time>
      <extensions>
        <activity type="ON_FOOT" conf="82" state="moving" tsMs="1776939927988"/>
        <radio op="vodafone IT" rat="LTE" q="64.80" rsrp="-98" sinr="19" rsrq="-10"/>
        <radio op="I TIM" rat="LTE" q="52.50" rsrp="-100" sinr="16" rsrq="-12"/>
      </extensions>
    </trkpt>
    <trkpt lat="45.6176419" lon="10.4941476">
      <ele>225.8000030517578</ele>
      <time>2026-04-23T12:26:43.122+02:00</time>
      <extensions>
        <activity type="UNKNOWN" conf="40" state="unknown" tsMs="1776940002044"/>
        <radio op="vodafone IT" rat="LTE" q="72.50" rsrp="-96" sinr="21" rsrq="-10"/>
        <radio op="I TIM" rat="LTE" q="76.80" rsrp="-93" sinr="19" rsrq="-11"/>
      </extensions>
    </trkpt>
    <trkpt lat="45.6176455" lon="10.4941068">
      <ele>223.5342366479171</ele>
      <time>2026-04-23T12:27:23.634+02:00</time>
      <extensions>
        <activity type="ON_BICYCLE" conf="84" state="moving" tsMs="1776940042365"/>
        <radio op="vodafone IT" rat="LTE" q="65.00" rsrp="-99" sinr="22" rsrq="-10"/>
        <radio op="I TIM" rat="LTE" q="73.50" rsrp="-90" sinr="16" rsrq="-6"/>
      </extensions>
    </trkpt>
    <trkpt lat="45.6176499" lon="10.4941176">
      <ele>225.8000030517578</ele>
      <time>2026-04-23T12:28:03.536+02:00</time>
      <extensions>
        <activity type="UNKNOWN" conf="40" state="unknown" tsMs="1776940082345"/>
        <radio op="vodafone IT" rat="LTE" q="54.00" rsrp="-98" sinr="15" rsrq="-10"/>
        <radio op="I TIM" rat="LTE" q="76.80" rsrp="-93" sinr="19" rsrq="-12"/>
      </extensions>
    </trkpt>
    <trkpt lat="45.6175809" lon="10.4949756">
      <ele>223.8000030517578</ele>
      <time>2026-04-23T12:28:38.074+02:00</time>
      <extensions>
        <activity type="STILL" conf="99" state="still" tsMs="1776940113737"/>
        <radio op="vodafone IT" rat="LTE" q="87.50" rsrp="-90" sinr="26" rsrq="-11"/>
        <radio op="I TIM" rat="LTE" q="80.00" rsrp="-93" sinr="22" rsrq="-11"/>
      </extensions>
    </trkpt>
    <trkpt lat="45.6175688" lon="10.4943189">
      <ele>225.8000030517578</ele>
      <time>2026-04-23T12:29:07.987+02:00</time>
      <extensions>
        <activity type="STILL" conf="99" state="still" tsMs="1776940144214"/>
        <radio op="vodafone IT" rat="LTE" q="77.50" rsrp="-94" sinr="25" rsrq="-5"/>
        <radio op="I TIM" rat="LTE" q="87.50" rsrp="-90" sinr="20" rsrq="-13"/>
      </extensions>
    </trkpt>
    <trkpt lat="45.6175741" lon="10.4943174">
      <ele>225.8000030517578</ele>
      <time>2026-04-23T12:29:09.682+02:00</time>
      <extensions>
        <activity type="STILL" conf="100" state="still" tsMs="1776940147881"/>
        <radio op="vodafone IT" rat="LTE" q="77.50" rsrp="-94" sinr="25" rsrq="-7"/>
        <radio op="I TIM" rat="LTE" q="75.90" rsrp="-92" sinr="18" rsrq="-13"/>
      </extensions>
    </trkpt>
    <trkpt lat="45.6176426" lon="10.4941112">
      <ele>225.8000030517578</ele>
      <time>2026-04-23T12:29:50.036+02:00</time>
      <extensions>
        <activity type="STILL" conf="99" state="still" tsMs="1776940188447"/>
        <radio op="vodafone IT" rat="LTE" q="77.50" rsrp="-94" sinr="25" rsrq="-9"/>
        <radio op="I TIM" rat="LTE" q="50.40" rsrp="-101" sinr="16" rsrq="-13"/>
      </extensions>
    </trkpt>
    <trkpt lat="45.6176467" lon="10.4941217">
      <ele>225.8000030517578</ele>
      <time>2026-04-23T12:30:21.383+02:00</time>
      <extensions>
        <activity type="STILL" conf="46" state="still" tsMs="1776940217201"/>
        <radio op="vodafone IT" rat="LTE" q="51.30" rsrp="-98" sinr="14" rsrq="-8"/>
        <radio op="I TIM" rat="LTE" q="90.00" rsrp="-89" sinr="23" rsrq="-8"/>
      </extensions>
    </trkpt>
    <trkpt lat="45.6176172" lon="10.4942644">
      <ele>225.8000030517578</ele>
      <time>2026-04-23T12:30:52.549+02:00</time>
      <extensions>
        <activity type="STILL" conf="36" state="still" tsMs="1776940247412"/>
        <radio op="vodafone IT" rat="LTE" q="56.70" rsrp="-98" sinr="16" rsrq="-13"/>
        <radio op="I TIM" rat="LTE" q="81.60" rsrp="-91" sinr="19" rsrq="-10"/>
      </extensions>
    </trkpt>
    <trkpt lat="45.6176184" lon="10.4942122">
      <ele>225.8000030517578</ele>
      <time>2026-04-23T12:31:23.735+02:00</time>
      <extensions>
        <activity type="STILL" conf="99" state="still" tsMs="1776940278575"/>
        <radio op="vodafone IT" rat="LTE" q="56.00" rsrp="-97" sinr="15" rsrq="-8"/>
        <radio op="I TIM" rat="LTE" q="87.50" rsrp="-90" sinr="24" rsrq="-11"/>
      </extensions>
    </trkpt>
    <trkpt lat="45.6176332" lon="10.4941289">
      <ele>225.8000030517578</ele>
      <time>2026-04-23T12:31:55.009+02:00</time>
      <extensions>
        <activity type="STILL" conf="99" state="still" tsMs="1776940309715"/>
        <radio op="vodafone IT" rat="LTE" q="56.70" rsrp="-98" sinr="16" rsrq="-9"/>
        <radio op="I TIM" rat="LTE" q="46.80" rsrp="-89" sinr="8" rsrq="-13"/>
      </extensions>
    </trkpt>
    <trkpt lat="45.6176028" lon="10.4945692">
      <ele>225.8000030517578</ele>
      <time>2026-04-23T12:32:26.204+02:00</time>
      <extensions>
        <activity type="STILL" conf="96" state="still" tsMs="1776940340974"/>
        <radio op="vodafone IT" rat="LTE" q="58.80" rsrp="-97" sinr="16" rsrq="-9"/>
        <radio op="I TIM" rat="LTE" q="90.00" rsrp="-89" sinr="24" rsrq="-12"/>
      </extensions>
    </trkpt>
    <trkpt lat="45.6175876" lon="10.4947918">
      <ele>225.8000030517578</ele>
      <time>2026-04-23T12:32:57.412+02:00</time>
      <extensions>
        <activity type="STILL" conf="99" state="still" tsMs="1776940372239"/>
        <radio op="vodafone IT" rat="LTE" q="69.00" rsrp="-95" sinr="18" rsrq="-8"/>
        <radio op="I TIM" rat="LTE" q="43.20" rsrp="-89" sinr="7" rsrq="-12"/>
      </extensions>
    </trkpt>
    <trkpt lat="45.6175609" lon="10.4950146">
      <ele>225.8000030517578</ele>
      <time>2026-04-23T12:33:28.52+02:00</time>
      <extensions>
        <activity type="STILL" conf="52" state="still" tsMs="1776940403377"/>
        <radio op="vodafone IT" rat="LTE" q="66.70" rsrp="-96" sinr="18" rsrq="-11"/>
        <radio op="I TIM" rat="LTE" q="90.00" rsrp="-89" sinr="21" rsrq="-13"/>
      </extensions>
    </trkpt>
    <trkpt lat="45.6176062" lon="10.4945003">
      <ele>225.8000030517578</ele>
      <time>2026-04-23T12:33:59.656+02:00</time>
      <extensions>
        <activity type="STILL" conf="69" state="still" tsMs="1776940434624"/>
        <radio op="vodafone IT" rat="LTE" q="66.70" rsrp="-96" sinr="18" rsrq="-7"/>
        <radio op="I TIM" rat="LTE" q="43.20" rsrp="-89" sinr="7" rsrq="-12"/>
      </extensions>
    </trkpt>
    <trkpt lat="45.6176445" lon="10.4941194">
      <ele>225.8000030517578</ele>
      <time>2026-04-23T12:34:30.938+02:00</time>
      <extensions>
        <activity type="STILL" conf="96" state="still" tsMs="1776940466433"/>
        <radio op="vodafone IT" rat="LTE" q="63.00" rsrp="-95" sinr="16" rsrq="-11"/>
        <radio op="I TIM" rat="LTE" q="90.00" rsrp="-89" sinr="20" rsrq="-11"/>
      </extensions>
    </trkpt>
    <trkpt lat="45.6176067" lon="10.4944138">
      <ele>225.8000030517578</ele>
      <time>2026-04-23T12:35:02.121+02:00</time>
      <extensions>
        <activity type="STILL" conf="81" state="still" tsMs="1776940497660"/>
        <radio op="vodafone IT" rat="LTE" q="60.90" rsrp="-96" sinr="16" rsrq="-11"/>
        <radio op="I TIM" rat="LTE" q="90.00" rsrp="-89" sinr="21" rsrq="-10"/>
      </extensions>
    </trkpt>
    <trkpt lat="45.6176161" lon="10.494303">
      <ele>225.8000030517578</ele>
      <time>2026-04-23T12:35:33.531+02:00</time>
      <extensions>
        <activity type="STILL" conf="97" state="still" tsMs="1776940529145"/>
        <radio op="vodafone IT" rat="LTE" q="63.00" rsrp="-95" sinr="16" rsrq="-13"/>
        <radio op="I TIM" rat="LTE" q="90.00" rsrp="-89" sinr="22" rsrq="-12"/>
      </extensions>
    </trkpt>
    <trkpt lat="45.6176477" lon="10.4941219">
      <ele>225.8000030517578</ele>
      <time>2026-04-23T12:36:04.697+02:00</time>
      <extensions>
        <activity type="STILL" conf="99" state="still" tsMs="1776940560410"/>
        <radio op="vodafone IT" rat="LTE" q="80.00" rsrp="-93" sinr="27" rsrq="-11"/>
        <radio op="I TIM" rat="LTE" q="85.00" rsrp="-91" sinr="20" rsrq="-11"/>
      </extensions>
    </trkpt>
    <trkpt lat="45.6176316" lon="10.4941148">
      <ele>225.8000030517578</ele>
      <time>2026-04-23T12:36:36.078+02:00</time>
      <extensions>
        <activity type="STILL" conf="99" state="still" tsMs="1776940591826"/>
        <radio op="vodafone IT" rat="LTE" q="80.00" rsrp="-93" sinr="26" rsrq="-8"/>
        <radio op="I TIM" rat="LTE" q="86.40" rsrp="-89" sinr="19" rsrq="-12"/>
      </extensions>
    </trkpt>
    <trkpt lat="45.6175896" lon="10.4949351">
      <ele>225.8000030517578</ele>
      <time>2026-04-23T12:37:07.439+02:00</time>
      <extensions>
        <activity type="STILL" conf="99" state="still" tsMs="1776940623177"/>
        <radio op="vodafone IT" rat="LTE" q="100.00" rsrp="-84" sinr="28" rsrq="-10"/>
        <radio op="I TIM" rat="LTE" q="85.10" rsrp="-88" sinr="18" rsrq="-12"/>
      </extensions>
    </trkpt>
    <trkpt lat="45.6176543" lon="10.4940888">
      <ele>225.8000030517578</ele>
      <time>2026-04-23T12:37:38.841+02:00</time>
      <extensions>
        <activity type="STILL" conf="99" state="still" tsMs="1776940654626"/>
        <radio op="vodafone IT" rat="LTE" q="77.50" rsrp="-94" sinr="24" rsrq="-10"/>
        <radio op="I TIM" rat="LTE" q="84.00" rsrp="-90" sinr="19" rsrq="-11"/>
      </extensions>
    </trkpt>
    <trkpt lat="45.6176464" lon="10.4940901">
      <ele>225.8000030517578</ele>
      <time>2026-04-23T12:38:10.369+02:00</time>
      <extensions>
        <activity type="STILL" conf="99" state="still" tsMs="1776940685998"/>
        <radio op="vodafone IT" rat="LTE" q="82.50" rsrp="-92" sinr="28" rsrq="-9"/>
        <radio op="I TIM" rat="LTE" q="52.50" rsrp="-90" sinr="10" rsrq="-12"/>
      </extensions>
    </trkpt>
    <trkpt lat="45.6175655" lon="10.4950092">
      <ele>225.8000030517578</ele>
      <time>2026-04-23T12:38:41.745+02:00</time>
      <extensions>
        <activity type="STILL" conf="99" state="still" tsMs="1776940717543"/>
        <radio op="vodafone IT" rat="LTE" q="95.00" rsrp="-87" sinr="26" rsrq="-8"/>
        <radio op="I TIM" rat="LTE" q="87.50" rsrp="-90" sinr="20" rsrq="-12"/>
      </extensions>
    </trkpt>
    <trkpt lat="45.6176595" lon="10.4941073">
      <ele>225.8000030517578</ele>
      <time>2026-04-23T12:39:13.206+02:00</time>
      <extensions>
        <activity type="STILL" conf="99" state="still" tsMs="1776940747677"/>
        <radio op="vodafone IT" rat="LTE" q="80.00" rsrp="-93" sinr="25" rsrq="-11"/>
        <radio op="I TIM" rat="LTE" q="90.00" rsrp="-89" sinr="21" rsrq="-12"/>
      </extensions>
    </trkpt>
    <trkpt lat="45.6176392" lon="10.4941123">
      <ele>225.8000030517578</ele>
      <time>2026-04-23T12:39:54.891+02:00</time>
      <extensions>
        <activity type="STILL" conf="100" state="still" tsMs="1776940784073"/>
        <radio op="vodafone IT" rat="LTE" q="75.00" rsrp="-95" sinr="27" rsrq="-8"/>
        <radio op="I TIM" rat="LTE" q="86.40" rsrp="-89" sinr="19" rsrq="-12"/>
      </extensions>
    </trkpt>
    <trkpt lat="45.6176571" lon="10.4941069">
      <ele>225.8000030517578</ele>
      <time>2026-04-23T12:40:56.758+02:00</time>
      <extensions>
        <activity type="STILL" conf="100" state="still" tsMs="1776940845906"/>
        <radio op="vodafone IT" rat="LTE" q="82.50" rsrp="-92" sinr="27" rsrq="-8"/>
        <radio op="I TIM" rat="LTE" q="90.00" rsrp="-89" sinr="22" rsrq="-12"/>
      </extensions>
    </trkpt>
    <trkpt lat="45.6176634" lon="10.4941032">
      <ele>225.8000030517578</ele>
      <time>2026-04-23T12:41:58.805+02:00</time>
      <extensions>
        <activity type="STILL" conf="100" state="still" tsMs="1776940907891"/>
        <radio op="vodafone IT" rat="LTE" q="90.00" rsrp="-89" sinr="26" rsrq="-10"/>
        <radio op="I TIM" rat="LTE" q="85.00" rsrp="-91" sinr="20" rsrq="-13"/>
      </extensions>
    </trkpt>
    <trkpt lat="45.6081375" lon="10.4748848">
      <ele>269.6000061035156</ele>
      <time>2026-04-23T14:04:26.681+02:00</time>
      <extensions>
        <activity type="IN_VEHICLE" conf="93" state="moving" tsMs="1776945860216"/>
        <radio op="vodafone IT" rat="LTE" q="100.00" rsrp="-84" sinr="21" rsrq="-6"/>
        <radio op="I TIM" rat="LTE" q="100.00" rsrp="-83" sinr="23" rsrq="-12"/>
      </extensions>
    </trkpt>
    <trkpt lat="45.6059365" lon="10.46691">
      <ele>265.0206630678686</ele>
      <time>2026-04-23T14:05:09.681+02:00</time>
      <extensions>
        <activity type="IN_VEHICLE" conf="92" state="moving" tsMs="1776945904255"/>
        <radio op="vodafone IT" rat="LTE" q="100.00" rsrp="-75" sinr="29" rsrq="-6"/>
        <radio op="I TIM" rat="LTE" q="100.00" rsrp="-79" sinr="24" rsrq="-12"/>
      </extensions>
    </trkpt>
    <trkpt lat="45.6042024" lon="10.4611394">
      <ele>260.98779627801383</ele>
      <time>2026-04-23T14:05:55.681+02:00</time>
      <extensions>
        <activity type="UNKNOWN" conf="40" state="unknown" tsMs="1776945947351"/>
        <radio op="vodafone IT" rat="LTE" q="69.60" rsrp="-96" sinr="19" rsrq="-11"/>
        <radio op="I TIM" rat="LTE" rsrp="-117" rsrq="-14"/>
      </extensions>
    </trkpt>
    <trkpt lat="45.6031062" lon="10.4576554">
      <ele>263.3000183105469</ele>
      <time>2026-04-23T14:06:32.327+02:00</time>
      <extensions>
        <activity type="UNKNOWN" conf="40" state="unknown" tsMs="1776945990279"/>
        <radio op="vodafone IT" rat="LTE" q="75.00" rsrp="-95" sinr="27" rsrq="-9"/>
        <radio op="I TIM" rat="LTE" q="72.00" rsrp="-95" sinr="19" rsrq="-10"/>
      </extensions>
    </trkpt>
    <trkpt lat="45.6027499" lon="10.4563312">
      <ele>263.3000183105469</ele>
      <time>2026-04-23T14:06:42.681+02:00</time>
      <extensions>
        <activity type="UNKNOWN" conf="40" state="unknown" tsMs="1776945990279"/>
        <radio op="vodafone IT" rat="LTE" q="19.60" rsrp="-111" sinr="9" rsrq="-9"/>
        <radio op="I TIM" rat="LTE" q="24.70" rsrp="-106" sinr="8" rsrq="-12"/>
      </extensions>
    </trkpt>
    <trkpt lat="45.6026898" lon="10.4562276">
      <ele>263.3000183105469</ele>
      <time>2026-04-23T14:06:43.681+02:00</time>
      <extensions>
        <activity type="UNKNOWN" conf="40" state="unknown" tsMs="1776945994981"/>
        <radio op="vodafone IT" rat="LTE" q="7.70" rsrp="-114" sinr="2" rsrq="-13"/>
        <radio op="I TIM" rat="LTE" rsrp="-114" rsrq="-14"/>
      </extensions>
    </trkpt>
    <trkpt lat="45.6014666" lon="10.454184">
      <ele>260.9000244140625</ele>
      <time>2026-04-23T14:07:14.023+02:00</time>
      <extensions>
        <activity type="UNKNOWN" conf="40" state="unknown" tsMs="1776946027950"/>
        <radio op="vodafone IT" rat="LTE" q="20.80" rsrp="-99" sinr="3" rsrq="-11"/>
        <radio op="I TIM" rat="LTE" q="7.50" rsrp="-110" sinr="0" rsrq="-14"/>
      </extensions>
    </trkpt>
    <trkpt lat="45.6016347" lon="10.4535895">
      <ele>260.9000244140625</ele>
      <time>2026-04-23T14:07:24.681+02:00</time>
      <extensions>
        <activity type="STILL" conf="32" state="still" tsMs="1776946033293"/>
        <radio op="vodafone IT" rat="LTE" q="28.00" rsrp="-90" sinr="3" rsrq="-8"/>
        <radio op="I TIM" rat="LTE" rsrp="-115" rsrq="-17"/>
      </extensions>
    </trkpt>
    <trkpt lat="45.6017103" lon="10.4535141">
      <ele>260.9000244140625</ele>
      <time>2026-04-23T14:07:26.681+02:00</time>
      <extensions>
        <activity type="UNKNOWN" conf="40" state="unknown" tsMs="1776946036803"/>
        <radio op="vodafone IT" rat="LTE" rsrp="-103" rsrq="-14"/>
        <radio op="I TIM" rat="LTE" q="11.50" rsrp="-102" sinr="0" rsrq="-12"/>
      </extensions>
    </trkpt>
    <trkpt lat="45.602222" lon="10.4534064">
      <ele>260.9000244140625</ele>
      <time>2026-04-23T14:08:05.793+02:00</time>
      <extensions>
        <activity type="TILTING" conf="100" state="moving" tsMs="1776946072531"/>
        <radio op="vodafone IT" rat="LTE" q="29.00" rsrp="-96" sinr="5" rsrq="-11"/>
        <radio op="I TIM" rat="LTE" q="11.00" rsrp="-103" sinr="0" rsrq="-11"/>
      </extensions>
    </trkpt>
    <trkpt lat="45.602539" lon="10.4534766">
      <ele>261.70001220703125</ele>
      <time>2026-04-23T14:08:37.068+02:00</time>
      <extensions>
        <activity type="ON_FOOT" conf="90" state="moving" tsMs="1776946115309"/>
        <radio op="vodafone IT" rat="LTE" q="26.00" rsrp="-99" sinr="5" rsrq="-14"/>
        <radio op="I TIM" rat="LTE" q="28.00" rsrp="-105" sinr="9" rsrq="-11"/>
      </extensions>
    </trkpt>
    <trkpt lat="45.6025591" lon="10.453645">
      <ele>259.9285233624691</ele>
      <time>2026-04-23T14:09:08.515+02:00</time>
      <extensions>
        <activity type="UNKNOWN" conf="40" state="unknown" tsMs="1776946147322"/>
        <radio op="vodafone IT" rat="LTE" q="4.00" rsrp="-117" sinr="0" rsrq="-13"/>
        <radio op="I TIM" rat="LTE" q="3.90" rsrp="-122" sinr="8" rsrq="-11"/>
      </extensions>
    </trkpt>
    <trkpt lat="45.6025659" lon="10.4536443">
      <ele>261.70001220703125</ele>
      <time>2026-04-23T14:09:19.339+02:00</time>
      <extensions>
        <activity type="UNKNOWN" conf="40" state="unknown" tsMs="1776946147322"/>
        <radio op="vodafone IT" rat="LTE" rsrp="-113" rsrq="-13"/>
        <radio op="I TIM" rat="LTE" q="7.70" rsrp="-118" sinr="6" rsrq="-11"/>
      </extensions>
    </trkpt>
    <trkpt lat="45.6025571" lon="10.4536456">
      <ele>262.0</ele>
      <time>2026-04-23T14:09:29.636+02:00</time>
      <extensions>
        <activity type="UNKNOWN" conf="40" state="unknown" tsMs="1776946167578"/>
        <radio op="vodafone IT" rat="LTE" q="3.00" rsrp="-119" sinr="0" rsrq="-15"/>
        <radio op="I TIM" rat="LTE" rsrp="-117" rsrq="-12"/>
      </extensions>
    </trkpt>
    <trkpt lat="45.602555" lon="10.4536562">
      <ele>262.0</ele>
      <time>2026-04-23T14:09:32.675+02:00</time>
      <extensions>
        <activity type="UNKNOWN" conf="40" state="unknown" tsMs="1776946167578"/>
        <radio op="vodafone IT" rat="LTE" rsrp="-115" rsrq="-16"/>
        <radio op="I TIM" rat="LTE" q="5.50" rsrp="-114" sinr="0" rsrq="-12"/>
      </extensions>
    </trkpt>
    <trkpt lat="45.6025472" lon="10.4536407">
      <ele>262.0</ele>
      <time>2026-04-23T14:09:43.431+02:00</time>
      <extensions>
        <activity type="UNKNOWN" conf="40" state="unknown" tsMs="1776946187801"/>
        <radio op="vodafone IT" rat="LTE" rsrp="-115" rsrq="-13"/>
        <radio op="I TIM" rat="LTE" q="6.60" rsrp="-114" sinr="1" rsrq="-14"/>
      </extensions>
    </trkpt>
    <trkpt lat="45.602557" lon="10.4536394">
      <ele>262.0</ele>
      <time>2026-04-23T14:09:54.492+02:00</time>
      <extensions>
        <activity type="STILL" conf="100" state="still" tsMs="1776946193199"/>
        <radio op="vodafone IT" rat="LTE" rsrp="-116" rsrq="-11"/>
        <radio op="I TIM" rat="LTE" q="5.50" rsrp="-114" sinr="0" rsrq="-13"/>
      </extensions>
    </trkpt>
    <trkpt lat="45.6025693" lon="10.453646">
      <ele>262.0</ele>
      <time>2026-04-23T14:10:01.961+02:00</time>
      <extensions>
        <activity type="STILL" conf="96" state="still" tsMs="1776946198766"/>
        <radio op="vodafone IT" rat="LTE" q="15.60" rsrp="-113" sinr="8" rsrq="-9"/>
        <radio op="I TIM" rat="LTE" q="5.50" rsrp="-114" sinr="0" rsrq="-13"/>
      </extensions>
    </trkpt>
    <trkpt lat="45.6025701" lon="10.453647">
      <ele>262.0</ele>
      <time>2026-04-23T14:10:13.576+02:00</time>
      <extensions>
        <activity type="STILL" conf="44" state="still" tsMs="1776946215787"/>
        <radio op="vodafone IT" rat="LTE" q="7.20" rsrp="-116" sinr="3" rsrq="-11"/>
        <radio op="I TIM" rat="LTE" q="6.60" rsrp="-114" sinr="1" rsrq="-12"/>
      </extensions>
    </trkpt>
    <trkpt lat="45.6025584" lon="10.4536381">
      <ele>262.0</ele>
      <time>2026-04-23T14:10:30.492+02:00</time>
      <extensions>
        <activity type="STILL" conf="44" state="still" tsMs="1776946215787"/>
        <radio op="vodafone IT" rat="LTE" q="9.90" rsrp="-116" sinr="6" rsrq="-11"/>
        <radio op="I TIM" rat="LTE" q="12.00" rsrp="-110" sinr="3" rsrq="-12"/>
      </extensions>
    </trkpt>
    <trkpt lat="45.6025572" lon="10.4536381">
      <ele>262.0</ele>
      <time>2026-04-23T14:10:35.871+02:00</time>
      <extensions>
        <activity type="UNKNOWN" conf="40" state="unknown" tsMs="1776946221198"/>
        <radio op="vodafone IT" rat="LTE" q="7.00" rsrp="-115" sinr="2" rsrq="-13"/>
        <radio op="I TIM" rat="LTE" rsrp="-112" rsrq="-14"/>
      </extensions>
    </trkpt>
    <trkpt lat="45.6025512" lon="10.453629">
      <ele>262.0</ele>
      <time>2026-04-23T14:10:45.511+02:00</time>
      <extensions>
        <activity type="UNKNOWN" conf="40" state="unknown" tsMs="1776946245459"/>
        <radio op="vodafone IT" rat="LTE" q="4.00" rsrp="-117" sinr="0" rsrq="-14"/>
        <radio op="I TIM" rat="LTE" q="4.80" rsrp="-117" sinr="1" rsrq="-12"/>
      </extensions>
    </trkpt>
    <trkpt lat="45.6025531" lon="10.453638">
      <ele>262.0</ele>
      <time>2026-04-23T14:10:58.393+02:00</time>
      <extensions>
        <activity type="UNKNOWN" conf="40" state="unknown" tsMs="1776946245459"/>
        <radio op="vodafone IT" rat="LTE" q="6.40" rsrp="-117" sinr="3" rsrq="-12"/>
        <radio op="I TIM" rat="LTE" q="14.40" rsrp="-113" sinr="7" rsrq="-11"/>
      </extensions>
    </trkpt>
    <trkpt lat="45.6025478" lon="10.4536316">
      <ele>262.0</ele>
      <time>2026-04-23T14:11:06.01+02:00</time>
      <extensions>
        <activity type="STILL" conf="100" state="still" tsMs="1776946270230"/>
        <radio op="vodafone IT" rat="LTE" q="7.20" rsrp="-116" sinr="3" rsrq="-12"/>
        <radio op="I TIM" rat="LTE" q="17.00" rsrp="-108" sinr="5" rsrq="-10"/>
      </extensions>
    </trkpt>
    <trkpt lat="45.6025626" lon="10.4536464">
      <ele>262.0</ele>
      <time>2026-04-23T14:11:16.799+02:00</time>
      <extensions>
        <activity type="STILL" conf="100" state="still" tsMs="1776946275598"/>
        <radio op="vodafone IT" rat="LTE" q="12.00" rsrp="-115" sinr="7" rsrq="-12"/>
        <radio op="I TIM" rat="LTE" q="20.40" rsrp="-108" sinr="7" rsrq="-12"/>
      </extensions>
    </trkpt>
    <trkpt lat="45.6025629" lon="10.4536467">
      <ele>262.0</ele>
      <time>2026-04-23T14:11:28.194+02:00</time>
      <extensions>
        <activity type="STILL" conf="100" state="still" tsMs="1776946281099"/>
        <radio op="vodafone IT" rat="LTE" q="14.40" rsrp="-117" sinr="13" rsrq="-13"/>
        <radio op="I TIM" rat="LTE" q="15.30" rsrp="-108" sinr="4" rsrq="-11"/>
      </extensions>
    </trkpt>
    <trkpt lat="45.6025617" lon="10.4536479">
      <ele>262.0</ele>
      <time>2026-04-23T14:11:41.158+02:00</time>
      <extensions>
        <activity type="STILL" conf="100" state="still" tsMs="1776946297830"/>
        <radio op="vodafone IT" rat="LTE" q="14.00" rsrp="-115" sinr="9" rsrq="-12"/>
        <radio op="I TIM" rat="LTE" q="16.50" rsrp="-110" sinr="6" rsrq="-9"/>
      </extensions>
    </trkpt>
    <trkpt lat="45.6025608" lon="10.4536457">
      <ele>262.0</ele>
      <time>2026-04-23T14:11:50.274+02:00</time>
      <extensions>
        <activity type="STILL" conf="100" state="still" tsMs="1776946303210"/>
        <radio op="vodafone IT" rat="LTE" q="23.40" rsrp="-112" sinr="13" rsrq="-9"/>
        <radio op="I TIM" rat="LTE" q="8.00" rsrp="-115" sinr="3" rsrq="-8"/>
      </extensions>
    </trkpt>
    <trkpt lat="45.6025606" lon="10.4536457">
      <ele>262.0</ele>
      <time>2026-04-23T14:11:57.556+02:00</time>
      <extensions>
        <activity type="STILL" conf="100" state="still" tsMs="1776946319851"/>
        <radio op="vodafone IT" rat="LTE" q="19.20" rsrp="-113" sinr="11" rsrq="-8"/>
        <radio op="I TIM" rat="LTE" rsrp="-115" rsrq="-13"/>
      </extensions>
    </trkpt>
    <trkpt lat="45.6025604" lon="10.4536457">
      <ele>262.0</ele>
      <time>2026-04-23T14:12:04.838+02:00</time>
      <extensions>
        <activity type="STILL" conf="100" state="still" tsMs="1776946319851"/>
        <radio op="vodafone IT" rat="LTE" q="23.10" rsrp="-114" sinr="16" rsrq="-10"/>
        <radio op="I TIM" rat="LTE" q="7.00" rsrp="-115" sinr="2" rsrq="-11"/>
      </extensions>
    </trkpt>
    <trkpt lat="45.6025608" lon="10.4536453">
      <ele>262.0</ele>
      <time>2026-04-23T14:12:19.402+02:00</time>
      <extensions>
        <activity type="STILL" conf="100" state="still" tsMs="1776946336377"/>
        <radio op="vodafone IT" rat="LTE" q="21.60" rsrp="-113" sinr="13" rsrq="-9"/>
        <radio op="I TIM" rat="LTE" q="8.00" rsrp="-115" sinr="3" rsrq="-11"/>
      </extensions>
    </trkpt>
    <trkpt lat="45.6025608" lon="10.4536454">
      <ele>262.0</ele>
      <time>2026-04-23T14:12:26.794+02:00</time>
      <extensions>
        <activity type="STILL" conf="100" state="still" tsMs="1776946341719"/>
        <radio op="vodafone IT" rat="LTE" q="19.20" rsrp="-113" sinr="11" rsrq="-8"/>
        <radio op="I TIM" rat="LTE" q="5.00" rsrp="-115" sinr="0" rsrq="-11"/>
      </extensions>
    </trkpt>
    <trkpt lat="45.6025579" lon="10.4536477">
      <ele>262.0</ele>
      <time>2026-04-23T14:20:42.825+02:00</time>
      <extensions>
        <activity type="IN_VEHICLE" conf="82" state="moving" tsMs="1776946840140"/>
        <radio op="vodafone IT" rat="LTE" q="13.00" rsrp="-115" sinr="8" rsrq="-11"/>
        <radio op="I TIM" rat="LTE" q="4.90" rsrp="-118" sinr="2" rsrq="-13"/>
      </extensions>
    </trkpt>
    <trkpt lat="45.6025571" lon="10.4536475">
      <ele>262.0</ele>
      <time>2026-04-23T14:21:47.054+02:00</time>
      <extensions>
        <activity type="STILL" conf="84" state="still" tsMs="1776946901078"/>
        <radio op="vodafone IT" rat="LTE" rsrp="-119" rsrq="-12"/>
        <radio op="I TIM" rat="LTE" q="11.00" rsrp="-115" sinr="6" rsrq="-13"/>
      </extensions>
    </trkpt>
    <trkpt lat="45.6025575" lon="10.4536479">
      <ele>262.0</ele>
      <time>2026-04-23T14:22:59.862+02:00</time>
      <extensions>
        <activity type="UNKNOWN" conf="40" state="unknown" tsMs="1776946968461"/>
        <radio op="vodafone IT" rat="LTE" q="23.10" rsrp="-114" sinr="16" rsrq="-10"/>
        <radio op="I TIM" rat="LTE" rsrp="-113" rsrq="-10"/>
      </extensions>
    </trkpt>
    <trkpt lat="45.6112526" lon="10.4798865">
      <ele>273.3000183105469</ele>
      <time>2026-04-23T14:55:27.703+02:00</time>
      <extensions>
        <activity type="UNKNOWN" conf="40" state="unknown" tsMs="1776948917251"/>
        <radio op="vodafone IT" rat="LTE" q="13.60" rsrp="-108" sinr="3" rsrq="-13"/>
        <radio op="I TIM" rat="LTE" rsrp="-123" rsrq="-17"/>
      </extensions>
    </trkpt>
    <trkpt lat="45.6153855" lon="10.4829782">
      <ele>273.3000183105469</ele>
      <time>2026-04-23T14:56:11.703+02:00</time>
      <extensions>
        <activity type="IN_VEHICLE" conf="88" state="moving" tsMs="1776948965472"/>
        <radio op="vodafone IT" rat="LTE" q="20.40" rsrp="-108" sinr="7" rsrq="-9"/>
        <radio op="I TIM" rat="LTE" rsrp="-122" rsrq="-19"/>
      </extensions>
    </trkpt>
    <trkpt lat="45.6202058" lon="10.4854892">
      <ele>273.3000183105469</ele>
      <time>2026-04-23T14:56:53.702+02:00</time>
      <extensions>
        <activity type="IN_VEHICLE" conf="96" state="moving" tsMs="1776949009015"/>
        <radio op="vodafone IT" rat="LTE" rsrp="-114" rsrq="-16"/>
        <radio op="I TIM" rat="LTE" rsrp="-124" rsrq="-16"/>
      </extensions>
    </trkpt>
    <trkpt lat="45.6235325" lon="10.4922754">
      <ele>288.9000244140625</ele>
      <time>2026-04-23T14:57:33.951+02:00</time>
      <extensions>
        <activity type="IN_VEHICLE" conf="89" state="moving" tsMs="1776949034477"/>
        <radio op="vodafone IT" rat="LTE" q="5.40" rsrp="-116" sinr="1" rsrq="-11"/>
        <radio op="I TIM" rat="LTE" q="14.30" rsrp="-114" sinr="8" rsrq="-13"/>
      </extensions>
    </trkpt>
    <trkpt lat="45.6236324" lon="10.4933484">
      <ele>288.9000244140625</ele>
      <time>2026-04-23T14:57:42.703+02:00</time>
      <extensions>
        <activity type="IN_VEHICLE" conf="93" state="moving" tsMs="1776949064021"/>
        <radio op="vodafone IT" rat="LTE" q="25.60" rsrp="-109" sinr="11" rsrq="-7"/>
        <radio op="I TIM" rat="LTE" q="6.00" rsrp="-120" sinr="7" rsrq="-13"/>
      </extensions>
    </trkpt>
    <trkpt lat="45.623835" lon="10.4932665">
      <ele>278.1000061035156</ele>
      <time>2026-04-23T14:58:15.878+02:00</time>
      <extensions>
        <activity type="UNKNOWN" conf="40" state="unknown" tsMs="1776949091045"/>
        <radio op="vodafone IT" rat="LTE" rsrp="-106" rsrq="-12"/>
        <radio op="I TIM" rat="LTE" q="27.20" rsrp="-109" sinr="12" rsrq="-10"/>
      </extensions>
    </trkpt>
    <trkpt lat="45.6235337" lon="10.4934476">
      <ele>278.1000061035156</ele>
      <time>2026-04-23T14:58:31.652+02:00</time>
      <extensions>
        <activity type="ON_FOOT" conf="89" state="moving" tsMs="1776949110982"/>
        <radio op="vodafone IT" rat="LTE" q="6.00" rsrp="-115" sinr="1" rsrq="-10"/>
        <radio op="I TIM" rat="LTE" q="28.50" rsrp="-106" sinr="10" rsrq="-11"/>
      </extensions>
    </trkpt>
    <trkpt lat="45.6237602" lon="10.4932476">
      <ele>278.0</ele>
      <time>2026-04-23T14:59:07.218+02:00</time>
      <extensions>
        <activity type="ON_FOOT" conf="96" state="moving" tsMs="1776949142989"/>
        <radio op="vodafone IT" rat="LTE" q="28.60" rsrp="-99" sinr="6" rsrq="-9"/>
        <radio op="I TIM" rat="LTE" q="18.00" rsrp="-107" sinr="5" rsrq="-9"/>
      </extensions>
    </trkpt>
    <trkpt lat="45.6238474" lon="10.4933645">
      <ele>278.0</ele>
      <time>2026-04-23T14:59:33.376+02:00</time>
      <extensions>
        <activity type="ON_FOOT" conf="97" state="moving" tsMs="1776949173923"/>
        <radio op="vodafone IT" rat="LTE" q="27.50" rsrp="-100" sinr="6" rsrq="-10"/>
        <radio op="I TIM" rat="LTE" q="21.60" rsrp="-107" sinr="7" rsrq="-10"/>
      </extensions>
    </trkpt>
    <trkpt lat="45.6236141" lon="10.4925367">
      <ele>278.0</ele>
      <time>2026-04-23T15:00:08.987+02:00</time>
      <extensions>
        <activity type="ON_FOOT" conf="96" state="moving" tsMs="1776949204617"/>
        <radio op="vodafone IT" rat="LTE" q="10.40" rsrp="-112" sinr="3" rsrq="-11"/>
        <radio op="I TIM" rat="LTE" q="22.50" rsrp="-110" sinr="10" rsrq="-10"/>
      </extensions>
    </trkpt>
    <trkpt lat="45.6237914" lon="10.4926352">
      <ele>278.0</ele>
      <time>2026-04-23T15:00:40.264+02:00</time>
      <extensions>
        <activity type="ON_FOOT" conf="94" state="moving" tsMs="1776949235968"/>
        <radio op="vodafone IT" rat="LTE" q="7.20" rsrp="-117" sinr="4" rsrq="-12"/>
        <radio op="I TIM" rat="LTE" q="12.80" rsrp="-117" sinr="11" rsrq="-13"/>
      </extensions>
    </trkpt>
    <trkpt lat="45.6238051" lon="10.4927077">
      <ele>285.0</ele>
      <time>2026-04-23T15:01:11.383+02:00</time>
      <extensions>
        <activity type="UNKNOWN" conf="40" state="unknown" tsMs="1776949267181"/>
        <radio op="vodafone IT" rat="LTE" rsrp="-138" rsrq="-20"/>
        <radio op="I TIM" rat="LTE" rsrq="-20"/>
      </extensions>
    </trkpt>
    <trkpt lat="45.6238001" lon="10.4927142">
      <ele>288.66831297666204</ele>
      <time>2026-04-23T15:01:43.365+02:00</time>
      <extensions>
        <activity type="ON_FOOT" conf="92" state="moving" tsMs="1776949310710"/>
        <radio op="vodafone IT" rat="LTE" q="12.80" rsrp="-109" sinr="3" rsrq="-12"/>
        <radio op="I TIM" rat="LTE" q="4.20" rsrp="-118" sinr="1" rsrq="-12"/>
      </extensions>
    </trkpt>
    <trkpt lat="45.6237515" lon="10.4927304">
      <ele>288.4405450722094</ele>
      <time>2026-04-23T15:02:16.372+02:00</time>
      <extensions>
        <activity type="ON_FOOT" conf="88" state="moving" tsMs="1776949332179"/>
        <radio op="vodafone IT" rat="LTE" q="7.20" rsrp="-113" sinr="1" rsrq="-11"/>
        <radio op="I TIM" rat="LTE" q="24.00" rsrp="-109" sinr="10" rsrq="-10"/>
      </extensions>
    </trkpt>
    <trkpt lat="45.6238203" lon="10.4927003">
      <ele>290.9915269482233</ele>
      <time>2026-04-23T15:03:16.514+02:00</time>
      <extensions>
        <activity type="UNKNOWN" conf="40" state="unknown" tsMs="1776949395539"/>
        <radio op="vodafone IT" rat="LTE" q="15.60" rsrp="-112" sinr="7" rsrq="-13"/>
        <radio op="I TIM" rat="LTE" q="7.20" rsrp="-113" sinr="1" rsrq="-13"/>
      </extensions>
    </trkpt>
    <trkpt lat="45.623782" lon="10.4927142">
      <ele>288.04347473015434</ele>
      <time>2026-04-23T15:04:03.924+02:00</time>
      <extensions>
        <activity type="UNKNOWN" conf="40" state="unknown" tsMs="1776949432748"/>
        <radio op="vodafone IT" rat="LTE" q="4.80" rsrp="-117" sinr="1" rsrq="-13"/>
        <radio op="I TIM" rat="LTE" q="26.00" rsrp="-105" sinr="8" rsrq="-12"/>
      </extensions>
    </trkpt>
    <trkpt lat="45.6237925" lon="10.4927139">
      <ele>288.1577162592272</ele>
      <time>2026-04-23T15:04:34.275+02:00</time>
      <extensions>
        <activity type="STILL" conf="99" state="still" tsMs="1776949471142"/>
        <radio op="vodafone IT" rat="LTE" rsrp="-117" rsrq="-15"/>
        <radio op="I TIM" rat="LTE" q="15.30" rsrp="-108" sinr="4" rsrq="-11"/>
      </extensions>
    </trkpt>
    <trkpt lat="45.6238269" lon="10.4926963">
      <ele>285.3000183105469</ele>
      <time>2026-04-23T15:05:12.635+02:00</time>
      <extensions>
        <activity type="ON_FOOT" conf="87" state="moving" tsMs="1776949511164"/>
        <radio op="vodafone IT" rat="LTE" q="13.50" rsrp="-116" sinr="10" rsrq="-10"/>
        <radio op="I TIM" rat="LTE" q="12.60" rsrp="-116" sinr="9" rsrq="-13"/>
      </extensions>
    </trkpt>
    <trkpt lat="45.6237014" lon="10.4927621">
      <ele>285.4000244140625</ele>
      <time>2026-04-23T15:05:50.286+02:00</time>
      <extensions>
        <activity type="UNKNOWN" conf="40" state="unknown" tsMs="1776949549193"/>
        <radio op="vodafone IT" rat="LTE" q="18.70" rsrp="-114" sinr="12" rsrq="-10"/>
        <radio op="I TIM" rat="LTE" q="19.80" rsrp="-114" sinr="13" rsrq="-13"/>
      </extensions>
    </trkpt>
    <trkpt lat="45.6238111" lon="10.4927016">
      <ele>287.5518248382697</ele>
      <time>2026-04-23T15:06:22.912+02:00</time>
      <extensions>
        <activity type="UNKNOWN" conf="40" state="unknown" tsMs="1776949580699"/>
        <radio op="vodafone IT" rat="LTE" q="5.60" rsrp="-118" sinr="3" rsrq="-13"/>
        <radio op="I TIM" rat="LTE" q="8.80" rsrp="-117" sinr="6" rsrq="-12"/>
      </extensions>
    </trkpt>
    <trkpt lat="45.6237935" lon="10.4927204">
      <ele>287.69780540433345</ele>
      <time>2026-04-23T15:07:18.486+02:00</time>
      <extensions>
        <activity type="UNKNOWN" conf="40" state="unknown" tsMs="1776949618549"/>
        <radio op="vodafone IT" rat="LTE" q="4.80" rsrp="-121" sinr="7" rsrq="-14"/>
        <radio op="I TIM" rat="LTE" rsrp="-120" rsrq="-13"/>
      </extensions>
    </trkpt>
    <trkpt lat="45.6237761" lon="10.4927274">
      <ele>287.9072601100346</ele>
      <time>2026-04-23T15:07:54.134+02:00</time>
      <extensions>
        <activity type="STILL" conf="99" state="still" tsMs="1776949671184"/>
        <radio op="vodafone IT" rat="LTE" q="7.00" rsrp="-120" sinr="9" rsrq="-13"/>
        <radio op="I TIM" rat="LTE" q="2.00" rsrp="-121" sinr="0" rsrq="-13"/>
      </extensions>
    </trkpt>
    <trkpt lat="45.6237857" lon="10.4927134">
      <ele>285.3000183105469</ele>
      <time>2026-04-23T15:08:27.37+02:00</time>
      <extensions>
        <activity type="STILL" conf="99" state="still" tsMs="1776949701423"/>
        <radio op="vodafone IT" rat="LTE" q="3.00" rsrp="-120" sinr="1" rsrq="-12"/>
        <radio op="I TIM" rat="LTE" rsrp="-121" rsrq="-14"/>
      </extensions>
    </trkpt>
    <trkpt lat="45.6237965" lon="10.4927122">
      <ele>285.3000183105469</ele>
      <time>2026-04-23T15:09:04.534+02:00</time>
      <extensions>
        <activity type="STILL" conf="72" state="still" tsMs="1776949740377"/>
        <radio op="vodafone IT" rat="LTE" q="2.70" rsrp="-122" sinr="4" rsrq="-13"/>
        <radio op="I TIM" rat="LTE" q="2.40" rsrp="-121" sinr="1" rsrq="-12"/>
      </extensions>
    </trkpt>
    <trkpt lat="45.6025612" lon="10.4536477">
      <ele>262.0</ele>
      <time>2026-04-23T18:34:00.351+02:00</time>
      <extensions>
        <activity type="STILL" conf="100" state="still" tsMs="1776962035146"/>
        <radio op="vodafone IT" rat="LTE" q="25.60" rsrp="-109" sinr="11" rsrq="-10"/>
        <radio op="I TIM" rat="LTE" q="35.20" rsrp="-109" sinr="17" rsrq="-10"/>
      </extensions>
    </trkpt>
    <trkpt lat="45.6025593" lon="10.4536469">
      <ele>262.0</ele>
      <time>2026-04-23T18:34:12.413+02:00</time>
      <extensions>
        <activity type="STILL" conf="56" state="still" tsMs="1776962043108"/>
        <radio op="vodafone IT" rat="LTE" q="7.70" rsrp="-118" sinr="6" rsrq="-12"/>
        <radio op="I TIM" rat="LTE" q="35.70" rsrp="-108" sinr="16" rsrq="-12"/>
      </extensions>
    </trkpt>
    <trkpt lat="45.6025664" lon="10.4536489">
      <ele>262.0</ele>
      <time>2026-04-23T18:34:46.737+02:00</time>
      <extensions>
        <activity type="STILL" conf="100" state="still" tsMs="1776962064206"/>
        <radio op="vodafone IT" rat="LTE" q="2.00" rsrp="-121" sinr="0" rsrq="-11"/>
        <radio op="I TIM" rat="LTE" q="25.50" rsrp="-110" sinr="12" rsrq="-11"/>
      </extensions>
    </trkpt>
    <trkpt lat="45.6025587" lon="10.4536459">
      <ele>262.0</ele>
      <time>2026-04-23T18:35:19.61+02:00</time>
      <extensions>
        <activity type="STILL" conf="100" state="still" tsMs="1776962090568"/>
        <radio op="vodafone IT" rat="LTE" q="6.30" rsrp="-118" sinr="4" rsrq="-10"/>
        <radio op="I TIM" rat="LTE" q="50.40" rsrp="-104" sinr="19" rsrq="-8"/>
      </extensions>
    </trkpt>
    <trkpt lat="45.5992514" lon="10.4501851">
      <ele>257.8000183105469</ele>
      <time>2026-04-23T20:10:37.479+02:00</time>
      <extensions>
        <activity type="STILL" conf="100" state="still" tsMs="1776967816449"/>
        <radio op="vodafone IT" rat="LTE" q="30.80" rsrp="-97" sinr="6" rsrq="-10"/>
        <radio op="I TIM" rat="LTE" q="24.00" rsrp="-95" sinr="3" rsrq="-13"/>
      </extensions>
    </trkpt>
    <trkpt lat="45.5992639" lon="10.4500594">
      <ele>257.8000183105469</ele>
      <time>2026-04-23T20:10:49.899+02:00</time>
      <extensions>
        <activity type="ON_FOOT" conf="98" state="moving" tsMs="1776967841604"/>
        <radio op="vodafone IT" rat="LTE" q="43.20" rsrp="-98" sinr="11" rsrq="-9"/>
        <radio op="I TIM" rat="LTE" q="32.00" rsrp="-93" sinr="5" rsrq="-13"/>
      </extensions>
    </trkpt>
    <trkpt lat="45.5992639" lon="10.4500594">
      <ele>258.20001220703125</ele>
      <time>2026-04-23T20:11:29.583+02:00</time>
      <extensions>
        <activity type="ON_FOOT" conf="98" state="moving" tsMs="1776967876123"/>
        <radio op="vodafone IT" rat="LTE" q="23.40" rsrp="-99" sinr="4" rsrq="-12"/>
        <radio op="I TIM" rat="LTE" q="44.20" rsrp="-91" sinr="8" rsrq="-12"/>
      </extensions>
    </trkpt>
    <trkpt lat="45.5984379" lon="10.4492739">
      <ele>257.9000244140625</ele>
      <time>2026-04-23T20:12:01.042+02:00</time>
      <extensions>
        <activity type="ON_FOOT" conf="96" state="moving" tsMs="1776967916668"/>
        <radio op="vodafone IT" rat="LTE" q="16.80" rsrp="-101" sinr="2" rsrq="-14"/>
        <radio op="I TIM" rat="LTE" q="44.20" rsrp="-91" sinr="8" rsrq="-13"/>
      </extensions>
    </trkpt>
    <trkpt lat="45.5980625" lon="10.4484188">
      <ele>257.8000183105469</ele>
      <time>2026-04-23T20:12:32.524+02:00</time>
      <extensions>
        <activity type="ON_FOOT" conf="96" state="moving" tsMs="1776967948219"/>
        <radio op="vodafone IT" rat="LTE" q="26.40" rsrp="-92" sinr="3" rsrq="-9"/>
        <radio op="I TIM" rat="LTE" q="59.20" rsrp="-88" sinr="11" rsrq="-12"/>
      </extensions>
    </trkpt>
    <trkpt lat="45.5983427" lon="10.4485749">
      <ele>257.8000183105469</ele>
      <time>2026-04-23T20:12:40.898+02:00</time>
      <extensions>
        <activity type="ON_FOOT" conf="96" state="moving" tsMs="1776967960369"/>
        <radio op="vodafone IT" rat="LTE" q="39.60" rsrp="-89" sinr="6" rsrq="-11"/>
        <radio op="I TIM" rat="LTE" q="56.00" rsrp="-82" sinr="9" rsrq="-12"/>
      </extensions>
    </trkpt>
    <trkpt lat="45.5983422" lon="10.4485709">
      <ele>257.8000183105469</ele>
      <time>2026-04-23T20:13:14.214+02:00</time>
      <extensions>
        <activity type="ON_FOOT" conf="96" state="moving" tsMs="1776967992518"/>
        <radio op="vodafone IT" rat="LTE" rsrp="-97" rsrq="-13"/>
        <radio op="I TIM" rat="LTE" q="38.00" rsrp="-87" sinr="5" rsrq="-12"/>
      </extensions>
    </trkpt>
    <trkpt lat="45.5979465" lon="10.447989">
      <ele>257.8000183105469</ele>
      <time>2026-04-23T20:13:22.898+02:00</time>
      <extensions>
        <activity type="ON_FOOT" conf="96" state="moving" tsMs="1776967992518"/>
        <radio op="vodafone IT" rat="LTE" rsrp="-97" rsrq="-11"/>
        <radio op="I TIM" rat="LTE" q="34.10" rsrp="-94" sinr="6" rsrq="-14"/>
      </extensions>
    </trkpt>
    <trkpt lat="45.5979438" lon="10.4479947">
      <ele>257.8000183105469</ele>
      <time>2026-04-23T20:13:52.142+02:00</time>
      <extensions>
        <activity type="ON_FOOT" conf="96" state="moving" tsMs="1776968032144"/>
        <radio op="vodafone IT" rat="LTE" rsrp="-100" rsrq="-16"/>
        <radio op="I TIM" rat="LTE" rsrp="-95" rsrq="-13"/>
      </extensions>
    </trkpt>
    <trkpt lat="45.5970981" lon="10.4474055">
      <ele>257.1000061035156</ele>
      <time>2026-04-23T20:14:26.409+02:00</time>
      <extensions>
        <activity type="ON_FOOT" conf="96" state="moving" tsMs="1776968062920"/>
        <radio op="vodafone IT" rat="LTE" rsrp="-98" rsrq="-13"/>
        <radio op="I TIM" rat="LTE" q="19.80" rsrp="-92" sinr="1" rsrq="-12"/>
      </extensions>
    </trkpt>
    <trkpt lat="45.5976379" lon="10.4484223">
      <ele>257.8000183105469</ele>
      <time>2026-04-23T20:14:57.809+02:00</time>
      <extensions>
        <activity type="ON_FOOT" conf="96" state="moving" tsMs="1776968093475"/>
        <radio op="vodafone IT" rat="LTE" q="33.30" rsrp="-88" sinr="4" rsrq="-9"/>
        <radio op="I TIM" rat="LTE" rsrp="-92" rsrq="-15"/>
      </extensions>
    </trkpt>
    <trkpt lat="45.5963077" lon="10.4465498">
      <ele>256.5</ele>
      <time>2026-04-23T20:15:29.307+02:00</time>
      <extensions>
        <activity type="ON_FOOT" conf="96" state="moving" tsMs="1776968124811"/>
        <radio op="vodafone IT" rat="LTE" q="14.00" rsrp="-97" sinr="0" rsrq="-13"/>
        <radio op="I TIM" rat="LTE" q="25.60" rsrp="-93" sinr="3" rsrq="-13"/>
      </extensions>
    </trkpt>
    <trkpt lat="45.5963871" lon="10.4454122">
      <ele>256.3999938964844</ele>
      <time>2026-04-23T20:15:57.402+02:00</time>
      <extensions>
        <activity type="ON_FOOT" conf="96" state="moving" tsMs="1776968156694"/>
        <radio op="vodafone IT" rat="LTE" rsrp="-94" rsrq="-12"/>
        <radio op="I TIM" rat="LTE" rsrp="-87" rsrq="-13"/>
      </extensions>
    </trkpt>
    <trkpt lat="45.5959612" lon="10.4449335">
      <ele>256.1000061035156</ele>
      <time>2026-04-23T20:16:31.792+02:00</time>
      <extensions>
        <activity type="ON_FOOT" conf="96" state="moving" tsMs="1776968187352"/>
        <radio op="vodafone IT" rat="LTE" q="19.60" rsrp="-97" sinr="2" rsrq="-14"/>
        <radio op="I TIM" rat="LTE" q="25.60" rsrp="-93" sinr="3" rsrq="-12"/>
      </extensions>
    </trkpt>
    <trkpt lat="45.5957967" lon="10.4446854">
      <ele>256.1000061035156</ele>
      <time>2026-04-23T20:17:03.178+02:00</time>
      <extensions>
        <activity type="ON_FOOT" conf="96" state="moving" tsMs="1776968218817"/>
        <radio op="vodafone IT" rat="LTE" q="18.90" rsrp="-98" sinr="2" rsrq="-13"/>
        <radio op="I TIM" rat="LTE" q="49.50" rsrp="-92" sinr="10" rsrq="-11"/>
      </extensions>
    </trkpt>
    <trkpt lat="45.5954453" lon="10.4442251">
      <ele>256.5</ele>
      <time>2026-04-23T20:17:34.723+02:00</time>
      <extensions>
        <activity type="ON_FOOT" conf="96" state="moving" tsMs="1776968250259"/>
        <radio op="vodafone IT" rat="LTE" q="46.20" rsrp="-92" sinr="9" rsrq="-8"/>
        <radio op="I TIM" rat="LTE" q="57.60" rsrp="-89" sinr="11" rsrq="-8"/>
      </extensions>
    </trkpt>
    <trkpt lat="45.5953942" lon="10.4441914">
      <ele>256.5</ele>
      <time>2026-04-23T20:17:40.899+02:00</time>
      <extensions>
        <activity type="ON_FOOT" conf="96" state="moving" tsMs="1776968260362"/>
        <radio op="vodafone IT" rat="LTE" q="35.20" rsrp="-93" sinr="6" rsrq="-12"/>
        <radio op="I TIM" rat="LTE" q="25.90" rsrp="-88" sinr="2" rsrq="-10"/>
      </extensions>
    </trkpt>
    <trkpt lat="45.5953874" lon="10.4439522">
      <ele>256.5</ele>
      <time>2026-04-23T20:17:54.899+02:00</time>
      <extensions>
        <activity type="ON_FOOT" conf="96" state="moving" tsMs="1776968274863"/>
        <radio op="vodafone IT" rat="LTE" q="24.50" rsrp="-90" sinr="2" rsrq="-13"/>
        <radio op="I TIM" rat="LTE" q="38.00" rsrp="-87" sinr="5" rsrq="-13"/>
      </extensions>
    </trkpt>
    <trkpt lat="45.595389" lon="10.4439507">
      <ele>256.29998779296875</ele>
      <time>2026-04-23T20:17:55.547+02:00</time>
      <extensions>
        <activity type="ON_FOOT" conf="96" state="moving" tsMs="1776968280241"/>
        <radio op="vodafone IT" rat="LTE" q="33.00" rsrp="-92" sinr="5" rsrq="-10"/>
        <radio op="I TIM" rat="LTE" q="45.50" rsrp="-90" sinr="8" rsrq="-13"/>
      </extensions>
    </trkpt>
    <trkpt lat="45.5950287" lon="10.4436333">
      <ele>255.70001220703125</ele>
      <time>2026-04-23T20:18:26.581+02:00</time>
      <extensions>
        <activity type="ON_FOOT" conf="96" state="moving" tsMs="1776968301633"/>
        <radio op="vodafone IT" rat="LTE" q="76.00" rsrp="-85" sinr="14" rsrq="-11"/>
        <radio op="I TIM" rat="LTE" q="68.00" rsrp="-79" sinr="12" rsrq="-11"/>
      </extensions>
    </trkpt>
    <trkpt lat="45.5951839" lon="10.4435704">
      <ele>255.70001220703125</ele>
      <time>2026-04-23T20:18:32.899+02:00</time>
      <extensions>
        <activity type="ON_FOOT" conf="96" state="moving" tsMs="1776968312204"/>
        <radio op="vodafone IT" rat="LTE" q="21.60" rsrp="-89" sinr="1" rsrq="-11"/>
        <radio op="I TIM" rat="LTE" q="72.00" rsrp="-83" sinr="13" rsrq="-12"/>
      </extensions>
    </trkpt>
    <trkpt lat="45.5951758" lon="10.4435483">
      <ele>255.00001525878906</ele>
      <time>2026-04-23T20:19:08.236+02:00</time>
      <extensions>
        <activity type="ON_FOOT" conf="97" state="moving" tsMs="1776968344324"/>
        <radio op="vodafone IT" rat="LTE" q="96.00" rsrp="-77" sinr="19" rsrq="-13"/>
        <radio op="I TIM" rat="LTE" q="64.00" rsrp="-74" sinr="11" rsrq="-11"/>
      </extensions>
    </trkpt>
    <trkpt lat="45.594276" lon="10.4428921">
      <ele>254.60000610351562</ele>
      <time>2026-04-23T20:19:39.659+02:00</time>
      <extensions>
        <activity type="ON_FOOT" conf="98" state="moving" tsMs="1776968375362"/>
        <radio op="vodafone IT" rat="LTE" q="29.60" rsrp="-88" sinr="3" rsrq="-9"/>
        <radio op="I TIM" rat="LTE" q="23.10" rsrp="-92" sinr="2" rsrq="-14"/>
      </extensions>
    </trkpt>
    <trkpt lat="45.5940385" lon="10.4425635">
      <ele>254.60000610351562</ele>
      <time>2026-04-23T20:20:11.245+02:00</time>
      <extensions>
        <activity type="ON_FOOT" conf="96" state="moving" tsMs="1776968406719"/>
        <radio op="vodafone IT" rat="LTE" rsrp="-93" rsrq="-11"/>
        <radio op="I TIM" rat="LTE" q="76.00" rsrp="-83" sinr="14" rsrq="-12"/>
      </extensions>
    </trkpt>
    <trkpt lat="45.593981" lon="10.4425168">
      <ele>254.60000610351562</ele>
      <time>2026-04-23T20:20:16.899+02:00</time>
      <extensions>
        <activity type="ON_FOOT" conf="96" state="moving" tsMs="1776968416904"/>
        <radio op="vodafone IT" rat="LTE" q="70.20" rsrp="-86" sinr="13" rsrq="-11"/>
        <radio op="I TIM" rat="LTE" q="56.00" rsrp="-81" sinr="9" rsrq="-12"/>
      </extensions>
    </trkpt>
    <trkpt lat="45.59371" lon="10.4428718">
      <ele>254.60000610351562</ele>
      <time>2026-04-23T20:20:52.867+02:00</time>
      <extensions>
        <activity type="ON_FOOT" conf="96" state="moving" tsMs="1776968449092"/>
        <radio op="vodafone IT" rat="LTE" q="52.80" rsrp="-92" sinr="11" rsrq="-10"/>
        <radio op="I TIM" rat="LTE" q="36.00" rsrp="-83" sinr="4" rsrq="-13"/>
      </extensions>
    </trkpt>
    <trkpt lat="45.59371" lon="10.4428718">
      <ele>254.60000610351562</ele>
      <time>2026-04-23T20:21:22.617+02:00</time>
      <extensions>
        <activity type="ON_FOOT" conf="96" state="moving" tsMs="1776968480051"/>
        <radio op="vodafone IT" rat="LTE" q="84.00" rsrp="-83" sinr="16" rsrq="-11"/>
        <radio op="I TIM" rat="LTE" q="80.00" rsrp="-81" sinr="15" rsrq="-11"/>
      </extensions>
    </trkpt>
    <trkpt lat="45.5931888" lon="10.4431401">
      <ele>254.3000030517578</ele>
      <time>2026-04-23T20:21:33.95+02:00</time>
      <extensions>
        <activity type="ON_FOOT" conf="96" state="moving" tsMs="1776968485306"/>
        <radio op="vodafone IT" rat="LTE" q="100.00" rsrp="-71" sinr="24" rsrq="-9"/>
        <radio op="I TIM" rat="LTE" q="92.00" rsrp="-67" sinr="18" rsrq="-8"/>
      </extensions>
    </trkpt>
    <trkpt lat="45.593056" lon="10.4430888">
      <ele>254.3000030517578</ele>
      <time>2026-04-23T20:21:44.033+02:00</time>
      <extensions>
        <activity type="ON_FOOT" conf="98" state="moving" tsMs="1776968496821"/>
        <radio op="vodafone IT" rat="LTE" q="100.00" rsrp="-76" sinr="20" rsrq="-8"/>
        <radio op="I TIM" rat="LTE" q="92.00" rsrp="-68" sinr="18" rsrq="-10"/>
      </extensions>
    </trkpt>
    <trkpt lat="45.5931338" lon="10.4429274">
      <ele>254.60000610351562</ele>
      <time>2026-04-23T20:21:54.194+02:00</time>
      <extensions>
        <activity type="ON_FOOT" conf="97" state="moving" tsMs="1776968507038"/>
        <radio op="vodafone IT" rat="LTE" q="92.00" rsrp="-80" sinr="18" rsrq="-7"/>
        <radio op="I TIM" rat="LTE" q="84.00" rsrp="-77" sinr="16" rsrq="-11"/>
      </extensions>
    </trkpt>
    <trkpt lat="45.5931337" lon="10.4429163">
      <ele>254.60000610351562</ele>
      <time>2026-04-23T20:22:03.957+02:00</time>
      <extensions>
        <activity type="ON_FOOT" conf="97" state="moving" tsMs="1776968507038"/>
        <radio op="vodafone IT" rat="LTE" q="93.60" rsrp="-86" sinr="19" rsrq="-8"/>
        <radio op="I TIM" rat="LTE" q="72.00" rsrp="-81" sinr="13" rsrq="-9"/>
      </extensions>
    </trkpt>
    <trkpt lat="45.5931478" lon="10.4428736">
      <ele>254.60000610351562</ele>
      <time>2026-04-23T20:22:14.378+02:00</time>
      <extensions>
        <activity type="UNKNOWN" conf="40" state="unknown" tsMs="1776968518357"/>
        <radio op="vodafone IT" rat="LTE" q="49.00" rsrp="-90" sinr="9" rsrq="-7"/>
        <radio op="I TIM" rat="LTE" q="93.60" rsrp="-86" sinr="19" rsrq="-9"/>
      </extensions>
    </trkpt>
    <trkpt lat="45.5931604" lon="10.4428387">
      <ele>254.60000610351562</ele>
      <time>2026-04-23T20:22:23.899+02:00</time>
      <extensions>
        <activity type="UNKNOWN" conf="40" state="unknown" tsMs="1776968518357"/>
        <radio op="vodafone IT" rat="LTE" q="74.00" rsrp="-88" sinr="15" rsrq="-10"/>
        <radio op="I TIM" rat="LTE" q="60.00" rsrp="-95" sinr="15" rsrq="-10"/>
      </extensions>
    </trkpt>
    <trkpt lat="45.593171" lon="10.4428403">
      <ele>254.60000610351562</ele>
      <time>2026-04-23T20:22:33.953+02:00</time>
      <extensions>
        <activity type="ON_FOOT" conf="90" state="moving" tsMs="1776968534016"/>
        <radio op="vodafone IT" rat="LTE" q="59.50" rsrp="-90" sinr="12" rsrq="-10"/>
        <radio op="I TIM" rat="LTE" q="75.90" rsrp="-92" sinr="18" rsrq="-8"/>
      </extensions>
    </trkpt>
    <trkpt lat="45.5931894" lon="10.442827">
      <ele>254.60000610351562</ele>
      <time>2026-04-23T20:22:44.922+02:00</time>
      <extensions>
        <activity type="STILL" conf="98" state="still" tsMs="1776968549684"/>
        <radio op="vodafone IT" rat="LTE" q="69.30" rsrp="-92" sinr="16" rsrq="-9"/>
        <radio op="I TIM" rat="LTE" q="75.90" rsrp="-92" sinr="18" rsrq="-11"/>
      </extensions>
    </trkpt>
    <trkpt lat="45.593199" lon="10.4427832">
      <ele>254.60000610351562</ele>
      <time>2026-04-23T20:22:54.899+02:00</time>
      <extensions>
        <activity type="STILL" conf="98" state="still" tsMs="1776968549684"/>
        <radio op="vodafone IT" rat="LTE" q="48.00" rsrp="-95" sinr="11" rsrq="-10"/>
        <radio op="I TIM" rat="LTE" q="71.40" rsrp="-91" sinr="16" rsrq="-10"/>
      </extensions>
    </trkpt>
    <trkpt lat="45.5932358" lon="10.4427397">
      <ele>254.60000610351562</ele>
      <time>2026-04-23T20:23:05.054+02:00</time>
      <extensions>
        <activity type="ON_FOOT" conf="89" state="moving" tsMs="1776968565369"/>
        <radio op="vodafone IT" rat="LTE" q="31.50" rsrp="-104" sinr="10" rsrq="-12"/>
        <radio op="I TIM" rat="LTE" q="58.00" rsrp="-96" sinr="15" rsrq="-10"/>
      </extensions>
    </trkpt>
    <trkpt lat="45.593237" lon="10.4426844">
      <ele>254.60000610351562</ele>
      <time>2026-04-23T20:23:14.925+02:00</time>
      <extensions>
        <activity type="ON_FOOT" conf="93" state="moving" tsMs="1776968581026"/>
        <radio op="vodafone IT" rat="LTE" q="26.40" rsrp="-101" sinr="6" rsrq="-11"/>
        <radio op="I TIM" rat="LTE" q="52.20" rsrp="-96" sinr="13" rsrq="-9"/>
      </extensions>
    </trkpt>
    <trkpt lat="45.5932078" lon="10.4426886">
      <ele>254.60000610351562</ele>
      <time>2026-04-23T20:23:25.001+02:00</time>
      <extensions>
        <activity type="ON_FOOT" conf="93" state="moving" tsMs="1776968581026"/>
        <radio op="vodafone IT" rat="LTE" q="32.20" rsrp="-102" sinr="9" rsrq="-11"/>
        <radio op="I TIM" rat="LTE" q="39.20" rsrp="-97" sinr="9" rsrq="-11"/>
      </extensions>
    </trkpt>
    <trkpt lat="45.5931943" lon="10.4427149">
      <ele>254.60000610351562</ele>
      <time>2026-04-23T20:23:35.413+02:00</time>
      <extensions>
        <activity type="UNKNOWN" conf="40" state="unknown" tsMs="1776968596791"/>
        <radio op="vodafone IT" rat="LTE" q="40.80" rsrp="-101" sinr="12" rsrq="-11"/>
        <radio op="I TIM" rat="LTE" q="63.80" rsrp="-96" sinr="17" rsrq="-12"/>
      </extensions>
    </trkpt>
    <trkpt lat="45.5931948" lon="10.4427643">
      <ele>254.60000610351562</ele>
      <time>2026-04-23T20:23:45.572+02:00</time>
      <extensions>
        <activity type="UNKNOWN" conf="40" state="unknown" tsMs="1776968612457"/>
        <radio op="vodafone IT" rat="LTE" q="27.30" rsrp="-104" sinr="8" rsrq="-12"/>
        <radio op="I TIM" rat="LTE" q="47.60" rsrp="-97" sinr="12" rsrq="-9"/>
      </extensions>
    </trkpt>
    <trkpt lat="45.5932033" lon="10.442771">
      <ele>254.60000610351562</ele>
      <time>2026-04-23T20:23:54.899+02:00</time>
      <extensions>
        <activity type="UNKNOWN" conf="40" state="unknown" tsMs="1776968612457"/>
        <radio op="vodafone IT" rat="LTE" q="28.60" rsrp="-103" sinr="8" rsrq="-11"/>
        <radio op="I TIM" rat="LTE" q="29.70" rsrp="-98" sinr="6" rsrq="-9"/>
      </extensions>
    </trkpt>
    <trkpt lat="45.5932046" lon="10.4427703">
      <ele>254.60000610351562</ele>
      <time>2026-04-23T20:24:05.898+02:00</time>
      <extensions>
        <activity type="UNKNOWN" conf="40" state="unknown" tsMs="1776968627904"/>
        <radio op="vodafone IT" rat="LTE" q="26.40" rsrp="-101" sinr="6" rsrq="-12"/>
        <radio op="I TIM" rat="LTE" q="63.80" rsrp="-96" sinr="17" rsrq="-9"/>
      </extensions>
    </trkpt>
    <trkpt lat="45.5932046" lon="10.4427758">
      <ele>254.60000610351562</ele>
      <time>2026-04-23T20:24:15.941+02:00</time>
      <extensions>
        <activity type="UNKNOWN" conf="40" state="unknown" tsMs="1776968643585"/>
        <radio op="vodafone IT" rat="LTE" q="60.00" rsrp="-95" sinr="15" rsrq="-10"/>
        <radio op="I TIM" rat="LTE" q="63.00" rsrp="-95" sinr="16" rsrq="-11"/>
      </extensions>
    </trkpt>
    <trkpt lat="45.5932036" lon="10.442778">
      <ele>254.60000610351562</ele>
      <time>2026-04-23T20:24:25.908+02:00</time>
      <extensions>
        <activity type="UNKNOWN" conf="40" state="unknown" tsMs="1776968643585"/>
        <radio op="vodafone IT" rat="LTE" q="39.20" rsrp="-97" sinr="9" rsrq="-11"/>
        <radio op="I TIM" rat="LTE" q="40.00" rsrp="-100" sinr="11" rsrq="-11"/>
      </extensions>
    </trkpt>
    <trkpt lat="45.593204" lon="10.44278">
      <ele>254.60000610351562</ele>
      <time>2026-04-23T20:24:36.276+02:00</time>
      <extensions>
        <activity type="UNKNOWN" conf="40" state="unknown" tsMs="1776968659466"/>
        <radio op="vodafone IT" rat="LTE" q="43.70" rsrp="-102" sinr="14" rsrq="-11"/>
        <radio op="I TIM" rat="LTE" q="54.40" rsrp="-93" sinr="12" rsrq="-10"/>
      </extensions>
    </trkpt>
    <trkpt lat="45.5932025" lon="10.4427816">
      <ele>254.60000610351562</ele>
      <time>2026-04-23T20:24:45.952+02:00</time>
      <extensions>
        <activity type="UNKNOWN" conf="40" state="unknown" tsMs="1776968674913"/>
        <radio op="vodafone IT" rat="LTE" q="20.70" rsrp="-102" sinr="4" rsrq="-8"/>
        <radio op="I TIM" rat="LTE" q="54.40" rsrp="-93" sinr="12" rsrq="-11"/>
      </extensions>
    </trkpt>
    <trkpt lat="45.5932033" lon="10.4427814">
      <ele>254.60000610351562</ele>
      <time>2026-04-23T20:24:55.92+02:00</time>
      <extensions>
        <activity type="UNKNOWN" conf="40" state="unknown" tsMs="1776968674913"/>
        <radio op="vodafone IT" rat="LTE" q="35.70" rsrp="-104" sinr="12" rsrq="-7"/>
        <radio op="I TIM" rat="LTE" q="53.20" rsrp="-97" sinr="14" rsrq="-12"/>
      </extensions>
    </trkpt>
    <trkpt lat="45.5932336" lon="10.4427489">
      <ele>254.60000610351562</ele>
      <time>2026-04-23T20:25:06.66+02:00</time>
      <extensions>
        <activity type="UNKNOWN" conf="40" state="unknown" tsMs="1776968690792"/>
        <radio op="vodafone IT" rat="LTE" q="37.70" rsrp="-96" sinr="8" rsrq="-11"/>
        <radio op="I TIM" rat="LTE" q="49.30" rsrp="-96" sinr="12" rsrq="-13"/>
      </extensions>
    </trkpt>
    <trkpt lat="45.5932188" lon="10.4427634">
      <ele>254.60000610351562</ele>
      <time>2026-04-23T20:25:15.966+02:00</time>
      <extensions>
        <activity type="ON_FOOT" conf="97" state="moving" tsMs="1776968706459"/>
        <radio op="vodafone IT" rat="LTE" q="72.60" rsrp="-92" sinr="17" rsrq="-11"/>
        <radio op="I TIM" rat="LTE" q="85.80" rsrp="-86" sinr="17" rsrq="-12"/>
      </extensions>
    </trkpt>
    <trkpt lat="45.5932191" lon="10.4427619">
      <ele>254.60000610351562</ele>
      <time>2026-04-23T20:25:17.592+02:00</time>
      <extensions>
        <activity type="ON_FOOT" conf="97" state="moving" tsMs="1776968706459"/>
        <radio op="vodafone IT" rat="LTE" q="49.30" rsrp="-96" sinr="12" rsrq="-10"/>
        <radio op="I TIM" rat="LTE" q="83.60" rsrp="-87" sinr="17" rsrq="-11"/>
      </extensions>
    </trkpt>
    <trkpt lat="45.5934674" lon="10.4424556">
      <ele>254.60000610351562</ele>
      <time>2026-04-23T20:25:57.529+02:00</time>
      <extensions>
        <activity type="STILL" conf="96" state="still" tsMs="1776968755354"/>
        <radio op="vodafone IT" rat="LTE" q="41.60" rsrp="-93" sinr="8" rsrq="-11"/>
        <radio op="I TIM" rat="LTE" q="95.00" rsrp="-87" sinr="21" rsrq="-9"/>
      </extensions>
    </trkpt>
    <trkpt lat="45.5933373" lon="10.442575">
      <ele>254.60000610351562</ele>
      <time>2026-04-23T20:26:27.871+02:00</time>
      <extensions>
        <activity type="ON_FOOT" conf="86" state="moving" tsMs="1776968787740"/>
        <radio op="vodafone IT" rat="LTE" q="32.50" rsrp="-100" sinr="8" rsrq="-11"/>
        <radio op="I TIM" rat="LTE" q="58.00" rsrp="-96" sinr="15" rsrq="-11"/>
      </extensions>
    </trkpt>
    <trkpt lat="45.5934035" lon="10.4424962">
      <ele>254.60000610351562</ele>
      <time>2026-04-23T20:27:01.037+02:00</time>
      <extensions>
        <activity type="UNKNOWN" conf="40" state="unknown" tsMs="1776968815941"/>
        <radio op="vodafone IT" rat="LTE" q="51.00" rsrp="-91" sinr="10" rsrq="-11"/>
        <radio op="I TIM" rat="LTE" q="71.40" rsrp="-91" sinr="16" rsrq="-10"/>
      </extensions>
    </trkpt>
    <trkpt lat="45.5933896" lon="10.4425632">
      <ele>254.60000610351562</ele>
      <time>2026-04-23T20:27:32.227+02:00</time>
      <extensions>
        <activity type="ON_FOOT" conf="87" state="moving" tsMs="1776968847773"/>
        <radio op="vodafone IT" rat="LTE" q="13.30" rsrp="-106" sinr="2" rsrq="-10"/>
        <radio op="I TIM" rat="LTE" q="52.00" rsrp="-99" sinr="15" rsrq="-10"/>
      </extensions>
    </trkpt>
    <trkpt lat="45.5934359" lon="10.4424598">
      <ele>254.60000610351562</ele>
      <time>2026-04-23T20:28:04.825+02:00</time>
      <extensions>
        <activity type="ON_FOOT" conf="96" state="moving" tsMs="1776968879036"/>
        <radio op="vodafone IT" rat="LTE" q="27.50" rsrp="-100" sinr="6" rsrq="-12"/>
        <radio op="I TIM" rat="LTE" q="70.30" rsrp="-88" sinr="14" rsrq="-12"/>
      </extensions>
    </trkpt>
    <trkpt lat="45.5934033" lon="10.4425264">
      <ele>254.60000610351562</ele>
      <time>2026-04-23T20:28:40.395+02:00</time>
      <extensions>
        <activity type="ON_FOOT" conf="88" state="moving" tsMs="1776968890272"/>
        <radio op="vodafone IT" rat="LTE" q="26.60" rsrp="-106" sinr="9" rsrq="-13"/>
        <radio op="I TIM" rat="LTE" q="38.40" rsrp="-101" sinr="11" rsrq="-12"/>
      </extensions>
    </trkpt>
    <trkpt lat="45.5934136" lon="10.4424775">
      <ele>254.60000610351562</ele>
      <time>2026-04-23T20:29:24.68+02:00</time>
      <extensions>
        <activity type="UNKNOWN" conf="40" state="unknown" tsMs="1776968963840"/>
        <radio op="vodafone IT" rat="LTE" q="34.00" rsrp="-105" sinr="12" rsrq="-12"/>
        <radio op="I TIM" rat="LTE" q="39.00" rsrp="-99" sinr="10" rsrq="-12"/>
      </extensions>
    </trkpt>
    <trkpt lat="45.5934789" lon="10.4424287">
      <ele>254.60000610351562</ele>
      <time>2026-04-23T20:29:57.821+02:00</time>
      <extensions>
        <activity type="ON_FOOT" conf="92" state="moving" tsMs="1776968996669"/>
        <radio op="vodafone IT" rat="LTE" rsrp="-102" rsrq="-14"/>
        <radio op="I TIM" rat="LTE" q="54.00" rsrp="-95" sinr="13" rsrq="-11"/>
      </extensions>
    </trkpt>
    <trkpt lat="45.593389" lon="10.4426533">
      <ele>254.60000610351562</ele>
      <time>2026-04-23T20:30:55.25+02:00</time>
      <extensions>
        <activity type="ON_FOOT" conf="92" state="moving" tsMs="1776969050763"/>
        <radio op="vodafone IT" rat="LTE" q="11.40" rsrp="-106" sinr="1" rsrq="-12"/>
        <radio op="I TIM" rat="LTE" q="36.00" rsrp="-101" sinr="10" rsrq="-13"/>
      </extensions>
    </trkpt>
    <trkpt lat="45.5934252" lon="10.4424732">
      <ele>254.60000610351562</ele>
      <time>2026-04-23T20:31:44.78+02:00</time>
      <extensions>
        <activity type="ON_FOOT" conf="86" state="moving" tsMs="1776969103654"/>
        <radio op="vodafone IT" rat="LTE" q="17.50" rsrp="-100" sinr="2" rsrq="-8"/>
        <radio op="I TIM" rat="LTE" q="30.00" rsrp="-100" sinr="7" rsrq="-10"/>
      </extensions>
    </trkpt>
    <trkpt lat="45.5934187" lon="10.4424876">
      <ele>254.60000610351562</ele>
      <time>2026-04-23T20:32:37.319+02:00</time>
      <extensions>
        <activity type="UNKNOWN" conf="40" state="unknown" tsMs="1776969155632"/>
        <radio op="vodafone IT" rat="LTE" q="21.00" rsrp="-104" sinr="5" rsrq="-11"/>
        <radio op="I TIM" rat="LTE" q="25.00" rsrp="-100" sinr="5" rsrq="-12"/>
      </extensions>
    </trkpt>
    <trkpt lat="45.5934184" lon="10.4424703">
      <ele>254.60000610351562</ele>
      <time>2026-04-23T20:33:05.658+02:00</time>
      <extensions>
        <activity type="UNKNOWN" conf="40" state="unknown" tsMs="1776969184946"/>
        <radio op="vodafone IT" rat="LTE" q="12.00" rsrp="-105" sinr="1" rsrq="-13"/>
        <radio op="I TIM" rat="LTE" q="37.50" rsrp="-100" sinr="10" rsrq="-12"/>
      </extensions>
    </trkpt>
    <trkpt lat="45.5934306" lon="10.4424695">
      <ele>254.60000610351562</ele>
      <time>2026-04-23T20:33:41.732+02:00</time>
      <extensions>
        <activity type="STILL" conf="37" state="still" tsMs="1776969219022"/>
        <radio op="vodafone IT" rat="LTE" rsrp="-106" rsrq="-12"/>
        <radio op="I TIM" rat="LTE" q="39.00" rsrp="-99" sinr="10" rsrq="-12"/>
      </extensions>
    </trkpt>
    <trkpt lat="45.5934082" lon="10.4425578">
      <ele>254.60000610351562</ele>
      <time>2026-04-23T20:34:16.361+02:00</time>
      <extensions>
        <activity type="ON_FOOT" conf="88" state="moving" tsMs="1776969255004"/>
        <radio op="vodafone IT" rat="LTE" rsrp="-99" rsrq="-9"/>
        <radio op="I TIM" rat="LTE" q="43.20" rsrp="-98" sinr="11" rsrq="-9"/>
      </extensions>
    </trkpt>
    <trkpt lat="45.5933819" lon="10.4425901">
      <ele>254.60000610351562</ele>
      <time>2026-04-23T20:34:46.311+02:00</time>
      <extensions>
        <activity type="STILL" conf="81" state="still" tsMs="1776969286980"/>
        <radio op="vodafone IT" rat="LTE" rsrp="-105" rsrq="-11"/>
        <radio op="I TIM" rat="LTE" q="50.40" rsrp="-97" sinr="13" rsrq="-11"/>
      </extensions>
    </trkpt>
    <trkpt lat="45.593394" lon="10.4426505">
      <ele>250.75633587266142</ele>
      <time>2026-04-23T20:35:21.074+02:00</time>
      <extensions>
        <activity type="UNKNOWN" conf="40" state="unknown" tsMs="1776969315533"/>
        <radio op="vodafone IT" rat="LTE" rsrp="-113" rsrq="-13"/>
        <radio op="I TIM" rat="LTE" q="32.30" rsrp="-106" sinr="12" rsrq="-10"/>
      </extensions>
    </trkpt>
    <trkpt lat="45.5932786" lon="10.4429327">
      <ele>254.60000610351562</ele>
      <time>2026-04-23T20:36:46.905+02:00</time>
      <extensions>
        <activity type="UNKNOWN" conf="40" state="unknown" tsMs="1776969400051"/>
        <radio op="vodafone IT" rat="LTE" q="32.40" rsrp="-107" sinr="13" rsrq="-9"/>
        <radio op="I TIM" rat="LTE" q="55.00" rsrp="-100" sinr="17" rsrq="-8"/>
      </extensions>
    </trkpt>
    <trkpt lat="45.5932779" lon="10.4429206">
      <ele>254.60000610351562</ele>
      <time>2026-04-23T20:37:18.017+02:00</time>
      <extensions>
        <activity type="UNKNOWN" conf="40" state="unknown" tsMs="1776969431863"/>
        <radio op="vodafone IT" rat="LTE" q="77.50" rsrp="-94" sinr="21" rsrq="-12"/>
        <radio op="I TIM" rat="LTE" q="81.60" rsrp="-91" sinr="19" rsrq="-11"/>
      </extensions>
    </trkpt>
    <trkpt lat="45.5932767" lon="10.4429269">
      <ele>254.60000610351562</ele>
      <time>2026-04-23T20:37:49.185+02:00</time>
      <extensions>
        <activity type="STILL" conf="99" state="still" tsMs="1776969465090"/>
        <radio op="vodafone IT" rat="LTE" q="51.30" rsrp="-98" sinr="14" rsrq="-12"/>
        <radio op="I TIM" rat="LTE" q="73.60" rsrp="-93" sinr="18" rsrq="-11"/>
      </extensions>
    </trkpt>
    <trkpt lat="45.5932822" lon="10.4429334">
      <ele>254.60000610351562</ele>
      <time>2026-04-23T20:39:09.574+02:00</time>
      <extensions>
        <activity type="UNKNOWN" conf="40" state="unknown" tsMs="1776969534973"/>
        <radio op="vodafone IT" rat="LTE" q="54.00" rsrp="-98" sinr="15" rsrq="-7"/>
        <radio op="I TIM" rat="LTE" q="87.50" rsrp="-90" sinr="22" rsrq="-11"/>
      </extensions>
    </trkpt>
    <trkpt lat="45.5933862" lon="10.4433481">
      <ele>254.3000030517578</ele>
      <time>2026-04-23T20:39:49.362+02:00</time>
      <extensions>
        <activity type="ON_FOOT" conf="94" state="moving" tsMs="1776969594760"/>
        <radio op="vodafone IT" rat="LTE" q="57.60" rsrp="-89" sinr="11" rsrq="-8"/>
        <radio op="I TIM" rat="LTE" q="68.00" rsrp="-84" sinr="12" rsrq="-12"/>
      </extensions>
    </trkpt>
    <trkpt lat="45.5937813" lon="10.4425601">
      <ele>254.60000610351562</ele>
      <time>2026-04-23T20:40:20.496+02:00</time>
      <extensions>
        <activity type="ON_FOOT" conf="97" state="moving" tsMs="1776969616245"/>
        <radio op="vodafone IT" rat="LTE" q="27.30" rsrp="-86" sinr="2" rsrq="-12"/>
        <radio op="I TIM" rat="LTE" rsrp="-87" rsrq="-16"/>
      </extensions>
    </trkpt>
    <trkpt lat="45.5938957" lon="10.4425824">
      <ele>254.60000610351562</ele>
      <time>2026-04-23T20:40:50.751+02:00</time>
      <extensions>
        <activity type="ON_FOOT" conf="97" state="moving" tsMs="1776969647322"/>
        <radio op="vodafone IT" rat="LTE" q="28.80" rsrp="-89" sinr="3" rsrq="-10"/>
        <radio op="I TIM" rat="LTE" q="47.60" rsrp="-91" sinr="9" rsrq="-14"/>
      </extensions>
    </trkpt>
    <trkpt lat="45.594354" lon="10.442842">
      <ele>254.70001220703125</ele>
      <time>2026-04-23T20:41:24.214+02:00</time>
      <extensions>
        <activity type="ON_FOOT" conf="96" state="moving" tsMs="1776969679767"/>
        <radio op="vodafone IT" rat="LTE" q="68.00" rsrp="-81" sinr="12" rsrq="-9"/>
        <radio op="I TIM" rat="LTE" q="24.00" rsrp="-81" sinr="1" rsrq="-13"/>
      </extensions>
    </trkpt>
    <trkpt lat="45.5948127" lon="10.4432648">
      <ele>254.60000610351562</ele>
      <time>2026-04-23T20:41:55.667+02:00</time>
      <extensions>
        <activity type="ON_FOOT" conf="96" state="moving" tsMs="1776969711277"/>
        <radio op="vodafone IT" rat="LTE" rsrp="-90" rsrq="-13"/>
        <radio op="I TIM" rat="LTE" rsrp="-85" rsrq="-13"/>
      </extensions>
    </trkpt>
    <trkpt lat="45.5951057" lon="10.4436213">
      <ele>254.60000610351562</ele>
      <time>2026-04-23T20:42:27.134+02:00</time>
      <extensions>
        <activity type="ON_FOOT" conf="96" state="moving" tsMs="1776969742779"/>
        <radio op="vodafone IT" rat="LTE" q="44.00" rsrp="-85" sinr="6" rsrq="-8"/>
        <radio op="I TIM" rat="LTE" q="40.00" rsrp="-84" sinr="5" rsrq="-12"/>
      </extensions>
    </trkpt>
    <trkpt lat="45.5953482" lon="10.4440348">
      <ele>256.1000061035156</ele>
      <time>2026-04-23T20:42:58.669+02:00</time>
      <extensions>
        <activity type="ON_FOOT" conf="96" state="moving" tsMs="1776969774226"/>
        <radio op="vodafone IT" rat="LTE" q="40.00" rsrp="-85" sinr="5" rsrq="-12"/>
        <radio op="I TIM" rat="LTE" q="72.00" rsrp="-78" sinr="13" rsrq="-10"/>
      </extensions>
    </trkpt>
    <trkpt lat="45.595424" lon="10.4437835">
      <ele>256.1000061035156</ele>
      <time>2026-04-23T20:43:04.905+02:00</time>
      <extensions>
        <activity type="ON_FOOT" conf="96" state="moving" tsMs="1776969784308"/>
        <radio op="vodafone IT" rat="LTE" q="30.40" rsrp="-87" sinr="3" rsrq="-11"/>
        <radio op="I TIM" rat="LTE" rsrp="-89" rsrq="-16"/>
      </extensions>
    </trkpt>
    <trkpt lat="45.5953577" lon="10.4440371">
      <ele>256.1000061035156</ele>
      <time>2026-04-23T20:43:18.906+02:00</time>
      <extensions>
        <activity type="ON_FOOT" conf="96" state="moving" tsMs="1776969798796"/>
        <radio op="vodafone IT" rat="LTE" rsrp="-97" rsrq="-15"/>
        <radio op="I TIM" rat="LTE" rsrp="-90" rsrq="-14"/>
      </extensions>
    </trkpt>
    <trkpt lat="45.5953738" lon="10.4440407">
      <ele>256.1000061035156</ele>
      <time>2026-04-23T20:43:19.474+02:00</time>
      <extensions>
        <activity type="ON_FOOT" conf="96" state="moving" tsMs="1776969804179"/>
        <radio op="vodafone IT" rat="LTE" q="18.20" rsrp="-99" sinr="2" rsrq="-13"/>
        <radio op="I TIM" rat="LTE" q="37.20" rsrp="-94" sinr="7" rsrq="-14"/>
      </extensions>
    </trkpt>
    <trkpt lat="45.5956784" lon="10.4445131">
      <ele>256.1000061035156</ele>
      <time>2026-04-23T20:43:50.51+02:00</time>
      <extensions>
        <activity type="ON_FOOT" conf="96" state="moving" tsMs="1776969825676"/>
        <radio op="vodafone IT" rat="LTE" rsrp="-103" rsrq="-16"/>
        <radio op="I TIM" rat="LTE" rsrp="-101" rsrq="-15"/>
      </extensions>
    </trkpt>
    <trkpt lat="45.5959372" lon="10.4450476">
      <ele>256.1000061035156</ele>
      <time>2026-04-23T20:44:22.019+02:00</time>
      <extensions>
        <activity type="ON_FOOT" conf="96" state="moving" tsMs="1776969857596"/>
        <radio op="vodafone IT" rat="LTE" q="18.40" rsrp="-102" sinr="3" rsrq="-12"/>
        <radio op="I TIM" rat="LTE" q="15.00" rsrp="-100" sinr="1" rsrq="-16"/>
      </extensions>
    </trkpt>
    <trkpt lat="45.5960982" lon="10.445065">
      <ele>256.1000061035156</ele>
      <time>2026-04-23T20:44:27.904+02:00</time>
      <extensions>
        <activity type="ON_FOOT" conf="96" state="moving" tsMs="1776969867663"/>
        <radio op="vodafone IT" rat="LTE" q="10.50" rsrp="-104" sinr="0" rsrq="-14"/>
        <radio op="I TIM" rat="LTE" rsrp="-104" rsrq="-18"/>
      </extensions>
    </trkpt>
    <trkpt lat="45.5961983" lon="10.4452063">
      <ele>256.1000061035156</ele>
      <time>2026-04-23T20:44:40.896+02:00</time>
      <extensions>
        <activity type="ON_FOOT" conf="96" state="moving" tsMs="1776969878407"/>
        <radio op="vodafone IT" rat="LTE" q="37.40" rsrp="-91" sinr="6" rsrq="-9"/>
        <radio op="I TIM" rat="LTE" rsrp="-106" rsrq="-19"/>
      </extensions>
    </trkpt>
    <trkpt lat="45.5961628" lon="10.4452364">
      <ele>256.3999938964844</ele>
      <time>2026-04-23T20:45:13.915+02:00</time>
      <extensions>
        <activity type="ON_FOOT" conf="96" state="moving" tsMs="1776969910533"/>
        <radio op="vodafone IT" rat="LTE" q="16.80" rsrp="-97" sinr="1" rsrq="-12"/>
        <radio op="I TIM" rat="LTE" q="26.40" rsrp="-92" sinr="3" rsrq="-13"/>
      </extensions>
    </trkpt>
    <trkpt lat="45.5964389" lon="10.4465821">
      <ele>256.8999938964844</ele>
      <time>2026-04-23T20:45:45.336+02:00</time>
      <extensions>
        <activity type="ON_FOOT" conf="96" state="moving" tsMs="1776969941042"/>
        <radio op="vodafone IT" rat="LTE" rsrp="-96" rsrq="-11"/>
        <radio op="I TIM" rat="LTE" q="48.00" rsrp="-81" sinr="7" rsrq="-10"/>
      </extensions>
    </trkpt>
    <trkpt lat="45.5973454" lon="10.4476037">
      <ele>256.1000061035156</ele>
      <time>2026-04-23T20:46:16.74+02:00</time>
      <extensions>
        <activity type="ON_FOOT" conf="96" state="moving" tsMs="1776969971195"/>
        <radio op="vodafone IT" rat="LTE" q="37.00" rsrp="-88" sinr="5" rsrq="-12"/>
        <radio op="I TIM" rat="LTE" q="34.00" rsrp="-91" sinr="5" rsrq="-13"/>
      </extensions>
    </trkpt>
    <trkpt lat="45.5974217" lon="10.4475405">
      <ele>256.3999938964844</ele>
      <time>2026-04-23T20:46:48.25+02:00</time>
      <extensions>
        <activity type="ON_FOOT" conf="96" state="moving" tsMs="1776970002615"/>
        <radio op="vodafone IT" rat="LTE" rsrp="-102" rsrq="-14"/>
        <radio op="I TIM" rat="LTE" q="44.00" rsrp="-82" sinr="6" rsrq="-10"/>
      </extensions>
    </trkpt>
    <trkpt lat="45.5975691" lon="10.4483616">
      <ele>257.8000183105469</ele>
      <time>2026-04-23T20:47:19.668+02:00</time>
      <extensions>
        <activity type="ON_FOOT" conf="96" state="moving" tsMs="1776970035248"/>
        <radio op="vodafone IT" rat="LTE" rsrp="-101" rsrq="-13"/>
        <radio op="I TIM" rat="LTE" q="35.20" rsrp="-93" sinr="6" rsrq="-12"/>
      </extensions>
    </trkpt>
    <trkpt lat="45.5977902" lon="10.4482046">
      <ele>257.8000183105469</ele>
      <time>2026-04-23T20:47:51.136+02:00</time>
      <extensions>
        <activity type="ON_FOOT" conf="96" state="moving" tsMs="1776970065445"/>
        <radio op="vodafone IT" rat="LTE" rsrp="-102" rsrq="-15"/>
        <radio op="I TIM" rat="LTE" q="45.50" rsrp="-90" sinr="8" rsrq="-13"/>
      </extensions>
    </trkpt>
    <trkpt lat="45.5979661" lon="10.4485873">
      <ele>257.8000183105469</ele>
      <time>2026-04-23T20:48:22.605+02:00</time>
      <extensions>
        <activity type="ON_FOOT" conf="96" state="moving" tsMs="1776970098189"/>
        <radio op="vodafone IT" rat="LTE" rsrp="-99" rsrq="-12"/>
        <radio op="I TIM" rat="LTE" q="61.20" rsrp="-89" sinr="12" rsrq="-13"/>
      </extensions>
    </trkpt>
    <trkpt lat="45.5988567" lon="10.4489479">
      <ele>257.9000244140625</ele>
      <time>2026-04-23T20:48:54.121+02:00</time>
      <extensions>
        <activity type="ON_FOOT" conf="96" state="moving" tsMs="1776970129681"/>
        <radio op="vodafone IT" rat="LTE" rsrp="-89" rsrq="-9"/>
        <radio op="I TIM" rat="LTE" q="80.00" rsrp="-83" sinr="15" rsrq="-12"/>
      </extensions>
    </trkpt>
    <trkpt lat="45.5991113" lon="10.4494342">
      <ele>257.8000183105469</ele>
      <time>2026-04-23T20:49:25.613+02:00</time>
      <extensions>
        <activity type="ON_FOOT" conf="96" state="moving" tsMs="1776970161332"/>
        <radio op="vodafone IT" rat="LTE" q="20.30" rsrp="-96" sinr="2" rsrq="-13"/>
        <radio op="I TIM" rat="LTE" q="80.00" rsrp="-84" sinr="15" rsrq="-11"/>
      </extensions>
    </trkpt>
    <trkpt lat="45.5990628" lon="10.4494186">
      <ele>257.8000183105469</ele>
      <time>2026-04-23T20:49:32.408+02:00</time>
      <extensions>
        <activity type="ON_FOOT" conf="96" state="moving" tsMs="1776970171238"/>
        <radio op="vodafone IT" rat="LTE" q="24.30" rsrp="-98" sinr="4" rsrq="-11"/>
        <radio op="I TIM" rat="LTE" q="46.80" rsrp="-89" sinr="8" rsrq="-13"/>
      </extensions>
    </trkpt>
    <trkpt lat="45.5991584" lon="10.4500525">
      <ele>257.8000183105469</ele>
      <time>2026-04-23T20:50:07.178+02:00</time>
      <extensions>
        <activity type="ON_FOOT" conf="96" state="moving" tsMs="1776970203380"/>
        <radio op="vodafone IT" rat="LTE" rsrp="-99" rsrq="-11"/>
        <radio op="I TIM" rat="LTE" q="22.40" rsrp="-97" sinr="3" rsrq="-12"/>
      </extensions>
    </trkpt>
    <trkpt lat="45.5992467" lon="10.4499965">
      <ele>257.8000183105469</ele>
      <time>2026-04-23T20:50:12.903+02:00</time>
      <extensions>
        <activity type="ON_FOOT" conf="96" state="moving" tsMs="1776970203380"/>
        <radio op="vodafone IT" rat="LTE" rsrp="-102" rsrq="-14"/>
        <radio op="I TIM" rat="LTE" q="32.00" rsrp="-93" sinr="5" rsrq="-13"/>
      </extensions>
    </trkpt>
    <trkpt lat="45.5992502" lon="10.4499995">
      <ele>257.8000183105469</ele>
      <time>2026-04-23T20:50:48.933+02:00</time>
      <extensions>
        <activity type="ON_FOOT" conf="96" state="moving" tsMs="1776970245127"/>
        <radio op="vodafone IT" rat="LTE" q="20.90" rsrp="-106" sinr="6" rsrq="-13"/>
        <radio op="I TIM" rat="LTE" q="39.20" rsrp="-97" sinr="9" rsrq="-13"/>
      </extensions>
    </trkpt>
    <trkpt lat="45.5998006" lon="10.451072">
      <ele>258.3000183105469</ele>
      <time>2026-04-23T20:51:22.027+02:00</time>
      <extensions>
        <activity type="ON_FOOT" conf="96" state="moving" tsMs="1776970276074"/>
        <radio op="vodafone IT" rat="LTE" q="31.20" rsrp="-99" sinr="7" rsrq="-9"/>
        <radio op="I TIM" rat="LTE" q="70.40" rsrp="-93" sinr="17" rsrq="-12"/>
      </extensions>
    </trkpt>
    <trkpt lat="45.5999337" lon="10.4510604">
      <ele>258.70001220703125</ele>
      <time>2026-04-23T20:51:52.736+02:00</time>
      <extensions>
        <activity type="ON_FOOT" conf="97" state="moving" tsMs="1776970311658"/>
        <radio op="vodafone IT" rat="LTE" q="23.00" rsrp="-102" sinr="5" rsrq="-12"/>
        <radio op="I TIM" rat="LTE" q="59.40" rsrp="-92" sinr="13" rsrq="-12"/>
      </extensions>
    </trkpt>
    <trkpt lat="45.6006246" lon="10.4516531">
      <ele>259.3000183105469</ele>
      <time>2026-04-23T20:52:24.274+02:00</time>
      <extensions>
        <activity type="ON_FOOT" conf="96" state="moving" tsMs="1776970339869"/>
        <radio op="vodafone IT" rat="LTE" q="15.60" rsrp="-99" sinr="1" rsrq="-9"/>
        <radio op="I TIM" rat="LTE" q="49.50" rsrp="-92" sinr="10" rsrq="-12"/>
      </extensions>
    </trkpt>
    <trkpt lat="45.6007058" lon="10.4524227">
      <ele>259.20001220703125</ele>
      <time>2026-04-23T20:52:50.776+02:00</time>
      <extensions>
        <activity type="ON_FOOT" conf="96" state="moving" tsMs="1776970371455"/>
        <radio op="vodafone IT" rat="LTE" q="50.40" rsrp="-97" sinr="13" rsrq="-5"/>
        <radio op="I TIM" rat="LTE" q="54.40" rsrp="-93" sinr="12" rsrq="-11"/>
      </extensions>
    </trkpt>
    <trkpt lat="45.6009383" lon="10.4531898">
      <ele>260.9000244140625</ele>
      <time>2026-04-23T20:53:26.503+02:00</time>
      <extensions>
        <activity type="ON_FOOT" conf="96" state="moving" tsMs="1776970402009"/>
        <radio op="vodafone IT" rat="LTE" q="57.60" rsrp="-93" sinr="13" rsrq="-8"/>
        <radio op="I TIM" rat="LTE" q="57.60" rsrp="-89" sinr="11" rsrq="-10"/>
      </extensions>
    </trkpt>
    <trkpt lat="45.6012604" lon="10.4535546">
      <ele>260.9000244140625</ele>
      <time>2026-04-23T20:53:57.981+02:00</time>
      <extensions>
        <activity type="ON_FOOT" conf="96" state="moving" tsMs="1776970433575"/>
        <radio op="vodafone IT" rat="LTE" q="60.80" rsrp="-93" sinr="14" rsrq="-11"/>
        <radio op="I TIM" rat="LTE" q="85.00" rsrp="-91" sinr="21" rsrq="-12"/>
      </extensions>
    </trkpt>
    <trkpt lat="45.6018778" lon="10.453102">
      <ele>261.3000183105469</ele>
      <time>2026-04-23T20:54:29.348+02:00</time>
      <extensions>
        <activity type="ON_FOOT" conf="96" state="moving" tsMs="1776970463833"/>
        <radio op="vodafone IT" rat="LTE" q="67.20" rsrp="-97" sinr="19" rsrq="-6"/>
        <radio op="I TIM" rat="LTE" q="89.70" rsrp="-86" sinr="18" rsrq="-11"/>
      </extensions>
    </trkpt>
    <trkpt lat="45.6022546" lon="10.4533708">
      <ele>261.8000183105469</ele>
      <time>2026-04-23T20:55:00.831+02:00</time>
      <extensions>
        <activity type="ON_FOOT" conf="96" state="moving" tsMs="1776970496414"/>
        <radio op="vodafone IT" rat="LTE" q="23.00" rsrp="-102" sinr="5" rsrq="-12"/>
        <radio op="I TIM" rat="LTE" q="60.00" rsrp="-95" sinr="15" rsrq="-11"/>
      </extensions>
    </trkpt>
    <trkpt lat="45.6024436" lon="10.4536441">
      <ele>261.9000244140625</ele>
      <time>2026-04-23T20:55:30.784+02:00</time>
      <extensions>
        <activity type="ON_FOOT" conf="96" state="moving" tsMs="1776970527931"/>
        <radio op="vodafone IT" rat="LTE" q="19.00" rsrp="-106" sinr="5" rsrq="-11"/>
        <radio op="I TIM" rat="LTE" q="54.00" rsrp="-95" sinr="13" rsrq="-12"/>
      </extensions>
    </trkpt>
    <trkpt lat="45.6025593" lon="10.453646">
      <ele>262.0</ele>
      <time>2026-04-23T20:56:04.264+02:00</time>
      <extensions>
        <activity type="ON_FOOT" conf="97" state="moving" tsMs="1776970559714"/>
        <radio op="vodafone IT" rat="LTE" q="15.00" rsrp="-110" sinr="5" rsrq="-15"/>
        <radio op="I TIM" rat="LTE" q="20.80" rsrp="-112" sinr="11" rsrq="-11"/>
      </extensions>
    </trkpt>
    <trkpt lat="45.602558" lon="10.4536475">
      <ele>262.0</ele>
      <time>2026-04-23T20:56:36.001+02:00</time>
      <extensions>
        <activity type="UNKNOWN" conf="40" state="unknown" tsMs="1776970591419"/>
        <radio op="vodafone IT" rat="LTE" q="3.00" rsrp="-120" sinr="1" rsrq="-14"/>
        <radio op="I TIM" rat="LTE" q="9.00" rsrp="-116" sinr="5" rsrq="-13"/>
      </extensions>
    </trkpt>
    <trkpt lat="45.6025577" lon="10.4536473">
      <ele>262.0</ele>
      <time>2026-04-23T20:57:07.791+02:00</time>
      <extensions>
        <activity type="STILL" conf="39" state="still" tsMs="1776970623366"/>
        <radio op="vodafone IT" rat="LTE" q="11.00" rsrp="-114" sinr="5" rsrq="-13"/>
        <radio op="I TIM" rat="LTE" rsrp="-120" rsrq="-14"/>
      </extensions>
    </trkpt>
    <trkpt lat="45.6025568" lon="10.4536463">
      <ele>262.0</ele>
      <time>2026-04-23T20:57:39.354+02:00</time>
      <extensions>
        <activity type="UNKNOWN" conf="40" state="unknown" tsMs="1776970654950"/>
        <radio op="vodafone IT" rat="LTE" q="8.80" rsrp="-114" sinr="3" rsrq="-12"/>
        <radio op="I TIM" rat="LTE" q="9.60" rsrp="-117" sinr="7" rsrq="-12"/>
      </extensions>
    </trkpt>
    <trkpt lat="45.6025703" lon="10.453655">
      <ele>262.0</ele>
      <time>2026-04-23T20:58:11.075+02:00</time>
      <extensions>
        <activity type="UNKNOWN" conf="40" state="unknown" tsMs="1776970686624"/>
        <radio op="vodafone IT" rat="LTE" q="13.60" rsrp="-108" sinr="3" rsrq="-12"/>
        <radio op="I TIM" rat="LTE" q="25.20" rsrp="-113" sinr="16" rsrq="-12"/>
      </extensions>
    </trkpt>
    <trkpt lat="45.6025579" lon="10.4536474">
      <ele>262.0</ele>
      <time>2026-04-23T20:58:42.721+02:00</time>
      <extensions>
        <activity type="UNKNOWN" conf="40" state="unknown" tsMs="1776970716922"/>
        <radio op="vodafone IT" rat="LTE" q="20.80" rsrp="-112" sinr="11" rsrq="-13"/>
        <radio op="I TIM" rat="LTE" rsrp="-117" rsrq="-14"/>
      </extensions>
    </trkpt>
    <trkpt lat="45.602559" lon="10.4536474">
      <ele>262.0</ele>
      <time>2026-04-23T20:59:14.333+02:00</time>
      <extensions>
        <activity type="UNKNOWN" conf="40" state="unknown" tsMs="1776970749930"/>
        <radio op="vodafone IT" rat="LTE" q="28.60" rsrp="-112" sinr="17" rsrq="-12"/>
        <radio op="I TIM" rat="LTE" q="6.00" rsrp="-120" sinr="7" rsrq="-13"/>
      </extensions>
    </trkpt>
  </trkseg></trk>
</gpx>
