<?xml version="1.0" encoding="UTF-8"?>
<gpx version="1.1" creator="CellGPX" xmlns="http://www.topografix.com/GPX/1/1">
  <trk><name>CellGPX</name><trkseg>
    <trkpt lat="45.6025559" lon="10.4536505">
      <ele>261.8000183105469</ele>
      <time>2026-05-14T09:42:05.949+02:00</time>
      <extensions>
        <activity type="STILL" conf="100" state="still" tsMs="1778744505718"/>
        <radio op="vodafone IT" rat="LTE" rsrp="-105" rsrq="-13"/>
        <radio op="I TIM" rat="LTE" q="6.60" rsrp="-114" sinr="1" rsrq="-13"/>
      </extensions>
    </trkpt>
    <trkpt lat="45.6025554" lon="10.4536535">
      <ele>261.8000183105469</ele>
      <time>2026-05-14T09:42:57.926+02:00</time>
      <extensions>
        <activity type="STILL" conf="100" state="still" tsMs="1778744567639"/>
        <radio op="vodafone IT" rat="LTE" q="4.00" rsrp="-120" sinr="3" rsrq="-13"/>
        <radio op="I TIM" rat="LTE" q="9.90" rsrp="-114" sinr="4" rsrq="-12"/>
      </extensions>
    </trkpt>
    <trkpt lat="45.602555" lon="10.4536521">
      <ele>261.8000183105469</ele>
      <time>2026-05-14T09:44:00.18+02:00</time>
      <extensions>
        <activity type="STILL" conf="100" state="still" tsMs="1778744629882"/>
        <radio op="vodafone IT" rat="LTE" rsrp="-117" rsrq="-12"/>
        <radio op="I TIM" rat="LTE" q="8.40" rsrp="-113" sinr="2" rsrq="-12"/>
      </extensions>
    </trkpt>
    <trkpt lat="45.6025544" lon="10.4536507">
      <ele>261.8000183105469</ele>
      <time>2026-05-14T09:45:02.344+02:00</time>
      <extensions>
        <activity type="STILL" conf="100" state="still" tsMs="1778744691966"/>
        <radio op="vodafone IT" rat="LTE" rsrp="-115" rsrq="-12"/>
        <radio op="I TIM" rat="LTE" q="10.80" rsrp="-113" sinr="4" rsrq="-12"/>
      </extensions>
    </trkpt>
    <trkpt lat="45.6025561" lon="10.4536532">
      <ele>261.8000183105469</ele>
      <time>2026-05-14T11:36:50.026+02:00</time>
      <extensions>
        <activity type="STILL" conf="100" state="still" tsMs="1778751389546"/>
        <radio op="vodafone IT" rat="LTE" q="9.80" rsrp="-111" sinr="2" rsrq="-14"/>
        <radio op="I TIM" rat="LTE" q="25.60" rsrp="-109" sinr="11" rsrq="-12"/>
      </extensions>
    </trkpt>
    <trkpt lat="45.6025537" lon="10.4536589">
      <ele>261.8000183105469</ele>
      <time>2026-05-14T11:37:41.773+02:00</time>
      <extensions>
        <activity type="STILL" conf="100" state="still" tsMs="1778751451561"/>
        <radio op="vodafone IT" rat="LTE" q="9.80" rsrp="-111" sinr="2" rsrq="-13"/>
        <radio op="I TIM" rat="LTE" q="12.80" rsrp="-109" sinr="3" rsrq="-10"/>
      </extensions>
    </trkpt>
    <trkpt lat="45.6025573" lon="10.4536559">
      <ele>261.8000183105469</ele>
      <time>2026-05-14T11:38:43.622+02:00</time>
      <extensions>
        <activity type="STILL" conf="100" state="still" tsMs="1778751513421"/>
        <radio op="vodafone IT" rat="LTE" q="7.00" rsrp="-115" sinr="2" rsrq="-12"/>
        <radio op="I TIM" rat="LTE" q="13.50" rsrp="-110" sinr="4" rsrq="-12"/>
      </extensions>
    </trkpt>
    <trkpt lat="45.6025549" lon="10.4536558">
      <ele>261.8000183105469</ele>
      <time>2026-05-14T11:39:45.305+02:00</time>
      <extensions>
        <activity type="STILL" conf="100" state="still" tsMs="1778751575088"/>
        <radio op="vodafone IT" rat="LTE" q="13.20" rsrp="-113" sinr="6" rsrq="-10"/>
        <radio op="I TIM" rat="LTE" q="14.40" rsrp="-109" sinr="4" rsrq="-11"/>
      </extensions>
    </trkpt>
    <trkpt lat="45.6022755" lon="10.4535268">
      <ele>261.8000183105469</ele>
      <time>2026-05-14T11:50:01.468+02:00</time>
      <extensions>
        <activity type="ON_FOOT" conf="97" state="moving" tsMs="1778752183981"/>
        <radio op="vodafone IT" rat="LTE" rsrp="-93" rsrq="-14"/>
        <radio op="I TIM" rat="LTE" rsrp="-102" rsrq="-12"/>
      </extensions>
    </trkpt>
    <trkpt lat="45.6021871" lon="10.453173">
      <ele>261.8000183105469</ele>
      <time>2026-05-14T11:50:33.375+02:00</time>
      <extensions>
        <activity type="ON_FOOT" conf="95" state="moving" tsMs="1778752232475"/>
        <radio op="vodafone IT" rat="LTE" rsrp="-94" rsrq="-12"/>
        <radio op="I TIM" rat="LTE" q="25.30" rsrp="-102" sinr="6" rsrq="-10"/>
      </extensions>
    </trkpt>
    <trkpt lat="45.602191" lon="10.4531278">
      <ele>261.8000183105469</ele>
      <time>2026-05-14T11:51:04.566+02:00</time>
      <extensions>
        <activity type="UNKNOWN" conf="40" state="unknown" tsMs="1778752264382"/>
        <radio op="vodafone IT" rat="LTE" q="13.80" rsrp="-102" sinr="1" rsrq="-12"/>
        <radio op="I TIM" rat="LTE" q="36.80" rsrp="-102" sinr="11" rsrq="-9"/>
      </extensions>
    </trkpt>
    <trkpt lat="45.6021368" lon="10.4547933">
      <ele>260.8000183105469</ele>
      <time>2026-05-14T11:51:41.718+02:00</time>
      <extensions>
        <activity type="UNKNOWN" conf="40" state="unknown" tsMs="1778752295630"/>
        <radio op="vodafone IT" rat="LTE" q="11.20" rsrp="-109" sinr="2" rsrq="-12"/>
        <radio op="I TIM" rat="LTE" q="9.00" rsrp="-107" sinr="0" rsrq="-11"/>
      </extensions>
    </trkpt>
    <trkpt lat="45.6037287" lon="10.4593361">
      <ele>267.7259919065681</ele>
      <time>2026-05-14T11:52:18.79+02:00</time>
      <extensions>
        <activity type="UNKNOWN" conf="40" state="unknown" tsMs="1778752334513"/>
        <radio op="vodafone IT" rat="LTE" q="100.00" rsrp="-76" sinr="26" rsrq="-11"/>
        <radio op="I TIM" rat="LTE" q="93.60" rsrp="-86" sinr="19" rsrq="-10"/>
      </extensions>
    </trkpt>
    <trkpt lat="45.6038731" lon="10.4602104">
      <ele>267.7259919065681</ele>
      <time>2026-05-14T11:52:24.718+02:00</time>
      <extensions>
        <activity type="UNKNOWN" conf="40" state="unknown" tsMs="1778752344137"/>
        <radio op="vodafone IT" rat="LTE" q="100.00" rsrp="-83" sinr="24" rsrq="-8"/>
        <radio op="I TIM" rat="LTE" q="26.40" rsrp="-103" sinr="7" rsrq="-9"/>
      </extensions>
    </trkpt>
    <trkpt lat="45.6044527" lon="10.4620791">
      <ele>264.20001220703125</ele>
      <time>2026-05-14T11:52:35.718+02:00</time>
      <extensions>
        <activity type="UNKNOWN" conf="40" state="unknown" tsMs="1778752354989"/>
        <radio op="vodafone IT" rat="LTE" q="64.00" rsrp="-83" sinr="11" rsrq="-11"/>
        <radio op="I TIM" rat="LTE" rsrp="-100" rsrq="-14"/>
      </extensions>
    </trkpt>
    <trkpt lat="45.6050168" lon="10.4639375">
      <ele>267.5</ele>
      <time>2026-05-14T11:52:46.718+02:00</time>
      <extensions>
        <activity type="IN_VEHICLE" conf="79" state="moving" tsMs="1778752360351"/>
        <radio op="vodafone IT" rat="LTE" q="96.00" rsrp="-75" sinr="19" rsrq="-7"/>
        <radio op="I TIM" rat="LTE" q="43.50" rsrp="-96" sinr="10" rsrq="-10"/>
      </extensions>
    </trkpt>
    <trkpt lat="45.6050705" lon="10.4645575">
      <ele>267.5</ele>
      <time>2026-05-14T11:52:51.717+02:00</time>
      <extensions>
        <activity type="IN_VEHICLE" conf="79" state="moving" tsMs="1778752360351"/>
        <radio op="vodafone IT" rat="LTE" q="100.00" rsrp="-73" sinr="27" rsrq="-6"/>
        <radio op="I TIM" rat="LTE" q="36.80" rsrp="-102" sinr="11" rsrq="-8"/>
      </extensions>
    </trkpt>
    <trkpt lat="45.6054034" lon="10.465378">
      <ele>267.5</ele>
      <time>2026-05-14T11:53:03.37+02:00</time>
      <extensions>
        <activity type="IN_VEHICLE" conf="83" state="moving" tsMs="1778752388859"/>
        <radio op="vodafone IT" rat="LTE" q="69.30" rsrp="-92" sinr="16" rsrq="-7"/>
        <radio op="I TIM" rat="LTE" q="40.80" rsrp="-101" sinr="12" rsrq="-7"/>
      </extensions>
    </trkpt>
    <trkpt lat="45.6078834" lon="10.4720741">
      <ele>272.9881108207146</ele>
      <time>2026-05-14T11:53:40.924+02:00</time>
      <extensions>
        <activity type="UNKNOWN" conf="40" state="unknown" tsMs="1778752415837"/>
        <radio op="vodafone IT" rat="LTE" q="44.20" rsrp="-91" sinr="8" rsrq="-7"/>
        <radio op="I TIM" rat="LTE" q="47.60" rsrp="-97" sinr="12" rsrq="-9"/>
      </extensions>
    </trkpt>
    <trkpt lat="45.6080389" lon="10.4744794">
      <ele>272.9687509887696</ele>
      <time>2026-05-14T11:53:50.717+02:00</time>
      <extensions>
        <activity type="UNKNOWN" conf="40" state="unknown" tsMs="1778752426010"/>
        <radio op="vodafone IT" rat="LTE" q="52.70" rsrp="-94" sinr="12" rsrq="-12"/>
        <radio op="I TIM" rat="LTE" q="53.20" rsrp="-97" sinr="14" rsrq="-6"/>
      </extensions>
    </trkpt>
    <trkpt lat="45.6080944" lon="10.4746792">
      <ele>266.70001220703125</ele>
      <time>2026-05-14T11:53:51.717+02:00</time>
      <extensions>
        <activity type="UNKNOWN" conf="40" state="unknown" tsMs="1778752436817"/>
        <radio op="vodafone IT" rat="LTE" q="43.40" rsrp="-94" sinr="9" rsrq="-9"/>
        <radio op="I TIM" rat="LTE" q="46.80" rsrp="-99" sinr="13" rsrq="-7"/>
      </extensions>
    </trkpt>
    <trkpt lat="45.611965" lon="10.4810038">
      <ele>271.5</ele>
      <time>2026-05-14T11:54:32.07+02:00</time>
      <extensions>
        <activity type="IN_VEHICLE" conf="90" state="moving" tsMs="1778752469148"/>
        <radio op="vodafone IT" rat="LTE" q="28.90" rsrp="-108" sinr="12" rsrq="-12"/>
        <radio op="I TIM" rat="LTE" rsrp="-118" rsrq="-11"/>
      </extensions>
    </trkpt>
    <trkpt lat="45.6115574" lon="10.4815241">
      <ele>271.5</ele>
      <time>2026-05-14T11:54:40.717+02:00</time>
      <extensions>
        <activity type="IN_VEHICLE" conf="90" state="moving" tsMs="1778752469148"/>
        <radio op="vodafone IT" rat="LTE" q="3.00" rsrp="-119" sinr="0" rsrq="-16"/>
        <radio op="I TIM" rat="LTE" q="8.40" rsrp="-111" sinr="1" rsrq="-16"/>
      </extensions>
    </trkpt>
    <trkpt lat="45.6114662" lon="10.4922691">
      <ele>228.56034486850052</ele>
      <time>2026-05-14T11:55:44.601+02:00</time>
      <extensions>
        <activity type="IN_VEHICLE" conf="90" state="moving" tsMs="1778752560421"/>
        <radio op="vodafone IT" rat="LTE" q="7.50" rsrp="-110" sinr="0" rsrq="-13"/>
        <radio op="I TIM" rat="LTE" rsrp="-117" rsrq="-13"/>
      </extensions>
    </trkpt>
    <trkpt lat="45.6097973" lon="10.4985999">
      <ele>201.36106310411134</ele>
      <time>2026-05-14T11:56:19.717+02:00</time>
      <extensions>
        <activity type="UNKNOWN" conf="40" state="unknown" tsMs="1778752586330"/>
        <radio op="vodafone IT" rat="LTE" q="44.80" rsrp="-93" sinr="9" rsrq="-9"/>
        <radio op="I TIM" rat="LTE" q="10.50" rsrp="-104" sinr="0" rsrq="-12"/>
      </extensions>
    </trkpt>
    <trkpt lat="45.6099092" lon="10.4996292">
      <ele>194.50001525878906</ele>
      <time>2026-05-14T11:56:55.485+02:00</time>
      <extensions>
        <activity type="TILTING" conf="100" state="moving" tsMs="1778752616117"/>
        <radio op="vodafone IT" rat="LTE" q="50.40" rsrp="-89" sinr="9" rsrq="-11"/>
        <radio op="I TIM" rat="LTE" q="15.50" rsrp="-94" sinr="0" rsrq="-13"/>
      </extensions>
    </trkpt>
    <trkpt lat="45.6099435" lon="10.4996486">
      <ele>197.50001525878906</ele>
      <time>2026-05-14T11:57:25.465+02:00</time>
      <extensions>
        <activity type="STILL" conf="99" state="still" tsMs="1778752646669"/>
        <radio op="vodafone IT" rat="LTE" q="76.00" rsrp="-83" sinr="14" rsrq="-10"/>
        <radio op="I TIM" rat="LTE" q="13.50" rsrp="-98" sinr="0" rsrq="-12"/>
      </extensions>
    </trkpt>
    <trkpt lat="45.6098797" lon="10.4995331">
      <ele>194.10000610351562</ele>
      <time>2026-05-14T11:57:59.174+02:00</time>
      <extensions>
        <activity type="STILL" conf="97" state="still" tsMs="1778752676196"/>
        <radio op="vodafone IT" rat="LTE" q="72.00" rsrp="-84" sinr="13" rsrq="-8"/>
        <radio op="I TIM" rat="LTE" q="26.10" rsrp="-96" sinr="4" rsrq="-9"/>
      </extensions>
    </trkpt>
    <trkpt lat="45.6098662" lon="10.499553">
      <ele>194.10000610351562</ele>
      <time>2026-05-14T11:58:30.286+02:00</time>
      <extensions>
        <activity type="STILL" conf="97" state="still" tsMs="1778752706204"/>
        <radio op="vodafone IT" rat="LTE" q="60.00" rsrp="-85" sinr="10" rsrq="-8"/>
        <radio op="I TIM" rat="LTE" q="18.90" rsrp="-98" sinr="2" rsrq="-14"/>
      </extensions>
    </trkpt>
    <trkpt lat="45.6098694" lon="10.4994865">
      <ele>194.10000610351562</ele>
      <time>2026-05-14T11:59:01.475+02:00</time>
      <extensions>
        <activity type="STILL" conf="99" state="still" tsMs="1778752736850"/>
        <radio op="vodafone IT" rat="LTE" q="72.00" rsrp="-83" sinr="13" rsrq="-6"/>
        <radio op="I TIM" rat="LTE" q="14.00" rsrp="-97" sinr="0" rsrq="-13"/>
      </extensions>
    </trkpt>
    <trkpt lat="45.6099839" lon="10.4999204">
      <ele>194.50001525878906</ele>
      <time>2026-05-14T11:59:35.719+02:00</time>
      <extensions>
        <activity type="STILL" conf="97" state="still" tsMs="1778752783151"/>
        <radio op="vodafone IT" rat="LTE" q="76.00" rsrp="-84" sinr="14" rsrq="-6"/>
        <radio op="I TIM" rat="LTE" rsrp="-93" rsrq="-10"/>
      </extensions>
    </trkpt>
    <trkpt lat="45.6098837" lon="10.4995336">
      <ele>194.10000610351562</ele>
      <time>2026-05-14T11:59:57.062+02:00</time>
      <extensions>
        <activity type="STILL" conf="97" state="still" tsMs="1778752793804"/>
        <radio op="vodafone IT" rat="LTE" q="62.40" rsrp="-86" sinr="11" rsrq="-9"/>
        <radio op="I TIM" rat="LTE" rsrp="-93" rsrq="-12"/>
      </extensions>
    </trkpt>
    <trkpt lat="45.6098908" lon="10.4994966">
      <ele>194.10000610351562</ele>
      <time>2026-05-14T12:00:30.52+02:00</time>
      <extensions>
        <activity type="STILL" conf="97" state="still" tsMs="1778752828050"/>
        <radio op="vodafone IT" rat="LTE" q="60.00" rsrp="-85" sinr="10" rsrq="-8"/>
        <radio op="I TIM" rat="LTE" q="15.00" rsrp="-95" sinr="0" rsrq="-12"/>
      </extensions>
    </trkpt>
    <trkpt lat="45.6099207" lon="10.4995967">
      <ele>194.10000610351562</ele>
      <time>2026-05-14T12:01:05.906+02:00</time>
      <extensions>
        <activity type="STILL" conf="87" state="still" tsMs="1778752863725"/>
        <radio op="vodafone IT" rat="LTE" q="64.00" rsrp="-85" sinr="11" rsrq="-7"/>
        <radio op="I TIM" rat="LTE" rsrp="-95" rsrq="-13"/>
      </extensions>
    </trkpt>
    <trkpt lat="45.6099638" lon="10.4999373">
      <ele>194.10000610351562</ele>
      <time>2026-05-14T12:01:15.616+02:00</time>
      <extensions>
        <activity type="STILL" conf="87" state="still" tsMs="1778752863725"/>
        <radio op="vodafone IT" rat="LTE" q="66.30" rsrp="-86" sinr="12" rsrq="-9"/>
        <radio op="I TIM" rat="LTE" q="18.00" rsrp="-95" sinr="1" rsrq="-12"/>
      </extensions>
    </trkpt>
    <trkpt lat="45.6098549" lon="10.4995857">
      <ele>194.10000610351562</ele>
      <time>2026-05-14T12:01:47.147+02:00</time>
      <extensions>
        <activity type="ON_FOOT" conf="84" state="moving" tsMs="1778752901898"/>
        <radio op="vodafone IT" rat="LTE" rsrp="-86" rsrq="-9"/>
        <radio op="I TIM" rat="LTE" rsrp="-89" rsrq="-13"/>
      </extensions>
    </trkpt>
    <trkpt lat="45.6099126" lon="10.4995577">
      <ele>197.74475306353685</ele>
      <time>2026-05-14T12:02:18.39+02:00</time>
      <extensions>
        <activity type="ON_FOOT" conf="96" state="moving" tsMs="1778752934548"/>
        <radio op="vodafone IT" rat="LTE" q="52.00" rsrp="-84" sinr="8" rsrq="-10"/>
        <radio op="I TIM" rat="LTE" rsrp="-101" rsrq="-16"/>
      </extensions>
    </trkpt>
    <trkpt lat="45.6098838" lon="10.4995995">
      <ele>196.8655484945545</ele>
      <time>2026-05-14T12:02:49.531+02:00</time>
      <extensions>
        <activity type="ON_FOOT" conf="84" state="moving" tsMs="1778752965767"/>
        <radio op="vodafone IT" rat="LTE" q="60.00" rsrp="-79" sinr="10" rsrq="-8"/>
        <radio op="I TIM" rat="LTE" rsrp="-96" rsrq="-15"/>
      </extensions>
    </trkpt>
    <trkpt lat="45.6098599" lon="10.4995338">
      <ele>196.65658835496598</ele>
      <time>2026-05-14T12:03:08.718+02:00</time>
      <extensions>
        <activity type="STILL" conf="72" state="still" tsMs="1778752986239"/>
        <radio op="vodafone IT" rat="LTE" q="60.00" rsrp="-80" sinr="10" rsrq="-9"/>
        <radio op="I TIM" rat="LTE" rsrp="-95" rsrq="-17"/>
      </extensions>
    </trkpt>
    <trkpt lat="45.6098729" lon="10.4996196">
      <ele>196.53308438756122</ele>
      <time>2026-05-14T12:03:40.883+02:00</time>
      <extensions>
        <activity type="STILL" conf="98" state="still" tsMs="1778753019877"/>
        <radio op="vodafone IT" rat="LTE" q="64.00" rsrp="-78" sinr="11" rsrq="-10"/>
        <radio op="I TIM" rat="LTE" q="23.80" rsrp="-91" sinr="2" rsrq="-14"/>
      </extensions>
    </trkpt>
    <trkpt lat="45.6098708" lon="10.4996247">
      <ele>196.46272065145615</ele>
      <time>2026-05-14T12:04:12.034+02:00</time>
      <extensions>
        <activity type="STILL" conf="82" state="still" tsMs="1778753048610"/>
        <radio op="vodafone IT" rat="LTE" q="48.00" rsrp="-82" sinr="7" rsrq="-9"/>
        <radio op="I TIM" rat="LTE" rsrp="-90" rsrq="-14"/>
      </extensions>
    </trkpt>
    <trkpt lat="45.6098877" lon="10.4996156">
      <ele>196.6290358645948</ele>
      <time>2026-05-14T12:04:39.479+02:00</time>
      <extensions>
        <activity type="STILL" conf="64" state="still" tsMs="1778753079396"/>
        <radio op="vodafone IT" rat="LTE" q="60.00" rsrp="-80" sinr="10" rsrq="-8"/>
        <radio op="I TIM" rat="LTE" q="27.90" rsrp="-94" sinr="4" rsrq="-14"/>
      </extensions>
    </trkpt>
    <trkpt lat="45.6098738" lon="10.4996465">
      <ele>194.10000610351562</ele>
      <time>2026-05-14T12:05:09.354+02:00</time>
      <extensions>
        <activity type="STILL" conf="95" state="still" tsMs="1778753112612"/>
        <radio op="vodafone IT" rat="LTE" q="52.00" rsrp="-80" sinr="8" rsrq="-9"/>
        <radio op="I TIM" rat="LTE" q="24.00" rsrp="-85" sinr="1" rsrq="-13"/>
      </extensions>
    </trkpt>
    <trkpt lat="45.6098612" lon="10.4996245">
      <ele>194.10000610351562</ele>
      <time>2026-05-14T12:05:43.906+02:00</time>
      <extensions>
        <activity type="STILL" conf="99" state="still" tsMs="1778753141212"/>
        <radio op="vodafone IT" rat="LTE" q="52.00" rsrp="-80" sinr="8" rsrq="-9"/>
        <radio op="I TIM" rat="LTE" rsrp="-85" rsrq="-13"/>
      </extensions>
    </trkpt>
    <trkpt lat="45.6100195" lon="10.4997835">
      <ele>192.27525276949768</ele>
      <time>2026-05-14T12:44:49.713+02:00</time>
      <extensions>
        <activity type="ON_FOOT" conf="91" state="moving" tsMs="1778755467708"/>
        <radio op="vodafone IT" rat="LTE" q="27.00" rsrp="-98" sinr="5" rsrq="-7"/>
        <radio op="I TIM" rat="LTE" rsrp="-95" rsrq="-18"/>
      </extensions>
    </trkpt>
    <trkpt lat="45.6099703" lon="10.4999243">
      <ele>192.04485251882923</ele>
      <time>2026-05-14T12:44:59.779+02:00</time>
      <extensions>
        <activity type="ON_FOOT" conf="96" state="moving" tsMs="1778755488019"/>
        <radio op="vodafone IT" rat="LTE" q="27.30" rsrp="-104" sinr="8" rsrq="-9"/>
        <radio op="I TIM" rat="LTE" rsrp="-103" rsrq="-16"/>
      </extensions>
    </trkpt>
    <trkpt lat="45.6099812" lon="10.4999248">
      <ele>191.65019976486974</ele>
      <time>2026-05-14T12:45:09.75+02:00</time>
      <extensions>
        <activity type="ON_FOOT" conf="96" state="moving" tsMs="1778755488019"/>
        <radio op="vodafone IT" rat="LTE" q="26.60" rsrp="-106" sinr="9" rsrq="-10"/>
        <radio op="I TIM" rat="LTE" rsrp="-107" rsrq="-19"/>
      </extensions>
    </trkpt>
    <trkpt lat="45.6100474" lon="10.4997886">
      <ele>191.8741896459842</ele>
      <time>2026-05-14T12:45:19.718+02:00</time>
      <extensions>
        <activity type="UNKNOWN" conf="40" state="unknown" tsMs="1778755515053"/>
        <radio op="vodafone IT" rat="LTE" q="38.00" rsrp="-106" sinr="15" rsrq="-8"/>
        <radio op="I TIM" rat="LTE" rsrp="-110" rsrq="-16"/>
      </extensions>
    </trkpt>
    <trkpt lat="45.610224" lon="10.4998879">
      <ele>192.72220914658948</ele>
      <time>2026-05-14T12:45:29.715+02:00</time>
      <extensions>
        <activity type="UNKNOWN" conf="40" state="unknown" tsMs="1778755525741"/>
        <radio op="vodafone IT" rat="LTE" q="11.70" rsrp="-112" sinr="4" rsrq="-9"/>
        <radio op="I TIM" rat="LTE" q="10.80" rsrp="-107" sinr="1" rsrq="-14"/>
      </extensions>
    </trkpt>
    <trkpt lat="45.6105084" lon="10.5010296">
      <ele>189.9629968153775</ele>
      <time>2026-05-14T12:45:39.714+02:00</time>
      <extensions>
        <activity type="UNKNOWN" conf="40" state="unknown" tsMs="1778755536388"/>
        <radio op="vodafone IT" rat="LTE" rsrp="-118" rsrq="-12"/>
        <radio op="I TIM" rat="LTE" rsrp="-117" rsrq="-14"/>
      </extensions>
    </trkpt>
    <trkpt lat="45.6110938" lon="10.5002991">
      <ele>188.90733020577693</ele>
      <time>2026-05-14T12:45:49.715+02:00</time>
      <extensions>
        <activity type="IN_VEHICLE" conf="96" state="moving" tsMs="1778755547005"/>
        <radio op="vodafone IT" rat="LTE" q="31.50" rsrp="-104" sinr="10" rsrq="-12"/>
        <radio op="I TIM" rat="LTE" rsrp="-118" rsrq="-15"/>
      </extensions>
    </trkpt>
    <trkpt lat="45.6114965" lon="10.4990808">
      <ele>197.50001525878906</ele>
      <time>2026-05-14T12:45:59.715+02:00</time>
      <extensions>
        <activity type="IN_VEHICLE" conf="97" state="moving" tsMs="1778755557685"/>
        <radio op="vodafone IT" rat="LTE" q="12.60" rsrp="-107" sinr="2" rsrq="-9"/>
        <radio op="I TIM" rat="LTE" rsrp="-116" rsrq="-16"/>
      </extensions>
    </trkpt>
    <trkpt lat="45.6107028" lon="10.4980264">
      <ele>206.34905931000074</ele>
      <time>2026-05-14T12:46:09.715+02:00</time>
      <extensions>
        <activity type="IN_VEHICLE" conf="96" state="moving" tsMs="1778755568315"/>
        <radio op="vodafone IT" rat="LTE" q="23.40" rsrp="-107" sinr="8" rsrq="-13"/>
        <radio op="I TIM" rat="LTE" q="4.50" rsrp="-120" sinr="4" rsrq="-14"/>
      </extensions>
    </trkpt>
    <trkpt lat="45.6108227" lon="10.4968838">
      <ele>212.3752809587961</ele>
      <time>2026-05-14T12:46:20.715+02:00</time>
      <extensions>
        <activity type="IN_VEHICLE" conf="97" state="moving" tsMs="1778755578951"/>
        <radio op="vodafone IT" rat="LTE" q="44.20" rsrp="-99" sinr="12" rsrq="-9"/>
        <radio op="I TIM" rat="LTE" rsrp="-118" rsrq="-16"/>
      </extensions>
    </trkpt>
    <trkpt lat="45.6111268" lon="10.4956146">
      <ele>218.18073872200182</ele>
      <time>2026-05-14T12:46:30.715+02:00</time>
      <extensions>
        <activity type="IN_VEHICLE" conf="96" state="moving" tsMs="1778755589602"/>
        <radio op="vodafone IT" rat="LTE" q="60.00" rsrp="-95" sinr="15" rsrq="-5"/>
        <radio op="I TIM" rat="LTE" rsrp="-114" rsrq="-17"/>
      </extensions>
    </trkpt>
    <trkpt lat="45.6111306" lon="10.4955824">
      <ele>217.3000030517578</ele>
      <time>2026-05-14T12:46:40.714+02:00</time>
      <extensions>
        <activity type="IN_VEHICLE" conf="95" state="moving" tsMs="1778755599174"/>
        <radio op="vodafone IT" rat="LTE" q="76.80" rsrp="-93" sinr="19" rsrq="-10"/>
        <radio op="I TIM" rat="LTE" rsrp="-116" rsrq="-14"/>
      </extensions>
    </trkpt>
    <trkpt lat="45.6111306" lon="10.4955824">
      <ele>217.3000030517578</ele>
      <time>2026-05-14T12:46:50.714+02:00</time>
      <extensions>
        <activity type="STILL" conf="100" state="still" tsMs="1778755609188"/>
        <radio op="vodafone IT" rat="LTE" q="79.20" rsrp="-92" sinr="19" rsrq="-9"/>
        <radio op="I TIM" rat="LTE" rsrp="-116" rsrq="-14"/>
      </extensions>
    </trkpt>
    <trkpt lat="45.6111306" lon="10.4955824">
      <ele>217.3000030517578</ele>
      <time>2026-05-14T12:47:00.714+02:00</time>
      <extensions>
        <activity type="STILL" conf="99" state="still" tsMs="1778755619525"/>
        <radio op="vodafone IT" rat="LTE" q="72.60" rsrp="-92" sinr="17" rsrq="-8"/>
        <radio op="I TIM" rat="LTE" rsrp="-116" rsrq="-14"/>
      </extensions>
    </trkpt>
    <trkpt lat="45.6115851" lon="10.4955915">
      <ele>219.58563228883287</ele>
      <time>2026-05-14T12:47:10.715+02:00</time>
      <extensions>
        <activity type="UNKNOWN" conf="40" state="unknown" tsMs="1778755630173"/>
        <radio op="vodafone IT" rat="LTE" q="60.90" rsrp="-96" sinr="16" rsrq="-11"/>
        <radio op="I TIM" rat="LTE" rsrp="-113" rsrq="-14"/>
      </extensions>
    </trkpt>
    <trkpt lat="45.6124846" lon="10.4964859">
      <ele>224.71014228041292</ele>
      <time>2026-05-14T12:47:20.715+02:00</time>
      <extensions>
        <activity type="UNKNOWN" conf="40" state="unknown" tsMs="1778755635484"/>
        <radio op="vodafone IT" rat="LTE" q="51.00" rsrp="-95" sinr="12" rsrq="-9"/>
        <radio op="I TIM" rat="LTE" rsrp="-117" rsrq="-17"/>
      </extensions>
    </trkpt>
    <trkpt lat="45.6135694" lon="10.4972296">
      <ele>229.86785894856334</ele>
      <time>2026-05-14T12:47:30.715+02:00</time>
      <extensions>
        <activity type="IN_VEHICLE" conf="86" state="moving" tsMs="1778755646101"/>
        <radio op="vodafone IT" rat="LTE" q="80.00" rsrp="-93" sinr="21" rsrq="-8"/>
        <radio op="I TIM" rat="LTE" rsrp="-124" rsrq="-17"/>
      </extensions>
    </trkpt>
    <trkpt lat="45.6148123" lon="10.4970445">
      <ele>230.28998500131658</ele>
      <time>2026-05-14T12:47:40.715+02:00</time>
      <extensions>
        <activity type="IN_VEHICLE" conf="87" state="moving" tsMs="1778755656780"/>
        <radio op="vodafone IT" rat="LTE" q="44.20" rsrp="-91" sinr="8" rsrq="-9"/>
        <radio op="I TIM" rat="LTE" q="52.20" rsrp="-96" sinr="13" rsrq="-11"/>
      </extensions>
    </trkpt>
    <trkpt lat="45.6156936" lon="10.4956604">
      <ele>230.56427090239427</ele>
      <time>2026-05-14T12:47:50.714+02:00</time>
      <extensions>
        <activity type="IN_VEHICLE" conf="96" state="moving" tsMs="1778755667453"/>
        <radio op="vodafone IT" rat="LTE" q="50.40" rsrp="-101" sinr="16" rsrq="-11"/>
        <radio op="I TIM" rat="LTE" q="32.00" rsrp="-105" sinr="11" rsrq="-13"/>
      </extensions>
    </trkpt>
    <trkpt lat="45.6160492" lon="10.4939857">
      <ele>227.0605590505802</ele>
      <time>2026-05-14T12:48:00.715+02:00</time>
      <extensions>
        <activity type="IN_VEHICLE" conf="95" state="moving" tsMs="1778755678104"/>
        <radio op="vodafone IT" rat="LTE" q="92.50" rsrp="-88" sinr="22" rsrq="-10"/>
        <radio op="I TIM" rat="LTE" q="23.80" rsrp="-108" sinr="9" rsrq="-12"/>
      </extensions>
    </trkpt>
    <trkpt lat="45.6168341" lon="10.4935454">
      <ele>226.8656389824576</ele>
      <time>2026-05-14T12:48:10.715+02:00</time>
      <extensions>
        <activity type="IN_VEHICLE" conf="88" state="moving" tsMs="1778755688855"/>
        <radio op="vodafone IT" rat="LTE" q="45.00" rsrp="-107" sinr="23" rsrq="-16"/>
        <radio op="I TIM" rat="LTE" q="27.30" rsrp="-104" sinr="8" rsrq="-11"/>
      </extensions>
    </trkpt>
    <trkpt lat="45.6177323" lon="10.4926996">
      <ele>228.1129223271687</ele>
      <time>2026-05-14T12:48:20.715+02:00</time>
      <extensions>
        <activity type="IN_VEHICLE" conf="96" state="moving" tsMs="1778755699594"/>
        <radio op="vodafone IT" rat="LTE" q="21.00" rsrp="-111" sinr="10" rsrq="-11"/>
        <radio op="I TIM" rat="LTE" q="29.40" rsrp="-111" sinr="16" rsrq="-11"/>
      </extensions>
    </trkpt>
    <trkpt lat="45.6179718" lon="10.4930639">
      <ele>227.24318980562106</ele>
      <time>2026-05-14T12:48:30.714+02:00</time>
      <extensions>
        <activity type="IN_VEHICLE" conf="88" state="moving" tsMs="1778755710283"/>
        <radio op="vodafone IT" rat="LTE" q="45.90" rsrp="-98" sinr="12" rsrq="-9"/>
        <radio op="I TIM" rat="LTE" q="29.40" rsrp="-111" sinr="16" rsrq="-12"/>
      </extensions>
    </trkpt>
    <trkpt lat="45.6175542" lon="10.4934377">
      <ele>226.40781527560688</ele>
      <time>2026-05-14T12:48:40.715+02:00</time>
      <extensions>
        <activity type="IN_VEHICLE" conf="91" state="moving" tsMs="1778755721048"/>
        <radio op="vodafone IT" rat="LTE" rsrp="-114" rsrq="-17"/>
        <radio op="I TIM" rat="LTE" q="37.80" rsrp="-107" sinr="16" rsrq="-11"/>
      </extensions>
    </trkpt>
    <trkpt lat="45.6175437" lon="10.4934555">
      <ele>224.79502864917998</ele>
      <time>2026-05-14T12:48:50.715+02:00</time>
      <extensions>
        <activity type="IN_VEHICLE" conf="91" state="moving" tsMs="1778755721048"/>
        <radio op="vodafone IT" rat="LTE" q="24.70" rsrp="-106" sinr="8" rsrq="-12"/>
        <radio op="I TIM" rat="LTE" q="41.80" rsrp="-103" sinr="14" rsrq="-11"/>
      </extensions>
    </trkpt>
    <trkpt lat="45.6175493" lon="10.4934587">
      <ele>224.73757686170953</ele>
      <time>2026-05-14T12:49:01.714+02:00</time>
      <extensions>
        <activity type="UNKNOWN" conf="40" state="unknown" tsMs="1778755725606"/>
        <radio op="vodafone IT" rat="LTE" q="57.50" rsrp="-102" sinr="21" rsrq="-9"/>
        <radio op="I TIM" rat="LTE" q="46.00" rsrp="-105" sinr="18" rsrq="-12"/>
      </extensions>
    </trkpt>
    <trkpt lat="45.6175493" lon="10.4934587">
      <ele>224.73329397996062</ele>
      <time>2026-05-14T12:49:11.714+02:00</time>
      <extensions>
        <activity type="UNKNOWN" conf="40" state="unknown" tsMs="1778755740647"/>
        <radio op="vodafone IT" rat="LTE" q="55.00" rsrp="-103" sinr="20" rsrq="-13"/>
        <radio op="I TIM" rat="LTE" q="42.00" rsrp="-104" sinr="15" rsrq="-12"/>
      </extensions>
    </trkpt>
    <trkpt lat="45.6175493" lon="10.4934587">
      <ele>224.93030874793416</ele>
      <time>2026-05-14T12:49:21.715+02:00</time>
      <extensions>
        <activity type="UNKNOWN" conf="40" state="unknown" tsMs="1778755740647"/>
        <radio op="vodafone IT" rat="LTE" q="57.50" rsrp="-102" sinr="21" rsrq="-10"/>
        <radio op="I TIM" rat="LTE" q="58.80" rsrp="-97" sinr="16" rsrq="-12"/>
      </extensions>
    </trkpt>
    <trkpt lat="45.617585" lon="10.4936446">
      <ele>226.60000610351562</ele>
      <time>2026-05-14T12:49:31.714+02:00</time>
      <extensions>
        <activity type="UNKNOWN" conf="40" state="unknown" tsMs="1778755755681"/>
        <radio op="vodafone IT" rat="LTE" q="100.00" rsrp="-77" sinr="30" rsrq="-12"/>
        <radio op="I TIM" rat="LTE" q="45.00" rsrp="-100" sinr="13" rsrq="-12"/>
      </extensions>
    </trkpt>
    <trkpt lat="45.6176371" lon="10.4938445">
      <ele>227.10000610351562</ele>
      <time>2026-05-14T12:49:41.715+02:00</time>
      <extensions>
        <activity type="ON_FOOT" conf="97" state="moving" tsMs="1778755770710"/>
        <radio op="vodafone IT" rat="LTE" q="67.50" rsrp="-98" sinr="21" rsrq="-9"/>
        <radio op="I TIM" rat="LTE" q="36.00" rsrp="-105" sinr="13" rsrq="-11"/>
      </extensions>
    </trkpt>
    <trkpt lat="45.6176497" lon="10.4939054">
      <ele>227.10000610351562</ele>
      <time>2026-05-14T12:49:45.351+02:00</time>
      <extensions>
        <activity type="ON_FOOT" conf="97" state="moving" tsMs="1778755770710"/>
        <radio op="vodafone IT" rat="LTE" q="56.00" rsrp="-97" sinr="15" rsrq="-11"/>
        <radio op="I TIM" rat="LTE" q="39.90" rsrp="-104" sinr="14" rsrq="-12"/>
      </extensions>
    </trkpt>
    <trkpt lat="45.6176537" lon="10.4938989">
      <ele>224.90000915527344</ele>
      <time>2026-05-14T12:50:24.937+02:00</time>
      <extensions>
        <activity type="ON_FOOT" conf="85" state="moving" tsMs="1778755819609"/>
        <radio op="vodafone IT" rat="LTE" q="68.20" rsrp="-94" sinr="17" rsrq="-13"/>
        <radio op="I TIM" rat="LTE" q="76.80" rsrp="-93" sinr="19" rsrq="-12"/>
      </extensions>
    </trkpt>
    <trkpt lat="45.6176382" lon="10.4941031">
      <ele>227.10000610351562</ele>
      <time>2026-05-14T12:50:56.032+02:00</time>
      <extensions>
        <activity type="UNKNOWN" conf="40" state="unknown" tsMs="1778755851551"/>
        <radio op="vodafone IT" rat="LTE" q="60.90" rsrp="-96" sinr="16" rsrq="-10"/>
        <radio op="I TIM" rat="LTE" q="65.10" rsrp="-94" sinr="16" rsrq="-10"/>
      </extensions>
    </trkpt>
    <trkpt lat="45.6176332" lon="10.4940939">
      <ele>227.10000610351562</ele>
      <time>2026-05-14T12:51:27.063+02:00</time>
      <extensions>
        <activity type="UNKNOWN" conf="40" state="unknown" tsMs="1778755882608"/>
        <radio op="vodafone IT" rat="LTE" q="59.40" rsrp="-92" sinr="13" rsrq="-11"/>
        <radio op="I TIM" rat="LTE" q="80.00" rsrp="-93" sinr="20" rsrq="-12"/>
      </extensions>
    </trkpt>
    <trkpt lat="45.6176492" lon="10.4940974">
      <ele>227.10000610351562</ele>
      <time>2026-05-14T12:51:58.239+02:00</time>
      <extensions>
        <activity type="STILL" conf="58" state="still" tsMs="1778755913804"/>
        <radio op="vodafone IT" rat="LTE" q="82.50" rsrp="-92" sinr="21" rsrq="-6"/>
        <radio op="I TIM" rat="LTE" q="80.00" rsrp="-93" sinr="20" rsrq="-12"/>
      </extensions>
    </trkpt>
    <trkpt lat="45.6176498" lon="10.4940989">
      <ele>227.10000610351562</ele>
      <time>2026-05-14T12:52:29.305+02:00</time>
      <extensions>
        <activity type="STILL" conf="44" state="still" tsMs="1778755944812"/>
        <radio op="vodafone IT" rat="LTE" q="80.00" rsrp="-93" sinr="23" rsrq="-9"/>
        <radio op="I TIM" rat="LTE" q="61.60" rsrp="-97" sinr="17" rsrq="-13"/>
      </extensions>
    </trkpt>
    <trkpt lat="45.61765" lon="10.4940968">
      <ele>227.10000610351562</ele>
      <time>2026-05-14T12:52:55.606+02:00</time>
      <extensions>
        <activity type="STILL" conf="40" state="still" tsMs="1778755959953"/>
        <radio op="vodafone IT" rat="LTE" q="64.40" rsrp="-97" sinr="18" rsrq="-12"/>
        <radio op="I TIM" rat="LTE" q="46.40" rsrp="-96" sinr="11" rsrq="-12"/>
      </extensions>
    </trkpt>
    <trkpt lat="45.6175246" lon="10.4942086">
      <ele>227.10000610351562</ele>
      <time>2026-05-14T12:53:02.297+02:00</time>
      <extensions>
        <activity type="UNKNOWN" conf="40" state="unknown" tsMs="1778755986989"/>
        <radio op="vodafone IT" rat="LTE" q="61.60" rsrp="-97" sinr="17" rsrq="-8"/>
        <radio op="I TIM" rat="LTE" q="67.20" rsrp="-97" sinr="19" rsrq="-13"/>
      </extensions>
    </trkpt>
    <trkpt lat="45.6177183" lon="10.4940413">
      <ele>227.10000610351562</ele>
      <time>2026-05-14T12:53:41.484+02:00</time>
      <extensions>
        <activity type="STILL" conf="99" state="still" tsMs="1778756019248"/>
        <radio op="vodafone IT" rat="LTE" q="100.00" rsrp="-84" sinr="27" rsrq="-8"/>
        <radio op="I TIM" rat="LTE" q="69.30" rsrp="-92" sinr="16" rsrq="-11"/>
      </extensions>
    </trkpt>
    <trkpt lat="45.6176544" lon="10.4940929">
      <ele>227.10000610351562</ele>
      <time>2026-05-14T12:54:13.008+02:00</time>
      <extensions>
        <activity type="STILL" conf="99" state="still" tsMs="1778756048591"/>
        <radio op="vodafone IT" rat="LTE" q="87.50" rsrp="-90" sinr="28" rsrq="-11"/>
        <radio op="I TIM" rat="LTE" q="70.00" rsrp="-90" sinr="15" rsrq="-12"/>
      </extensions>
    </trkpt>
    <trkpt lat="45.6177034" lon="10.4940498">
      <ele>227.10000610351562</ele>
      <time>2026-05-14T12:54:44.391+02:00</time>
      <extensions>
        <activity type="STILL" conf="99" state="still" tsMs="1778756079984"/>
        <radio op="vodafone IT" rat="LTE" q="87.50" rsrp="-90" sinr="27" rsrq="-9"/>
        <radio op="I TIM" rat="LTE" q="84.00" rsrp="-90" sinr="19" rsrq="-13"/>
      </extensions>
    </trkpt>
    <trkpt lat="45.6176898" lon="10.4940819">
      <ele>227.10000610351562</ele>
      <time>2026-05-14T12:55:15.828+02:00</time>
      <extensions>
        <activity type="STILL" conf="99" state="still" tsMs="1778756111391"/>
        <radio op="vodafone IT" rat="LTE" q="87.50" rsrp="-90" sinr="28" rsrq="-12"/>
        <radio op="I TIM" rat="LTE" q="75.60" rsrp="-89" sinr="16" rsrq="-14"/>
      </extensions>
    </trkpt>
    <trkpt lat="45.6176964" lon="10.4940562">
      <ele>227.10000610351562</ele>
      <time>2026-05-14T12:55:47.295+02:00</time>
      <extensions>
        <activity type="STILL" conf="99" state="still" tsMs="1778756142863"/>
        <radio op="vodafone IT" rat="LTE" q="97.50" rsrp="-86" sinr="29" rsrq="-9"/>
        <radio op="I TIM" rat="LTE" q="64.80" rsrp="-89" sinr="13" rsrq="-13"/>
      </extensions>
    </trkpt>
    <trkpt lat="45.6176697" lon="10.4941138">
      <ele>227.10000610351562</ele>
      <time>2026-05-14T12:56:18.755+02:00</time>
      <extensions>
        <activity type="STILL" conf="99" state="still" tsMs="1778756174346"/>
        <radio op="vodafone IT" rat="LTE" q="87.50" rsrp="-90" sinr="27" rsrq="-8"/>
        <radio op="I TIM" rat="LTE" q="79.20" rsrp="-89" sinr="17" rsrq="-13"/>
      </extensions>
    </trkpt>
    <trkpt lat="45.6176942" lon="10.4940751">
      <ele>227.10000610351562</ele>
      <time>2026-05-14T14:01:36.548+02:00</time>
      <extensions>
        <activity type="ON_FOOT" conf="94" state="moving" tsMs="1778760112864"/>
        <radio op="vodafone IT" rat="LTE" q="50.00" rsrp="-105" sinr="20" rsrq="-12"/>
        <radio op="I TIM" rat="LTE" q="28.90" rsrp="-108" sinr="12" rsrq="-13"/>
      </extensions>
    </trkpt>
    <trkpt lat="45.617661" lon="10.4940868">
      <ele>227.10000610351562</ele>
      <time>2026-05-14T14:02:07.997+02:00</time>
      <extensions>
        <activity type="ON_FOOT" conf="92" state="moving" tsMs="1778760123621"/>
        <radio op="vodafone IT" rat="LTE" q="72.50" rsrp="-96" sinr="23" rsrq="-11"/>
        <radio op="I TIM" rat="LTE" q="32.30" rsrp="-106" sinr="12" rsrq="-11"/>
      </extensions>
    </trkpt>
    <trkpt lat="45.6177447" lon="10.4937917">
      <ele>227.10000610351562</ele>
      <time>2026-05-14T14:02:39.503+02:00</time>
      <extensions>
        <activity type="ON_FOOT" conf="94" state="moving" tsMs="1778760155071"/>
        <radio op="vodafone IT" rat="LTE" q="50.40" rsrp="-104" sinr="19" rsrq="-10"/>
        <radio op="I TIM" rat="LTE" q="33.60" rsrp="-104" sinr="11" rsrq="-11"/>
      </extensions>
    </trkpt>
    <trkpt lat="45.6177816" lon="10.4937045">
      <ele>227.10000610351562</ele>
      <time>2026-05-14T14:03:10.989+02:00</time>
      <extensions>
        <activity type="UNKNOWN" conf="40" state="unknown" tsMs="1778760186639"/>
        <radio op="vodafone IT" rat="LTE" q="55.00" rsrp="-103" sinr="23" rsrq="-9"/>
        <radio op="I TIM" rat="LTE" q="45.60" rsrp="-106" sinr="19" rsrq="-11"/>
      </extensions>
    </trkpt>
    <trkpt lat="45.6182586" lon="10.4932476">
      <ele>230.58545822655486</ele>
      <time>2026-05-14T14:03:42.418+02:00</time>
      <extensions>
        <activity type="UNKNOWN" conf="40" state="unknown" tsMs="1778760218111"/>
        <radio op="vodafone IT" rat="LTE" q="26.00" rsrp="-112" sinr="15" rsrq="-9"/>
        <radio op="I TIM" rat="LTE" q="31.50" rsrp="-104" sinr="10" rsrq="-11"/>
      </extensions>
    </trkpt>
    <trkpt lat="45.6157689" lon="10.4948902">
      <ele>231.3853337303642</ele>
      <time>2026-05-14T14:04:21.716+02:00</time>
      <extensions>
        <activity type="IN_VEHICLE" conf="96" state="moving" tsMs="1778760258380"/>
        <radio op="vodafone IT" rat="LTE" q="36.30" rsrp="-92" sinr="6" rsrq="-10"/>
        <radio op="I TIM" rat="LTE" q="62.50" rsrp="-100" sinr="23" rsrq="-12"/>
      </extensions>
    </trkpt>
    <trkpt lat="45.6118846" lon="10.4957342">
      <ele>229.63556867628012</ele>
      <time>2026-05-14T14:05:02.716+02:00</time>
      <extensions>
        <activity type="IN_VEHICLE" conf="96" state="moving" tsMs="1778760294682"/>
        <radio op="vodafone IT" rat="LTE" q="33.60" rsrp="-101" sinr="9" rsrq="-11"/>
        <radio op="I TIM" rat="LTE" rsrp="-114" rsrq="-17"/>
      </extensions>
    </trkpt>
    <trkpt lat="45.6112497" lon="10.4952897">
      <ele>222.40012558561068</ele>
      <time>2026-05-14T14:05:40.036+02:00</time>
      <extensions>
        <activity type="UNKNOWN" conf="40" state="unknown" tsMs="1778760338248"/>
        <radio op="vodafone IT" rat="LTE" q="22.00" rsrp="-105" sinr="6" rsrq="-12"/>
        <radio op="I TIM" rat="LTE" rsrp="-119" rsrq="-18"/>
      </extensions>
    </trkpt>
    <trkpt lat="45.6118661" lon="10.49115">
      <ele>233.3242146972928</ele>
      <time>2026-05-14T14:06:14.717+02:00</time>
      <extensions>
        <activity type="IN_VEHICLE" conf="96" state="moving" tsMs="1778760370488"/>
        <radio op="vodafone IT" rat="LTE" q="9.00" rsrp="-110" sinr="1" rsrq="-12"/>
        <radio op="I TIM" rat="LTE" q="6.40" rsrp="-117" sinr="3" rsrq="-13"/>
      </extensions>
    </trkpt>
    <trkpt lat="45.6118436" lon="10.491025">
      <ele>233.8819384029349</ele>
      <time>2026-05-14T14:06:59.717+02:00</time>
      <extensions>
        <activity type="UNKNOWN" conf="40" state="unknown" tsMs="1778760412726"/>
        <radio op="vodafone IT" rat="LTE" rsrp="-115" rsrq="-15"/>
        <radio op="I TIM" rat="LTE" rsrp="-117" rsrq="-12"/>
      </extensions>
    </trkpt>
    <trkpt lat="45.6111946" lon="10.4828722">
      <ele>269.955431854224</ele>
      <time>2026-05-14T14:07:48.716+02:00</time>
      <extensions>
        <activity type="IN_VEHICLE" conf="96" state="moving" tsMs="1778760455833"/>
        <radio op="vodafone IT" rat="LTE" rsrp="-114" rsrq="-16"/>
        <radio op="I TIM" rat="LTE" rsrp="-116" rsrq="-17"/>
      </extensions>
    </trkpt>
    <trkpt lat="45.6115184" lon="10.4817156">
      <ele>269.70001220703125</ele>
      <time>2026-05-14T14:07:57.741+02:00</time>
      <extensions>
        <activity type="IN_VEHICLE" conf="91" state="moving" tsMs="1778760460219"/>
        <radio op="vodafone IT" rat="LTE" rsrp="-112" rsrq="-13"/>
        <radio op="I TIM" rat="LTE" q="4.50" rsrp="-116" sinr="0" rsrq="-15"/>
      </extensions>
    </trkpt>
    <trkpt lat="45.6082088" lon="10.4747092">
      <ele>278.2551739257412</ele>
      <time>2026-05-14T14:09:02.082+02:00</time>
      <extensions>
        <activity type="IN_VEHICLE" conf="94" state="moving" tsMs="1778760541143"/>
        <radio op="vodafone IT" rat="LTE" q="100.00" rsrp="-85" sinr="21" rsrq="-10"/>
        <radio op="I TIM" rat="LTE" q="67.20" rsrp="-93" sinr="16" rsrq="-10"/>
      </extensions>
    </trkpt>
    <trkpt lat="45.606457" lon="10.4688502">
      <ele>279.13281558451916</ele>
      <time>2026-05-14T14:09:36.717+02:00</time>
      <extensions>
        <activity type="IN_VEHICLE" conf="84" state="moving" tsMs="1778760572393"/>
        <radio op="vodafone IT" rat="LTE" q="100.00" rsrp="-76" sinr="27" rsrq="-7"/>
        <radio op="I TIM" rat="LTE" q="50.40" rsrp="-97" sinr="13" rsrq="-11"/>
      </extensions>
    </trkpt>
    <trkpt lat="45.6048028" lon="10.4633517">
      <ele>273.7134382292079</ele>
      <time>2026-05-14T14:10:16.472+02:00</time>
      <extensions>
        <activity type="IN_VEHICLE" conf="92" state="moving" tsMs="1778760614651"/>
        <radio op="vodafone IT" rat="LTE" q="80.00" rsrp="-77" sinr="15" rsrq="-7"/>
        <radio op="I TIM" rat="LTE" q="51.00" rsrp="-91" sinr="10" rsrq="-8"/>
      </extensions>
    </trkpt>
    <trkpt lat="45.6046319" lon="10.4627375">
      <ele>273.7134382292079</ele>
      <time>2026-05-14T14:10:22.716+02:00</time>
      <extensions>
        <activity type="IN_VEHICLE" conf="92" state="moving" tsMs="1778760614651"/>
        <radio op="vodafone IT" rat="LTE" q="68.00" rsrp="-84" sinr="12" rsrq="-8"/>
        <radio op="I TIM" rat="LTE" rsrp="-117" rsrq="-14"/>
      </extensions>
    </trkpt>
    <trkpt lat="45.6041377" lon="10.4610544">
      <ele>267.4000244140625</ele>
      <time>2026-05-14T14:10:35.717+02:00</time>
      <extensions>
        <activity type="UNKNOWN" conf="40" state="unknown" tsMs="1778760619102"/>
        <radio op="vodafone IT" rat="LTE" q="100.00" rsrp="-80" sinr="30" rsrq="-7"/>
        <radio op="I TIM" rat="LTE" q="23.40" rsrp="-107" sinr="8" rsrq="-13"/>
      </extensions>
    </trkpt>
    <trkpt lat="45.6031119" lon="10.4576887">
      <ele>263.4000244140625</ele>
      <time>2026-05-14T14:11:08.16+02:00</time>
      <extensions>
        <activity type="IN_VEHICLE" conf="85" state="moving" tsMs="1778760662954"/>
        <radio op="vodafone IT" rat="LTE" q="100.00" rsrp="-77" sinr="28" rsrq="-11"/>
        <radio op="I TIM" rat="LTE" q="97.50" rsrp="-86" sinr="24" rsrq="-7"/>
      </extensions>
    </trkpt>
    <trkpt lat="45.6030832" lon="10.4574412">
      <ele>263.4000244140625</ele>
      <time>2026-05-14T14:11:15.717+02:00</time>
      <extensions>
        <activity type="IN_VEHICLE" conf="89" state="moving" tsMs="1778760678190"/>
        <radio op="vodafone IT" rat="LTE" q="68.40" rsrp="-89" sinr="14" rsrq="-9"/>
        <radio op="I TIM" rat="LTE" q="59.50" rsrp="-90" sinr="12" rsrq="-8"/>
      </extensions>
    </trkpt>
    <trkpt lat="45.6017893" lon="10.4547715">
      <ele>263.4000244140625</ele>
      <time>2026-05-14T14:11:49.807+02:00</time>
      <extensions>
        <activity type="IN_VEHICLE" conf="89" state="moving" tsMs="1778760705148"/>
        <radio op="vodafone IT" rat="LTE" q="43.50" rsrp="-96" sinr="10" rsrq="-9"/>
        <radio op="I TIM" rat="LTE" q="14.30" rsrp="-112" sinr="6" rsrq="-11"/>
      </extensions>
    </trkpt>
    <trkpt lat="45.6015165" lon="10.4535848">
      <ele>261.3000183105469</ele>
      <time>2026-05-14T14:12:00.717+02:00</time>
      <extensions>
        <activity type="IN_VEHICLE" conf="89" state="moving" tsMs="1778760719803"/>
        <radio op="vodafone IT" rat="LTE" q="29.90" rsrp="-102" sinr="8" rsrq="-10"/>
        <radio op="I TIM" rat="LTE" rsrp="-112" rsrq="-18"/>
      </extensions>
    </trkpt>
    <trkpt lat="45.6015905" lon="10.453506">
      <ele>261.3000183105469</ele>
      <time>2026-05-14T14:12:01.716+02:00</time>
      <extensions>
        <activity type="IN_VEHICLE" conf="90" state="moving" tsMs="1778760729810"/>
        <radio op="vodafone IT" rat="LTE" q="19.20" rsrp="-101" sinr="3" rsrq="-11"/>
        <radio op="I TIM" rat="LTE" q="17.60" rsrp="-103" sinr="3" rsrq="-12"/>
      </extensions>
    </trkpt>
    <trkpt lat="45.6021216" lon="10.4533432">
      <ele>261.8000183105469</ele>
      <time>2026-05-14T14:12:11.717+02:00</time>
      <extensions>
        <activity type="IN_VEHICLE" conf="90" state="moving" tsMs="1778760735188"/>
        <radio op="vodafone IT" rat="LTE" q="50.40" rsrp="-97" sinr="13" rsrq="-12"/>
        <radio op="I TIM" rat="LTE" rsrp="-114" rsrq="-14"/>
      </extensions>
    </trkpt>
    <trkpt lat="45.6022009" lon="10.4535581">
      <ele>261.8000183105469</ele>
      <time>2026-05-14T14:12:30.717+02:00</time>
      <extensions>
        <activity type="IN_VEHICLE" conf="83" state="moving" tsMs="1778760745967"/>
        <radio op="vodafone IT" rat="LTE" q="53.20" rsrp="-97" sinr="14" rsrq="-11"/>
        <radio op="I TIM" rat="LTE" q="9.00" rsrp="-110" sinr="1" rsrq="-13"/>
      </extensions>
    </trkpt>
    <trkpt lat="45.6022009" lon="10.4535581">
      <ele>261.8000183105469</ele>
      <time>2026-05-14T14:12:31.716+02:00</time>
      <extensions>
        <activity type="TILTING" conf="100" state="moving" tsMs="1778760756698"/>
        <radio op="vodafone IT" rat="LTE" q="20.80" rsrp="-99" sinr="3" rsrq="-13"/>
        <radio op="I TIM" rat="LTE" rsrp="-107" rsrq="-15"/>
      </extensions>
    </trkpt>
    <trkpt lat="45.602562" lon="10.4535928">
      <ele>261.8000183105469</ele>
      <time>2026-05-14T14:13:11.965+02:00</time>
      <extensions>
        <activity type="ON_FOOT" conf="94" state="moving" tsMs="1778760787723"/>
        <radio op="vodafone IT" rat="LTE" q="24.00" rsrp="-101" sinr="5" rsrq="-14"/>
        <radio op="I TIM" rat="LTE" q="30.40" rsrp="-106" sinr="11" rsrq="-13"/>
      </extensions>
    </trkpt>
    <trkpt lat="45.6025204" lon="10.4535325">
      <ele>261.8000183105469</ele>
      <time>2026-05-14T14:13:19.716+02:00</time>
      <extensions>
        <activity type="ON_FOOT" conf="97" state="moving" tsMs="1778760797494"/>
        <radio op="vodafone IT" rat="LTE" q="16.80" rsrp="-104" sinr="3" rsrq="-13"/>
        <radio op="I TIM" rat="LTE" rsrp="-106" rsrq="-13"/>
      </extensions>
    </trkpt>
    <trkpt lat="45.6025544" lon="10.4536572">
      <ele>261.8000183105469</ele>
      <time>2026-05-14T14:13:53.726+02:00</time>
      <extensions>
        <activity type="UNKNOWN" conf="40" state="unknown" tsMs="1778760829803"/>
        <radio op="vodafone IT" rat="LTE" q="9.90" rsrp="-116" sinr="6" rsrq="-11"/>
        <radio op="I TIM" rat="LTE" q="1.80" rsrp="-123" sinr="4" rsrq="-12"/>
      </extensions>
    </trkpt>
    <trkpt lat="45.6025484" lon="10.4536639">
      <ele>261.8000183105469</ele>
      <time>2026-05-14T14:14:25.211+02:00</time>
      <extensions>
        <activity type="STILL" conf="62" state="still" tsMs="1778760863778"/>
        <radio op="vodafone IT" rat="LTE" q="18.70" rsrp="-108" sinr="6" rsrq="-11"/>
        <radio op="I TIM" rat="LTE" q="22.10" rsrp="-112" sinr="12" rsrq="-12"/>
      </extensions>
    </trkpt>
    <trkpt lat="45.6025508" lon="10.4536642">
      <ele>261.8000183105469</ele>
      <time>2026-05-14T14:14:55.485+02:00</time>
      <extensions>
        <activity type="STILL" conf="99" state="still" tsMs="1778760892019"/>
        <radio op="vodafone IT" rat="LTE" q="16.00" rsrp="-109" sinr="5" rsrq="-10"/>
        <radio op="I TIM" rat="LTE" q="30.00" rsrp="-110" sinr="15" rsrq="-12"/>
      </extensions>
    </trkpt>
    <trkpt lat="45.6025511" lon="10.453661">
      <ele>261.8000183105469</ele>
      <time>2026-05-14T14:15:27.369+02:00</time>
      <extensions>
        <activity type="STILL" conf="99" state="still" tsMs="1778760922652"/>
        <radio op="vodafone IT" rat="LTE" q="23.40" rsrp="-107" sinr="8" rsrq="-9"/>
        <radio op="I TIM" rat="LTE" q="30.00" rsrp="-110" sinr="15" rsrq="-11"/>
      </extensions>
    </trkpt>
    <trkpt lat="45.60255" lon="10.4536609">
      <ele>261.8000183105469</ele>
      <time>2026-05-14T14:15:58.858+02:00</time>
      <extensions>
        <activity type="STILL" conf="99" state="still" tsMs="1778760954158"/>
        <radio op="vodafone IT" rat="LTE" q="17.60" rsrp="-109" sinr="6" rsrq="-9"/>
        <radio op="I TIM" rat="LTE" q="32.00" rsrp="-109" sinr="15" rsrq="-11"/>
      </extensions>
    </trkpt>
    <trkpt lat="45.6025489" lon="10.453663">
      <ele>261.8000183105469</ele>
      <time>2026-05-14T14:16:30.199+02:00</time>
      <extensions>
        <activity type="STILL" conf="99" state="still" tsMs="1778760985587"/>
        <radio op="vodafone IT" rat="LTE" q="16.00" rsrp="-109" sinr="5" rsrq="-12"/>
        <radio op="I TIM" rat="LTE" q="20.90" rsrp="-114" sinr="14" rsrq="-12"/>
      </extensions>
    </trkpt>
    <trkpt lat="45.60255" lon="10.4536588">
      <ele>263.57881187162195</ele>
      <time>2026-05-14T14:17:01.579+02:00</time>
      <extensions>
        <activity type="STILL" conf="99" state="still" tsMs="1778761017027"/>
        <radio op="vodafone IT" rat="LTE" q="17.60" rsrp="-109" sinr="6" rsrq="-12"/>
        <radio op="I TIM" rat="LTE" q="22.10" rsrp="-112" sinr="12" rsrq="-11"/>
      </extensions>
    </trkpt>
    <trkpt lat="45.6022995" lon="10.4535905">
      <ele>261.70001220703125</ele>
      <time>2026-05-14T14:51:52.89+02:00</time>
      <extensions>
        <activity type="ON_FOOT" conf="98" state="moving" tsMs="1778763102749"/>
        <radio op="vodafone IT" rat="LTE" q="11.00" rsrp="-115" sinr="6" rsrq="-11"/>
        <radio op="I TIM" rat="LTE" q="21.60" rsrp="-101" sinr="4" rsrq="-12"/>
      </extensions>
    </trkpt>
    <trkpt lat="45.6022684" lon="10.4535238">
      <ele>261.8000183105469</ele>
      <time>2026-05-14T14:52:24.581+02:00</time>
      <extensions>
        <activity type="ON_FOOT" conf="98" state="moving" tsMs="1778763115279"/>
        <radio op="vodafone IT" rat="LTE" q="6.40" rsrp="-117" sinr="3" rsrq="-11"/>
        <radio op="I TIM" rat="LTE" q="12.00" rsrp="-105" sinr="1" rsrq="-11"/>
      </extensions>
    </trkpt>
    <trkpt lat="45.6023914" lon="10.4535836">
      <ele>261.8000183105469</ele>
      <time>2026-05-14T14:52:56.106+02:00</time>
      <extensions>
        <activity type="UNKNOWN" conf="40" state="unknown" tsMs="1778763172864"/>
        <radio op="vodafone IT" rat="LTE" rsrp="-116" rsrq="-14"/>
        <radio op="I TIM" rat="LTE" rsrp="-113" rsrq="-15"/>
      </extensions>
    </trkpt>
    <trkpt lat="45.6014941" lon="10.4538156">
      <ele>260.9000244140625</ele>
      <time>2026-05-14T14:53:27.588+02:00</time>
      <extensions>
        <activity type="UNKNOWN" conf="40" state="unknown" tsMs="1778763206379"/>
        <radio op="vodafone IT" rat="LTE" q="38.40" rsrp="-101" sinr="11" rsrq="-9"/>
        <radio op="I TIM" rat="LTE" q="14.00" rsrp="-105" sinr="2" rsrq="-13"/>
      </extensions>
    </trkpt>
    <trkpt lat="45.6027364" lon="10.4563768">
      <ele>262.4000244140625</ele>
      <time>2026-05-14T14:53:59.1+02:00</time>
      <extensions>
        <activity type="UNKNOWN" conf="40" state="unknown" tsMs="1778763237847"/>
        <radio op="vodafone IT" rat="LTE" q="37.50" rsrp="-100" sinr="10" rsrq="-9"/>
        <radio op="I TIM" rat="LTE" q="32.20" rsrp="-102" sinr="9" rsrq="-12"/>
      </extensions>
    </trkpt>
    <trkpt lat="45.6031215" lon="10.457646">
      <ele>262.4000244140625</ele>
      <time>2026-05-14T14:54:11.718+02:00</time>
      <extensions>
        <activity type="UNKNOWN" conf="40" state="unknown" tsMs="1778763241610"/>
        <radio op="vodafone IT" rat="LTE" q="100.00" rsrp="-75" sinr="30" rsrq="-9"/>
        <radio op="I TIM" rat="LTE" q="100.00" rsrp="-84" sinr="28" rsrq="-10"/>
      </extensions>
    </trkpt>
    <trkpt lat="45.6047011" lon="10.4633967">
      <ele>267.4000244140625</ele>
      <time>2026-05-14T14:54:50.819+02:00</time>
      <extensions>
        <activity type="UNKNOWN" conf="40" state="unknown" tsMs="1778763285559"/>
        <radio op="vodafone IT" rat="LTE" q="31.20" rsrp="-86" sinr="3" rsrq="-8"/>
        <radio op="I TIM" rat="LTE" rsrp="-95" rsrq="-15"/>
      </extensions>
    </trkpt>
    <trkpt lat="45.6056587" lon="10.4661123">
      <ele>267.4000244140625</ele>
      <time>2026-05-14T14:55:26.218+02:00</time>
      <extensions>
        <activity type="UNKNOWN" conf="40" state="unknown" tsMs="1778763332218"/>
        <radio op="vodafone IT" rat="LTE" q="78.00" rsrp="-86" sinr="15" rsrq="-10"/>
        <radio op="I TIM" rat="LTE" q="62.50" rsrp="-100" sinr="20" rsrq="-8"/>
      </extensions>
    </trkpt>
    <trkpt lat="45.6080036" lon="10.4743372">
      <ele>270.31254021100074</ele>
      <time>2026-05-14T14:56:10.712+02:00</time>
      <extensions>
        <activity type="IN_VEHICLE" conf="97" state="moving" tsMs="1778763364551"/>
        <radio op="vodafone IT" rat="LTE" q="88.00" rsrp="-84" sinr="17" rsrq="-10"/>
        <radio op="I TIM" rat="LTE" q="76.80" rsrp="-93" sinr="19" rsrq="-8"/>
      </extensions>
    </trkpt>
    <trkpt lat="45.6112979" lon="10.479922">
      <ele>270.1507378614494</ele>
      <time>2026-05-14T14:56:51.712+02:00</time>
      <extensions>
        <activity type="IN_VEHICLE" conf="91" state="moving" tsMs="1778763406631"/>
        <radio op="vodafone IT" rat="LTE" q="49.30" rsrp="-96" sinr="12" rsrq="-11"/>
        <radio op="I TIM" rat="LTE" q="7.70" rsrp="-114" sinr="2" rsrq="-9"/>
      </extensions>
    </trkpt>
    <trkpt lat="45.6131908" lon="10.4818312">
      <ele>271.4000244140625</ele>
      <time>2026-05-14T14:57:34.712+02:00</time>
      <extensions>
        <activity type="IN_VEHICLE" conf="85" state="moving" tsMs="1778763449432"/>
        <radio op="vodafone IT" rat="LTE" q="12.60" rsrp="-107" sinr="2" rsrq="-12"/>
        <radio op="I TIM" rat="LTE" q="9.60" rsrp="-117" sinr="7" rsrq="-15"/>
      </extensions>
    </trkpt>
    <trkpt lat="45.6188886" lon="10.483577">
      <ele>275.5</ele>
      <time>2026-05-14T14:58:17.711+02:00</time>
      <extensions>
        <activity type="IN_VEHICLE" conf="96" state="moving" tsMs="1778763496968"/>
        <radio op="vodafone IT" rat="LTE" rsrp="-117" rsrq="-14"/>
        <radio op="I TIM" rat="LTE" rsrp="-119" rsrq="-16"/>
      </extensions>
    </trkpt>
    <trkpt lat="45.6223923" lon="10.4898684">
      <ele>277.3231225755841</ele>
      <time>2026-05-14T14:59:00.712+02:00</time>
      <extensions>
        <activity type="IN_VEHICLE" conf="94" state="moving" tsMs="1778763547341"/>
        <radio op="vodafone IT" rat="LTE" q="16.00" rsrp="-105" sinr="3" rsrq="-12"/>
        <radio op="I TIM" rat="LTE" rsrp="-117" rsrq="-16"/>
      </extensions>
    </trkpt>
    <trkpt lat="45.6236996" lon="10.4935826">
      <ele>275.5</ele>
      <time>2026-05-14T14:59:40.347+02:00</time>
      <extensions>
        <activity type="UNKNOWN" conf="40" state="unknown" tsMs="1778763574286"/>
        <radio op="vodafone IT" rat="LTE" q="9.90" rsrp="-114" sinr="4" rsrq="-13"/>
        <radio op="I TIM" rat="LTE" q="3.50" rsrp="-120" sinr="2" rsrq="-13"/>
      </extensions>
    </trkpt>
    <trkpt lat="45.6237083" lon="10.4934988">
      <ele>280.1904044024175</ele>
      <time>2026-05-14T15:00:13.462+02:00</time>
      <extensions>
        <activity type="UNKNOWN" conf="40" state="unknown" tsMs="1778763611870"/>
        <radio op="vodafone IT" rat="LTE" q="26.00" rsrp="-99" sinr="5" rsrq="-11"/>
        <radio op="I TIM" rat="LTE" q="1.50" rsrp="-122" sinr="0" rsrq="-14"/>
      </extensions>
    </trkpt>
    <trkpt lat="45.6237218" lon="10.4935105">
      <ele>280.1904044024175</ele>
      <time>2026-05-14T15:00:27.712+02:00</time>
      <extensions>
        <activity type="UNKNOWN" conf="40" state="unknown" tsMs="1778763616119"/>
        <radio op="vodafone IT" rat="LTE" q="32.20" rsrp="-102" sinr="9" rsrq="-13"/>
        <radio op="I TIM" rat="LTE" q="9.60" rsrp="-113" sinr="3" rsrq="-13"/>
      </extensions>
    </trkpt>
    <trkpt lat="45.623668" lon="10.4932356">
      <ele>277.70001220703125</ele>
      <time>2026-05-14T15:01:04.844+02:00</time>
      <extensions>
        <activity type="UNKNOWN" conf="40" state="unknown" tsMs="1778763658715"/>
        <radio op="vodafone IT" rat="LTE" q="15.40" rsrp="-103" sinr="2" rsrq="-10"/>
        <radio op="I TIM" rat="LTE" q="32.40" rsrp="-107" sinr="13" rsrq="-11"/>
      </extensions>
    </trkpt>
    <trkpt lat="45.6235535" lon="10.4927936">
      <ele>277.70001220703125</ele>
      <time>2026-05-14T15:01:39.807+02:00</time>
      <extensions>
        <activity type="ON_FOOT" conf="94" state="moving" tsMs="1778763698430"/>
        <radio op="vodafone IT" rat="LTE" q="15.40" rsrp="-111" sinr="6" rsrq="-8"/>
        <radio op="I TIM" rat="LTE" q="32.00" rsrp="-105" sinr="11" rsrq="-12"/>
      </extensions>
    </trkpt>
    <trkpt lat="45.6237933" lon="10.4926481">
      <ele>277.76061434675324</ele>
      <time>2026-05-14T15:02:10.843+02:00</time>
      <extensions>
        <activity type="ON_FOOT" conf="87" state="moving" tsMs="1778763729921"/>
        <radio op="vodafone IT" rat="LTE" q="8.80" rsrp="-114" sinr="3" rsrq="-12"/>
        <radio op="I TIM" rat="LTE" q="9.80" rsrp="-118" sinr="9" rsrq="-13"/>
      </extensions>
    </trkpt>
    <trkpt lat="45.6237878" lon="10.4926533">
      <ele>287.1000061035156</ele>
      <time>2026-05-14T15:02:42.005+02:00</time>
      <extensions>
        <activity type="ON_FOOT" conf="83" state="moving" tsMs="1778763755845"/>
        <radio op="vodafone IT" rat="LTE" rsrp="-124" rsrq="-13"/>
        <radio op="I TIM" rat="LTE" rsrp="-122" rsrq="-14"/>
      </extensions>
    </trkpt>
    <trkpt lat="45.623794" lon="10.4926926">
      <ele>283.3999558706653</ele>
      <time>2026-05-14T15:03:13.791+02:00</time>
      <extensions>
        <activity type="UNKNOWN" conf="40" state="unknown" tsMs="1778763792087"/>
        <radio op="vodafone IT" rat="LTE" rsrq="-24"/>
        <radio op="I TIM" rat="LTE" rsrp="-136" rsrq="-19"/>
      </extensions>
    </trkpt>
    <trkpt lat="45.6238286" lon="10.4927004">
      <ele>287.1000061035156</ele>
      <time>2026-05-14T15:03:45.889+02:00</time>
      <extensions>
        <activity type="ON_FOOT" conf="87" state="moving" tsMs="1778763823951"/>
        <radio op="vodafone IT" rat="LTE" q="29.40" rsrp="-104" sinr="9" rsrq="-9"/>
        <radio op="I TIM" rat="LTE" q="26.60" rsrp="-106" sinr="9" rsrq="-11"/>
      </extensions>
    </trkpt>
    <trkpt lat="45.6238287" lon="10.4926951">
      <ele>287.3000183105469</ele>
      <time>2026-05-14T15:03:51.924+02:00</time>
      <extensions>
        <activity type="ON_FOOT" conf="87" state="moving" tsMs="1778763823951"/>
        <radio op="vodafone IT" rat="LTE" q="22.80" rsrp="-106" sinr="7" rsrq="-13"/>
        <radio op="I TIM" rat="LTE" q="36.00" rsrp="-107" sinr="15" rsrq="-12"/>
      </extensions>
    </trkpt>
    <trkpt lat="45.6237592" lon="10.4927605">
      <ele>289.97961917640464</ele>
      <time>2026-05-14T15:04:28.578+02:00</time>
      <extensions>
        <activity type="ON_FOOT" conf="96" state="moving" tsMs="1778763864468"/>
        <radio op="vodafone IT" rat="LTE" rsrp="-107" rsrq="-15"/>
        <radio op="I TIM" rat="LTE" q="16.80" rsrp="-113" sinr="9" rsrq="-12"/>
      </extensions>
    </trkpt>
    <trkpt lat="45.623816" lon="10.492721">
      <ele>290.6629407898227</ele>
      <time>2026-05-14T15:05:07.823+02:00</time>
      <extensions>
        <activity type="STILL" conf="98" state="still" tsMs="1778763906820"/>
        <radio op="vodafone IT" rat="LTE" q="10.20" rsrp="-108" sinr="1" rsrq="-15"/>
        <radio op="I TIM" rat="LTE" q="9.60" rsrp="-117" sinr="7" rsrq="-12"/>
      </extensions>
    </trkpt>
    <trkpt lat="45.6238088" lon="10.4927304">
      <ele>291.92809405078725</ele>
      <time>2026-05-14T15:06:02.308+02:00</time>
      <extensions>
        <activity type="STILL" conf="99" state="still" tsMs="1778763957916"/>
        <radio op="vodafone IT" rat="LTE" q="6.30" rsrp="-116" sinr="2" rsrq="-13"/>
        <radio op="I TIM" rat="LTE" q="10.80" rsrp="-113" sinr="4" rsrq="-14"/>
      </extensions>
    </trkpt>
    <trkpt lat="45.6238124" lon="10.4927221">
      <ele>291.90609814226616</ele>
      <time>2026-05-14T15:06:51.559+02:00</time>
      <extensions>
        <activity type="STILL" conf="99" state="still" tsMs="1778764009020"/>
        <radio op="vodafone IT" rat="LTE" q="24.20" rsrp="-103" sinr="6" rsrq="-13"/>
        <radio op="I TIM" rat="LTE" q="10.00" rsrp="-115" sinr="5" rsrq="-13"/>
      </extensions>
    </trkpt>
    <trkpt lat="45.6238065" lon="10.4927427">
      <ele>287.1000061035156</ele>
      <time>2026-05-14T16:13:45.165+02:00</time>
      <extensions>
        <activity type="UNKNOWN" conf="40" state="unknown" tsMs="1778768022636"/>
        <radio op="vodafone IT" rat="LTE" q="9.00" rsrp="-115" sinr="4" rsrq="-13"/>
        <radio op="I TIM" rat="LTE" q="9.00" rsrp="-116" sinr="5" rsrq="-13"/>
      </extensions>
    </trkpt>
    <trkpt lat="45.62382" lon="10.492726">
      <ele>287.1000061035156</ele>
      <time>2026-05-14T16:14:19.11+02:00</time>
      <extensions>
        <activity type="UNKNOWN" conf="40" state="unknown" tsMs="1778768055484"/>
        <radio op="vodafone IT" rat="LTE" q="6.40" rsrp="-117" sinr="3" rsrq="-12"/>
        <radio op="I TIM" rat="LTE" q="8.80" rsrp="-117" sinr="6" rsrq="-12"/>
      </extensions>
    </trkpt>
    <trkpt lat="45.6238221" lon="10.4927146">
      <ele>287.1000061035156</ele>
      <time>2026-05-14T16:15:34.702+02:00</time>
      <extensions>
        <activity type="STILL" conf="99" state="still" tsMs="1778768128811"/>
        <radio op="vodafone IT" rat="LTE" q="9.60" rsrp="-117" sinr="7" rsrq="-14"/>
        <radio op="I TIM" rat="LTE" q="7.70" rsrp="-118" sinr="6" rsrq="-13"/>
      </extensions>
    </trkpt>
    <trkpt lat="45.6237811" lon="10.49275">
      <ele>287.3000183105469</ele>
      <time>2026-05-14T16:38:54.268+02:00</time>
      <extensions>
        <activity type="UNKNOWN" conf="40" state="unknown" tsMs="1778769531814"/>
        <radio op="vodafone IT" rat="LTE" q="9.80" rsrp="-111" sinr="2" rsrq="-9"/>
        <radio op="I TIM" rat="LTE" q="1.50" rsrp="-122" sinr="0" rsrq="-14"/>
      </extensions>
    </trkpt>
    <trkpt lat="45.6237934" lon="10.4927366">
      <ele>287.1000061035156</ele>
      <time>2026-05-14T16:39:36.742+02:00</time>
      <extensions>
        <activity type="UNKNOWN" conf="40" state="unknown" tsMs="1778769565473"/>
        <radio op="vodafone IT" rat="LTE" rsrp="-120" rsrq="-14"/>
        <radio op="I TIM" rat="LTE" q="4.90" rsrp="-118" sinr="2" rsrq="-13"/>
      </extensions>
    </trkpt>
    <trkpt lat="45.6237884" lon="10.4927384">
      <ele>287.3000183105469</ele>
      <time>2026-05-14T16:41:15.817+02:00</time>
      <extensions>
        <activity type="UNKNOWN" conf="40" state="unknown" tsMs="1778769670124"/>
        <radio op="vodafone IT" rat="LTE" rsrp="-122" rsrq="-15"/>
        <radio op="I TIM" rat="LTE" q="2.10" rsrp="-122" sinr="2" rsrq="-14"/>
      </extensions>
    </trkpt>
    <trkpt lat="45.6236973" lon="10.4928118">
      <ele>286.70001220703125</ele>
      <time>2026-05-14T17:58:58.869+02:00</time>
      <extensions>
        <activity type="UNKNOWN" conf="40" state="unknown" tsMs="1778774320946"/>
        <radio op="vodafone IT" rat="LTE" q="10.00" rsrp="-115" sinr="5" rsrq="-13"/>
        <radio op="I TIM" rat="LTE" q="9.60" rsrp="-113" sinr="3" rsrq="-15"/>
      </extensions>
    </trkpt>
    <trkpt lat="45.623721" lon="10.4927873">
      <ele>287.1000061035156</ele>
      <time>2026-05-14T17:59:49.231+02:00</time>
      <extensions>
        <activity type="STILL" conf="34" state="still" tsMs="1778774388839"/>
        <radio op="vodafone IT" rat="LTE" rsrp="-117" rsrq="-13"/>
        <radio op="I TIM" rat="LTE" rsrp="-113" rsrq="-14"/>
      </extensions>
    </trkpt>
    <trkpt lat="45.6238201" lon="10.4926951">
      <ele>287.3000183105469</ele>
      <time>2026-05-14T18:00:23.372+02:00</time>
      <extensions>
        <activity type="ON_FOOT" conf="86" state="moving" tsMs="1778774425177"/>
        <radio op="vodafone IT" rat="LTE" rsrp="-112" rsrq="-10"/>
        <radio op="I TIM" rat="LTE" q="20.90" rsrp="-106" sinr="6" rsrq="-11"/>
      </extensions>
    </trkpt>
    <trkpt lat="45.6238191" lon="10.4925992">
      <ele>287.3000183105469</ele>
      <time>2026-05-14T18:00:36.604+02:00</time>
      <extensions>
        <activity type="ON_FOOT" conf="86" state="moving" tsMs="1778774425177"/>
        <radio op="vodafone IT" rat="LTE" rsrp="-114" rsrq="-11"/>
        <radio op="I TIM" rat="LTE" q="21.60" rsrp="-107" sinr="7" rsrq="-11"/>
      </extensions>
    </trkpt>
    <trkpt lat="45.6238374" lon="10.4925864">
      <ele>284.9141014969161</ele>
      <time>2026-05-14T18:00:46.597+02:00</time>
      <extensions>
        <activity type="ON_FOOT" conf="93" state="moving" tsMs="1778774428556"/>
        <radio op="vodafone IT" rat="LTE" rsrp="-121" rsrq="-11"/>
        <radio op="I TIM" rat="LTE" q="18.20" rsrp="-111" sinr="8" rsrq="-12"/>
      </extensions>
    </trkpt>
    <trkpt lat="45.623856" lon="10.4925861">
      <ele>284.6635592325077</ele>
      <time>2026-05-14T18:00:56.902+02:00</time>
      <extensions>
        <activity type="ON_FOOT" conf="87" state="moving" tsMs="1778774455681"/>
        <radio op="vodafone IT" rat="LTE" rsrp="-121" rsrq="-12"/>
        <radio op="I TIM" rat="LTE" q="11.20" rsrp="-111" sinr="3" rsrq="-10"/>
      </extensions>
    </trkpt>
    <trkpt lat="45.6238443" lon="10.4926">
      <ele>281.4968842023905</ele>
      <time>2026-05-14T18:01:04.082+02:00</time>
      <extensions>
        <activity type="ON_BICYCLE" conf="65" state="moving" tsMs="1778774461043"/>
        <radio op="vodafone IT" rat="LTE" rsrp="-128" rsrq="-15"/>
        <radio op="I TIM" rat="LTE" q="0.00" rsrp="-125" sinr="2" rsrq="-14"/>
      </extensions>
    </trkpt>
    <trkpt lat="45.6238443" lon="10.4926">
      <ele>279.5561810553284</ele>
      <time>2026-05-14T18:01:08.55+02:00</time>
      <extensions>
        <activity type="ON_BICYCLE" conf="65" state="moving" tsMs="1778774461043"/>
        <radio op="vodafone IT" rat="LTE" q="1.40" rsrp="-124" sinr="9" rsrq="-14"/>
        <radio op="I TIM" rat="LTE" q="7.20" rsrp="-119" sinr="7" rsrq="-13"/>
      </extensions>
    </trkpt>
    <trkpt lat="45.6237271" lon="10.4926731">
      <ele>279.4353063600945</ele>
      <time>2026-05-14T18:01:15.712+02:00</time>
      <extensions>
        <activity type="UNKNOWN" conf="40" state="unknown" tsMs="1778774484693"/>
        <radio op="vodafone IT" rat="LTE" q="9.00" rsrp="-110" sinr="1" rsrq="-11"/>
        <radio op="I TIM" rat="LTE" q="16.90" rsrp="-112" sinr="8" rsrq="-13"/>
      </extensions>
    </trkpt>
    <trkpt lat="45.6237264" lon="10.4930068">
      <ele>279.25399750265785</ele>
      <time>2026-05-14T18:01:37.121+02:00</time>
      <extensions>
        <activity type="ON_FOOT" conf="97" state="moving" tsMs="1778774495458"/>
        <radio op="vodafone IT" rat="LTE" q="17.10" rsrp="-106" sinr="4" rsrq="-11"/>
        <radio op="I TIM" rat="LTE" q="13.20" rsrp="-113" sinr="6" rsrq="-12"/>
      </extensions>
    </trkpt>
    <trkpt lat="45.623773" lon="10.4932098">
      <ele>277.70001220703125</ele>
      <time>2026-05-14T18:01:47.087+02:00</time>
      <extensions>
        <activity type="ON_FOOT" conf="96" state="moving" tsMs="1778774501602"/>
        <radio op="vodafone IT" rat="LTE" q="25.50" rsrp="-108" sinr="10" rsrq="-15"/>
        <radio op="I TIM" rat="LTE" q="16.90" rsrp="-112" sinr="8" rsrq="-12"/>
      </extensions>
    </trkpt>
    <trkpt lat="45.6238129" lon="10.4934024">
      <ele>278.9000244140625</ele>
      <time>2026-05-14T18:01:57.699+02:00</time>
      <extensions>
        <activity type="ON_FOOT" conf="96" state="moving" tsMs="1778774501602"/>
        <radio op="vodafone IT" rat="LTE" q="40.60" rsrp="-96" sinr="9" rsrq="-11"/>
        <radio op="I TIM" rat="LTE" q="10.80" rsrp="-113" sinr="4" rsrq="-12"/>
      </extensions>
    </trkpt>
    <trkpt lat="45.6237882" lon="10.4934456">
      <ele>278.0</ele>
      <time>2026-05-14T18:02:07.122+02:00</time>
      <extensions>
        <activity type="ON_FOOT" conf="87" state="moving" tsMs="1778774511607"/>
        <radio op="vodafone IT" rat="LTE" q="17.60" rsrp="-103" sinr="3" rsrq="-12"/>
        <radio op="I TIM" rat="LTE" q="3.60" rsrp="-121" sinr="4" rsrq="-13"/>
      </extensions>
    </trkpt>
    <trkpt lat="45.6238243" lon="10.4934045">
      <ele>277.70001220703125</ele>
      <time>2026-05-14T18:02:17.088+02:00</time>
      <extensions>
        <activity type="ON_FOOT" conf="87" state="moving" tsMs="1778774511607"/>
        <radio op="vodafone IT" rat="LTE" q="9.00" rsrp="-110" sinr="1" rsrq="-12"/>
        <radio op="I TIM" rat="LTE" q="2.10" rsrp="-122" sinr="2" rsrq="-13"/>
      </extensions>
    </trkpt>
    <trkpt lat="45.6238257" lon="10.4934041">
      <ele>277.70001220703125</ele>
      <time>2026-05-14T18:02:27.163+02:00</time>
      <extensions>
        <activity type="UNKNOWN" conf="40" state="unknown" tsMs="1778774528615"/>
        <radio op="vodafone IT" rat="LTE" q="17.10" rsrp="-106" sinr="4" rsrq="-12"/>
        <radio op="I TIM" rat="LTE" q="12.00" rsrp="-113" sinr="5" rsrq="-11"/>
      </extensions>
    </trkpt>
    <trkpt lat="45.6238049" lon="10.4933824">
      <ele>278.0</ele>
      <time>2026-05-14T18:02:38.134+02:00</time>
      <extensions>
        <activity type="UNKNOWN" conf="40" state="unknown" tsMs="1778774543643"/>
        <radio op="vodafone IT" rat="LTE" q="10.40" rsrp="-112" sinr="3" rsrq="-13"/>
        <radio op="I TIM" rat="LTE" q="12.60" rsrp="-116" sinr="9" rsrq="-13"/>
      </extensions>
    </trkpt>
    <trkpt lat="45.6237685" lon="10.4936142">
      <ele>277.70001220703125</ele>
      <time>2026-05-14T18:02:48.098+02:00</time>
      <extensions>
        <activity type="UNKNOWN" conf="40" state="unknown" tsMs="1778774543643"/>
        <radio op="vodafone IT" rat="LTE" q="31.50" rsrp="-104" sinr="10" rsrq="-11"/>
        <radio op="I TIM" rat="LTE" q="9.10" rsrp="-112" sinr="2" rsrq="-13"/>
      </extensions>
    </trkpt>
    <trkpt lat="45.6233566" lon="10.4924134">
      <ele>278.0</ele>
      <time>2026-05-14T18:02:58.082+02:00</time>
      <extensions>
        <activity type="IN_VEHICLE" conf="89" state="moving" tsMs="1778774558667"/>
        <radio op="vodafone IT" rat="LTE" q="13.60" rsrp="-108" sinr="3" rsrq="-16"/>
        <radio op="I TIM" rat="LTE" q="13.50" rsrp="-110" sinr="4" rsrq="-11"/>
      </extensions>
    </trkpt>
    <trkpt lat="45.6228688" lon="10.4906805">
      <ele>277.70001220703125</ele>
      <time>2026-05-14T18:03:08.082+02:00</time>
      <extensions>
        <activity type="IN_VEHICLE" conf="89" state="moving" tsMs="1778774558667"/>
        <radio op="vodafone IT" rat="LTE" rsrp="-110" rsrq="-14"/>
        <radio op="I TIM" rat="LTE" q="8.40" rsrp="-113" sinr="2" rsrq="-14"/>
      </extensions>
    </trkpt>
    <trkpt lat="45.6219935" lon="10.4890586">
      <ele>277.70001220703125</ele>
      <time>2026-05-14T18:03:18.082+02:00</time>
      <extensions>
        <activity type="IN_VEHICLE" conf="96" state="moving" tsMs="1778774598126"/>
        <radio op="vodafone IT" rat="LTE" q="8.50" rsrp="-108" sinr="0" rsrq="-13"/>
        <radio op="I TIM" rat="LTE" rsrp="-119" rsrq="-15"/>
      </extensions>
    </trkpt>
    <trkpt lat="45.6211896" lon="10.4872982">
      <ele>277.70001220703125</ele>
      <time>2026-05-14T18:03:28.082+02:00</time>
      <extensions>
        <activity type="IN_VEHICLE" conf="92" state="moving" tsMs="1778774603534"/>
        <radio op="vodafone IT" rat="LTE" rsrp="-107" rsrq="-13"/>
        <radio op="I TIM" rat="LTE" rsrp="-115" rsrq="-16"/>
      </extensions>
    </trkpt>
    <trkpt lat="45.6203544" lon="10.4855284">
      <ele>277.70001220703125</ele>
      <time>2026-05-14T18:03:38.082+02:00</time>
      <extensions>
        <activity type="IN_VEHICLE" conf="96" state="moving" tsMs="1778774614273"/>
        <radio op="vodafone IT" rat="LTE" q="16.90" rsrp="-112" sinr="8" rsrq="-13"/>
        <radio op="I TIM" rat="LTE" q="9.60" rsrp="-109" sinr="1" rsrq="-12"/>
      </extensions>
    </trkpt>
    <trkpt lat="45.6196288" lon="10.4838153">
      <ele>277.70001220703125</ele>
      <time>2026-05-14T18:03:48.082+02:00</time>
      <extensions>
        <activity type="IN_VEHICLE" conf="97" state="moving" tsMs="1778774624979"/>
        <radio op="vodafone IT" rat="LTE" rsrp="-120" rsrq="-19"/>
        <radio op="I TIM" rat="LTE" rsrp="-116" rsrq="-16"/>
      </extensions>
    </trkpt>
    <trkpt lat="45.6183799" lon="10.483476">
      <ele>277.70001220703125</ele>
      <time>2026-05-14T18:03:59.082+02:00</time>
      <extensions>
        <activity type="IN_VEHICLE" conf="96" state="moving" tsMs="1778774635668"/>
        <radio op="vodafone IT" rat="LTE" q="17.00" rsrp="-108" sinr="5" rsrq="-11"/>
        <radio op="I TIM" rat="LTE" q="24.00" rsrp="-105" sinr="7" rsrq="-11"/>
      </extensions>
    </trkpt>
    <trkpt lat="45.6175018" lon="10.4833398">
      <ele>275.5164332365369</ele>
      <time>2026-05-14T18:04:09.082+02:00</time>
      <extensions>
        <activity type="IN_VEHICLE" conf="95" state="moving" tsMs="1778774646380"/>
        <radio op="vodafone IT" rat="LTE" rsrp="-114" rsrq="-15"/>
        <radio op="I TIM" rat="LTE" rsrp="-111" rsrq="-11"/>
      </extensions>
    </trkpt>
    <trkpt lat="45.6164266" lon="10.4831691">
      <ele>275.5531104438235</ele>
      <time>2026-05-14T18:04:19.082+02:00</time>
      <extensions>
        <activity type="IN_VEHICLE" conf="94" state="moving" tsMs="1778774657102"/>
        <radio op="vodafone IT" rat="LTE" q="23.00" rsrp="-102" sinr="5" rsrq="-12"/>
        <radio op="I TIM" rat="LTE" rsrp="-119" rsrq="-17"/>
      </extensions>
    </trkpt>
    <trkpt lat="45.6152418" lon="10.4829119">
      <ele>275.3557936229768</ele>
      <time>2026-05-14T18:04:29.081+02:00</time>
      <extensions>
        <activity type="UNKNOWN" conf="40" state="unknown" tsMs="1778774667846"/>
        <radio op="vodafone IT" rat="LTE" q="15.00" rsrp="-110" sinr="5" rsrq="-12"/>
        <radio op="I TIM" rat="LTE" rsrp="-126" rsrq="-19"/>
      </extensions>
    </trkpt>
    <trkpt lat="45.6142039" lon="10.4824335">
      <ele>274.01495950141407</ele>
      <time>2026-05-14T18:04:39.082+02:00</time>
      <extensions>
        <activity type="UNKNOWN" conf="40" state="unknown" tsMs="1778774678546"/>
        <radio op="vodafone IT" rat="LTE" q="16.00" rsrp="-105" sinr="3" rsrq="-13"/>
        <radio op="I TIM" rat="LTE" rsrp="-116" rsrq="-15"/>
      </extensions>
    </trkpt>
    <trkpt lat="45.6132302" lon="10.4817228">
      <ele>273.1758785318885</ele>
      <time>2026-05-14T18:04:49.081+02:00</time>
      <extensions>
        <activity type="UNKNOWN" conf="40" state="unknown" tsMs="1778774689312"/>
        <radio op="vodafone IT" rat="LTE" q="11.20" rsrp="-111" sinr="3" rsrq="-12"/>
        <radio op="I TIM" rat="LTE" rsrp="-118" rsrq="-18"/>
      </extensions>
    </trkpt>
    <trkpt lat="45.6125072" lon="10.4813886">
      <ele>271.2543273589648</ele>
      <time>2026-05-14T18:04:59.082+02:00</time>
      <extensions>
        <activity type="UNKNOWN" conf="40" state="unknown" tsMs="1778774700050"/>
        <radio op="vodafone IT" rat="LTE" q="9.80" rsrp="-111" sinr="2" rsrq="-13"/>
        <radio op="I TIM" rat="LTE" q="13.30" rsrp="-106" sinr="2" rsrq="-14"/>
      </extensions>
    </trkpt>
    <trkpt lat="45.6120889" lon="10.4809902">
      <ele>270.2753586093401</ele>
      <time>2026-05-14T18:05:10.081+02:00</time>
      <extensions>
        <activity type="UNKNOWN" conf="40" state="unknown" tsMs="1778774705406"/>
        <radio op="vodafone IT" rat="LTE" q="28.50" rsrp="-106" sinr="10" rsrq="-13"/>
        <radio op="I TIM" rat="LTE" rsrp="-109" rsrq="-14"/>
      </extensions>
    </trkpt>
    <trkpt lat="45.611834" lon="10.4805568">
      <ele>270.50393910086996</ele>
      <time>2026-05-14T18:05:20.081+02:00</time>
      <extensions>
        <activity type="UNKNOWN" conf="40" state="unknown" tsMs="1778774716165"/>
        <radio op="vodafone IT" rat="LTE" q="14.40" rsrp="-109" sinr="4" rsrq="-12"/>
        <radio op="I TIM" rat="LTE" q="14.00" rsrp="-111" sinr="5" rsrq="-13"/>
      </extensions>
    </trkpt>
    <trkpt lat="45.6115322" lon="10.4802504">
      <ele>271.02575388613616</ele>
      <time>2026-05-14T18:05:24.082+02:00</time>
      <extensions>
        <activity type="IN_VEHICLE" conf="83" state="moving" tsMs="1778774726958"/>
        <radio op="vodafone IT" rat="LTE" q="15.00" rsrp="-115" sinr="10" rsrq="-12"/>
        <radio op="I TIM" rat="LTE" q="65.00" rsrp="-99" sinr="21" rsrq="-10"/>
      </extensions>
    </trkpt>
    <trkpt lat="45.6064417" lon="10.4686782">
      <ele>268.5678948029871</ele>
      <time>2026-05-14T18:06:33.371+02:00</time>
      <extensions>
        <activity type="IN_VEHICLE" conf="87" state="moving" tsMs="1778774788253"/>
        <radio op="vodafone IT" rat="LTE" q="87.50" rsrp="-90" sinr="28" rsrq="-6"/>
        <radio op="I TIM" rat="LTE" q="100.00" rsrp="-76" sinr="24" rsrq="-8"/>
      </extensions>
    </trkpt>
    <trkpt lat="45.6037768" lon="10.461612">
      <ele>263.50993421363034</ele>
      <time>2026-05-14T18:07:28.587+02:00</time>
      <extensions>
        <activity type="IN_VEHICLE" conf="94" state="moving" tsMs="1778774843260"/>
        <radio op="vodafone IT" rat="LTE" rsrp="-93" rsrq="-10"/>
        <radio op="I TIM" rat="LTE" q="27.50" rsrp="-100" sinr="6" rsrq="-11"/>
      </extensions>
    </trkpt>
    <trkpt lat="45.6042002" lon="10.4611532">
      <ele>263.40209973999856</ele>
      <time>2026-05-14T18:07:34.082+02:00</time>
      <extensions>
        <activity type="UNKNOWN" conf="40" state="unknown" tsMs="1778774859263"/>
        <radio op="vodafone IT" rat="LTE" q="77.50" rsrp="-94" sinr="25" rsrq="-9"/>
        <radio op="I TIM" rat="LTE" q="23.40" rsrp="-107" sinr="8" rsrq="-12"/>
      </extensions>
    </trkpt>
    <trkpt lat="45.6039327" lon="10.4603567">
      <ele>266.8000183105469</ele>
      <time>2026-05-14T18:07:46.083+02:00</time>
      <extensions>
        <activity type="IN_VEHICLE" conf="83" state="moving" tsMs="1778774870252"/>
        <radio op="vodafone IT" rat="LTE" q="100.00" rsrp="-84" sinr="28" rsrq="-9"/>
        <radio op="I TIM" rat="LTE" q="85.00" rsrp="-91" sinr="23" rsrq="-12"/>
      </extensions>
    </trkpt>
    <trkpt lat="45.6035643" lon="10.4591651">
      <ele>264.20001220703125</ele>
      <time>2026-05-14T18:07:57.083+02:00</time>
      <extensions>
        <activity type="IN_VEHICLE" conf="83" state="moving" tsMs="1778774870252"/>
        <radio op="vodafone IT" rat="LTE" q="95.00" rsrp="-87" sinr="27" rsrq="-10"/>
        <radio op="I TIM" rat="LTE" q="79.80" rsrp="-87" sinr="16" rsrq="-12"/>
      </extensions>
    </trkpt>
    <trkpt lat="45.6032774" lon="10.4578021">
      <ele>264.20001220703125</ele>
      <time>2026-05-14T18:08:13.083+02:00</time>
      <extensions>
        <activity type="UNKNOWN" conf="40" state="unknown" tsMs="1778774876894"/>
        <radio op="vodafone IT" rat="LTE" q="87.50" rsrp="-90" sinr="29" rsrq="-10"/>
        <radio op="I TIM" rat="LTE" q="82.50" rsrp="-92" sinr="22" rsrq="-11"/>
      </extensions>
    </trkpt>
    <trkpt lat="45.6024635" lon="10.4555081">
      <ele>258.80734348420276</ele>
      <time>2026-05-14T18:08:57.599+02:00</time>
      <extensions>
        <activity type="IN_VEHICLE" conf="84" state="moving" tsMs="1778774936936"/>
        <radio op="vodafone IT" rat="LTE" q="13.00" rsrp="-112" sinr="5" rsrq="-12"/>
        <radio op="I TIM" rat="LTE" q="9.60" rsrp="-109" sinr="1" rsrq="-14"/>
      </extensions>
    </trkpt>
    <trkpt lat="45.6022337" lon="10.4534047">
      <ele>257.47890006306125</ele>
      <time>2026-05-14T18:09:43.447+02:00</time>
      <extensions>
        <activity type="IN_VEHICLE" conf="94" state="moving" tsMs="1778774982626"/>
        <radio op="vodafone IT" rat="LTE" q="48.00" rsrp="-95" sinr="11" rsrq="-11"/>
        <radio op="I TIM" rat="LTE" rsrp="-105" rsrq="-13"/>
      </extensions>
    </trkpt>
    <trkpt lat="45.602221" lon="10.4535532">
      <ele>257.47890006306125</ele>
      <time>2026-05-14T18:09:51.083+02:00</time>
      <extensions>
        <activity type="IN_VEHICLE" conf="94" state="moving" tsMs="1778774982626"/>
        <radio op="vodafone IT" rat="LTE" q="45.00" rsrp="-95" sinr="10" rsrq="-8"/>
        <radio op="I TIM" rat="LTE" rsrp="-110" rsrq="-15"/>
      </extensions>
    </trkpt>
    <trkpt lat="45.6025573" lon="10.4536452">
      <ele>259.2315412517216</ele>
      <time>2026-05-14T18:10:41.549+02:00</time>
      <extensions>
        <activity type="ON_FOOT" conf="92" state="moving" tsMs="1778775037255"/>
        <radio op="vodafone IT" rat="LTE" rsrp="-114" rsrq="-15"/>
        <radio op="I TIM" rat="LTE" q="3.00" rsrp="-120" sinr="1" rsrq="-13"/>
      </extensions>
    </trkpt>
    <trkpt lat="45.602554" lon="10.4536569">
      <ele>258.9649741607354</ele>
      <time>2026-05-14T18:11:12.752+02:00</time>
      <extensions>
        <activity type="UNKNOWN" conf="40" state="unknown" tsMs="1778775069039"/>
        <radio op="vodafone IT" rat="LTE" q="4.00" rsrp="-117" sinr="0" rsrq="-11"/>
        <radio op="I TIM" rat="LTE" q="6.00" rsrp="-115" sinr="1" rsrq="-15"/>
      </extensions>
    </trkpt>
    <trkpt lat="45.6025746" lon="10.4533723">
      <ele>259.24599931806426</ele>
      <time>2026-05-14T18:11:46.083+02:00</time>
      <extensions>
        <activity type="UNKNOWN" conf="40" state="unknown" tsMs="1778775100783"/>
        <radio op="vodafone IT" rat="LTE" q="14.70" rsrp="-104" sinr="2" rsrq="-13"/>
        <radio op="I TIM" rat="LTE" q="18.70" rsrp="-108" sinr="6" rsrq="-9"/>
      </extensions>
    </trkpt>
    <trkpt lat="45.6025595" lon="10.4536207">
      <ele>259.2341303958692</ele>
      <time>2026-05-14T18:11:49.083+02:00</time>
      <extensions>
        <activity type="UNKNOWN" conf="40" state="unknown" tsMs="1778775111931"/>
        <radio op="vodafone IT" rat="LTE" q="14.00" rsrp="-105" sinr="2" rsrq="-12"/>
        <radio op="I TIM" rat="LTE" q="55.00" rsrp="-103" sinr="20" rsrq="-11"/>
      </extensions>
    </trkpt>
    <trkpt lat="45.6025561" lon="10.4536514">
      <ele>258.79873054829557</ele>
      <time>2026-05-14T18:12:26.93+02:00</time>
      <extensions>
        <activity type="STILL" conf="99" state="still" tsMs="1778775144233"/>
        <radio op="vodafone IT" rat="LTE" q="13.30" rsrp="-106" sinr="2" rsrq="-15"/>
        <radio op="I TIM" rat="LTE" q="28.50" rsrp="-106" sinr="10" rsrq="-11"/>
      </extensions>
    </trkpt>
    <trkpt lat="45.6025642" lon="10.4536622">
      <ele>258.44991389284934</ele>
      <time>2026-05-14T18:12:58.518+02:00</time>
      <extensions>
        <activity type="STILL" conf="99" state="still" tsMs="1778775174745"/>
        <radio op="vodafone IT" rat="LTE" q="9.00" rsrp="-107" sinr="0" rsrq="-13"/>
        <radio op="I TIM" rat="LTE" q="55.20" rsrp="-102" sinr="19" rsrq="-8"/>
      </extensions>
    </trkpt>
    <trkpt lat="45.602555" lon="10.4536525">
      <ele>259.01880473385876</ele>
      <time>2026-05-14T18:13:30.001+02:00</time>
      <extensions>
        <activity type="STILL" conf="99" state="still" tsMs="1778775206332"/>
        <radio op="vodafone IT" rat="LTE" q="9.60" rsrp="-109" sinr="1" rsrq="-13"/>
        <radio op="I TIM" rat="LTE" q="33.60" rsrp="-104" sinr="11" rsrq="-10"/>
      </extensions>
    </trkpt>
    <trkpt lat="45.6025584" lon="10.4536477">
      <ele>261.8000183105469</ele>
      <time>2026-05-14T18:14:01.604+02:00</time>
      <extensions>
        <activity type="STILL" conf="99" state="still" tsMs="1778775237891"/>
        <radio op="vodafone IT" rat="LTE" q="12.00" rsrp="-105" sinr="1" rsrq="-11"/>
        <radio op="I TIM" rat="LTE" q="55.20" rsrp="-102" sinr="19" rsrq="-10"/>
      </extensions>
    </trkpt>
  </trkseg></trk>
</gpx>
