<?xml version="1.0" encoding="UTF-8"?>
<gpx version="1.1" creator="CellGPX" xmlns="http://www.topografix.com/GPX/1/1">
  <trk><name>CellGPX</name><trkseg>
    <trkpt lat="45.6025635" lon="10.4537075">
      <ele>261.6000061035156</ele>
      <time>2026-07-26T12:27:27.804+02:00</time>
      <extensions>
        <activity type="ON_FOOT" conf="81" state="moving" tsMs="1785061635604"/>
        <radio op="vodafone IT" rat="LTE" q="0.50" rsrp="-124" sinr="0" rsrq="-13"/>
        <radio op="I TIM" rat="LTE" rsrp="-119" rsrq="-12"/>
      </extensions>
    </trkpt>
    <trkpt lat="45.6025602" lon="10.4537355">
      <ele>261.6000061035156</ele>
      <time>2026-07-26T12:27:34.667+02:00</time>
      <extensions>
        <activity type="UNKNOWN" conf="40" state="unknown" tsMs="1785061639019"/>
        <radio op="vodafone IT" rat="LTE" q="6.40" rsrp="-117" sinr="3" rsrq="-13"/>
        <radio op="I TIM" rat="LTE" q="3.00" rsrp="-120" sinr="1" rsrq="-10"/>
      </extensions>
    </trkpt>
    <trkpt lat="45.6025617" lon="10.4537432">
      <ele>261.6000061035156</ele>
      <time>2026-07-26T12:27:40.524+02:00</time>
      <extensions>
        <activity type="UNKNOWN" conf="40" state="unknown" tsMs="1785061660920"/>
        <radio op="vodafone IT" rat="LTE" rsrp="-119" rsrq="-13"/>
        <radio op="I TIM" rat="LTE" rsrp="-123" rsrq="-12"/>
      </extensions>
    </trkpt>
    <trkpt lat="45.6025634" lon="10.453754">
      <ele>261.6000061035156</ele>
      <time>2026-07-26T12:27:56.15+02:00</time>
      <extensions>
        <activity type="UNKNOWN" conf="40" state="unknown" tsMs="1785061660920"/>
        <radio op="vodafone IT" rat="LTE" q="6.60" rsrp="-119" sinr="6" rsrq="-12"/>
        <radio op="I TIM" rat="LTE" q="2.10" rsrp="-122" sinr="2" rsrq="-12"/>
      </extensions>
    </trkpt>
    <trkpt lat="45.6025519" lon="10.4537076">
      <ele>261.6000061035156</ele>
      <time>2026-07-26T12:28:02.285+02:00</time>
      <extensions>
        <activity type="UNKNOWN" conf="40" state="unknown" tsMs="1785061665541"/>
        <radio op="vodafone IT" rat="LTE" q="0.00" rsrp="-125" sinr="4" rsrq="-12"/>
        <radio op="I TIM" rat="LTE" q="1.50" rsrp="-122" sinr="0" rsrq="-11"/>
      </extensions>
    </trkpt>
    <trkpt lat="45.6025463" lon="10.4536703">
      <ele>261.6000061035156</ele>
      <time>2026-07-26T12:28:55.381+02:00</time>
      <extensions>
        <activity type="UNKNOWN" conf="40" state="unknown" tsMs="1785061734969"/>
        <radio op="vodafone IT" rat="LTE" q="3.20" rsrp="-121" sinr="3" rsrq="-11"/>
        <radio op="I TIM" rat="LTE" rsrp="-122" rsrq="-13"/>
      </extensions>
    </trkpt>
    <trkpt lat="45.6025428" lon="10.4536696">
      <ele>261.6000061035156</ele>
      <time>2026-07-26T12:30:08.803+02:00</time>
      <extensions>
        <activity type="UNKNOWN" conf="40" state="unknown" tsMs="1785061803389"/>
        <radio op="vodafone IT" rat="LTE" q="3.00" rsrp="-122" sinr="5" rsrq="-11"/>
        <radio op="I TIM" rat="LTE" q="4.50" rsrp="-120" sinr="4" rsrq="-12"/>
      </extensions>
    </trkpt>
    <trkpt lat="45.6026228" lon="10.4535234">
      <ele>261.5</ele>
      <time>2026-07-26T12:31:28.777+02:00</time>
      <extensions>
        <activity type="UNKNOWN" conf="40" state="unknown" tsMs="1785061888014"/>
        <radio op="vodafone IT" rat="LTE" q="14.40" rsrp="-107" sinr="3" rsrq="-11"/>
        <radio op="I TIM" rat="LTE" q="11.40" rsrp="-106" sinr="1" rsrq="-12"/>
      </extensions>
    </trkpt>
    <trkpt lat="45.6021868" lon="10.453359">
      <ele>261.6000061035156</ele>
      <time>2026-07-26T12:32:15.173+02:00</time>
      <extensions>
        <activity type="ON_FOOT" conf="96" state="moving" tsMs="1785061929202"/>
        <radio op="vodafone IT" rat="LTE" rsrp="-104" rsrq="-11"/>
        <radio op="I TIM" rat="LTE" rsrp="-96" rsrq="-13"/>
      </extensions>
    </trkpt>
    <trkpt lat="45.6021895" lon="10.453251">
      <ele>261.6000061035156</ele>
      <time>2026-07-26T12:33:04.18+02:00</time>
      <extensions>
        <activity type="UNKNOWN" conf="40" state="unknown" tsMs="1785061979015"/>
        <radio op="vodafone IT" rat="LTE" q="17.60" rsrp="-103" sinr="3" rsrq="-13"/>
        <radio op="I TIM" rat="LTE" q="75.00" rsrp="-95" sinr="20" rsrq="-10"/>
      </extensions>
    </trkpt>
    <trkpt lat="45.6021998" lon="10.4532248">
      <ele>261.6000061035156</ele>
      <time>2026-07-26T12:33:42.455+02:00</time>
      <extensions>
        <activity type="UNKNOWN" conf="40" state="unknown" tsMs="1785062017377"/>
        <radio op="vodafone IT" rat="LTE" q="30.00" rsrp="-100" sinr="7" rsrq="-9"/>
        <radio op="I TIM" rat="LTE" q="23.40" rsrp="-99" sinr="4" rsrq="-14"/>
      </extensions>
    </trkpt>
    <trkpt lat="45.6022107" lon="10.4531386">
      <ele>261.6000061035156</ele>
      <time>2026-07-26T12:34:15.171+02:00</time>
      <extensions>
        <activity type="UNKNOWN" conf="40" state="unknown" tsMs="1785062050233"/>
        <radio op="vodafone IT" rat="LTE" q="30.80" rsrp="-103" sinr="9" rsrq="-9"/>
        <radio op="I TIM" rat="LTE" rsrp="-100" rsrq="-11"/>
      </extensions>
    </trkpt>
    <trkpt lat="45.6022256" lon="10.4532663">
      <ele>261.6000061035156</ele>
      <time>2026-07-26T12:35:09.932+02:00</time>
      <extensions>
        <activity type="UNKNOWN" conf="40" state="unknown" tsMs="1785062105034"/>
        <radio op="vodafone IT" rat="LTE" q="33.60" rsrp="-97" sinr="7" rsrq="-7"/>
        <radio op="I TIM" rat="LTE" q="56.70" rsrp="-98" sinr="16" rsrq="-11"/>
      </extensions>
    </trkpt>
    <trkpt lat="45.6022403" lon="10.4534448">
      <ele>261.6000061035156</ele>
      <time>2026-07-26T12:35:43.441+02:00</time>
      <extensions>
        <activity type="ON_BICYCLE" conf="72" state="moving" tsMs="1785062142431"/>
        <radio op="vodafone IT" rat="LTE" q="15.30" rsrp="-108" sinr="4" rsrq="-11"/>
        <radio op="I TIM" rat="LTE" rsrp="-105" rsrq="-15"/>
      </extensions>
    </trkpt>
    <trkpt lat="45.6026277" lon="10.4536348">
      <ele>261.6000061035156</ele>
      <time>2026-07-26T12:36:22.988+02:00</time>
      <extensions>
        <activity type="UNKNOWN" conf="40" state="unknown" tsMs="1785062175433"/>
        <radio op="vodafone IT" rat="LTE" q="5.00" rsrp="-115" sinr="0" rsrq="-14"/>
        <radio op="I TIM" rat="LTE" q="13.00" rsrp="-112" sinr="5" rsrq="-12"/>
      </extensions>
    </trkpt>
    <trkpt lat="45.6025451" lon="10.4536667">
      <ele>261.6000061035156</ele>
      <time>2026-07-26T12:37:53.192+02:00</time>
      <extensions>
        <activity type="UNKNOWN" conf="40" state="unknown" tsMs="1785062272067"/>
        <radio op="vodafone IT" rat="LTE" q="1.20" rsrp="-123" sinr="1" rsrq="-11"/>
        <radio op="I TIM" rat="LTE" q="2.00" rsrp="-121" sinr="0" rsrq="-14"/>
      </extensions>
    </trkpt>
    <trkpt lat="45.6025463" lon="10.4536703">
      <ele>261.6000061035156</ele>
      <time>2026-07-26T12:38:28.622+02:00</time>
      <extensions>
        <activity type="UNKNOWN" conf="40" state="unknown" tsMs="1785062305218"/>
        <radio op="vodafone IT" rat="LTE" rsrp="-126" rsrq="-14"/>
        <radio op="I TIM" rat="LTE" q="0.00" rsrp="-125" sinr="2" rsrq="-14"/>
      </extensions>
    </trkpt>
    <trkpt lat="45.602545" lon="10.4536673">
      <ele>261.6000061035156</ele>
      <time>2026-07-26T12:39:00.147+02:00</time>
      <extensions>
        <activity type="UNKNOWN" conf="40" state="unknown" tsMs="1785062336584"/>
        <radio op="vodafone IT" rat="LTE" rsrp="-126" rsrq="-14"/>
        <radio op="I TIM" rat="LTE" q="0.00" rsrp="-125" sinr="1" rsrq="-14"/>
      </extensions>
    </trkpt>
    <trkpt lat="45.6025324" lon="10.4535206">
      <ele>261.5</ele>
      <time>2026-07-26T12:39:31.672+02:00</time>
      <extensions>
        <activity type="ON_FOOT" conf="89" state="moving" tsMs="1785062367918"/>
        <radio op="vodafone IT" rat="LTE" rsrp="-126" rsrq="-14"/>
        <radio op="I TIM" rat="LTE" q="0.00" rsrp="-125" sinr="7" rsrq="-14"/>
      </extensions>
    </trkpt>
    <trkpt lat="45.6025324" lon="10.4535206">
      <ele>261.5</ele>
      <time>2026-07-26T12:40:03.097+02:00</time>
      <extensions>
        <activity type="ON_FOOT" conf="96" state="moving" tsMs="1785062412533"/>
        <radio op="vodafone IT" rat="LTE" q="16.80" rsrp="-97" sinr="1" rsrq="-12"/>
        <radio op="I TIM" rat="LTE" q="18.00" rsrp="-95" sinr="1" rsrq="-15"/>
      </extensions>
    </trkpt>
    <trkpt lat="45.6021914" lon="10.4532443">
      <ele>258.33528781068355</ele>
      <time>2026-07-26T12:40:36.14+02:00</time>
      <extensions>
        <activity type="UNKNOWN" conf="40" state="unknown" tsMs="1785062434227"/>
        <radio op="vodafone IT" rat="LTE" q="11.00" rsrp="-103" sinr="0" rsrq="-9"/>
        <radio op="I TIM" rat="LTE" q="23.40" rsrp="-99" sinr="4" rsrq="-11"/>
      </extensions>
    </trkpt>
    <trkpt lat="45.6019363" lon="10.4534957">
      <ele>260.8000183105469</ele>
      <time>2026-07-26T12:41:07.431+02:00</time>
      <extensions>
        <activity type="UNKNOWN" conf="40" state="unknown" tsMs="1785062461773"/>
        <radio op="vodafone IT" rat="LTE" q="21.00" rsrp="-104" sinr="5" rsrq="-12"/>
        <radio op="I TIM" rat="LTE" q="16.80" rsrp="-111" sinr="7" rsrq="-11"/>
      </extensions>
    </trkpt>
    <trkpt lat="45.6026785" lon="10.4562413">
      <ele>262.5</ele>
      <time>2026-07-26T12:41:38.791+02:00</time>
      <extensions>
        <activity type="IN_VEHICLE" conf="81" state="moving" tsMs="1785062493175"/>
        <radio op="vodafone IT" rat="LTE" q="47.50" rsrp="-106" sinr="20" rsrq="-10"/>
        <radio op="I TIM" rat="LTE" q="40.00" rsrp="-105" sinr="15" rsrq="-10"/>
      </extensions>
    </trkpt>
    <trkpt lat="45.6030757" lon="10.4574574">
      <ele>262.5</ele>
      <time>2026-07-26T12:41:47.988+02:00</time>
      <extensions>
        <activity type="IN_VEHICLE" conf="87" state="moving" tsMs="1785062498614"/>
        <radio op="vodafone IT" rat="LTE" q="100.00" rsrp="-84" sinr="25" rsrq="-9"/>
        <radio op="I TIM" rat="LTE" q="100.00" rsrp="-84" sinr="27" rsrq="-8"/>
      </extensions>
    </trkpt>
    <trkpt lat="45.6026763" lon="10.4585819">
      <ele>260.8000183105469</ele>
      <time>2026-07-26T12:42:25.696+02:00</time>
      <extensions>
        <activity type="IN_VEHICLE" conf="93" state="moving" tsMs="1785062545329"/>
        <radio op="vodafone IT" rat="LTE" q="24.20" rsrp="-114" sinr="17" rsrq="-11"/>
        <radio op="I TIM" rat="LTE" q="28.00" rsrp="-111" sinr="15" rsrq="-10"/>
      </extensions>
    </trkpt>
    <trkpt lat="45.6026763" lon="10.4585819">
      <ele>262.5</ele>
      <time>2026-07-26T12:43:26.232+02:00</time>
      <extensions>
        <activity type="UNKNOWN" conf="40" state="unknown" tsMs="1785062615050"/>
        <radio op="vodafone IT" rat="LTE" q="33.00" rsrp="-110" sinr="17" rsrq="-10"/>
        <radio op="I TIM" rat="LTE" q="32.00" rsrp="-109" sinr="15" rsrq="-11"/>
      </extensions>
    </trkpt>
    <trkpt lat="45.6044289" lon="10.4589773">
      <ele>264.5</ele>
      <time>2026-07-26T12:44:27.957+02:00</time>
      <extensions>
        <activity type="ON_FOOT" conf="92" state="moving" tsMs="1785062673947"/>
        <radio op="vodafone IT" rat="LTE" q="27.30" rsrp="-112" sinr="16" rsrq="-9"/>
        <radio op="I TIM" rat="LTE" q="57.50" rsrp="-102" sinr="21" rsrq="-9"/>
      </extensions>
    </trkpt>
    <trkpt lat="45.6041855" lon="10.4593476">
      <ele>264.4000244140625</ele>
      <time>2026-07-26T12:44:59.081+02:00</time>
      <extensions>
        <activity type="ON_FOOT" conf="96" state="moving" tsMs="1785062695503"/>
        <radio op="vodafone IT" rat="LTE" q="18.00" rsrp="-113" sinr="10" rsrq="-13"/>
        <radio op="I TIM" rat="LTE" q="55.00" rsrp="-103" sinr="20" rsrq="-7"/>
      </extensions>
    </trkpt>
    <trkpt lat="45.6042217" lon="10.4594528">
      <ele>264.5</ele>
      <time>2026-07-26T12:45:30.421+02:00</time>
      <extensions>
        <activity type="UNKNOWN" conf="40" state="unknown" tsMs="1785062726625"/>
        <radio op="vodafone IT" rat="LTE" q="52.50" rsrp="-104" sinr="21" rsrq="-6"/>
        <radio op="I TIM" rat="LTE" q="30.80" rsrp="-103" sinr="9" rsrq="-9"/>
      </extensions>
    </trkpt>
    <trkpt lat="45.6041926" lon="10.4594602">
      <ele>264.5</ele>
      <time>2026-07-26T12:46:01.762+02:00</time>
      <extensions>
        <activity type="STILL" conf="96" state="still" tsMs="1785062758052"/>
        <radio op="vodafone IT" rat="LTE" q="39.10" rsrp="-108" sinr="18" rsrq="-8"/>
        <radio op="I TIM" rat="LTE" q="41.40" rsrp="-107" sinr="18" rsrq="-11"/>
      </extensions>
    </trkpt>
    <trkpt lat="45.6042118" lon="10.4594598">
      <ele>264.5</ele>
      <time>2026-07-26T12:46:33.122+02:00</time>
      <extensions>
        <activity type="STILL" conf="60" state="still" tsMs="1785062789399"/>
        <radio op="vodafone IT" rat="LTE" q="60.00" rsrp="-101" sinr="22" rsrq="-8"/>
        <radio op="I TIM" rat="LTE" q="52.50" rsrp="-104" sinr="21" rsrq="-11"/>
      </extensions>
    </trkpt>
    <trkpt lat="45.6041995" lon="10.459427">
      <ele>264.4000244140625</ele>
      <time>2026-07-26T12:47:04.393+02:00</time>
      <extensions>
        <activity type="STILL" conf="76" state="still" tsMs="1785062820670"/>
        <radio op="vodafone IT" rat="LTE" q="45.00" rsrp="-107" sinr="22" rsrq="-8"/>
        <radio op="I TIM" rat="LTE" q="41.80" rsrp="-106" sinr="17" rsrq="-8"/>
      </extensions>
    </trkpt>
    <trkpt lat="45.6041954" lon="10.4594493">
      <ele>264.5</ele>
      <time>2026-07-26T12:47:35.723+02:00</time>
      <extensions>
        <activity type="STILL" conf="55" state="still" tsMs="1785062852009"/>
        <radio op="vodafone IT" rat="LTE" q="43.20" rsrp="-107" sinr="19" rsrq="-10"/>
        <radio op="I TIM" rat="LTE" q="52.50" rsrp="-104" sinr="21" rsrq="-7"/>
      </extensions>
    </trkpt>
    <trkpt lat="45.6042004" lon="10.4594794">
      <ele>264.5</ele>
      <time>2026-07-26T12:48:07.108+02:00</time>
      <extensions>
        <activity type="STILL" conf="98" state="still" tsMs="1785062883274"/>
        <radio op="vodafone IT" rat="LTE" q="52.50" rsrp="-104" sinr="23" rsrq="-6"/>
        <radio op="I TIM" rat="LTE" q="57.50" rsrp="-102" sinr="22" rsrq="-9"/>
      </extensions>
    </trkpt>
    <trkpt lat="45.6042125" lon="10.4594813">
      <ele>264.5</ele>
      <time>2026-07-26T12:50:14.689+02:00</time>
      <extensions>
        <activity type="UNKNOWN" conf="40" state="unknown" tsMs="1785063014057"/>
        <radio op="vodafone IT" rat="LTE" q="33.00" rsrp="-110" sinr="17" rsrq="-12"/>
        <radio op="I TIM" rat="LTE" q="47.50" rsrp="-106" sinr="20" rsrq="-11"/>
      </extensions>
    </trkpt>
    <trkpt lat="45.6042043" lon="10.4594472">
      <ele>264.5</ele>
      <time>2026-07-26T12:50:55.13+02:00</time>
      <extensions>
        <activity type="STILL" conf="96" state="still" tsMs="1785063054481"/>
        <radio op="vodafone IT" rat="LTE" q="52.50" rsrp="-104" sinr="20" rsrq="-9"/>
        <radio op="I TIM" rat="LTE" q="30.40" rsrp="-109" sinr="14" rsrq="-9"/>
      </extensions>
    </trkpt>
    <trkpt lat="45.6042063" lon="10.4594488">
      <ele>264.5</ele>
      <time>2026-07-26T12:51:26.346+02:00</time>
      <extensions>
        <activity type="STILL" conf="78" state="still" tsMs="1785063080707"/>
        <radio op="vodafone IT" rat="LTE" q="50.00" rsrp="-105" sinr="22" rsrq="-10"/>
        <radio op="I TIM" rat="LTE" q="28.90" rsrp="-108" sinr="12" rsrq="-12"/>
      </extensions>
    </trkpt>
    <trkpt lat="45.6041747" lon="10.4594356">
      <ele>264.4000244140625</ele>
      <time>2026-07-26T12:51:57.551+02:00</time>
      <extensions>
        <activity type="UNKNOWN" conf="40" state="unknown" tsMs="1785063111898"/>
        <radio op="vodafone IT" rat="LTE" q="75.00" rsrp="-95" sinr="25" rsrq="-11"/>
        <radio op="I TIM" rat="LTE" q="72.50" rsrp="-96" sinr="30" rsrq="-6"/>
      </extensions>
    </trkpt>
    <trkpt lat="45.6042185" lon="10.459477">
      <ele>264.5</ele>
      <time>2026-07-26T12:52:28.857+02:00</time>
      <extensions>
        <activity type="UNKNOWN" conf="40" state="unknown" tsMs="1785063148395"/>
        <radio op="vodafone IT" rat="LTE" q="70.00" rsrp="-97" sinr="24" rsrq="-6"/>
        <radio op="I TIM" rat="LTE" q="62.50" rsrp="-100" sinr="22" rsrq="-9"/>
      </extensions>
    </trkpt>
    <trkpt lat="45.604113" lon="10.4593415">
      <ele>264.4000244140625</ele>
      <time>2026-07-26T12:53:02.129+02:00</time>
      <extensions>
        <activity type="ON_FOOT" conf="87" state="moving" tsMs="1785063179058"/>
        <radio op="vodafone IT" rat="LTE" q="26.60" rsrp="-111" sinr="14" rsrq="-12"/>
        <radio op="I TIM" rat="LTE" q="55.00" rsrp="-103" sinr="20" rsrq="-10"/>
      </extensions>
    </trkpt>
    <trkpt lat="45.6041543" lon="10.45933">
      <ele>264.4000244140625</ele>
      <time>2026-07-26T12:53:33.436+02:00</time>
      <extensions>
        <activity type="UNKNOWN" conf="40" state="unknown" tsMs="1785063213088"/>
        <radio op="vodafone IT" rat="LTE" q="77.50" rsrp="-94" sinr="22" rsrq="-12"/>
        <radio op="I TIM" rat="LTE" q="77.50" rsrp="-94" sinr="23" rsrq="-7"/>
      </extensions>
    </trkpt>
    <trkpt lat="45.604147" lon="10.4593463">
      <ele>264.4000244140625</ele>
      <time>2026-07-26T12:54:05.27+02:00</time>
      <extensions>
        <activity type="STILL" conf="65" state="still" tsMs="1785063246582"/>
        <radio op="vodafone IT" rat="LTE" q="22.50" rsrp="-110" sinr="10" rsrq="-9"/>
        <radio op="I TIM" rat="LTE" q="75.00" rsrp="-95" sinr="21" rsrq="-11"/>
      </extensions>
    </trkpt>
    <trkpt lat="45.604105" lon="10.4593512">
      <ele>264.4000244140625</ele>
      <time>2026-07-26T12:54:40.953+02:00</time>
      <extensions>
        <activity type="STILL" conf="71" state="still" tsMs="1785063276965"/>
        <radio op="vodafone IT" rat="LTE" q="35.70" rsrp="-108" sinr="16" rsrq="-9"/>
        <radio op="I TIM" rat="LTE" q="70.00" rsrp="-97" sinr="21" rsrq="-9"/>
      </extensions>
    </trkpt>
    <trkpt lat="45.6041557" lon="10.4593472">
      <ele>264.4000244140625</ele>
      <time>2026-07-26T12:55:17.236+02:00</time>
      <extensions>
        <activity type="STILL" conf="97" state="still" tsMs="1785063317129"/>
        <radio op="vodafone IT" rat="LTE" q="27.20" rsrp="-109" sinr="12" rsrq="-6"/>
        <radio op="I TIM" rat="LTE" q="75.00" rsrp="-95" sinr="20" rsrq="-11"/>
      </extensions>
    </trkpt>
    <trkpt lat="45.6041011" lon="10.4593484">
      <ele>264.4000244140625</ele>
      <time>2026-07-26T12:55:55.339+02:00</time>
      <extensions>
        <activity type="STILL" conf="98" state="still" tsMs="1785063351335"/>
        <radio op="vodafone IT" rat="LTE" q="22.40" rsrp="-109" sinr="9" rsrq="-12"/>
        <radio op="I TIM" rat="LTE" q="74.40" rsrp="-94" sinr="19" rsrq="-7"/>
      </extensions>
    </trkpt>
    <trkpt lat="45.6041318" lon="10.4593271">
      <ele>264.4000244140625</ele>
      <time>2026-07-26T12:56:24.945+02:00</time>
      <extensions>
        <activity type="STILL" conf="98" state="still" tsMs="1785063382674"/>
        <radio op="vodafone IT" rat="LTE" q="28.80" rsrp="-109" sinr="13" rsrq="-8"/>
        <radio op="I TIM" rat="LTE" q="75.00" rsrp="-95" sinr="21" rsrq="-7"/>
      </extensions>
    </trkpt>
    <trkpt lat="45.6041014" lon="10.4593506">
      <ele>264.4000244140625</ele>
      <time>2026-07-26T12:56:58.141+02:00</time>
      <extensions>
        <activity type="STILL" conf="98" state="still" tsMs="1785063414291"/>
        <radio op="vodafone IT" rat="LTE" q="25.50" rsrp="-110" sinr="12" rsrq="-8"/>
        <radio op="I TIM" rat="LTE" q="75.00" rsrp="-95" sinr="21" rsrq="-7"/>
      </extensions>
    </trkpt>
    <trkpt lat="45.6041461" lon="10.4593416">
      <ele>264.4000244140625</ele>
      <time>2026-07-26T12:57:29.398+02:00</time>
      <extensions>
        <activity type="STILL" conf="98" state="still" tsMs="1785063445465"/>
        <radio op="vodafone IT" rat="LTE" q="25.50" rsrp="-110" sinr="12" rsrq="-7"/>
        <radio op="I TIM" rat="LTE" q="70.00" rsrp="-97" sinr="20" rsrq="-9"/>
      </extensions>
    </trkpt>
    <trkpt lat="45.6041501" lon="10.4593868">
      <ele>264.5</ele>
      <time>2026-07-26T12:58:00.86+02:00</time>
      <extensions>
        <activity type="STILL" conf="97" state="still" tsMs="1785063476864"/>
        <radio op="vodafone IT" rat="LTE" q="22.50" rsrp="-110" sinr="10" rsrq="-9"/>
        <radio op="I TIM" rat="LTE" q="75.00" rsrp="-95" sinr="21" rsrq="-10"/>
      </extensions>
    </trkpt>
    <trkpt lat="45.604108" lon="10.4593476">
      <ele>264.4000244140625</ele>
      <time>2026-07-26T12:58:32.072+02:00</time>
      <extensions>
        <activity type="STILL" conf="96" state="still" tsMs="1785063508224"/>
        <radio op="vodafone IT" rat="LTE" q="27.00" rsrp="-110" sinr="13" rsrq="-12"/>
        <radio op="I TIM" rat="LTE" q="72.50" rsrp="-96" sinr="20" rsrq="-10"/>
      </extensions>
    </trkpt>
    <trkpt lat="45.6043522" lon="10.4591173">
      <ele>262.65946711027584</ele>
      <time>2026-07-26T13:11:01.049+02:00</time>
      <extensions>
        <activity type="ON_FOOT" conf="90" state="moving" tsMs="1785064260873"/>
        <radio op="vodafone IT" rat="LTE" q="82.50" rsrp="-92" sinr="30" rsrq="-12"/>
        <radio op="I TIM" rat="LTE" q="65.00" rsrp="-99" sinr="21" rsrq="-12"/>
      </extensions>
    </trkpt>
    <trkpt lat="45.6044523" lon="10.4590048">
      <ele>261.7679945262745</ele>
      <time>2026-07-26T13:11:32.439+02:00</time>
      <extensions>
        <activity type="ON_FOOT" conf="93" state="moving" tsMs="1785064286693"/>
        <radio op="vodafone IT" rat="LTE" q="92.50" rsrp="-88" sinr="27" rsrq="-7"/>
        <radio op="I TIM" rat="LTE" q="62.50" rsrp="-100" sinr="22" rsrq="-12"/>
      </extensions>
    </trkpt>
    <trkpt lat="45.6044523" lon="10.4590048">
      <ele>260.60793891558455</ele>
      <time>2026-07-26T13:12:08.87+02:00</time>
      <extensions>
        <activity type="ON_FOOT" conf="92" state="moving" tsMs="1785064320285"/>
        <radio op="vodafone IT" rat="LTE" q="47.50" rsrp="-106" sinr="23" rsrq="-10"/>
        <radio op="I TIM" rat="LTE" q="19.80" rsrp="-107" sinr="6" rsrq="-12"/>
      </extensions>
    </trkpt>
    <trkpt lat="45.6044523" lon="10.4590048">
      <ele>260.5503667018585</ele>
      <time>2026-07-26T13:12:23.422+02:00</time>
      <extensions>
        <activity type="UNKNOWN" conf="40" state="unknown" tsMs="1785064343444"/>
        <radio op="vodafone IT" rat="LTE" q="17.10" rsrp="-116" sinr="14" rsrq="-11"/>
        <radio op="I TIM" rat="LTE" q="18.70" rsrp="-114" sinr="12" rsrq="-12"/>
      </extensions>
    </trkpt>
    <trkpt lat="45.6044523" lon="10.4590048">
      <ele>257.6829651917064</ele>
      <time>2026-07-26T13:13:05.431+02:00</time>
      <extensions>
        <activity type="UNKNOWN" conf="40" state="unknown" tsMs="1785064379068"/>
        <radio op="vodafone IT" rat="LTE" q="19.00" rsrp="-115" sinr="14" rsrq="-12"/>
        <radio op="I TIM" rat="LTE" q="19.20" rsrp="-113" sinr="11" rsrq="-10"/>
      </extensions>
    </trkpt>
    <trkpt lat="45.6044523" lon="10.4590048">
      <ele>257.7319913772828</ele>
      <time>2026-07-26T13:13:12.787+02:00</time>
      <extensions>
        <activity type="UNKNOWN" conf="40" state="unknown" tsMs="1785064418535"/>
        <radio op="vodafone IT" rat="LTE" q="4.00" rsrp="-120" sinr="3" rsrq="-9"/>
        <radio op="I TIM" rat="LTE" q="10.50" rsrp="-118" sinr="10" rsrq="-10"/>
      </extensions>
    </trkpt>
    <trkpt lat="45.6036868" lon="10.458655">
      <ele>261.7658854465332</ele>
      <time>2026-07-26T13:14:45.159+02:00</time>
      <extensions>
        <activity type="IN_VEHICLE" conf="92" state="moving" tsMs="1785064475476"/>
        <radio op="vodafone IT" rat="LTE" q="100.00" rsrp="-82" sinr="28" rsrq="-9"/>
        <radio op="I TIM" rat="LTE" q="52.00" rsrp="-74" sinr="8" rsrq="-8"/>
      </extensions>
    </trkpt>
    <trkpt lat="45.6042665" lon="10.4656288">
      <ele>267.20001220703125</ele>
      <time>2026-07-26T13:15:38.986+02:00</time>
      <extensions>
        <activity type="IN_VEHICLE" conf="91" state="moving" tsMs="1785064560074"/>
        <radio op="vodafone IT" rat="LTE" q="70.00" rsrp="-97" sinr="22" rsrq="-7"/>
        <radio op="I TIM" rat="LTE" q="55.00" rsrp="-103" sinr="21" rsrq="-6"/>
      </extensions>
    </trkpt>
    <trkpt lat="45.6123812" lon="10.489657">
      <ele>240.7377243544428</ele>
      <time>2026-07-26T13:17:44.986+02:00</time>
      <extensions>
        <activity type="IN_VEHICLE" conf="96" state="moving" tsMs="1785064672072"/>
        <radio op="vodafone IT" rat="LTE" rsrp="-117" rsrq="-13"/>
        <radio op="I TIM" rat="LTE" rsrp="-112" rsrq="-14"/>
      </extensions>
    </trkpt>
    <trkpt lat="45.6121724" lon="10.4900395">
      <ele>235.00001525878906</ele>
      <time>2026-07-26T13:17:56.985+02:00</time>
      <extensions>
        <activity type="IN_VEHICLE" conf="93" state="moving" tsMs="1785064682870"/>
        <radio op="vodafone IT" rat="LTE" q="20.00" rsrp="-105" sinr="5" rsrq="-13"/>
        <radio op="I TIM" rat="LTE" q="9.00" rsrp="-107" sinr="0" rsrq="-14"/>
      </extensions>
    </trkpt>
    <trkpt lat="45.6120929" lon="10.4898893">
      <ele>236.98388953194427</ele>
      <time>2026-07-26T13:18:37.072+02:00</time>
      <extensions>
        <activity type="ON_FOOT" conf="92" state="moving" tsMs="1785064699153"/>
        <radio op="vodafone IT" rat="LTE" q="11.90" rsrp="-108" sinr="2" rsrq="-13"/>
        <radio op="I TIM" rat="LTE" rsrp="-107" rsrq="-14"/>
      </extensions>
    </trkpt>
    <trkpt lat="45.612105" lon="10.4900422">
      <ele>238.61501666134168</ele>
      <time>2026-07-26T13:19:11.724+02:00</time>
      <extensions>
        <activity type="UNKNOWN" conf="40" state="unknown" tsMs="1785064748483"/>
        <radio op="vodafone IT" rat="LTE" rsrp="-111" rsrq="-14"/>
        <radio op="I TIM" rat="LTE" rsrp="-107" rsrq="-14"/>
      </extensions>
    </trkpt>
    <trkpt lat="45.6120751" lon="10.4901089">
      <ele>233.90000915527344</ele>
      <time>2026-07-26T13:19:42.978+02:00</time>
      <extensions>
        <activity type="ON_FOOT" conf="87" state="moving" tsMs="1785064777325"/>
        <radio op="vodafone IT" rat="LTE" q="15.20" rsrp="-106" sinr="3" rsrq="-9"/>
        <radio op="I TIM" rat="LTE" q="14.40" rsrp="-107" sinr="3" rsrq="-13"/>
      </extensions>
    </trkpt>
    <trkpt lat="45.6119918" lon="10.4902102">
      <ele>233.90000915527344</ele>
      <time>2026-07-26T13:19:52.988+02:00</time>
      <extensions>
        <activity type="ON_FOOT" conf="85" state="moving" tsMs="1785064782756"/>
        <radio op="vodafone IT" rat="LTE" q="33.00" rsrp="-92" sinr="5" rsrq="-10"/>
        <radio op="I TIM" rat="LTE" q="20.80" rsrp="-99" sinr="3" rsrq="-13"/>
      </extensions>
    </trkpt>
    <trkpt lat="45.6120017" lon="10.4901893">
      <ele>233.90000915527344</ele>
      <time>2026-07-26T13:19:54.987+02:00</time>
      <extensions>
        <activity type="UNKNOWN" conf="40" state="unknown" tsMs="1785064786146"/>
        <radio op="vodafone IT" rat="LTE" q="24.00" rsrp="-95" sinr="3" rsrq="-11"/>
        <radio op="I TIM" rat="LTE" q="46.40" rsrp="-96" sinr="11" rsrq="-13"/>
      </extensions>
    </trkpt>
    <trkpt lat="45.6120596" lon="10.4902577">
      <ele>233.90000915527344</ele>
      <time>2026-07-26T13:20:34.358+02:00</time>
      <extensions>
        <activity type="STILL" conf="79" state="still" tsMs="1785064829279"/>
        <radio op="vodafone IT" rat="LTE" q="40.80" rsrp="-91" sinr="7" rsrq="-9"/>
        <radio op="I TIM" rat="LTE" q="37.70" rsrp="-96" sinr="8" rsrq="-12"/>
      </extensions>
    </trkpt>
    <trkpt lat="45.6120541" lon="10.4902547">
      <ele>233.90000915527344</ele>
      <time>2026-07-26T13:20:43.99+02:00</time>
      <extensions>
        <activity type="STILL" conf="97" state="still" tsMs="1785064840334"/>
        <radio op="vodafone IT" rat="LTE" q="39.60" rsrp="-92" sinr="7" rsrq="-13"/>
        <radio op="I TIM" rat="LTE" q="39.20" rsrp="-97" sinr="9" rsrq="-12"/>
      </extensions>
    </trkpt>
    <trkpt lat="45.612022" lon="10.4902362">
      <ele>233.90000915527344</ele>
      <time>2026-07-26T13:20:55.012+02:00</time>
      <extensions>
        <activity type="STILL" conf="97" state="still" tsMs="1785064840334"/>
        <radio op="vodafone IT" rat="LTE" q="41.60" rsrp="-93" sinr="8" rsrq="-13"/>
        <radio op="I TIM" rat="LTE" q="37.70" rsrp="-96" sinr="8" rsrq="-12"/>
      </extensions>
    </trkpt>
    <trkpt lat="45.6120023" lon="10.4902108">
      <ele>233.90000915527344</ele>
      <time>2026-07-26T13:21:05.108+02:00</time>
      <extensions>
        <activity type="UNKNOWN" conf="40" state="unknown" tsMs="1785064865036"/>
        <radio op="vodafone IT" rat="LTE" q="38.40" rsrp="-93" sinr="7" rsrq="-11"/>
        <radio op="I TIM" rat="LTE" q="39.20" rsrp="-97" sinr="9" rsrq="-12"/>
      </extensions>
    </trkpt>
    <trkpt lat="45.6120034" lon="10.49021">
      <ele>233.90000915527344</ele>
      <time>2026-07-26T13:21:09.036+02:00</time>
      <extensions>
        <activity type="UNKNOWN" conf="40" state="unknown" tsMs="1785064875135"/>
        <radio op="vodafone IT" rat="LTE" q="33.00" rsrp="-92" sinr="5" rsrq="-12"/>
        <radio op="I TIM" rat="LTE" q="30.80" rsrp="-97" sinr="6" rsrq="-12"/>
      </extensions>
    </trkpt>
    <trkpt lat="45.6119864" lon="10.490231">
      <ele>233.90000915527344</ele>
      <time>2026-07-26T13:21:24.999+02:00</time>
      <extensions>
        <activity type="UNKNOWN" conf="40" state="unknown" tsMs="1785064880437"/>
        <radio op="vodafone IT" rat="LTE" q="40.80" rsrp="-91" sinr="7" rsrq="-13"/>
        <radio op="I TIM" rat="LTE" q="33.60" rsrp="-97" sinr="7" rsrq="-12"/>
      </extensions>
    </trkpt>
    <trkpt lat="45.6119809" lon="10.4902378">
      <ele>233.90000915527344</ele>
      <time>2026-07-26T13:21:35.089+02:00</time>
      <extensions>
        <activity type="UNKNOWN" conf="40" state="unknown" tsMs="1785064880437"/>
        <radio op="vodafone IT" rat="LTE" q="42.90" rsrp="-92" sinr="8" rsrq="-12"/>
        <radio op="I TIM" rat="LTE" q="33.80" rsrp="-99" sinr="8" rsrq="-12"/>
      </extensions>
    </trkpt>
    <trkpt lat="45.6119807" lon="10.4902355">
      <ele>233.90000915527344</ele>
      <time>2026-07-26T13:21:45.063+02:00</time>
      <extensions>
        <activity type="UNKNOWN" conf="40" state="unknown" tsMs="1785064885807"/>
        <radio op="vodafone IT" rat="LTE" q="42.90" rsrp="-92" sinr="8" rsrq="-13"/>
        <radio op="I TIM" rat="LTE" q="37.80" rsrp="-98" sinr="9" rsrq="-12"/>
      </extensions>
    </trkpt>
    <trkpt lat="45.6119813" lon="10.4902378">
      <ele>233.90000915527344</ele>
      <time>2026-07-26T13:21:55.031+02:00</time>
      <extensions>
        <activity type="UNKNOWN" conf="40" state="unknown" tsMs="1785064885807"/>
        <radio op="vodafone IT" rat="LTE" q="31.50" rsrp="-90" sinr="4" rsrq="-9"/>
        <radio op="I TIM" rat="LTE" q="30.80" rsrp="-97" sinr="6" rsrq="-13"/>
      </extensions>
    </trkpt>
    <trkpt lat="45.6119823" lon="10.4902393">
      <ele>233.90000915527344</ele>
      <time>2026-07-26T13:22:04.997+02:00</time>
      <extensions>
        <activity type="STILL" conf="50" state="still" tsMs="1785064905376"/>
        <radio op="vodafone IT" rat="LTE" q="43.20" rsrp="-89" sinr="7" rsrq="-9"/>
        <radio op="I TIM" rat="LTE" q="33.60" rsrp="-97" sinr="7" rsrq="-12"/>
      </extensions>
    </trkpt>
    <trkpt lat="45.6119831" lon="10.4902394">
      <ele>233.90000915527344</ele>
      <time>2026-07-26T13:22:15.074+02:00</time>
      <extensions>
        <activity type="STILL" conf="100" state="still" tsMs="1785064925003"/>
        <radio op="vodafone IT" rat="LTE" q="30.60" rsrp="-91" sinr="4" rsrq="-11"/>
        <radio op="I TIM" rat="LTE" q="29.70" rsrp="-98" sinr="6" rsrq="-12"/>
      </extensions>
    </trkpt>
    <trkpt lat="45.6119861" lon="10.4902369">
      <ele>233.90000915527344</ele>
      <time>2026-07-26T13:22:26.05+02:00</time>
      <extensions>
        <activity type="STILL" conf="100" state="still" tsMs="1785064925003"/>
        <radio op="vodafone IT" rat="LTE" q="18.60" rsrp="-94" sinr="1" rsrq="-10"/>
        <radio op="I TIM" rat="LTE" q="33.60" rsrp="-97" sinr="7" rsrq="-12"/>
      </extensions>
    </trkpt>
    <trkpt lat="45.6119894" lon="10.4902342">
      <ele>233.90000915527344</ele>
      <time>2026-07-26T13:22:36.018+02:00</time>
      <extensions>
        <activity type="STILL" conf="45" state="still" tsMs="1785064938110"/>
        <radio op="vodafone IT" rat="LTE" q="39.60" rsrp="-92" sinr="7" rsrq="-13"/>
        <radio op="I TIM" rat="LTE" q="42.00" rsrp="-97" sinr="10" rsrq="-11"/>
      </extensions>
    </trkpt>
    <trkpt lat="45.6119897" lon="10.4902339">
      <ele>233.90000915527344</ele>
      <time>2026-07-26T13:22:40.052+02:00</time>
      <extensions>
        <activity type="STILL" conf="45" state="still" tsMs="1785064938110"/>
        <radio op="vodafone IT" rat="LTE" q="37.40" rsrp="-91" sinr="6" rsrq="-9"/>
        <radio op="I TIM" rat="LTE" q="35.10" rsrp="-98" sinr="8" rsrq="-11"/>
      </extensions>
    </trkpt>
    <trkpt lat="45.6119914" lon="10.4902326">
      <ele>233.90000915527344</ele>
      <time>2026-07-26T13:22:56.258+02:00</time>
      <extensions>
        <activity type="UNKNOWN" conf="40" state="unknown" tsMs="1785064956205"/>
        <radio op="vodafone IT" rat="LTE" q="35.20" rsrp="-93" sinr="6" rsrq="-13"/>
        <radio op="I TIM" rat="LTE" q="36.40" rsrp="-99" sinr="9" rsrq="-12"/>
      </extensions>
    </trkpt>
    <trkpt lat="45.6119982" lon="10.4902212">
      <ele>233.90000915527344</ele>
      <time>2026-07-26T13:23:16.032+02:00</time>
      <extensions>
        <activity type="UNKNOWN" conf="40" state="unknown" tsMs="1785064977282"/>
        <radio op="vodafone IT" rat="LTE" q="38.40" rsrp="-93" sinr="7" rsrq="-12"/>
        <radio op="I TIM" rat="LTE" q="28.60" rsrp="-99" sinr="6" rsrq="-12"/>
      </extensions>
    </trkpt>
    <trkpt lat="45.6120632" lon="10.4901319">
      <ele>233.90000915527344</ele>
      <time>2026-07-26T13:26:18.783+02:00</time>
      <extensions>
        <activity type="IN_VEHICLE" conf="97" state="moving" tsMs="1785065189436"/>
        <radio op="vodafone IT" rat="LTE" q="39.60" rsrp="-92" sinr="7" rsrq="-12"/>
        <radio op="I TIM" rat="LTE" q="27.00" rsrp="-95" sinr="4" rsrq="-12"/>
      </extensions>
    </trkpt>
    <trkpt lat="45.6120377" lon="10.4902561">
      <ele>236.04287855835253</ele>
      <time>2026-07-26T13:26:57.441+02:00</time>
      <extensions>
        <activity type="IN_VEHICLE" conf="96" state="moving" tsMs="1785065216711"/>
        <radio op="vodafone IT" rat="LTE" rsrp="-97" rsrq="-14"/>
        <radio op="I TIM" rat="LTE" q="12.00" rsrp="-105" sinr="1" rsrq="-14"/>
      </extensions>
    </trkpt>
    <trkpt lat="45.6098074" lon="10.4983322">
      <ele>205.9344018651335</ele>
      <time>2026-07-26T13:27:38.225+02:00</time>
      <extensions>
        <activity type="IN_VEHICLE" conf="97" state="moving" tsMs="1785065252431"/>
        <radio op="vodafone IT" rat="LTE" rsrp="-106" rsrq="-15"/>
        <radio op="I TIM" rat="LTE" rsrp="-105" rsrq="-17"/>
      </extensions>
    </trkpt>
    <trkpt lat="45.6098943" lon="10.4988309">
      <ele>205.9344018651335</ele>
      <time>2026-07-26T13:27:40.986+02:00</time>
      <extensions>
        <activity type="IN_VEHICLE" conf="97" state="moving" tsMs="1785065267340"/>
        <radio op="vodafone IT" rat="LTE" q="29.00" rsrp="-96" sinr="5" rsrq="-9"/>
        <radio op="I TIM" rat="LTE" q="16.80" rsrp="-97" sinr="1" rsrq="-15"/>
      </extensions>
    </trkpt>
    <trkpt lat="45.6100049" lon="10.4997544">
      <ele>200.3000030517578</ele>
      <time>2026-07-26T13:28:11.999+02:00</time>
      <extensions>
        <activity type="IN_VEHICLE" conf="98" state="moving" tsMs="1785065295800"/>
        <radio op="vodafone IT" rat="LTE" q="42.90" rsrp="-92" sinr="8" rsrq="-12"/>
        <radio op="I TIM" rat="LTE" q="39.00" rsrp="-86" sinr="5" rsrq="-13"/>
      </extensions>
    </trkpt>
    <trkpt lat="45.6099257" lon="10.4994899">
      <ele>199.06621129221128</ele>
      <time>2026-07-26T13:28:47.655+02:00</time>
      <extensions>
        <activity type="ON_FOOT" conf="96" state="moving" tsMs="1785065325095"/>
        <radio op="vodafone IT" rat="LTE" q="15.50" rsrp="-94" sinr="0" rsrq="-12"/>
        <radio op="I TIM" rat="LTE" rsrp="-91" rsrq="-17"/>
      </extensions>
    </trkpt>
    <trkpt lat="45.6098598" lon="10.4996281">
      <ele>199.21440295191522</ele>
      <time>2026-07-26T13:29:18.947+02:00</time>
      <extensions>
        <activity type="ON_FOOT" conf="95" state="moving" tsMs="1785065353272"/>
        <radio op="vodafone IT" rat="LTE" q="40.80" rsrp="-91" sinr="7" rsrq="-11"/>
        <radio op="I TIM" rat="LTE" q="26.60" rsrp="-87" sinr="2" rsrq="-14"/>
      </extensions>
    </trkpt>
    <trkpt lat="45.609859" lon="10.4996207">
      <ele>198.95824469094956</ele>
      <time>2026-07-26T13:29:47.843+02:00</time>
      <extensions>
        <activity type="UNKNOWN" conf="40" state="unknown" tsMs="1785065384455"/>
        <radio op="vodafone IT" rat="LTE" q="72.00" rsrp="-83" sinr="13" rsrq="-10"/>
        <radio op="I TIM" rat="LTE" rsrp="-82" rsrq="-13"/>
      </extensions>
    </trkpt>
    <trkpt lat="45.609854" lon="10.4996112">
      <ele>199.32237276912457</ele>
      <time>2026-07-26T13:30:21.055+02:00</time>
      <extensions>
        <activity type="STILL" conf="98" state="still" tsMs="1785065415518"/>
        <radio op="vodafone IT" rat="LTE" q="56.00" rsrp="-82" sinr="9" rsrq="-11"/>
        <radio op="I TIM" rat="LTE" rsrp="-78" rsrq="-13"/>
      </extensions>
    </trkpt>
    <trkpt lat="45.6098593" lon="10.4996082">
      <ele>199.41552428888224</ele>
      <time>2026-07-26T13:30:47.843+02:00</time>
      <extensions>
        <activity type="STILL" conf="97" state="still" tsMs="1785065448796"/>
        <radio op="vodafone IT" rat="LTE" q="60.00" rsrp="-81" sinr="10" rsrq="-10"/>
        <radio op="I TIM" rat="LTE" rsrp="-81" rsrq="-13"/>
      </extensions>
    </trkpt>
    <trkpt lat="45.6098641" lon="10.4996215">
      <ele>199.29696798430112</ele>
      <time>2026-07-26T13:31:22.998+02:00</time>
      <extensions>
        <activity type="STILL" conf="98" state="still" tsMs="1785065479122"/>
        <radio op="vodafone IT" rat="LTE" q="64.00" rsrp="-82" sinr="11" rsrq="-11"/>
        <radio op="I TIM" rat="LTE" rsrp="-79" rsrq="-14"/>
      </extensions>
    </trkpt>
    <trkpt lat="45.6098611" lon="10.4996206">
      <ele>199.27579738760966</ele>
      <time>2026-07-26T13:31:54.288+02:00</time>
      <extensions>
        <activity type="STILL" conf="97" state="still" tsMs="1785065510433"/>
        <radio op="vodafone IT" rat="LTE" q="64.00" rsrp="-83" sinr="11" rsrq="-9"/>
        <radio op="I TIM" rat="LTE" rsrp="-81" rsrq="-13"/>
      </extensions>
    </trkpt>
    <trkpt lat="45.6098611" lon="10.4995884">
      <ele>199.43457813313034</ele>
      <time>2026-07-26T13:32:25.593+02:00</time>
      <extensions>
        <activity type="STILL" conf="97" state="still" tsMs="1785065541680"/>
        <radio op="vodafone IT" rat="LTE" q="46.80" rsrp="-89" sinr="8" rsrq="-9"/>
        <radio op="I TIM" rat="LTE" rsrp="-82" rsrq="-14"/>
      </extensions>
    </trkpt>
    <trkpt lat="45.6099829" lon="10.4997181">
      <ele>193.8000030517578</ele>
      <time>2026-07-26T14:35:15.015+02:00</time>
      <extensions>
        <activity type="ON_FOOT" conf="84" state="moving" tsMs="1785069310444"/>
        <radio op="vodafone IT" rat="LTE" q="15.00" rsrp="-100" sinr="1" rsrq="-12"/>
        <radio op="I TIM" rat="LTE" rsrp="-94" rsrq="-12"/>
      </extensions>
    </trkpt>
    <trkpt lat="45.6098615" lon="10.499582">
      <ele>188.68223324896724</ele>
      <time>2026-07-26T14:35:46.495+02:00</time>
      <extensions>
        <activity type="ON_FOOT" conf="87" state="moving" tsMs="1785069342837"/>
        <radio op="vodafone IT" rat="LTE" q="25.00" rsrp="-100" sinr="5" rsrq="-7"/>
        <radio op="I TIM" rat="LTE" rsrp="-96" rsrq="-13"/>
      </extensions>
    </trkpt>
    <trkpt lat="45.6099205" lon="10.4995713">
      <ele>189.6386734445358</ele>
      <time>2026-07-26T14:36:17.937+02:00</time>
      <extensions>
        <activity type="IN_VEHICLE" conf="87" state="moving" tsMs="1785069374281"/>
        <radio op="vodafone IT" rat="LTE" q="28.80" rsrp="-101" sinr="7" rsrq="-11"/>
        <radio op="I TIM" rat="LTE" rsrp="-94" rsrq="-16"/>
      </extensions>
    </trkpt>
    <trkpt lat="45.6099239" lon="10.4995826">
      <ele>186.21544711531274</ele>
      <time>2026-07-26T14:36:45.169+02:00</time>
      <extensions>
        <activity type="IN_VEHICLE" conf="96" state="moving" tsMs="1785069404748"/>
        <radio op="vodafone IT" rat="LTE" q="13.30" rsrp="-106" sinr="2" rsrq="-13"/>
        <radio op="I TIM" rat="LTE" rsrp="-102" rsrq="-15"/>
      </extensions>
    </trkpt>
    <trkpt lat="45.6104628" lon="10.4942251">
      <ele>209.24796552571178</ele>
      <time>2026-07-26T14:37:26.981+02:00</time>
      <extensions>
        <activity type="IN_VEHICLE" conf="97" state="moving" tsMs="1785069451060"/>
        <radio op="vodafone IT" rat="LTE" q="23.40" rsrp="-107" sinr="8" rsrq="-12"/>
        <radio op="I TIM" rat="LTE" rsrp="-110" rsrq="-14"/>
      </extensions>
    </trkpt>
    <trkpt lat="45.6125163" lon="10.4877144">
      <ele>234.02682272272662</ele>
      <time>2026-07-26T14:38:46.009+02:00</time>
      <extensions>
        <activity type="IN_VEHICLE" conf="94" state="moving" tsMs="1785069518141"/>
        <radio op="vodafone IT" rat="OTHER"/>
        <radio op="I TIM" rat="LTE" rsrp="-139" rsrq="-22"/>
      </extensions>
    </trkpt>
    <trkpt lat="45.6050933" lon="10.4671125">
      <ele>268.33273707607486</ele>
      <time>2026-07-26T14:40:15.974+02:00</time>
      <extensions>
        <activity type="IN_VEHICLE" conf="92" state="moving" tsMs="1785069614358"/>
        <radio op="vodafone IT" rat="LTE" q="47.60" rsrp="-97" sinr="12" rsrq="-5"/>
        <radio op="I TIM" rat="LTE" q="100.00" rsrp="-80" sinr="22" rsrq="-7"/>
      </extensions>
    </trkpt>
    <trkpt lat="45.6052132" lon="10.4646614">
      <ele>261.2839139396988</ele>
      <time>2026-07-26T14:41:01.282+02:00</time>
      <extensions>
        <activity type="IN_VEHICLE" conf="97" state="moving" tsMs="1785069671389"/>
        <radio op="vodafone IT" rat="LTE" rsrp="-86" rsrq="-11"/>
        <radio op="I TIM" rat="LTE" q="19.80" rsrp="-92" sinr="1" rsrq="-9"/>
      </extensions>
    </trkpt>
    <trkpt lat="45.6036825" lon="10.4587162">
      <ele>259.90343114044805</ele>
      <time>2026-07-26T14:41:35.809+02:00</time>
      <extensions>
        <activity type="UNKNOWN" conf="40" state="unknown" tsMs="1785069692987"/>
        <radio op="vodafone IT" rat="LTE" q="100.00" rsrp="-76" sinr="28" rsrq="-5"/>
        <radio op="I TIM" rat="LTE" q="100.00" rsrp="-81" sinr="27" rsrq="-10"/>
      </extensions>
    </trkpt>
    <trkpt lat="45.6025265" lon="10.4556298">
      <ele>256.2665893094073</ele>
      <time>2026-07-26T14:42:05.146+02:00</time>
      <extensions>
        <activity type="IN_VEHICLE" conf="96" state="moving" tsMs="1785069723775"/>
        <radio op="vodafone IT" rat="LTE" q="23.00" rsrp="-102" sinr="5" rsrq="-9"/>
        <radio op="I TIM" rat="LTE" q="16.80" rsrp="-101" sinr="2" rsrq="-13"/>
      </extensions>
    </trkpt>
    <trkpt lat="45.602082" lon="10.4546734">
      <ele>256.2665893094073</ele>
      <time>2026-07-26T14:42:13.981+02:00</time>
      <extensions>
        <activity type="IN_VEHICLE" conf="96" state="moving" tsMs="1785069732536"/>
        <radio op="vodafone IT" rat="LTE" rsrp="-100" rsrq="-11"/>
        <radio op="I TIM" rat="LTE" rsrp="-97" rsrq="-11"/>
      </extensions>
    </trkpt>
    <trkpt lat="45.6021752" lon="10.4534445">
      <ele>256.7549672262836</ele>
      <time>2026-07-26T14:42:48.438+02:00</time>
      <extensions>
        <activity type="IN_VEHICLE" conf="94" state="moving" tsMs="1785069764872"/>
        <radio op="vodafone IT" rat="LTE" rsrp="-103" rsrq="-14"/>
        <radio op="I TIM" rat="LTE" q="39.00" rsrp="-95" sinr="8" rsrq="-11"/>
      </extensions>
    </trkpt>
    <trkpt lat="45.6022681" lon="10.4534401">
      <ele>257.66781778398047</ele>
      <time>2026-07-26T14:43:19.855+02:00</time>
      <extensions>
        <activity type="STILL" conf="55" state="still" tsMs="1785069795339"/>
        <radio op="vodafone IT" rat="LTE" q="18.90" rsrp="-98" sinr="2" rsrq="-11"/>
        <radio op="I TIM" rat="LTE" q="22.50" rsrp="-100" sinr="4" rsrq="-10"/>
      </extensions>
    </trkpt>
    <trkpt lat="45.6023261" lon="10.4535839">
      <ele>258.0005631114461</ele>
      <time>2026-07-26T14:43:53.664+02:00</time>
      <extensions>
        <activity type="ON_FOOT" conf="88" state="moving" tsMs="1785069831994"/>
        <radio op="vodafone IT" rat="LTE" rsrp="-107" rsrq="-13"/>
        <radio op="I TIM" rat="LTE" q="26.00" rsrp="-99" sinr="5" rsrq="-10"/>
      </extensions>
    </trkpt>
    <trkpt lat="45.6025521" lon="10.4536896">
      <ele>258.62982825188215</ele>
      <time>2026-07-26T14:44:44.883+02:00</time>
      <extensions>
        <activity type="ON_FOOT" conf="89" state="moving" tsMs="1785069884171"/>
        <radio op="vodafone IT" rat="LTE" q="16.20" rsrp="-107" sinr="4" rsrq="-10"/>
        <radio op="I TIM" rat="LTE" q="16.80" rsrp="-113" sinr="9" rsrq="-10"/>
      </extensions>
    </trkpt>
    <trkpt lat="45.6025883" lon="10.4537381">
      <ele>258.2458643851109</ele>
      <time>2026-07-26T14:45:16.163+02:00</time>
      <extensions>
        <activity type="UNKNOWN" conf="40" state="unknown" tsMs="1785069915810"/>
        <radio op="vodafone IT" rat="LTE" q="12.00" rsrp="-113" sinr="5" rsrq="-12"/>
        <radio op="I TIM" rat="LTE" rsrp="-126" rsrq="-15"/>
      </extensions>
    </trkpt>
    <trkpt lat="45.6025813" lon="10.4537314">
      <ele>258.3678686914833</ele>
      <time>2026-07-26T14:45:47.523+02:00</time>
      <extensions>
        <activity type="STILL" conf="99" state="still" tsMs="1785069947152"/>
        <radio op="vodafone IT" rat="LTE" q="29.90" rsrp="-102" sinr="8" rsrq="-13"/>
        <radio op="I TIM" rat="LTE" rsrp="-120" rsrq="-14"/>
      </extensions>
    </trkpt>
    <trkpt lat="45.602577" lon="10.4537294">
      <ele>258.4834570771003</ele>
      <time>2026-07-26T14:46:19.019+02:00</time>
      <extensions>
        <activity type="STILL" conf="99" state="still" tsMs="1785069975435"/>
        <radio op="vodafone IT" rat="LTE" q="33.60" rsrp="-101" sinr="9" rsrq="-11"/>
        <radio op="I TIM" rat="LTE" rsrp="-121" rsrq="-14"/>
      </extensions>
    </trkpt>
    <trkpt lat="45.6025825" lon="10.4537324">
      <ele>258.6157776613953</ele>
      <time>2026-07-26T14:46:50.558+02:00</time>
      <extensions>
        <activity type="STILL" conf="99" state="still" tsMs="1785070006784"/>
        <radio op="vodafone IT" rat="LTE" q="33.60" rsrp="-101" sinr="9" rsrq="-10"/>
        <radio op="I TIM" rat="LTE" rsrp="-121" rsrq="-13"/>
      </extensions>
    </trkpt>
    <trkpt lat="45.6025753" lon="10.4537286">
      <ele>258.6904557326643</ele>
      <time>2026-07-26T14:47:22.176+02:00</time>
      <extensions>
        <activity type="STILL" conf="99" state="still" tsMs="1785070038517"/>
        <radio op="vodafone IT" rat="LTE" q="32.20" rsrp="-102" sinr="9" rsrq="-10"/>
        <radio op="I TIM" rat="LTE" rsrp="-120" rsrq="-14"/>
      </extensions>
    </trkpt>
    <trkpt lat="45.6025451" lon="10.4536792">
      <ele>258.769384115129</ele>
      <time>2026-07-26T14:47:53.74+02:00</time>
      <extensions>
        <activity type="STILL" conf="99" state="still" tsMs="1785070069943"/>
        <radio op="vodafone IT" rat="LTE" q="32.20" rsrp="-102" sinr="9" rsrq="-12"/>
        <radio op="I TIM" rat="LTE" rsrp="-120" rsrq="-13"/>
      </extensions>
    </trkpt>
    <trkpt lat="45.6025389" lon="10.453552">
      <ele>261.5</ele>
      <time>2026-07-26T19:36:23.577+02:00</time>
      <extensions>
        <activity type="ON_FOOT" conf="95" state="moving" tsMs="1785087401647"/>
        <radio op="vodafone IT" rat="LTE" q="18.90" rsrp="-104" sinr="4" rsrq="-9"/>
        <radio op="I TIM" rat="LTE" q="23.00" rsrp="-102" sinr="5" rsrq="-13"/>
      </extensions>
    </trkpt>
    <trkpt lat="45.6021086" lon="10.4532704">
      <ele>261.6000061035156</ele>
      <time>2026-07-26T19:37:04.21+02:00</time>
      <extensions>
        <activity type="ON_FOOT" conf="96" state="moving" tsMs="1785087418650"/>
        <radio op="vodafone IT" rat="LTE" q="41.40" rsrp="-102" sinr="13" rsrq="-9"/>
        <radio op="I TIM" rat="LTE" rsrp="-102" rsrq="-13"/>
      </extensions>
    </trkpt>
    <trkpt lat="45.6014512" lon="10.4537208">
      <ele>260.8000183105469</ele>
      <time>2026-07-26T19:37:42.494+02:00</time>
      <extensions>
        <activity type="ON_FOOT" conf="95" state="moving" tsMs="1785087462291"/>
        <radio op="vodafone IT" rat="LTE" q="58.80" rsrp="-97" sinr="16" rsrq="-7"/>
        <radio op="I TIM" rat="LTE" q="36.30" rsrp="-92" sinr="6" rsrq="-11"/>
      </extensions>
    </trkpt>
    <trkpt lat="45.6008729" lon="10.453425">
      <ele>260.70001220703125</ele>
      <time>2026-07-26T19:38:15.792+02:00</time>
      <extensions>
        <activity type="ON_FOOT" conf="96" state="moving" tsMs="1785087493945"/>
        <radio op="vodafone IT" rat="LTE" q="57.00" rsrp="-95" sinr="14" rsrq="-6"/>
        <radio op="I TIM" rat="LTE" q="97.50" rsrp="-86" sinr="20" rsrq="-12"/>
      </extensions>
    </trkpt>
    <trkpt lat="45.600864" lon="10.4526357">
      <ele>259.1000061035156</ele>
      <time>2026-07-26T19:38:42.496+02:00</time>
      <extensions>
        <activity type="ON_FOOT" conf="97" state="moving" tsMs="1785087523475"/>
        <radio op="vodafone IT" rat="LTE" q="33.80" rsrp="-99" sinr="8" rsrq="-8"/>
        <radio op="I TIM" rat="LTE" q="39.00" rsrp="-95" sinr="8" rsrq="-13"/>
      </extensions>
    </trkpt>
    <trkpt lat="45.6007569" lon="10.4525501">
      <ele>259.1000061035156</ele>
      <time>2026-07-26T19:38:54.191+02:00</time>
      <extensions>
        <activity type="ON_FOOT" conf="93" state="moving" tsMs="1785087532360"/>
        <radio op="vodafone IT" rat="LTE" q="39.10" rsrp="-102" sinr="12" rsrq="-8"/>
        <radio op="I TIM" rat="LTE" q="69.30" rsrp="-92" sinr="16" rsrq="-9"/>
      </extensions>
    </trkpt>
    <trkpt lat="45.6007647" lon="10.4525316">
      <ele>259.0</ele>
      <time>2026-07-26T19:39:27.71+02:00</time>
      <extensions>
        <activity type="ON_FOOT" conf="95" state="moving" tsMs="1785087553752"/>
        <radio op="vodafone IT" rat="LTE" q="27.60" rsrp="-102" sinr="7" rsrq="-8"/>
        <radio op="I TIM" rat="LTE" q="26.00" rsrp="-99" sinr="5" rsrq="-13"/>
      </extensions>
    </trkpt>
    <trkpt lat="45.600085" lon="10.4514963">
      <ele>258.3000183105469</ele>
      <time>2026-07-26T19:39:58.98+02:00</time>
      <extensions>
        <activity type="ON_FOOT" conf="95" state="moving" tsMs="1785087595178"/>
        <radio op="vodafone IT" rat="LTE" q="48.60" rsrp="-98" sinr="13" rsrq="-5"/>
        <radio op="I TIM" rat="LTE" rsrp="-93" rsrq="-12"/>
      </extensions>
    </trkpt>
    <trkpt lat="45.6001453" lon="10.4514409">
      <ele>258.3000183105469</ele>
      <time>2026-07-26T19:40:06.185+02:00</time>
      <extensions>
        <activity type="ON_FOOT" conf="95" state="moving" tsMs="1785087604924"/>
        <radio op="vodafone IT" rat="LTE" q="27.50" rsrp="-100" sinr="6" rsrq="-8"/>
        <radio op="I TIM" rat="LTE" q="38.40" rsrp="-93" sinr="7" rsrq="-12"/>
      </extensions>
    </trkpt>
    <trkpt lat="45.5998033" lon="10.4509536">
      <ele>258.1000061035156</ele>
      <time>2026-07-26T19:40:40.159+02:00</time>
      <extensions>
        <activity type="ON_FOOT" conf="92" state="moving" tsMs="1785087637103"/>
        <radio op="vodafone IT" rat="LTE" q="22.40" rsrp="-97" sinr="3" rsrq="-9"/>
        <radio op="I TIM" rat="LTE" q="75.60" rsrp="-89" sinr="16" rsrq="-10"/>
      </extensions>
    </trkpt>
    <trkpt lat="45.5994897" lon="10.4505686">
      <ele>258.1000061035156</ele>
      <time>2026-07-26T19:41:11.628+02:00</time>
      <extensions>
        <activity type="ON_FOOT" conf="94" state="moving" tsMs="1785087670929"/>
        <radio op="vodafone IT" rat="LTE" rsrp="-103" rsrq="-9"/>
        <radio op="I TIM" rat="LTE" q="34.10" rsrp="-94" sinr="6" rsrq="-13"/>
      </extensions>
    </trkpt>
    <trkpt lat="45.5992872" lon="10.4501914">
      <ele>257.9000244140625</ele>
      <time>2026-07-26T19:41:43.125+02:00</time>
      <extensions>
        <activity type="ON_FOOT" conf="96" state="moving" tsMs="1785087702456"/>
        <radio op="vodafone IT" rat="LTE" q="38.40" rsrp="-93" sinr="7" rsrq="-11"/>
        <radio op="I TIM" rat="LTE" q="62.70" rsrp="-92" sinr="14" rsrq="-15"/>
      </extensions>
    </trkpt>
    <trkpt lat="45.5986115" lon="10.4497316">
      <ele>257.9000244140625</ele>
      <time>2026-07-26T19:42:14.356+02:00</time>
      <extensions>
        <activity type="ON_FOOT" conf="96" state="moving" tsMs="1785087734047"/>
        <radio op="vodafone IT" rat="LTE" q="28.80" rsrp="-93" sinr="4" rsrq="-9"/>
        <radio op="I TIM" rat="LTE" q="21.00" rsrp="-90" sinr="1" rsrq="-13"/>
      </extensions>
    </trkpt>
    <trkpt lat="45.598797" lon="10.4495918">
      <ele>257.9000244140625</ele>
      <time>2026-07-26T19:42:42.51+02:00</time>
      <extensions>
        <activity type="ON_FOOT" conf="96" state="moving" tsMs="1785087762123"/>
        <radio op="vodafone IT" rat="LTE" q="61.20" rsrp="-89" sinr="12" rsrq="-12"/>
        <radio op="I TIM" rat="LTE" q="34.20" rsrp="-87" sinr="4" rsrq="-11"/>
      </extensions>
    </trkpt>
    <trkpt lat="45.5983858" lon="10.4490895">
      <ele>257.8000183105469</ele>
      <time>2026-07-26T19:43:16.245+02:00</time>
      <extensions>
        <activity type="ON_FOOT" conf="97" state="moving" tsMs="1785087792412"/>
        <radio op="vodafone IT" rat="LTE" q="28.00" rsrp="-85" sinr="2" rsrq="-10"/>
        <radio op="I TIM" rat="LTE" q="92.00" rsrp="-74" sinr="18" rsrq="-9"/>
      </extensions>
    </trkpt>
    <trkpt lat="45.5981766" lon="10.4481545">
      <ele>257.8000183105469</ele>
      <time>2026-07-26T19:43:47.762+02:00</time>
      <extensions>
        <activity type="ON_FOOT" conf="91" state="moving" tsMs="1785087823968"/>
        <radio op="vodafone IT" rat="LTE" q="14.40" rsrp="-101" sinr="1" rsrq="-11"/>
        <radio op="I TIM" rat="LTE" q="29.60" rsrp="-88" sinr="3" rsrq="-12"/>
      </extensions>
    </trkpt>
    <trkpt lat="45.5980534" lon="10.4474176">
      <ele>257.70001220703125</ele>
      <time>2026-07-26T19:44:18.931+02:00</time>
      <extensions>
        <activity type="ON_FOOT" conf="96" state="moving" tsMs="1785087855133"/>
        <radio op="vodafone IT" rat="LTE" rsrp="-101" rsrq="-12"/>
        <radio op="I TIM" rat="LTE" q="50.70" rsrp="-86" sinr="8" rsrq="-12"/>
      </extensions>
    </trkpt>
    <trkpt lat="45.5975928" lon="10.4471601">
      <ele>257.3999938964844</ele>
      <time>2026-07-26T19:44:50.374+02:00</time>
      <extensions>
        <activity type="ON_FOOT" conf="96" state="moving" tsMs="1785087886673"/>
        <radio op="vodafone IT" rat="LTE" q="14.40" rsrp="-101" sinr="1" rsrq="-11"/>
        <radio op="I TIM" rat="LTE" q="48.00" rsrp="-93" sinr="10" rsrq="-13"/>
      </extensions>
    </trkpt>
    <trkpt lat="45.597608" lon="10.4484581">
      <ele>257.70001220703125</ele>
      <time>2026-07-26T19:45:22.116+02:00</time>
      <extensions>
        <activity type="ON_FOOT" conf="96" state="moving" tsMs="1785087918201"/>
        <radio op="vodafone IT" rat="LTE" q="18.20" rsrp="-99" sinr="2" rsrq="-11"/>
        <radio op="I TIM" rat="LTE" q="39.60" rsrp="-92" sinr="7" rsrq="-13"/>
      </extensions>
    </trkpt>
    <trkpt lat="45.596986" lon="10.4471746">
      <ele>257.3999938964844</ele>
      <time>2026-07-26T19:45:53.261+02:00</time>
      <extensions>
        <activity type="ON_FOOT" conf="96" state="moving" tsMs="1785087949503"/>
        <radio op="vodafone IT" rat="LTE" rsrp="-92" rsrq="-11"/>
        <radio op="I TIM" rat="LTE" q="48.00" rsrp="-83" sinr="7" rsrq="-11"/>
      </extensions>
    </trkpt>
    <trkpt lat="45.5969172" lon="10.4454289">
      <ele>256.70001220703125</ele>
      <time>2026-07-26T19:46:24.602+02:00</time>
      <extensions>
        <activity type="ON_FOOT" conf="98" state="moving" tsMs="1785087980875"/>
        <radio op="vodafone IT" rat="LTE" q="13.50" rsrp="-98" sinr="0" rsrq="-14"/>
        <radio op="I TIM" rat="LTE" q="39.60" rsrp="-92" sinr="7" rsrq="-14"/>
      </extensions>
    </trkpt>
    <trkpt lat="45.595987" lon="10.4455257">
      <ele>256.6000061035156</ele>
      <time>2026-07-26T19:46:56.173+02:00</time>
      <extensions>
        <activity type="ON_FOOT" conf="96" state="moving" tsMs="1785088012519"/>
        <radio op="vodafone IT" rat="LTE" rsrp="-96" rsrq="-11"/>
        <radio op="I TIM" rat="LTE" q="25.20" rsrp="-89" sinr="2" rsrq="-13"/>
      </extensions>
    </trkpt>
    <trkpt lat="45.5959722" lon="10.4450461">
      <ele>256.3999938964844</ele>
      <time>2026-07-26T19:47:27.634+02:00</time>
      <extensions>
        <activity type="ON_FOOT" conf="96" state="moving" tsMs="1785088043905"/>
        <radio op="vodafone IT" rat="LTE" q="18.00" rsrp="-95" sinr="1" rsrq="-13"/>
        <radio op="I TIM" rat="LTE" rsrp="-97" rsrq="-12"/>
      </extensions>
    </trkpt>
    <trkpt lat="45.5958104" lon="10.4447229">
      <ele>256.3999938964844</ele>
      <time>2026-07-26T19:47:59.041+02:00</time>
      <extensions>
        <activity type="ON_FOOT" conf="96" state="moving" tsMs="1785088075369"/>
        <radio op="vodafone IT" rat="LTE" rsrp="-96" rsrq="-8"/>
        <radio op="I TIM" rat="LTE" q="27.20" rsrp="-91" sinr="3" rsrq="-11"/>
      </extensions>
    </trkpt>
    <trkpt lat="45.5955359" lon="10.4442498">
      <ele>256.6000061035156</ele>
      <time>2026-07-26T19:48:30.479+02:00</time>
      <extensions>
        <activity type="ON_FOOT" conf="97" state="moving" tsMs="1785088106585"/>
        <radio op="vodafone IT" rat="LTE" q="41.60" rsrp="-93" sinr="8" rsrq="-9"/>
        <radio op="I TIM" rat="LTE" q="54.40" rsrp="-91" sinr="11" rsrq="-9"/>
      </extensions>
    </trkpt>
    <trkpt lat="45.5950575" lon="10.4440326">
      <ele>256.3999938964844</ele>
      <time>2026-07-26T19:49:02.01+02:00</time>
      <extensions>
        <activity type="ON_FOOT" conf="96" state="moving" tsMs="1785088138248"/>
        <radio op="vodafone IT" rat="LTE" rsrp="-87" rsrq="-11"/>
        <radio op="I TIM" rat="LTE" q="36.00" rsrp="-89" sinr="5" rsrq="-12"/>
      </extensions>
    </trkpt>
    <trkpt lat="45.5951414" lon="10.4434148">
      <ele>256.20001220703125</ele>
      <time>2026-07-26T19:49:33.369+02:00</time>
      <extensions>
        <activity type="ON_FOOT" conf="97" state="moving" tsMs="1785088169842"/>
        <radio op="vodafone IT" rat="LTE" q="54.60" rsrp="-86" sinr="9" rsrq="-12"/>
        <radio op="I TIM" rat="LTE" q="72.00" rsrp="-82" sinr="13" rsrq="-11"/>
      </extensions>
    </trkpt>
    <trkpt lat="45.5950352" lon="10.4433486">
      <ele>256.20001220703125</ele>
      <time>2026-07-26T19:49:39.189+02:00</time>
      <extensions>
        <activity type="ON_FOOT" conf="97" state="moving" tsMs="1785088179508"/>
        <radio op="vodafone IT" rat="LTE" q="92.00" rsrp="-74" sinr="18" rsrq="-7"/>
        <radio op="I TIM" rat="LTE" q="72.00" rsrp="-69" sinr="13" rsrq="-6"/>
      </extensions>
    </trkpt>
    <trkpt lat="45.5950315" lon="10.4433486">
      <ele>255.20001220703125</ele>
      <time>2026-07-26T19:50:14.912+02:00</time>
      <extensions>
        <activity type="ON_FOOT" conf="96" state="moving" tsMs="1785088211600"/>
        <radio op="vodafone IT" rat="LTE" q="62.00" rsrp="-94" sinr="15" rsrq="-13"/>
        <radio op="I TIM" rat="LTE" q="31.50" rsrp="-90" sinr="4" rsrq="-11"/>
      </extensions>
    </trkpt>
    <trkpt lat="45.5943356" lon="10.4427311">
      <ele>255.00001525878906</ele>
      <time>2026-07-26T19:50:42.561+02:00</time>
      <extensions>
        <activity type="ON_FOOT" conf="96" state="moving" tsMs="1785088242726"/>
        <radio op="vodafone IT" rat="LTE" q="31.20" rsrp="-86" sinr="3" rsrq="-13"/>
        <radio op="I TIM" rat="LTE" q="28.80" rsrp="-89" sinr="3" rsrq="-14"/>
      </extensions>
    </trkpt>
    <trkpt lat="45.593751" lon="10.4425765">
      <ele>254.90000915527344</ele>
      <time>2026-07-26T19:51:17.123+02:00</time>
      <extensions>
        <activity type="ON_FOOT" conf="96" state="moving" tsMs="1785088273334"/>
        <radio op="vodafone IT" rat="LTE" q="20.40" rsrp="-91" sinr="1" rsrq="-13"/>
        <radio op="I TIM" rat="LTE" q="28.00" rsrp="-80" sinr="2" rsrq="-8"/>
      </extensions>
    </trkpt>
    <trkpt lat="45.5937817" lon="10.4424134">
      <ele>254.90000915527344</ele>
      <time>2026-07-26T19:51:23.189+02:00</time>
      <extensions>
        <activity type="ON_FOOT" conf="97" state="moving" tsMs="1785088283329"/>
        <radio op="vodafone IT" rat="LTE" q="18.50" rsrp="-88" sinr="0" rsrq="-14"/>
        <radio op="I TIM" rat="LTE" rsrp="-85" rsrq="-12"/>
      </extensions>
    </trkpt>
    <trkpt lat="45.5937803" lon="10.4424237">
      <ele>254.60000610351562</ele>
      <time>2026-07-26T19:51:58.805+02:00</time>
      <extensions>
        <activity type="ON_FOOT" conf="96" state="moving" tsMs="1785088315408"/>
        <radio op="vodafone IT" rat="LTE" q="38.50" rsrp="-90" sinr="6" rsrq="-8"/>
        <radio op="I TIM" rat="LTE" q="30.40" rsrp="-87" sinr="3" rsrq="-11"/>
      </extensions>
    </trkpt>
    <trkpt lat="45.5928039" lon="10.4425883">
      <ele>254.50001525878906</ele>
      <time>2026-07-26T19:52:30.326+02:00</time>
      <extensions>
        <activity type="ON_FOOT" conf="96" state="moving" tsMs="1785088346618"/>
        <radio op="vodafone IT" rat="LTE" q="80.00" rsrp="-77" sinr="15" rsrq="-8"/>
        <radio op="I TIM" rat="LTE" q="92.00" rsrp="-75" sinr="18" rsrq="-8"/>
      </extensions>
    </trkpt>
    <trkpt lat="45.593218" lon="10.4427945">
      <ele>254.50001525878906</ele>
      <time>2026-07-26T19:53:04.431+02:00</time>
      <extensions>
        <activity type="ON_FOOT" conf="82" state="moving" tsMs="1785088384084"/>
        <radio op="vodafone IT" rat="LTE" q="55.20" rsrp="-101" sinr="18" rsrq="-7"/>
        <radio op="I TIM" rat="LTE" q="46.40" rsrp="-96" sinr="11" rsrq="-6"/>
      </extensions>
    </trkpt>
    <trkpt lat="45.5932167" lon="10.4427991">
      <ele>254.50001525878906</ele>
      <time>2026-07-26T19:54:01.809+02:00</time>
      <extensions>
        <activity type="UNKNOWN" conf="40" state="unknown" tsMs="1785088436053"/>
        <radio op="vodafone IT" rat="LTE" q="46.20" rsrp="-104" sinr="17" rsrq="-9"/>
        <radio op="I TIM" rat="LTE" q="50.40" rsrp="-104" sinr="19" rsrq="-8"/>
      </extensions>
    </trkpt>
    <trkpt lat="45.5932243" lon="10.4428097">
      <ele>254.50001525878906</ele>
      <time>2026-07-26T19:54:41.991+02:00</time>
      <extensions>
        <activity type="ON_FOOT" conf="81" state="moving" tsMs="1785088478256"/>
        <radio op="vodafone IT" rat="LTE" q="50.40" rsrp="-101" sinr="16" rsrq="-9"/>
        <radio op="I TIM" rat="LTE" q="65.00" rsrp="-99" sinr="21" rsrq="-7"/>
      </extensions>
    </trkpt>
    <trkpt lat="45.5932846" lon="10.4426802">
      <ele>254.60000610351562</ele>
      <time>2026-07-26T19:55:12.365+02:00</time>
      <extensions>
        <activity type="ON_FOOT" conf="83" state="moving" tsMs="1785088510127"/>
        <radio op="vodafone IT" rat="LTE" q="18.20" rsrp="-111" sinr="8" rsrq="-12"/>
        <radio op="I TIM" rat="LTE" q="52.50" rsrp="-104" sinr="20" rsrq="-8"/>
      </extensions>
    </trkpt>
    <trkpt lat="45.5933908" lon="10.4424702">
      <ele>254.60000610351562</ele>
      <time>2026-07-26T19:55:43.714+02:00</time>
      <extensions>
        <activity type="UNKNOWN" conf="40" state="unknown" tsMs="1785088538319"/>
        <radio op="vodafone IT" rat="LTE" q="21.00" rsrp="-110" sinr="9" rsrq="-9"/>
        <radio op="I TIM" rat="LTE" q="45.00" rsrp="-95" sinr="10" rsrq="-10"/>
      </extensions>
    </trkpt>
    <trkpt lat="45.5934608" lon="10.4424091">
      <ele>254.60000610351562</ele>
      <time>2026-07-26T19:56:23.899+02:00</time>
      <extensions>
        <activity type="UNKNOWN" conf="40" state="unknown" tsMs="1785088571038"/>
        <radio op="vodafone IT" rat="LTE" q="33.80" rsrp="-99" sinr="8" rsrq="-7"/>
        <radio op="I TIM" rat="LTE" q="33.00" rsrp="-95" sinr="6" rsrq="-8"/>
      </extensions>
    </trkpt>
    <trkpt lat="45.5934003" lon="10.4424888">
      <ele>254.60000610351562</ele>
      <time>2026-07-26T19:57:27.754+02:00</time>
      <extensions>
        <activity type="UNKNOWN" conf="40" state="unknown" tsMs="1785088647674"/>
        <radio op="vodafone IT" rat="LTE" q="41.80" rsrp="-103" sinr="14" rsrq="-9"/>
        <radio op="I TIM" rat="LTE" q="69.60" rsrp="-96" sinr="19" rsrq="-7"/>
      </extensions>
    </trkpt>
    <trkpt lat="45.5933984" lon="10.4424834">
      <ele>254.60000610351562</ele>
      <time>2026-07-26T19:58:05.106+02:00</time>
      <extensions>
        <activity type="UNKNOWN" conf="40" state="unknown" tsMs="1785088680057"/>
        <radio op="vodafone IT" rat="LTE" q="22.80" rsrp="-106" sinr="7" rsrq="-10"/>
        <radio op="I TIM" rat="LTE" q="50.60" rsrp="-102" sinr="17" rsrq="-9"/>
      </extensions>
    </trkpt>
    <trkpt lat="45.5934046" lon="10.4424711">
      <ele>254.60000610351562</ele>
      <time>2026-07-26T19:59:00.869+02:00</time>
      <extensions>
        <activity type="STILL" conf="65" state="still" tsMs="1785088735671"/>
        <radio op="vodafone IT" rat="LTE" q="27.20" rsrp="-108" sinr="11" rsrq="-9"/>
        <radio op="I TIM" rat="LTE" q="41.40" rsrp="-102" sinr="13" rsrq="-8"/>
      </extensions>
    </trkpt>
    <trkpt lat="45.5934602" lon="10.4424208">
      <ele>254.60000610351562</ele>
      <time>2026-07-26T20:17:31.395+02:00</time>
      <extensions>
        <activity type="ON_FOOT" conf="89" state="moving" tsMs="1785089851089"/>
        <radio op="vodafone IT" rat="LTE" q="21.60" rsrp="-107" sinr="7" rsrq="-9"/>
        <radio op="I TIM" rat="LTE" q="31.50" rsrp="-104" sinr="10" rsrq="-11"/>
      </extensions>
    </trkpt>
    <trkpt lat="45.5934687" lon="10.4424081">
      <ele>254.60000610351562</ele>
      <time>2026-07-26T20:18:17.815+02:00</time>
      <extensions>
        <activity type="UNKNOWN" conf="40" state="unknown" tsMs="1785089897696"/>
        <radio op="vodafone IT" rat="LTE" q="19.00" rsrp="-106" sinr="5" rsrq="-8"/>
        <radio op="I TIM" rat="LTE" q="40.80" rsrp="-101" sinr="12" rsrq="-11"/>
      </extensions>
    </trkpt>
    <trkpt lat="45.59347" lon="10.4424077">
      <ele>254.60000610351562</ele>
      <time>2026-07-26T20:19:36.914+02:00</time>
      <extensions>
        <activity type="UNKNOWN" conf="40" state="unknown" tsMs="1785089974706"/>
        <radio op="vodafone IT" rat="LTE" q="27.30" rsrp="-104" sinr="8" rsrq="-10"/>
        <radio op="I TIM" rat="LTE" q="48.60" rsrp="-98" sinr="13" rsrq="-8"/>
      </extensions>
    </trkpt>
    <trkpt lat="45.593401" lon="10.4424876">
      <ele>254.60000610351562</ele>
      <time>2026-07-26T20:20:29.027+02:00</time>
      <extensions>
        <activity type="ON_FOOT" conf="82" state="moving" tsMs="1785090008076"/>
        <radio op="vodafone IT" rat="LTE" q="11.90" rsrp="-108" sinr="2" rsrq="-11"/>
        <radio op="I TIM" rat="LTE" q="18.00" rsrp="-107" sinr="5" rsrq="-9"/>
      </extensions>
    </trkpt>
    <trkpt lat="45.5933439" lon="10.442556">
      <ele>254.60000610351562</ele>
      <time>2026-07-26T20:21:17.48+02:00</time>
      <extensions>
        <activity type="UNKNOWN" conf="40" state="unknown" tsMs="1785090076696"/>
        <radio op="vodafone IT" rat="LTE" q="27.30" rsrp="-104" sinr="8" rsrq="-7"/>
        <radio op="I TIM" rat="LTE" q="34.50" rsrp="-102" sinr="10" rsrq="-9"/>
      </extensions>
    </trkpt>
    <trkpt lat="45.5933389" lon="10.4425662">
      <ele>254.60000610351562</ele>
      <time>2026-07-26T20:22:16.241+02:00</time>
      <extensions>
        <activity type="STILL" conf="64" state="still" tsMs="1785090130701"/>
        <radio op="vodafone IT" rat="LTE" q="9.50" rsrp="-106" sinr="0" rsrq="-9"/>
        <radio op="I TIM" rat="LTE" q="33.00" rsrp="-103" sinr="10" rsrq="-7"/>
      </extensions>
    </trkpt>
    <trkpt lat="45.5933137" lon="10.4426427">
      <ele>254.60000610351562</ele>
      <time>2026-07-26T20:22:58.497+02:00</time>
      <extensions>
        <activity type="STILL" conf="34" state="still" tsMs="1785090173092"/>
        <radio op="vodafone IT" rat="LTE" q="35.20" rsrp="-103" sinr="11" rsrq="-9"/>
        <radio op="I TIM" rat="LTE" q="60.00" rsrp="-100" sinr="19" rsrq="-6"/>
      </extensions>
    </trkpt>
    <trkpt lat="45.5933956" lon="10.4424694">
      <ele>254.60000610351562</ele>
      <time>2026-07-26T20:24:00.872+02:00</time>
      <extensions>
        <activity type="STILL" conf="53" state="still" tsMs="1785090235704"/>
        <radio op="vodafone IT" rat="LTE" q="27.60" rsrp="-102" sinr="7" rsrq="-12"/>
        <radio op="I TIM" rat="LTE" q="57.20" rsrp="-99" sinr="17" rsrq="-9"/>
      </extensions>
    </trkpt>
    <trkpt lat="45.5932255" lon="10.4428114">
      <ele>252.34222590495514</ele>
      <time>2026-07-26T20:25:17.701+02:00</time>
      <extensions>
        <activity type="ON_FOOT" conf="87" state="moving" tsMs="1785090313431"/>
        <radio op="vodafone IT" rat="LTE" q="27.20" rsrp="-109" sinr="12" rsrq="-8"/>
        <radio op="I TIM" rat="LTE" q="22.80" rsrp="-106" sinr="7" rsrq="-7"/>
      </extensions>
    </trkpt>
    <trkpt lat="45.5932733" lon="10.4429121">
      <ele>254.60000610351562</ele>
      <time>2026-07-26T20:26:00.701+02:00</time>
      <extensions>
        <activity type="UNKNOWN" conf="40" state="unknown" tsMs="1785090356699"/>
        <radio op="vodafone IT" rat="LTE" q="40.80" rsrp="-101" sinr="12" rsrq="-10"/>
        <radio op="I TIM" rat="LTE" q="60.90" rsrp="-96" sinr="16" rsrq="-8"/>
      </extensions>
    </trkpt>
    <trkpt lat="45.5932734" lon="10.4429122">
      <ele>254.60000610351562</ele>
      <time>2026-07-26T20:26:24.839+02:00</time>
      <extensions>
        <activity type="UNKNOWN" conf="40" state="unknown" tsMs="1785090384066"/>
        <radio op="vodafone IT" rat="LTE" q="82.80" rsrp="-89" sinr="18" rsrq="-6"/>
        <radio op="I TIM" rat="LTE" q="77.00" rsrp="-90" sinr="17" rsrq="-8"/>
      </extensions>
    </trkpt>
    <trkpt lat="45.5932767" lon="10.4429182">
      <ele>254.60000610351562</ele>
      <time>2026-07-26T20:26:54.877+02:00</time>
      <extensions>
        <activity type="UNKNOWN" conf="40" state="unknown" tsMs="1785090412142"/>
        <radio op="vodafone IT" rat="LTE" q="33.60" rsrp="-97" sinr="7" rsrq="-6"/>
        <radio op="I TIM" rat="LTE" q="75.90" rsrp="-92" sinr="18" rsrq="-6"/>
      </extensions>
    </trkpt>
    <trkpt lat="45.5932744" lon="10.4429161">
      <ele>254.60000610351562</ele>
      <time>2026-07-26T20:27:28.032+02:00</time>
      <extensions>
        <activity type="UNKNOWN" conf="40" state="unknown" tsMs="1785090444242"/>
        <radio op="vodafone IT" rat="LTE" q="64.00" rsrp="-93" sinr="15" rsrq="-10"/>
        <radio op="I TIM" rat="LTE" q="49.00" rsrp="-90" sinr="9" rsrq="-10"/>
      </extensions>
    </trkpt>
    <trkpt lat="45.5932817" lon="10.4429242">
      <ele>254.60000610351562</ele>
      <time>2026-07-26T20:27:59.298+02:00</time>
      <extensions>
        <activity type="UNKNOWN" conf="40" state="unknown" tsMs="1785090475464"/>
        <radio op="vodafone IT" rat="LTE" q="57.00" rsrp="-95" sinr="14" rsrq="-7"/>
        <radio op="I TIM" rat="LTE" q="88.00" rsrp="-84" sinr="17" rsrq="-10"/>
      </extensions>
    </trkpt>
    <trkpt lat="45.5932852" lon="10.4429289">
      <ele>254.60000610351562</ele>
      <time>2026-07-26T20:28:34.567+02:00</time>
      <extensions>
        <activity type="UNKNOWN" conf="40" state="unknown" tsMs="1785090517959"/>
        <radio op="vodafone IT" rat="LTE" q="46.00" rsrp="-102" sinr="15" rsrq="-7"/>
        <radio op="I TIM" rat="LTE" q="49.40" rsrp="-99" sinr="14" rsrq="-10"/>
      </extensions>
    </trkpt>
    <trkpt lat="45.5932689" lon="10.4429011">
      <ele>251.46835487277733</ele>
      <time>2026-07-26T20:29:20.953+02:00</time>
      <extensions>
        <activity type="UNKNOWN" conf="40" state="unknown" tsMs="1785090557085"/>
        <radio op="vodafone IT" rat="LTE" q="42.00" rsrp="-105" sinr="16" rsrq="-10"/>
        <radio op="I TIM" rat="LTE" q="48.00" rsrp="-101" sinr="15" rsrq="-8"/>
      </extensions>
    </trkpt>
    <trkpt lat="45.5932746" lon="10.4429144">
      <ele>254.60000610351562</ele>
      <time>2026-07-26T20:29:58.976+02:00</time>
      <extensions>
        <activity type="STILL" conf="62" state="still" tsMs="1785090594553"/>
        <radio op="vodafone IT" rat="LTE" q="67.50" rsrp="-98" sinr="21" rsrq="-6"/>
        <radio op="I TIM" rat="LTE" q="76.80" rsrp="-93" sinr="19" rsrq="-13"/>
      </extensions>
    </trkpt>
    <trkpt lat="45.593362" lon="10.4433645">
      <ele>254.60000610351562</ele>
      <time>2026-07-26T20:31:21.426+02:00</time>
      <extensions>
        <activity type="UNKNOWN" conf="40" state="unknown" tsMs="1785090680256"/>
        <radio op="vodafone IT" rat="LTE" q="68.00" rsrp="-80" sinr="12" rsrq="-10"/>
        <radio op="I TIM" rat="LTE" q="100.00" rsrp="-72" sinr="20" rsrq="-8"/>
      </extensions>
    </trkpt>
    <trkpt lat="45.5936633" lon="10.4425858">
      <ele>254.60000610351562</ele>
      <time>2026-07-26T20:31:58.967+02:00</time>
      <extensions>
        <activity type="ON_FOOT" conf="96" state="moving" tsMs="1785090718091"/>
        <radio op="vodafone IT" rat="LTE" q="15.00" rsrp="-95" sinr="0" rsrq="-11"/>
        <radio op="I TIM" rat="LTE" q="46.20" rsrp="-92" sinr="9" rsrq="-11"/>
      </extensions>
    </trkpt>
    <trkpt lat="45.5938596" lon="10.4426064">
      <ele>252.8727358530645</ele>
      <time>2026-07-26T20:32:35.872+02:00</time>
      <extensions>
        <activity type="ON_FOOT" conf="96" state="moving" tsMs="1785090750131"/>
        <radio op="vodafone IT" rat="LTE" q="21.00" rsrp="-90" sinr="1" rsrq="-11"/>
        <radio op="I TIM" rat="LTE" q="25.20" rsrp="-97" sinr="4" rsrq="-9"/>
      </extensions>
    </trkpt>
    <trkpt lat="45.5945145" lon="10.4426726">
      <ele>254.40000915527344</ele>
      <time>2026-07-26T20:33:13.82+02:00</time>
      <extensions>
        <activity type="ON_FOOT" conf="97" state="moving" tsMs="1785090793090"/>
        <radio op="vodafone IT" rat="LTE" q="68.00" rsrp="-82" sinr="12" rsrq="-10"/>
        <radio op="I TIM" rat="LTE" q="19.80" rsrp="-92" sinr="1" rsrq="-11"/>
      </extensions>
    </trkpt>
    <trkpt lat="45.5954104" lon="10.4436822">
      <ele>254.40000915527344</ele>
      <time>2026-07-26T20:33:44.541+02:00</time>
      <extensions>
        <activity type="ON_FOOT" conf="95" state="moving" tsMs="1785090819719"/>
        <radio op="vodafone IT" rat="LTE" q="36.30" rsrp="-92" sinr="6" rsrq="-11"/>
        <radio op="I TIM" rat="LTE" q="29.70" rsrp="-92" sinr="4" rsrq="-13"/>
      </extensions>
    </trkpt>
    <trkpt lat="45.594788" lon="10.4430379">
      <ele>254.40000915527344</ele>
      <time>2026-07-26T20:34:36.134+02:00</time>
      <extensions>
        <activity type="ON_FOOT" conf="96" state="moving" tsMs="1785090875108"/>
        <radio op="vodafone IT" rat="LTE" q="44.40" rsrp="-88" sinr="7" rsrq="-12"/>
        <radio op="I TIM" rat="LTE" q="32.00" rsrp="-84" sinr="3" rsrq="-9"/>
      </extensions>
    </trkpt>
    <trkpt lat="45.5955003" lon="10.4444143">
      <ele>256.3999938964844</ele>
      <time>2026-07-26T20:35:54.212+02:00</time>
      <extensions>
        <activity type="ON_FOOT" conf="96" state="moving" tsMs="1785090950106"/>
        <radio op="vodafone IT" rat="LTE" q="13.80" rsrp="-102" sinr="1" rsrq="-13"/>
        <radio op="I TIM" rat="LTE" q="15.00" rsrp="-100" sinr="1" rsrq="-10"/>
      </extensions>
    </trkpt>
    <trkpt lat="45.5955883" lon="10.4443472">
      <ele>256.6000061035156</ele>
      <time>2026-07-26T20:35:59.198+02:00</time>
      <extensions>
        <activity type="ON_FOOT" conf="96" state="moving" tsMs="1785090960305"/>
        <radio op="vodafone IT" rat="LTE" q="12.60" rsrp="-104" sinr="1" rsrq="-12"/>
        <radio op="I TIM" rat="LTE" q="27.60" rsrp="-102" sinr="7" rsrq="-11"/>
      </extensions>
    </trkpt>
    <trkpt lat="45.5955997" lon="10.4443501">
      <ele>256.3999938964844</ele>
      <time>2026-07-26T20:36:50.188+02:00</time>
      <extensions>
        <activity type="ON_FOOT" conf="96" state="moving" tsMs="1785091005100"/>
        <radio op="vodafone IT" rat="LTE" rsrp="-108" rsrq="-13"/>
        <radio op="I TIM" rat="LTE" q="10.00" rsrp="-105" sinr="0" rsrq="-15"/>
      </extensions>
    </trkpt>
    <trkpt lat="45.5966529" lon="10.4461443">
      <ele>254.87318511178685</ele>
      <time>2026-07-26T20:37:21.057+02:00</time>
      <extensions>
        <activity type="ON_FOOT" conf="96" state="moving" tsMs="1785091036745"/>
        <radio op="vodafone IT" rat="LTE" q="18.00" rsrp="-105" sinr="4" rsrq="-13"/>
        <radio op="I TIM" rat="LTE" rsrp="-100" rsrq="-12"/>
      </extensions>
    </trkpt>
    <trkpt lat="45.596448" lon="10.4455671">
      <ele>254.87318511178685</ele>
      <time>2026-07-26T20:37:28.202+02:00</time>
      <extensions>
        <activity type="ON_FOOT" conf="96" state="moving" tsMs="1785091047048"/>
        <radio op="vodafone IT" rat="LTE" q="31.90" rsrp="-96" sinr="6" rsrq="-10"/>
        <radio op="I TIM" rat="LTE" q="19.80" rsrp="-92" sinr="1" rsrq="-10"/>
      </extensions>
    </trkpt>
    <trkpt lat="45.5967884" lon="10.4463925">
      <ele>253.8508052879212</ele>
      <time>2026-07-26T20:38:22.121+02:00</time>
      <extensions>
        <activity type="ON_FOOT" conf="97" state="moving" tsMs="1785091096548"/>
        <radio op="vodafone IT" rat="LTE" q="35.10" rsrp="-98" sinr="8" rsrq="-13"/>
        <radio op="I TIM" rat="LTE" q="47.60" rsrp="-97" sinr="12" rsrq="-13"/>
      </extensions>
    </trkpt>
    <trkpt lat="45.5970712" lon="10.4473224">
      <ele>256.70001220703125</ele>
      <time>2026-07-26T20:38:57.083+02:00</time>
      <extensions>
        <activity type="ON_FOOT" conf="96" state="moving" tsMs="1785091137838"/>
        <radio op="vodafone IT" rat="LTE" q="47.60" rsrp="-91" sinr="9" rsrq="-9"/>
        <radio op="I TIM" rat="LTE" q="44.00" rsrp="-79" sinr="6" rsrq="-11"/>
      </extensions>
    </trkpt>
    <trkpt lat="45.5977899" lon="10.4470796">
      <ele>256.70001220703125</ele>
      <time>2026-07-26T20:39:32.111+02:00</time>
      <extensions>
        <activity type="ON_FOOT" conf="96" state="moving" tsMs="1785091168399"/>
        <radio op="vodafone IT" rat="LTE" q="25.30" rsrp="-102" sinr="6" rsrq="-13"/>
        <radio op="I TIM" rat="LTE" q="40.70" rsrp="-88" sinr="6" rsrq="-11"/>
      </extensions>
    </trkpt>
    <trkpt lat="45.5978931" lon="10.4481383">
      <ele>255.45791161252706</ele>
      <time>2026-07-26T20:40:03.503+02:00</time>
      <extensions>
        <activity type="ON_FOOT" conf="96" state="moving" tsMs="1785091199857"/>
        <radio op="vodafone IT" rat="LTE" q="8.00" rsrp="-109" sinr="0" rsrq="-14"/>
        <radio op="I TIM" rat="LTE" q="62.00" rsrp="-94" sinr="15" rsrq="-12"/>
      </extensions>
    </trkpt>
    <trkpt lat="45.5977918" lon="10.4480684">
      <ele>254.7954370131073</ele>
      <time>2026-07-26T20:40:35.149+02:00</time>
      <extensions>
        <activity type="UNKNOWN" conf="40" state="unknown" tsMs="1785091231391"/>
        <radio op="vodafone IT" rat="LTE" rsrp="-108" rsrq="-16"/>
        <radio op="I TIM" rat="LTE" q="65.10" rsrp="-94" sinr="16" rsrq="-13"/>
      </extensions>
    </trkpt>
    <trkpt lat="45.5981937" lon="10.4483113">
      <ele>254.76348615199956</ele>
      <time>2026-07-26T20:41:06.684+02:00</time>
      <extensions>
        <activity type="ON_FOOT" conf="90" state="moving" tsMs="1785091263013"/>
        <radio op="vodafone IT" rat="LTE" rsrp="-102" rsrq="-14"/>
        <radio op="I TIM" rat="LTE" q="26.10" rsrp="-96" sinr="4" rsrq="-10"/>
      </extensions>
    </trkpt>
    <trkpt lat="45.598522" lon="10.448227">
      <ele>254.0329088510021</ele>
      <time>2026-07-26T20:41:38.109+02:00</time>
      <extensions>
        <activity type="ON_FOOT" conf="96" state="moving" tsMs="1785091294488"/>
        <radio op="vodafone IT" rat="LTE" q="12.00" rsrp="-101" sinr="0" rsrq="-13"/>
        <radio op="I TIM" rat="LTE" q="34.80" rsrp="-96" sinr="7" rsrq="-10"/>
      </extensions>
    </trkpt>
    <trkpt lat="45.598687" lon="10.4487269">
      <ele>254.93389211628732</ele>
      <time>2026-07-26T20:42:09.64+02:00</time>
      <extensions>
        <activity type="UNKNOWN" conf="40" state="unknown" tsMs="1785091325890"/>
        <radio op="vodafone IT" rat="LTE" rsrp="-104" rsrq="-13"/>
        <radio op="I TIM" rat="LTE" q="56.00" rsrp="-83" sinr="9" rsrq="-9"/>
      </extensions>
    </trkpt>
    <trkpt lat="45.5990009" lon="10.4492379">
      <ele>254.91898145961298</ele>
      <time>2026-07-26T20:42:41.146+02:00</time>
      <extensions>
        <activity type="UNKNOWN" conf="40" state="unknown" tsMs="1785091357470"/>
        <radio op="vodafone IT" rat="LTE" rsrp="-103" rsrq="-10"/>
        <radio op="I TIM" rat="LTE" q="51.20" rsrp="-93" sinr="11" rsrq="-11"/>
      </extensions>
    </trkpt>
    <trkpt lat="45.5991778" lon="10.4498062">
      <ele>254.2118200026686</ele>
      <time>2026-07-26T20:43:12.709+02:00</time>
      <extensions>
        <activity type="ON_FOOT" conf="87" state="moving" tsMs="1785091388969"/>
        <radio op="vodafone IT" rat="LTE" q="10.50" rsrp="-104" sinr="0" rsrq="-14"/>
        <radio op="I TIM" rat="LTE" rsrp="-98" rsrq="-11"/>
      </extensions>
    </trkpt>
    <trkpt lat="45.5994081" lon="10.450198">
      <ele>254.86093324043705</ele>
      <time>2026-07-26T20:43:44.278+02:00</time>
      <extensions>
        <activity type="ON_FOOT" conf="93" state="moving" tsMs="1785091420630"/>
        <radio op="vodafone IT" rat="LTE" q="22.00" rsrp="-105" sinr="6" rsrq="-9"/>
        <radio op="I TIM" rat="LTE" q="20.00" rsrp="-100" sinr="3" rsrq="-12"/>
      </extensions>
    </trkpt>
    <trkpt lat="45.5997438" lon="10.4508989">
      <ele>256.17893535856274</ele>
      <time>2026-07-26T20:44:15.721+02:00</time>
      <extensions>
        <activity type="ON_FOOT" conf="90" state="moving" tsMs="1785091452114"/>
        <radio op="vodafone IT" rat="LTE" q="19.80" rsrp="-107" sinr="6" rsrq="-11"/>
        <radio op="I TIM" rat="LTE" q="37.50" rsrp="-100" sinr="10" rsrq="-11"/>
      </extensions>
    </trkpt>
    <trkpt lat="45.6001153" lon="10.4514234">
      <ele>255.7650623810521</ele>
      <time>2026-07-26T20:44:47.244+02:00</time>
      <extensions>
        <activity type="ON_FOOT" conf="96" state="moving" tsMs="1785091483547"/>
        <radio op="vodafone IT" rat="LTE" q="31.50" rsrp="-104" sinr="10" rsrq="-10"/>
        <radio op="I TIM" rat="LTE" rsrp="-102" rsrq="-11"/>
      </extensions>
    </trkpt>
    <trkpt lat="45.6005731" lon="10.4512574">
      <ele>258.20001220703125</ele>
      <time>2026-07-26T20:45:18.763+02:00</time>
      <extensions>
        <activity type="ON_FOOT" conf="85" state="moving" tsMs="1785091515100"/>
        <radio op="vodafone IT" rat="LTE" q="42.50" rsrp="-100" sinr="12" rsrq="-10"/>
        <radio op="I TIM" rat="LTE" q="34.00" rsrp="-91" sinr="5" rsrq="-12"/>
      </extensions>
    </trkpt>
    <trkpt lat="45.6006957" lon="10.4521569">
      <ele>258.20001220703125</ele>
      <time>2026-07-26T20:45:50.291+02:00</time>
      <extensions>
        <activity type="ON_FOOT" conf="96" state="moving" tsMs="1785091546569"/>
        <radio op="vodafone IT" rat="LTE" q="33.00" rsrp="-103" sinr="10" rsrq="-9"/>
        <radio op="I TIM" rat="LTE" q="11.40" rsrp="-106" sinr="1" rsrq="-13"/>
      </extensions>
    </trkpt>
    <trkpt lat="45.6008747" lon="10.4527686">
      <ele>259.20001220703125</ele>
      <time>2026-07-26T20:46:21.798+02:00</time>
      <extensions>
        <activity type="ON_FOOT" conf="97" state="moving" tsMs="1785091578083"/>
        <radio op="vodafone IT" rat="LTE" q="29.40" rsrp="-104" sinr="9" rsrq="-10"/>
        <radio op="I TIM" rat="LTE" q="41.60" rsrp="-99" sinr="11" rsrq="-11"/>
      </extensions>
    </trkpt>
    <trkpt lat="45.6013381" lon="10.4529125">
      <ele>257.4031538654634</ele>
      <time>2026-07-26T20:46:53.276+02:00</time>
      <extensions>
        <activity type="ON_FOOT" conf="93" state="moving" tsMs="1785091609616"/>
        <radio op="vodafone IT" rat="LTE" q="40.80" rsrp="-101" sinr="12" rsrq="-11"/>
        <radio op="I TIM" rat="LTE" q="21.70" rsrp="-94" sinr="2" rsrq="-8"/>
      </extensions>
    </trkpt>
    <trkpt lat="45.6014408" lon="10.4536728">
      <ele>259.20001220703125</ele>
      <time>2026-07-26T20:47:24.845+02:00</time>
      <extensions>
        <activity type="ON_FOOT" conf="97" state="moving" tsMs="1785091641127"/>
        <radio op="vodafone IT" rat="LTE" q="34.00" rsrp="-105" sinr="12" rsrq="-9"/>
        <radio op="I TIM" rat="LTE" q="72.50" rsrp="-96" sinr="24" rsrq="-10"/>
      </extensions>
    </trkpt>
    <trkpt lat="45.6021003" lon="10.4532788">
      <ele>260.8000183105469</ele>
      <time>2026-07-26T20:47:56.216+02:00</time>
      <extensions>
        <activity type="ON_FOOT" conf="88" state="moving" tsMs="1785091671543"/>
        <radio op="vodafone IT" rat="LTE" q="67.20" rsrp="-93" sinr="16" rsrq="-10"/>
        <radio op="I TIM" rat="LTE" q="61.60" rsrp="-97" sinr="17" rsrq="-10"/>
      </extensions>
    </trkpt>
    <trkpt lat="45.6022704" lon="10.4534662">
      <ele>260.8000183105469</ele>
      <time>2026-07-26T20:48:27.826+02:00</time>
      <extensions>
        <activity type="ON_FOOT" conf="96" state="moving" tsMs="1785091704083"/>
        <radio op="vodafone IT" rat="LTE" rsrp="-115" rsrq="-13"/>
        <radio op="I TIM" rat="LTE" rsrp="-102" rsrq="-10"/>
      </extensions>
    </trkpt>
    <trkpt lat="45.6026715" lon="10.4535034">
      <ele>261.5</ele>
      <time>2026-07-26T20:48:59.359+02:00</time>
      <extensions>
        <activity type="UNKNOWN" conf="40" state="unknown" tsMs="1785091735602"/>
        <radio op="vodafone IT" rat="LTE" rsrp="-115" rsrq="-14"/>
        <radio op="I TIM" rat="LTE" q="32.20" rsrp="-102" sinr="9" rsrq="-11"/>
      </extensions>
    </trkpt>
    <trkpt lat="45.6025469" lon="10.4536721">
      <ele>261.6000061035156</ele>
      <time>2026-07-26T20:49:30.972+02:00</time>
      <extensions>
        <activity type="UNKNOWN" conf="40" state="unknown" tsMs="1785091765930"/>
        <radio op="vodafone IT" rat="LTE" rsrp="-120" rsrq="-14"/>
        <radio op="I TIM" rat="LTE" q="9.60" rsrp="-113" sinr="3" rsrq="-12"/>
      </extensions>
    </trkpt>
    <trkpt lat="45.6025471" lon="10.4536726">
      <ele>261.6000061035156</ele>
      <time>2026-07-26T20:50:02.613+02:00</time>
      <extensions>
        <activity type="UNKNOWN" conf="40" state="unknown" tsMs="1785091798768"/>
        <radio op="vodafone IT" rat="LTE" q="2.40" rsrp="-121" sinr="1" rsrq="-13"/>
        <radio op="I TIM" rat="LTE" q="7.20" rsrp="-117" sinr="4" rsrq="-14"/>
      </extensions>
    </trkpt>
    <trkpt lat="45.6025482" lon="10.4536767">
      <ele>261.6000061035156</ele>
      <time>2026-07-26T20:50:34.642+02:00</time>
      <extensions>
        <activity type="UNKNOWN" conf="40" state="unknown" tsMs="1785091830769"/>
        <radio op="vodafone IT" rat="LTE" q="7.20" rsrp="-113" sinr="1" rsrq="-12"/>
        <radio op="I TIM" rat="LTE" q="8.10" rsrp="-116" sinr="4" rsrq="-14"/>
      </extensions>
    </trkpt>
    <trkpt lat="45.6025484" lon="10.4536777">
      <ele>261.6000061035156</ele>
      <time>2026-07-26T20:51:06.578+02:00</time>
      <extensions>
        <activity type="UNKNOWN" conf="40" state="unknown" tsMs="1785091862617"/>
        <radio op="vodafone IT" rat="LTE" q="3.50" rsrp="-120" sinr="2" rsrq="-12"/>
        <radio op="I TIM" rat="LTE" q="4.00" rsrp="-120" sinr="3" rsrq="-13"/>
      </extensions>
    </trkpt>
    <trkpt lat="45.6025496" lon="10.4536799">
      <ele>261.6000061035156</ele>
      <time>2026-07-26T20:51:38.471+02:00</time>
      <extensions>
        <activity type="STILL" conf="98" state="still" tsMs="1785091894377"/>
        <radio op="vodafone IT" rat="LTE" q="5.40" rsrp="-119" sinr="4" rsrq="-11"/>
        <radio op="I TIM" rat="LTE" rsrp="-116" rsrq="-12"/>
      </extensions>
    </trkpt>
    <trkpt lat="45.6025574" lon="10.4536901">
      <ele>261.6000061035156</ele>
      <time>2026-07-26T20:52:10.053+02:00</time>
      <extensions>
        <activity type="STILL" conf="67" state="still" tsMs="1785091926246"/>
        <radio op="vodafone IT" rat="LTE" q="7.00" rsrp="-118" sinr="5" rsrq="-14"/>
        <radio op="I TIM" rat="LTE" rsrp="-115" rsrq="-11"/>
      </extensions>
    </trkpt>
    <trkpt lat="45.6025501" lon="10.4536869">
      <ele>261.6000061035156</ele>
      <time>2026-07-26T20:52:41.669+02:00</time>
      <extensions>
        <activity type="STILL" conf="99" state="still" tsMs="1785091957764"/>
        <radio op="vodafone IT" rat="LTE" q="19.80" rsrp="-107" sinr="6" rsrq="-12"/>
        <radio op="I TIM" rat="LTE" q="39.90" rsrp="-106" sinr="16" rsrq="-9"/>
      </extensions>
    </trkpt>
  </trkseg></trk>
</gpx>
