<?xml version="1.0" encoding="UTF-8"?>
<gpx version="1.1" creator="CellGPX" xmlns="http://www.topografix.com/GPX/1/1">
  <trk><name>CellGPX</name><trkseg>
    <trkpt lat="45.6026037" lon="10.4541484">
      <ele>261.6000061035156</ele>
      <time>2026-07-14T13:26:07.088+02:00</time>
      <extensions>
        <activity type="ON_FOOT" conf="93" state="moving" tsMs="1784028369029"/>
        <radio op="vodafone IT" rat="LTE" q="12.60" rsrp="-111" sinr="4" rsrq="-12"/>
        <radio op="I TIM" rat="LTE" q="15.40" rsrp="-111" sinr="6" rsrq="-13"/>
      </extensions>
    </trkpt>
    <trkpt lat="45.602684" lon="10.4537991">
      <ele>261.6000061035156</ele>
      <time>2026-07-14T13:26:51.485+02:00</time>
      <extensions>
        <activity type="UNKNOWN" conf="40" state="unknown" tsMs="1784028393225"/>
        <radio op="vodafone IT" rat="LTE" q="29.90" rsrp="-102" sinr="8" rsrq="-8"/>
        <radio op="I TIM" rat="LTE" q="19.80" rsrp="-107" sinr="6" rsrq="-11"/>
      </extensions>
    </trkpt>
    <trkpt lat="45.6026761" lon="10.4536793">
      <ele>261.6000061035156</ele>
      <time>2026-07-14T13:27:01.355+02:00</time>
      <extensions>
        <activity type="UNKNOWN" conf="40" state="unknown" tsMs="1784028393225"/>
        <radio op="vodafone IT" rat="LTE" q="6.40" rsrp="-117" sinr="3" rsrq="-12"/>
        <radio op="I TIM" rat="LTE" q="7.70" rsrp="-114" sinr="2" rsrq="-13"/>
      </extensions>
    </trkpt>
    <trkpt lat="45.6026086" lon="10.4535582">
      <ele>261.6000061035156</ele>
      <time>2026-07-14T13:27:11.583+02:00</time>
      <extensions>
        <activity type="UNKNOWN" conf="40" state="unknown" tsMs="1784028429956"/>
        <radio op="vodafone IT" rat="LTE" rsrp="-112" rsrq="-15"/>
        <radio op="I TIM" rat="LTE" rsrp="-110" rsrq="-15"/>
      </extensions>
    </trkpt>
    <trkpt lat="45.6024475" lon="10.4536511">
      <ele>261.6000061035156</ele>
      <time>2026-07-14T13:27:21.344+02:00</time>
      <extensions>
        <activity type="UNKNOWN" conf="40" state="unknown" tsMs="1784028429956"/>
        <radio op="vodafone IT" rat="LTE" q="16.10" rsrp="-102" sinr="2" rsrq="-11"/>
        <radio op="I TIM" rat="LTE" q="20.40" rsrp="-108" sinr="7" rsrq="-12"/>
      </extensions>
    </trkpt>
    <trkpt lat="45.6023634" lon="10.4536605">
      <ele>261.6000061035156</ele>
      <time>2026-07-14T13:27:31.645+02:00</time>
      <extensions>
        <activity type="ON_FOOT" conf="95" state="moving" tsMs="1784028433424"/>
        <radio op="vodafone IT" rat="LTE" q="8.40" rsrp="-111" sinr="1" rsrq="-13"/>
        <radio op="I TIM" rat="LTE" rsrp="-108" rsrq="-15"/>
      </extensions>
    </trkpt>
    <trkpt lat="45.6022674" lon="10.4534747">
      <ele>261.6000061035156</ele>
      <time>2026-07-14T13:27:42.16+02:00</time>
      <extensions>
        <activity type="ON_FOOT" conf="95" state="moving" tsMs="1784028454059"/>
        <radio op="vodafone IT" rat="LTE" rsrp="-113" rsrq="-16"/>
        <radio op="I TIM" rat="LTE" q="14.00" rsrp="-105" sinr="2" rsrq="-12"/>
      </extensions>
    </trkpt>
    <trkpt lat="45.602173" lon="10.4533587">
      <ele>261.6000061035156</ele>
      <time>2026-07-14T13:27:51.556+02:00</time>
      <extensions>
        <activity type="ON_FOOT" conf="95" state="moving" tsMs="1784028454059"/>
        <radio op="vodafone IT" rat="LTE" rsrp="-107" rsrq="-14"/>
        <radio op="I TIM" rat="LTE" q="22.00" rsrp="-103" sinr="5" rsrq="-13"/>
      </extensions>
    </trkpt>
    <trkpt lat="45.6020911" lon="10.4532017">
      <ele>261.6000061035156</ele>
      <time>2026-07-14T13:28:02.407+02:00</time>
      <extensions>
        <activity type="ON_FOOT" conf="96" state="moving" tsMs="1784028457615"/>
        <radio op="vodafone IT" rat="LTE" q="15.40" rsrp="-103" sinr="2" rsrq="-13"/>
        <radio op="I TIM" rat="LTE" q="22.50" rsrp="-100" sinr="4" rsrq="-11"/>
      </extensions>
    </trkpt>
    <trkpt lat="45.602047" lon="10.4531899">
      <ele>259.3459028790677</ele>
      <time>2026-07-14T13:28:22.478+02:00</time>
      <extensions>
        <activity type="ON_FOOT" conf="87" state="moving" tsMs="1784028478655"/>
        <radio op="vodafone IT" rat="LTE" q="13.30" rsrp="-106" sinr="2" rsrq="-11"/>
        <radio op="I TIM" rat="LTE" q="16.80" rsrp="-101" sinr="2" rsrq="-13"/>
      </extensions>
    </trkpt>
    <trkpt lat="45.6020307" lon="10.4531437">
      <ele>261.6000061035156</ele>
      <time>2026-07-14T13:28:32.347+02:00</time>
      <extensions>
        <activity type="UNKNOWN" conf="40" state="unknown" tsMs="1784028498691"/>
        <radio op="vodafone IT" rat="LTE" q="6.50" rsrp="-112" sinr="0" rsrq="-13"/>
        <radio op="I TIM" rat="LTE" q="25.20" rsrp="-104" sinr="7" rsrq="-13"/>
      </extensions>
    </trkpt>
    <trkpt lat="45.6020677" lon="10.4532309">
      <ele>261.6000061035156</ele>
      <time>2026-07-14T13:28:42.443+02:00</time>
      <extensions>
        <activity type="UNKNOWN" conf="40" state="unknown" tsMs="1784028498691"/>
        <radio op="vodafone IT" rat="LTE" rsrp="-116" rsrq="-14"/>
        <radio op="I TIM" rat="LTE" rsrp="-104" rsrq="-12"/>
      </extensions>
    </trkpt>
    <trkpt lat="45.6023516" lon="10.4538362">
      <ele>262.38434537765454</ele>
      <time>2026-07-14T13:28:52.331+02:00</time>
      <extensions>
        <activity type="UNKNOWN" conf="40" state="unknown" tsMs="1784028529347"/>
        <radio op="vodafone IT" rat="LTE" rsrp="-114" rsrq="-13"/>
        <radio op="I TIM" rat="LTE" rsrp="-113" rsrq="-15"/>
      </extensions>
    </trkpt>
    <trkpt lat="45.6018191" lon="10.4540985">
      <ele>262.90974970605885</ele>
      <time>2026-07-14T13:29:02.33+02:00</time>
      <extensions>
        <activity type="IN_VEHICLE" conf="88" state="moving" tsMs="1784028540138"/>
        <radio op="vodafone IT" rat="LTE" rsrp="-110" rsrq="-11"/>
        <radio op="I TIM" rat="LTE" q="9.50" rsrp="-106" sinr="0" rsrq="-12"/>
      </extensions>
    </trkpt>
    <trkpt lat="45.6021329" lon="10.4548802">
      <ele>262.9860207443261</ele>
      <time>2026-07-14T13:29:12.331+02:00</time>
      <extensions>
        <activity type="UNKNOWN" conf="40" state="unknown" tsMs="1784028550864"/>
        <radio op="vodafone IT" rat="LTE" q="13.60" rsrp="-108" sinr="3" rsrq="-13"/>
        <radio op="I TIM" rat="LTE" rsrp="-104" rsrq="-12"/>
      </extensions>
    </trkpt>
    <trkpt lat="45.6027341" lon="10.4563723">
      <ele>266.50581750037895</ele>
      <time>2026-07-14T13:29:23.331+02:00</time>
      <extensions>
        <activity type="IN_VEHICLE" conf="90" state="moving" tsMs="1784028561715"/>
        <radio op="vodafone IT" rat="LTE" q="34.00" rsrp="-108" sinr="15" rsrq="-9"/>
        <radio op="I TIM" rat="LTE" q="22.00" rsrp="-105" sinr="6" rsrq="-9"/>
      </extensions>
    </trkpt>
    <trkpt lat="45.6031715" lon="10.4579378">
      <ele>262.8334793442143</ele>
      <time>2026-07-14T13:29:33.331+02:00</time>
      <extensions>
        <activity type="UNKNOWN" conf="40" state="unknown" tsMs="1784028572502"/>
        <radio op="vodafone IT" rat="LTE" q="87.50" rsrp="-90" sinr="25" rsrq="-9"/>
        <radio op="I TIM" rat="LTE" q="90.00" rsrp="-89" sinr="25" rsrq="-9"/>
      </extensions>
    </trkpt>
    <trkpt lat="45.6034642" lon="10.4589822">
      <ele>262.95424106284304</ele>
      <time>2026-07-14T13:29:43.331+02:00</time>
      <extensions>
        <activity type="UNKNOWN" conf="40" state="unknown" tsMs="1784028583231"/>
        <radio op="vodafone IT" rat="LTE" q="95.00" rsrp="-87" sinr="25" rsrq="-7"/>
        <radio op="I TIM" rat="LTE" q="100.00" rsrp="-84" sinr="24" rsrq="-10"/>
      </extensions>
    </trkpt>
    <trkpt lat="45.6036707" lon="10.4596507">
      <ele>263.1894134867424</ele>
      <time>2026-07-14T13:29:53.331+02:00</time>
      <extensions>
        <activity type="UNKNOWN" conf="40" state="unknown" tsMs="1784028588618"/>
        <radio op="vodafone IT" rat="LTE" q="100.00" rsrp="-83" sinr="29" rsrq="-11"/>
        <radio op="I TIM" rat="LTE" q="79.80" rsrp="-87" sinr="16" rsrq="-11"/>
      </extensions>
    </trkpt>
    <trkpt lat="45.604084" lon="10.4609882">
      <ele>264.52217870919696</ele>
      <time>2026-07-14T13:30:03.331+02:00</time>
      <extensions>
        <activity type="UNKNOWN" conf="40" state="unknown" tsMs="1784028599495"/>
        <radio op="vodafone IT" rat="LTE" q="92.50" rsrp="-88" sinr="25" rsrq="-13"/>
        <radio op="I TIM" rat="LTE" q="31.20" rsrp="-101" sinr="8" rsrq="-9"/>
      </extensions>
    </trkpt>
    <trkpt lat="45.6045113" lon="10.462494">
      <ele>265.05407114000184</ele>
      <time>2026-07-14T13:30:13.331+02:00</time>
      <extensions>
        <activity type="IN_VEHICLE" conf="89" state="moving" tsMs="1784028610343"/>
        <radio op="vodafone IT" rat="LTE" q="19.80" rsrp="-92" sinr="1" rsrq="-12"/>
        <radio op="I TIM" rat="LTE" rsrp="-99" rsrq="-11"/>
      </extensions>
    </trkpt>
    <trkpt lat="45.605028" lon="10.4640378">
      <ele>265.9759546629548</ele>
      <time>2026-07-14T13:30:23.331+02:00</time>
      <extensions>
        <activity type="IN_VEHICLE" conf="85" state="moving" tsMs="1784028621111"/>
        <radio op="vodafone IT" rat="LTE" rsrp="-82" rsrq="-6"/>
        <radio op="I TIM" rat="LTE" q="51.00" rsrp="-95" sinr="12" rsrq="-7"/>
      </extensions>
    </trkpt>
    <trkpt lat="45.6049302" lon="10.4649189">
      <ele>265.003211477224</ele>
      <time>2026-07-14T13:30:33.331+02:00</time>
      <extensions>
        <activity type="UNKNOWN" conf="40" state="unknown" tsMs="1784028631844"/>
        <radio op="vodafone IT" rat="LTE" q="100.00" rsrp="-81" sinr="26" rsrq="-6"/>
        <radio op="I TIM" rat="LTE" q="25.30" rsrp="-102" sinr="6" rsrq="-8"/>
      </extensions>
    </trkpt>
    <trkpt lat="45.6041549" lon="10.4656684">
      <ele>265.9759546629548</ele>
      <time>2026-07-14T13:30:44.331+02:00</time>
      <extensions>
        <activity type="IN_VEHICLE" conf="92" state="moving" tsMs="1784028642687"/>
        <radio op="vodafone IT" rat="LTE" q="20.40" rsrp="-108" sinr="7" rsrq="-6"/>
        <radio op="I TIM" rat="LTE" q="11.00" rsrp="-114" sinr="5" rsrq="-11"/>
      </extensions>
    </trkpt>
    <trkpt lat="45.6048022" lon="10.4672796">
      <ele>270.4044921751714</ele>
      <time>2026-07-14T13:30:54.331+02:00</time>
      <extensions>
        <activity type="IN_VEHICLE" conf="87" state="moving" tsMs="1784028653500"/>
        <radio op="vodafone IT" rat="LTE" q="67.50" rsrp="-98" sinr="21" rsrq="-6"/>
        <radio op="I TIM" rat="LTE" q="52.50" rsrp="-104" sinr="20" rsrq="-12"/>
      </extensions>
    </trkpt>
    <trkpt lat="45.6049158" lon="10.4681605">
      <ele>272.6949130777799</ele>
      <time>2026-07-14T13:30:59.331+02:00</time>
      <extensions>
        <activity type="IN_VEHICLE" conf="90" state="moving" tsMs="1784028664246"/>
        <radio op="vodafone IT" rat="LTE" q="62.50" rsrp="-100" sinr="24" rsrq="-7"/>
        <radio op="I TIM" rat="LTE" q="46.20" rsrp="-103" sinr="16" rsrq="-10"/>
      </extensions>
    </trkpt>
    <trkpt lat="45.6100779" lon="10.4995871">
      <ele>185.0</ele>
      <time>2026-07-14T13:33:41.331+02:00</time>
      <extensions>
        <activity type="UNKNOWN" conf="40" state="unknown" tsMs="1784028809111"/>
        <radio op="vodafone IT" rat="LTE" q="32.20" rsrp="-102" sinr="9" rsrq="-10"/>
        <radio op="I TIM" rat="LTE" q="12.00" rsrp="-105" sinr="1" rsrq="-15"/>
      </extensions>
    </trkpt>
    <trkpt lat="45.6099942" lon="10.4997467">
      <ele>193.3994918686189</ele>
      <time>2026-07-14T13:34:21.018+02:00</time>
      <extensions>
        <activity type="UNKNOWN" conf="40" state="unknown" tsMs="1784028859056"/>
        <radio op="vodafone IT" rat="LTE" q="35.00" rsrp="-100" sinr="9" rsrq="-10"/>
        <radio op="I TIM" rat="LTE" q="10.50" rsrp="-104" sinr="0" rsrq="-13"/>
      </extensions>
    </trkpt>
    <trkpt lat="45.6099238" lon="10.4996758">
      <ele>195.96169409684677</ele>
      <time>2026-07-14T13:34:58.728+02:00</time>
      <extensions>
        <activity type="UNKNOWN" conf="40" state="unknown" tsMs="1784028897339"/>
        <radio op="vodafone IT" rat="LTE" q="31.90" rsrp="-96" sinr="6" rsrq="-10"/>
        <radio op="I TIM" rat="LTE" q="17.50" rsrp="-100" sinr="2" rsrq="-11"/>
      </extensions>
    </trkpt>
    <trkpt lat="45.6099329" lon="10.4996132">
      <ele>196.63232260547235</ele>
      <time>2026-07-14T13:35:33.7+02:00</time>
      <extensions>
        <activity type="ON_FOOT" conf="91" state="moving" tsMs="1784028929506"/>
        <radio op="vodafone IT" rat="LTE" q="27.00" rsrp="-98" sinr="5" rsrq="-11"/>
        <radio op="I TIM" rat="LTE" rsrp="-101" rsrq="-15"/>
      </extensions>
    </trkpt>
    <trkpt lat="45.6098724" lon="10.4996413">
      <ele>197.78029089044756</ele>
      <time>2026-07-14T13:36:08.534+02:00</time>
      <extensions>
        <activity type="ON_FOOT" conf="85" state="moving" tsMs="1784028966820"/>
        <radio op="vodafone IT" rat="LTE" q="16.00" rsrp="-93" sinr="0" rsrq="-9"/>
        <radio op="I TIM" rat="LTE" q="12.50" rsrp="-100" sinr="0" rsrq="-17"/>
      </extensions>
    </trkpt>
    <trkpt lat="45.6098505" lon="10.499664">
      <ele>193.8000030517578</ele>
      <time>2026-07-14T13:36:50.331+02:00</time>
      <extensions>
        <activity type="UNKNOWN" conf="40" state="unknown" tsMs="1784029005017"/>
        <radio op="vodafone IT" rat="LTE" q="33.00" rsrp="-92" sinr="5" rsrq="-11"/>
        <radio op="I TIM" rat="LTE" rsrp="-93" rsrq="-14"/>
      </extensions>
    </trkpt>
    <trkpt lat="45.6098506" lon="10.4996647">
      <ele>193.8000030517578</ele>
      <time>2026-07-14T13:36:51.331+02:00</time>
      <extensions>
        <activity type="STILL" conf="99" state="still" tsMs="1784029009884"/>
        <radio op="vodafone IT" rat="LTE" rsrp="-97" rsrq="-11"/>
        <radio op="I TIM" rat="LTE" q="48.00" rsrp="-85" sinr="7" rsrq="-13"/>
      </extensions>
    </trkpt>
    <trkpt lat="45.6098519" lon="10.4996603">
      <ele>193.8000030517578</ele>
      <time>2026-07-14T13:37:16.711+02:00</time>
      <extensions>
        <activity type="STILL" conf="74" state="still" tsMs="1784029039673"/>
        <radio op="vodafone IT" rat="LTE" q="33.00" rsrp="-92" sinr="5" rsrq="-10"/>
        <radio op="I TIM" rat="LTE" q="37.00" rsrp="-88" sinr="5" rsrq="-12"/>
      </extensions>
    </trkpt>
    <trkpt lat="45.6098624" lon="10.4996481">
      <ele>198.90161681145793</ele>
      <time>2026-07-14T13:37:52.18+02:00</time>
      <extensions>
        <activity type="STILL" conf="57" state="still" tsMs="1784029066955"/>
        <radio op="vodafone IT" rat="LTE" q="17.50" rsrp="-90" sinr="0" rsrq="-11"/>
        <radio op="I TIM" rat="LTE" q="22.80" rsrp="-87" sinr="1" rsrq="-13"/>
      </extensions>
    </trkpt>
    <trkpt lat="45.6098585" lon="10.4996335">
      <ele>199.3153597192584</ele>
      <time>2026-07-14T13:38:23.372+02:00</time>
      <extensions>
        <activity type="STILL" conf="56" state="still" tsMs="1784029099448"/>
        <radio op="vodafone IT" rat="LTE" q="19.80" rsrp="-92" sinr="1" rsrq="-9"/>
        <radio op="I TIM" rat="LTE" q="39.00" rsrp="-86" sinr="5" rsrq="-12"/>
      </extensions>
    </trkpt>
    <trkpt lat="45.6098676" lon="10.4996326">
      <ele>199.4099962163467</ele>
      <time>2026-07-14T13:38:54.687+02:00</time>
      <extensions>
        <activity type="UNKNOWN" conf="40" state="unknown" tsMs="1784029130596"/>
        <radio op="vodafone IT" rat="LTE" q="28.00" rsrp="-90" sinr="3" rsrq="-12"/>
        <radio op="I TIM" rat="LTE" q="38.00" rsrp="-87" sinr="5" rsrq="-12"/>
      </extensions>
    </trkpt>
    <trkpt lat="45.6098518" lon="10.4996336">
      <ele>200.3000030517578</ele>
      <time>2026-07-14T13:39:25.861+02:00</time>
      <extensions>
        <activity type="UNKNOWN" conf="40" state="unknown" tsMs="1784029161974"/>
        <radio op="vodafone IT" rat="LTE" q="32.00" rsrp="-93" sinr="5" rsrq="-8"/>
        <radio op="I TIM" rat="LTE" q="36.30" rsrp="-92" sinr="6" rsrq="-14"/>
      </extensions>
    </trkpt>
    <trkpt lat="45.6098663" lon="10.4996216">
      <ele>199.30486795556982</ele>
      <time>2026-07-14T13:39:57.042+02:00</time>
      <extensions>
        <activity type="UNKNOWN" conf="40" state="unknown" tsMs="1784029193004"/>
        <radio op="vodafone IT" rat="LTE" q="36.30" rsrp="-92" sinr="6" rsrq="-6"/>
        <radio op="I TIM" rat="LTE" q="34.10" rsrp="-94" sinr="6" rsrq="-13"/>
      </extensions>
    </trkpt>
    <trkpt lat="45.6098743" lon="10.4994992">
      <ele>195.53197941653184</ele>
      <time>2026-07-14T13:54:42.578+02:00</time>
      <extensions>
        <activity type="UNKNOWN" conf="40" state="unknown" tsMs="1784030092332"/>
        <radio op="vodafone IT" rat="LTE" q="19.20" rsrp="-101" sinr="3" rsrq="-12"/>
        <radio op="I TIM" rat="LTE" q="54.00" rsrp="-89" sinr="10" rsrq="-14"/>
      </extensions>
    </trkpt>
    <trkpt lat="45.6098562" lon="10.4996456">
      <ele>195.79702650374824</ele>
      <time>2026-07-14T13:55:17.892+02:00</time>
      <extensions>
        <activity type="STILL" conf="99" state="still" tsMs="1784030113656"/>
        <radio op="vodafone IT" rat="LTE" rsrp="-102" rsrq="-15"/>
        <radio op="I TIM" rat="LTE" q="37.00" rsrp="-88" sinr="5" rsrq="-14"/>
      </extensions>
    </trkpt>
    <trkpt lat="45.6098633" lon="10.4996258">
      <ele>193.70001220703125</ele>
      <time>2026-07-14T13:55:49.061+02:00</time>
      <extensions>
        <activity type="STILL" conf="58" state="still" tsMs="1784030145187"/>
        <radio op="vodafone IT" rat="LTE" q="18.20" rsrp="-99" sinr="2" rsrq="-10"/>
        <radio op="I TIM" rat="LTE" q="37.00" rsrp="-88" sinr="5" rsrq="-13"/>
      </extensions>
    </trkpt>
    <trkpt lat="45.6098634" lon="10.4996233">
      <ele>195.57461904451947</ele>
      <time>2026-07-14T13:56:20.108+02:00</time>
      <extensions>
        <activity type="UNKNOWN" conf="40" state="unknown" tsMs="1784030175213"/>
        <radio op="vodafone IT" rat="LTE" q="26.00" rsrp="-99" sinr="5" rsrq="-12"/>
        <radio op="I TIM" rat="LTE" q="57.00" rsrp="-87" sinr="10" rsrq="-13"/>
      </extensions>
    </trkpt>
    <trkpt lat="45.6098716" lon="10.4996384">
      <ele>195.52413339419127</ele>
      <time>2026-07-14T13:56:51.414+02:00</time>
      <extensions>
        <activity type="STILL" conf="71" state="still" tsMs="1784030207403"/>
        <radio op="vodafone IT" rat="LTE" q="13.00" rsrp="-99" sinr="0" rsrq="-13"/>
        <radio op="I TIM" rat="LTE" q="40.00" rsrp="-84" sinr="5" rsrq="-12"/>
      </extensions>
    </trkpt>
    <trkpt lat="45.609874" lon="10.4996322">
      <ele>193.70001220703125</ele>
      <time>2026-07-14T13:57:22.482+02:00</time>
      <extensions>
        <activity type="STILL" conf="43" state="still" tsMs="1784030238621"/>
        <radio op="vodafone IT" rat="LTE" rsrp="-100" rsrq="-13"/>
        <radio op="I TIM" rat="LTE" q="38.00" rsrp="-87" sinr="5" rsrq="-12"/>
      </extensions>
    </trkpt>
    <trkpt lat="45.6098589" lon="10.4996242">
      <ele>195.71976694012181</ele>
      <time>2026-07-14T13:57:53.929+02:00</time>
      <extensions>
        <activity type="STILL" conf="98" state="still" tsMs="1784030269691"/>
        <radio op="vodafone IT" rat="LTE" q="13.50" rsrp="-98" sinr="0" rsrq="-13"/>
        <radio op="I TIM" rat="LTE" q="41.80" rsrp="-87" sinr="6" rsrq="-13"/>
      </extensions>
    </trkpt>
    <trkpt lat="45.6098685" lon="10.4996393">
      <ele>195.68829599667316</ele>
      <time>2026-07-14T13:58:25.195+02:00</time>
      <extensions>
        <activity type="STILL" conf="43" state="still" tsMs="1784030301180"/>
        <radio op="vodafone IT" rat="LTE" rsrp="-101" rsrq="-13"/>
        <radio op="I TIM" rat="LTE" rsrp="-92" rsrq="-13"/>
      </extensions>
    </trkpt>
    <trkpt lat="45.6098914" lon="10.4995186">
      <ele>194.20001220703125</ele>
      <time>2026-07-14T14:17:14.738+02:00</time>
      <extensions>
        <activity type="UNKNOWN" conf="40" state="unknown" tsMs="1784031439189"/>
        <radio op="vodafone IT" rat="LTE" q="20.30" rsrp="-96" sinr="2" rsrq="-9"/>
        <radio op="I TIM" rat="LTE" q="23.10" rsrp="-92" sinr="2" rsrq="-12"/>
      </extensions>
    </trkpt>
    <trkpt lat="45.6098734" lon="10.4996393">
      <ele>193.70001220703125</ele>
      <time>2026-07-14T14:17:50.373+02:00</time>
      <extensions>
        <activity type="STILL" conf="62" state="still" tsMs="1784031465152"/>
        <radio op="vodafone IT" rat="LTE" q="16.80" rsrp="-97" sinr="1" rsrq="-12"/>
        <radio op="I TIM" rat="LTE" q="41.60" rsrp="-93" sinr="8" rsrq="-11"/>
      </extensions>
    </trkpt>
    <trkpt lat="45.6098857" lon="10.4996479">
      <ele>193.8000030517578</ele>
      <time>2026-07-14T14:18:21.419+02:00</time>
      <extensions>
        <activity type="STILL" conf="37" state="still" tsMs="1784031497454"/>
        <radio op="vodafone IT" rat="LTE" q="11.50" rsrp="-102" sinr="0" rsrq="-14"/>
        <radio op="I TIM" rat="LTE" rsrp="-93" rsrq="-16"/>
      </extensions>
    </trkpt>
    <trkpt lat="45.6098804" lon="10.4996448">
      <ele>193.8000030517578</ele>
      <time>2026-07-14T14:18:52.404+02:00</time>
      <extensions>
        <activity type="STILL" conf="98" state="still" tsMs="1784031528618"/>
        <radio op="vodafone IT" rat="LTE" q="64.80" rsrp="-89" sinr="13" rsrq="-11"/>
        <radio op="I TIM" rat="LTE" rsrp="-89" rsrq="-16"/>
      </extensions>
    </trkpt>
    <trkpt lat="45.6098778" lon="10.4996238">
      <ele>193.70001220703125</ele>
      <time>2026-07-14T14:19:23.482+02:00</time>
      <extensions>
        <activity type="UNKNOWN" conf="40" state="unknown" tsMs="1784031559565"/>
        <radio op="vodafone IT" rat="LTE" q="54.00" rsrp="-89" sinr="10" rsrq="-13"/>
        <radio op="I TIM" rat="LTE" rsrp="-89" rsrq="-14"/>
      </extensions>
    </trkpt>
    <trkpt lat="45.6098167" lon="10.4996861">
      <ele>193.70001220703125</ele>
      <time>2026-07-14T14:19:55.952+02:00</time>
      <extensions>
        <activity type="UNKNOWN" conf="40" state="unknown" tsMs="1784031590283"/>
        <radio op="vodafone IT" rat="LTE" q="66.50" rsrp="-90" sinr="14" rsrq="-7"/>
        <radio op="I TIM" rat="LTE" rsrp="-89" rsrq="-15"/>
      </extensions>
    </trkpt>
    <trkpt lat="45.6098577" lon="10.4996422">
      <ele>193.70001220703125</ele>
      <time>2026-07-14T14:20:26.755+02:00</time>
      <extensions>
        <activity type="UNKNOWN" conf="40" state="unknown" tsMs="1784031622565"/>
        <radio op="vodafone IT" rat="LTE" q="66.60" rsrp="-88" sinr="13" rsrq="-9"/>
        <radio op="I TIM" rat="LTE" rsrp="-90" rsrq="-15"/>
      </extensions>
    </trkpt>
    <trkpt lat="45.6098523" lon="10.4996283">
      <ele>193.70001220703125</ele>
      <time>2026-07-14T14:20:58.439+02:00</time>
      <extensions>
        <activity type="UNKNOWN" conf="40" state="unknown" tsMs="1784031653848"/>
        <radio op="vodafone IT" rat="LTE" q="74.10" rsrp="-86" sinr="14" rsrq="-6"/>
        <radio op="I TIM" rat="LTE" rsrp="-87" rsrq="-16"/>
      </extensions>
    </trkpt>
    <trkpt lat="45.60987" lon="10.4996163">
      <ele>193.70001220703125</ele>
      <time>2026-07-14T14:21:30.343+02:00</time>
      <extensions>
        <activity type="STILL" conf="56" state="still" tsMs="1784031685599"/>
        <radio op="vodafone IT" rat="LTE" q="64.00" rsrp="-85" sinr="11" rsrq="-9"/>
        <radio op="I TIM" rat="LTE" rsrp="-87" rsrq="-16"/>
      </extensions>
    </trkpt>
    <trkpt lat="45.6099837" lon="10.4997378">
      <ele>191.44190265279326</ele>
      <time>2026-07-14T14:49:26.415+02:00</time>
      <extensions>
        <activity type="ON_FOOT" conf="82" state="moving" tsMs="1784033372223"/>
        <radio op="vodafone IT" rat="LTE" q="11.00" rsrp="-103" sinr="0" rsrq="-13"/>
        <radio op="I TIM" rat="LTE" rsrp="-105" rsrq="-15"/>
      </extensions>
    </trkpt>
    <trkpt lat="45.6099939" lon="10.4997511">
      <ele>191.42257925151273</ele>
      <time>2026-07-14T14:50:11.96+02:00</time>
      <extensions>
        <activity type="UNKNOWN" conf="40" state="unknown" tsMs="1784033410564"/>
        <radio op="vodafone IT" rat="LTE" q="54.00" rsrp="-95" sinr="13" rsrq="-9"/>
        <radio op="I TIM" rat="LTE" q="20.80" rsrp="-99" sinr="3" rsrq="-11"/>
      </extensions>
    </trkpt>
    <trkpt lat="45.6100021" lon="10.4997145">
      <ele>194.20001220703125</ele>
      <time>2026-07-14T14:50:44.475+02:00</time>
      <extensions>
        <activity type="UNKNOWN" conf="40" state="unknown" tsMs="1784033443766"/>
        <radio op="vodafone IT" rat="LTE" q="18.00" rsrp="-107" sinr="5" rsrq="-11"/>
        <radio op="I TIM" rat="LTE" rsrp="-105" rsrq="-14"/>
      </extensions>
    </trkpt>
    <trkpt lat="45.6097466" lon="10.4969078">
      <ele>199.7443453099402</ele>
      <time>2026-07-14T14:51:29.323+02:00</time>
      <extensions>
        <activity type="IN_VEHICLE" conf="88" state="moving" tsMs="1784033481753"/>
        <radio op="vodafone IT" rat="LTE" rsrp="-107" rsrq="-14"/>
        <radio op="I TIM" rat="LTE" rsrp="-116" rsrq="-15"/>
      </extensions>
    </trkpt>
    <trkpt lat="45.6123114" lon="10.4870834">
      <ele>237.7928784000765</ele>
      <time>2026-07-14T14:52:21.323+02:00</time>
      <extensions>
        <activity type="IN_VEHICLE" conf="77" state="moving" tsMs="1784033517167"/>
        <radio op="vodafone IT" rat="LTE" q="5.50" rsrp="-114" sinr="0" rsrq="-14"/>
        <radio op="I TIM" rat="LTE" rsrp="-117" rsrq="-16"/>
      </extensions>
    </trkpt>
    <trkpt lat="45.6117092" lon="10.4811234">
      <ele>265.09475169497676</ele>
      <time>2026-07-14T14:52:59.969+02:00</time>
      <extensions>
        <activity type="IN_VEHICLE" conf="89" state="moving" tsMs="1784033574110"/>
        <radio op="vodafone IT" rat="LTE" q="20.90" rsrp="-114" sinr="14" rsrq="-12"/>
        <radio op="I TIM" rat="LTE" rsrp="-117" rsrq="-18"/>
      </extensions>
    </trkpt>
    <trkpt lat="45.6156116" lon="10.4830787">
      <ele>269.8000183105469</ele>
      <time>2026-07-14T14:53:34.323+02:00</time>
      <extensions>
        <activity type="IN_VEHICLE" conf="87" state="moving" tsMs="1784033627752"/>
        <radio op="vodafone IT" rat="LTE" rsrp="-125" rsrq="-15"/>
        <radio op="I TIM" rat="LTE" q="3.50" rsrp="-118" sinr="0" rsrq="-16"/>
      </extensions>
    </trkpt>
    <trkpt lat="45.622659" lon="10.4902728">
      <ele>273.8197601016726</ele>
      <time>2026-07-14T14:54:35.323+02:00</time>
      <extensions>
        <activity type="IN_VEHICLE" conf="94" state="moving" tsMs="1784033664749"/>
        <radio op="vodafone IT" rat="LTE" q="23.80" rsrp="-108" sinr="9" rsrq="-11"/>
        <radio op="I TIM" rat="LTE" rsrp="-115" rsrq="-13"/>
      </extensions>
    </trkpt>
    <trkpt lat="45.6232929" lon="10.492259">
      <ele>286.6000061035156</ele>
      <time>2026-07-14T14:54:47.323+02:00</time>
      <extensions>
        <activity type="IN_VEHICLE" conf="82" state="moving" tsMs="1784033687363"/>
        <radio op="vodafone IT" rat="LTE" q="18.90" rsrp="-104" sinr="4" rsrq="-12"/>
        <radio op="I TIM" rat="LTE" q="11.00" rsrp="-115" sinr="6" rsrq="-11"/>
      </extensions>
    </trkpt>
    <trkpt lat="45.6233386" lon="10.4925241">
      <ele>286.6000061035156</ele>
      <time>2026-07-14T14:54:49.323+02:00</time>
      <extensions>
        <activity type="IN_VEHICLE" conf="86" state="moving" tsMs="1784033698186"/>
        <radio op="vodafone IT" rat="LTE" q="14.40" rsrp="-107" sinr="3" rsrq="-11"/>
        <radio op="I TIM" rat="LTE" q="7.80" rsrp="-119" sinr="8" rsrq="-13"/>
      </extensions>
    </trkpt>
    <trkpt lat="45.62374" lon="10.4934621">
      <ele>274.41027448260184</ele>
      <time>2026-07-14T14:55:23.172+02:00</time>
      <extensions>
        <activity type="IN_VEHICLE" conf="83" state="moving" tsMs="1784033719715"/>
        <radio op="vodafone IT" rat="LTE" q="9.80" rsrp="-111" sinr="2" rsrq="-12"/>
        <radio op="I TIM" rat="LTE" q="4.90" rsrp="-118" sinr="2" rsrq="-11"/>
      </extensions>
    </trkpt>
    <trkpt lat="45.6236664" lon="10.4932262">
      <ele>274.8287570637543</ele>
      <time>2026-07-14T14:55:59.183+02:00</time>
      <extensions>
        <activity type="TILTING" conf="100" state="moving" tsMs="1784033749224"/>
        <radio op="vodafone IT" rat="LTE" rsrp="-110" rsrq="-17"/>
        <radio op="I TIM" rat="LTE" q="12.60" rsrp="-111" sinr="4" rsrq="-13"/>
      </extensions>
    </trkpt>
    <trkpt lat="45.6235646" lon="10.4927934">
      <ele>276.2266789886837</ele>
      <time>2026-07-14T14:56:30.001+02:00</time>
      <extensions>
        <activity type="ON_FOOT" conf="96" state="moving" tsMs="1784033785232"/>
        <radio op="vodafone IT" rat="LTE" rsrp="-114" rsrq="-14"/>
        <radio op="I TIM" rat="LTE" q="15.60" rsrp="-112" sinr="7" rsrq="-13"/>
      </extensions>
    </trkpt>
    <trkpt lat="45.6238609" lon="10.4926243">
      <ele>273.48513554353417</ele>
      <time>2026-07-14T14:57:01.606+02:00</time>
      <extensions>
        <activity type="ON_FOOT" conf="89" state="moving" tsMs="1784033817118"/>
        <radio op="vodafone IT" rat="LTE" rsrp="-127" rsrq="-19"/>
        <radio op="I TIM" rat="LTE" q="0.00" rsrp="-126" sinr="0" rsrq="-12"/>
      </extensions>
    </trkpt>
    <trkpt lat="45.6238216" lon="10.4926099">
      <ele>273.330088824498</ele>
      <time>2026-07-14T14:57:07.483+02:00</time>
      <extensions>
        <activity type="ON_FOOT" conf="91" state="moving" tsMs="1784033843763"/>
        <radio op="vodafone IT" rat="LTE" rsrq="-25"/>
        <radio op="I TIM" rat="LTE" rsrp="-134" rsrq="-18"/>
      </extensions>
    </trkpt>
    <trkpt lat="45.6238169" lon="10.4926082">
      <ele>279.5588133981981</ele>
      <time>2026-07-14T14:57:37.985+02:00</time>
      <extensions>
        <activity type="ON_FOOT" conf="91" state="moving" tsMs="1784033843763"/>
        <radio op="vodafone IT" rat="LTE" rsrq="-25"/>
        <radio op="I TIM" rat="LTE" rsrq="-20"/>
      </extensions>
    </trkpt>
    <trkpt lat="45.6237758" lon="10.4927542">
      <ele>279.5588133981981</ele>
      <time>2026-07-14T14:57:41.247+02:00</time>
      <extensions>
        <activity type="UNKNOWN" conf="40" state="unknown" tsMs="1784033850120"/>
        <radio op="vodafone IT" rat="LTE" rsrq="-25"/>
        <radio op="I TIM" rat="LTE" rsrq="-20"/>
      </extensions>
    </trkpt>
    <trkpt lat="45.623839" lon="10.4926333">
      <ele>282.84120780538933</ele>
      <time>2026-07-14T14:57:55.236+02:00</time>
      <extensions>
        <activity type="UNKNOWN" conf="40" state="unknown" tsMs="1784033872436"/>
        <radio op="vodafone IT" rat="LTE" q="14.40" rsrp="-109" sinr="4" rsrq="-8"/>
        <radio op="I TIM" rat="LTE" q="14.30" rsrp="-112" sinr="6" rsrq="-10"/>
      </extensions>
    </trkpt>
    <trkpt lat="45.6238148" lon="10.4927296">
      <ele>283.892397665323</ele>
      <time>2026-07-14T14:58:05.638+02:00</time>
      <extensions>
        <activity type="UNKNOWN" conf="40" state="unknown" tsMs="1784033872436"/>
        <radio op="vodafone IT" rat="LTE" rsrp="-117" rsrq="-10"/>
        <radio op="I TIM" rat="LTE" q="18.20" rsrp="-112" sinr="9" rsrq="-11"/>
      </extensions>
    </trkpt>
    <trkpt lat="45.6238" lon="10.4927213">
      <ele>286.2659199832481</ele>
      <time>2026-07-14T14:58:41.77+02:00</time>
      <extensions>
        <activity type="UNKNOWN" conf="40" state="unknown" tsMs="1784033916861"/>
        <radio op="vodafone IT" rat="LTE" rsrp="-119" rsrq="-12"/>
        <radio op="I TIM" rat="LTE" q="6.30" rsrp="-118" sinr="4" rsrq="-12"/>
      </extensions>
    </trkpt>
    <trkpt lat="45.6238016" lon="10.4927202">
      <ele>284.3001832367444</ele>
      <time>2026-07-14T14:59:39.674+02:00</time>
      <extensions>
        <activity type="ON_FOOT" conf="82" state="moving" tsMs="1784033979137"/>
        <radio op="vodafone IT" rat="LTE" q="8.40" rsrp="-119" sinr="9" rsrq="-10"/>
        <radio op="I TIM" rat="LTE" rsrp="-122" rsrq="-13"/>
      </extensions>
    </trkpt>
    <trkpt lat="45.6238131" lon="10.4927179">
      <ele>290.8000183105469</ele>
      <time>2026-07-14T15:00:33.799+02:00</time>
      <extensions>
        <activity type="UNKNOWN" conf="40" state="unknown" tsMs="1784034033134"/>
        <radio op="vodafone IT" rat="LTE" q="2.50" rsrp="-120" sinr="0" rsrq="-15"/>
        <radio op="I TIM" rat="LTE" q="0.80" rsrp="-124" sinr="3" rsrq="-14"/>
      </extensions>
    </trkpt>
    <trkpt lat="45.6238029" lon="10.492719">
      <ele>290.8000183105469</ele>
      <time>2026-07-14T15:01:05.451+02:00</time>
      <extensions>
        <activity type="UNKNOWN" conf="40" state="unknown" tsMs="1784034064718"/>
        <radio op="vodafone IT" rat="LTE" rsrp="-121" rsrq="-14"/>
        <radio op="I TIM" rat="LTE" rsrp="-118" rsrq="-14"/>
      </extensions>
    </trkpt>
    <trkpt lat="45.6238058" lon="10.4927203">
      <ele>290.8000183105469</ele>
      <time>2026-07-14T15:01:37.105+02:00</time>
      <extensions>
        <activity type="STILL" conf="99" state="still" tsMs="1784034093068"/>
        <radio op="vodafone IT" rat="LTE" q="3.20" rsrp="-121" sinr="3" rsrq="-13"/>
        <radio op="I TIM" rat="LTE" rsrp="-118" rsrq="-14"/>
      </extensions>
    </trkpt>
    <trkpt lat="45.6238209" lon="10.4927191">
      <ele>290.8000183105469</ele>
      <time>2026-07-14T15:02:08.673+02:00</time>
      <extensions>
        <activity type="STILL" conf="46" state="still" tsMs="1784034124845"/>
        <radio op="vodafone IT" rat="LTE" q="9.60" rsrp="-119" sinr="11" rsrq="-12"/>
        <radio op="I TIM" rat="LTE" rsrp="-119" rsrq="-14"/>
      </extensions>
    </trkpt>
    <trkpt lat="45.6238199" lon="10.4927165">
      <ele>290.8000183105469</ele>
      <time>2026-07-14T15:02:40.188+02:00</time>
      <extensions>
        <activity type="STILL" conf="99" state="still" tsMs="1784034156322"/>
        <radio op="vodafone IT" rat="LTE" q="8.40" rsrp="-119" sinr="9" rsrq="-13"/>
        <radio op="I TIM" rat="LTE" q="4.90" rsrp="-118" sinr="2" rsrq="-12"/>
      </extensions>
    </trkpt>
    <trkpt lat="45.6237986" lon="10.4927128">
      <ele>290.70001220703125</ele>
      <time>2026-07-14T15:37:24.736+02:00</time>
      <extensions>
        <activity type="TILTING" conf="100" state="moving" tsMs="1784036241753"/>
        <radio op="vodafone IT" rat="LTE" q="30.40" rsrp="-106" sinr="11" rsrq="-11"/>
        <radio op="I TIM" rat="LTE" q="27.20" rsrp="-108" sinr="11" rsrq="-12"/>
      </extensions>
    </trkpt>
    <trkpt lat="45.6237959" lon="10.492729">
      <ele>290.70001220703125</ele>
      <time>2026-07-14T15:37:56.536+02:00</time>
      <extensions>
        <activity type="STILL" conf="61" state="still" tsMs="1784036272380"/>
        <radio op="vodafone IT" rat="LTE" rsrp="-110" rsrq="-11"/>
        <radio op="I TIM" rat="LTE" q="27.20" rsrp="-108" sinr="11" rsrq="-10"/>
      </extensions>
    </trkpt>
    <trkpt lat="45.6237868" lon="10.4927402">
      <ele>290.8000183105469</ele>
      <time>2026-07-14T15:38:55.707+02:00</time>
      <extensions>
        <activity type="STILL" conf="99" state="still" tsMs="1784036329279"/>
        <radio op="vodafone IT" rat="LTE" q="32.20" rsrp="-102" sinr="9" rsrq="-11"/>
        <radio op="I TIM" rat="LTE" q="15.60" rsrp="-112" sinr="7" rsrq="-13"/>
      </extensions>
    </trkpt>
    <trkpt lat="45.6237385" lon="10.4927831">
      <ele>290.8000183105469</ele>
      <time>2026-07-14T15:40:07.06+02:00</time>
      <extensions>
        <activity type="STILL" conf="99" state="still" tsMs="1784036406599"/>
        <radio op="vodafone IT" rat="LTE" q="11.40" rsrp="-106" sinr="1" rsrq="-11"/>
        <radio op="I TIM" rat="LTE" q="19.60" rsrp="-111" sinr="9" rsrq="-12"/>
      </extensions>
    </trkpt>
    <trkpt lat="45.6237798" lon="10.4927388">
      <ele>289.9000244140625</ele>
      <time>2026-07-14T18:01:47.226+02:00</time>
      <extensions>
        <activity type="ON_FOOT" conf="89" state="moving" tsMs="1784044913343"/>
        <radio op="vodafone IT" rat="LTE" rsrp="-125" rsrq="-12"/>
        <radio op="I TIM" rat="LTE" q="7.00" rsrp="-118" sinr="5" rsrq="-12"/>
      </extensions>
    </trkpt>
    <trkpt lat="45.623693" lon="10.4928014">
      <ele>284.56699911201383</ele>
      <time>2026-07-14T18:02:24.154+02:00</time>
      <extensions>
        <activity type="ON_FOOT" conf="95" state="moving" tsMs="1784044941455"/>
        <radio op="vodafone IT" rat="LTE" q="1.00" rsrp="-123" sinr="0" rsrq="-13"/>
        <radio op="I TIM" rat="LTE" q="0.00" rsrp="-126" sinr="0" rsrq="-13"/>
      </extensions>
    </trkpt>
    <trkpt lat="45.6237565" lon="10.4935221">
      <ele>285.4368201958033</ele>
      <time>2026-07-14T18:02:55.782+02:00</time>
      <extensions>
        <activity type="ON_FOOT" conf="97" state="moving" tsMs="1784044975119"/>
        <radio op="vodafone IT" rat="LTE" q="23.80" rsrp="-111" sinr="12" rsrq="-15"/>
        <radio op="I TIM" rat="LTE" q="8.80" rsrp="-117" sinr="6" rsrq="-11"/>
      </extensions>
    </trkpt>
    <trkpt lat="45.6235401" lon="10.4936134">
      <ele>282.3000183105469</ele>
      <time>2026-07-14T18:03:27.159+02:00</time>
      <extensions>
        <activity type="ON_FOOT" conf="85" state="moving" tsMs="1784045001279"/>
        <radio op="vodafone IT" rat="LTE" q="8.80" rsrp="-114" sinr="3" rsrq="-12"/>
        <radio op="I TIM" rat="LTE" q="9.00" rsrp="-115" sinr="4" rsrq="-14"/>
      </extensions>
    </trkpt>
    <trkpt lat="45.6237485" lon="10.493447">
      <ele>278.5</ele>
      <time>2026-07-14T18:03:45.427+02:00</time>
      <extensions>
        <activity type="UNKNOWN" conf="40" state="unknown" tsMs="1784045027352"/>
        <radio op="vodafone IT" rat="LTE" q="10.20" rsrp="-108" sinr="1" rsrq="-13"/>
        <radio op="I TIM" rat="LTE" q="15.40" rsrp="-111" sinr="6" rsrq="-12"/>
      </extensions>
    </trkpt>
    <trkpt lat="45.6237302" lon="10.4935752">
      <ele>282.3000183105469</ele>
      <time>2026-07-14T18:04:19.263+02:00</time>
      <extensions>
        <activity type="STILL" conf="48" state="still" tsMs="1784045054088"/>
        <radio op="vodafone IT" rat="LTE" q="13.30" rsrp="-106" sinr="2" rsrq="-9"/>
        <radio op="I TIM" rat="LTE" q="19.20" rsrp="-109" sinr="7" rsrq="-12"/>
      </extensions>
    </trkpt>
    <trkpt lat="45.623759" lon="10.4935013">
      <ele>278.5</ele>
      <time>2026-07-14T18:04:47.201+02:00</time>
      <extensions>
        <activity type="UNKNOWN" conf="40" state="unknown" tsMs="1784045086496"/>
        <radio op="vodafone IT" rat="LTE" rsrp="-107" rsrq="-12"/>
        <radio op="I TIM" rat="LTE" q="19.20" rsrp="-109" sinr="7" rsrq="-13"/>
      </extensions>
    </trkpt>
    <trkpt lat="45.6238333" lon="10.4933192">
      <ele>278.8000183105469</ele>
      <time>2026-07-14T18:05:19.739+02:00</time>
      <extensions>
        <activity type="IN_VEHICLE" conf="96" state="moving" tsMs="1784045099059"/>
        <radio op="vodafone IT" rat="LTE" rsrp="-104" rsrq="-14"/>
        <radio op="I TIM" rat="LTE" q="30.80" rsrp="-103" sinr="9" rsrq="-12"/>
      </extensions>
    </trkpt>
    <trkpt lat="45.6238261" lon="10.4935995">
      <ele>278.8000183105469</ele>
      <time>2026-07-14T18:05:30.427+02:00</time>
      <extensions>
        <activity type="IN_VEHICLE" conf="96" state="moving" tsMs="1784045118829"/>
        <radio op="vodafone IT" rat="LTE" q="36.00" rsrp="-95" sinr="7" rsrq="-9"/>
        <radio op="I TIM" rat="LTE" q="23.10" rsrp="-104" sinr="6" rsrq="-13"/>
      </extensions>
    </trkpt>
    <trkpt lat="45.6237646" lon="10.4936411">
      <ele>278.8000183105469</ele>
      <time>2026-07-14T18:05:40.427+02:00</time>
      <extensions>
        <activity type="IN_VEHICLE" conf="97" state="moving" tsMs="1784045138075"/>
        <radio op="vodafone IT" rat="LTE" q="51.00" rsrp="-95" sinr="12" rsrq="-8"/>
        <radio op="I TIM" rat="LTE" q="27.30" rsrp="-104" sinr="8" rsrq="-13"/>
      </extensions>
    </trkpt>
    <trkpt lat="45.6235443" lon="10.4931136">
      <ele>278.8000183105469</ele>
      <time>2026-07-14T18:05:50.427+02:00</time>
      <extensions>
        <activity type="IN_VEHICLE" conf="97" state="moving" tsMs="1784045148863"/>
        <radio op="vodafone IT" rat="LTE" q="20.80" rsrp="-99" sinr="3" rsrq="-11"/>
        <radio op="I TIM" rat="LTE" q="12.60" rsrp="-107" sinr="2" rsrq="-13"/>
      </extensions>
    </trkpt>
    <trkpt lat="45.6231162" lon="10.4917503">
      <ele>278.8000183105469</ele>
      <time>2026-07-14T18:06:00.427+02:00</time>
      <extensions>
        <activity type="IN_VEHICLE" conf="97" state="moving" tsMs="1784045159732"/>
        <radio op="vodafone IT" rat="LTE" q="24.30" rsrp="-98" sinr="4" rsrq="-11"/>
        <radio op="I TIM" rat="LTE" q="16.80" rsrp="-101" sinr="2" rsrq="-14"/>
      </extensions>
    </trkpt>
    <trkpt lat="45.6225439" lon="10.490119">
      <ele>278.8000183105469</ele>
      <time>2026-07-14T18:06:10.427+02:00</time>
      <extensions>
        <activity type="IN_VEHICLE" conf="97" state="moving" tsMs="1784045170564"/>
        <radio op="vodafone IT" rat="LTE" q="20.80" rsrp="-99" sinr="3" rsrq="-13"/>
        <radio op="I TIM" rat="LTE" q="20.70" rsrp="-102" sinr="4" rsrq="-14"/>
      </extensions>
    </trkpt>
    <trkpt lat="45.6214901" lon="10.488203">
      <ele>278.8000183105469</ele>
      <time>2026-07-14T18:06:21.427+02:00</time>
      <extensions>
        <activity type="IN_VEHICLE" conf="97" state="moving" tsMs="1784045175988"/>
        <radio op="vodafone IT" rat="LTE" q="21.60" rsrp="-101" sinr="4" rsrq="-13"/>
        <radio op="I TIM" rat="LTE" rsrp="-113" rsrq="-11"/>
      </extensions>
    </trkpt>
    <trkpt lat="45.6206496" lon="10.4861776">
      <ele>278.8000183105469</ele>
      <time>2026-07-14T18:06:31.427+02:00</time>
      <extensions>
        <activity type="IN_VEHICLE" conf="97" state="moving" tsMs="1784045186798"/>
        <radio op="vodafone IT" rat="LTE" rsrp="-102" rsrq="-18"/>
        <radio op="I TIM" rat="LTE" rsrp="-112" rsrq="-11"/>
      </extensions>
    </trkpt>
    <trkpt lat="45.6197594" lon="10.4841902">
      <ele>278.8000183105469</ele>
      <time>2026-07-14T18:06:41.427+02:00</time>
      <extensions>
        <activity type="IN_VEHICLE" conf="97" state="moving" tsMs="1784045197629"/>
        <radio op="vodafone IT" rat="LTE" rsrp="-105" rsrq="-17"/>
        <radio op="I TIM" rat="LTE" rsrp="-112" rsrq="-15"/>
      </extensions>
    </trkpt>
    <trkpt lat="45.6184285" lon="10.4834893">
      <ele>271.0</ele>
      <time>2026-07-14T18:06:51.427+02:00</time>
      <extensions>
        <activity type="IN_VEHICLE" conf="97" state="moving" tsMs="1784045208449"/>
        <radio op="vodafone IT" rat="LTE" q="51.20" rsrp="-93" sinr="11" rsrq="-9"/>
        <radio op="I TIM" rat="LTE" q="21.00" rsrp="-104" sinr="5" rsrq="-9"/>
      </extensions>
    </trkpt>
    <trkpt lat="45.6167422" lon="10.4832154">
      <ele>270.0</ele>
      <time>2026-07-14T18:07:01.427+02:00</time>
      <extensions>
        <activity type="IN_VEHICLE" conf="97" state="moving" tsMs="1784045219221"/>
        <radio op="vodafone IT" rat="LTE" q="23.40" rsrp="-99" sinr="4" rsrq="-11"/>
        <radio op="I TIM" rat="LTE" rsrp="-111" rsrq="-13"/>
      </extensions>
    </trkpt>
    <trkpt lat="45.6150186" lon="10.4828297">
      <ele>266.0</ele>
      <time>2026-07-14T18:07:11.427+02:00</time>
      <extensions>
        <activity type="IN_VEHICLE" conf="96" state="moving" tsMs="1784045230086"/>
        <radio op="vodafone IT" rat="LTE" q="43.40" rsrp="-94" sinr="9" rsrq="-10"/>
        <radio op="I TIM" rat="LTE" rsrp="-119" rsrq="-19"/>
      </extensions>
    </trkpt>
    <trkpt lat="45.6147121" lon="10.4826843">
      <ele>264.0</ele>
      <time>2026-07-14T18:07:13.427+02:00</time>
      <extensions>
        <activity type="IN_VEHICLE" conf="96" state="moving" tsMs="1784045239764"/>
        <radio op="vodafone IT" rat="LTE" q="55.50" rsrp="-88" sinr="10" rsrq="-11"/>
        <radio op="I TIM" rat="LTE" rsrp="-114" rsrq="-14"/>
      </extensions>
    </trkpt>
    <trkpt lat="45.6120099" lon="10.4810318">
      <ele>272.7237559199457</ele>
      <time>2026-07-14T18:07:52.969+02:00</time>
      <extensions>
        <activity type="IN_VEHICLE" conf="97" state="moving" tsMs="1784045271504"/>
        <radio op="vodafone IT" rat="LTE" q="30.00" rsrp="-95" sinr="5" rsrq="-11"/>
        <radio op="I TIM" rat="LTE" rsrp="-115" rsrq="-17"/>
      </extensions>
    </trkpt>
    <trkpt lat="45.6102306" lon="10.4782587">
      <ele>274.1000061035156</ele>
      <time>2026-07-14T18:08:24.546+02:00</time>
      <extensions>
        <activity type="IN_VEHICLE" conf="97" state="moving" tsMs="1784045300788"/>
        <radio op="vodafone IT" rat="LTE" q="23.80" rsrp="-91" sinr="2" rsrq="-11"/>
        <radio op="I TIM" rat="LTE" q="27.60" rsrp="-102" sinr="7" rsrq="-12"/>
      </extensions>
    </trkpt>
    <trkpt lat="45.6088435" lon="10.4757435">
      <ele>272.2993784785939</ele>
      <time>2026-07-14T18:08:55.729+02:00</time>
      <extensions>
        <activity type="IN_VEHICLE" conf="97" state="moving" tsMs="1784045331152"/>
        <radio op="vodafone IT" rat="LTE" q="70.00" rsrp="-90" sinr="15" rsrq="-5"/>
        <radio op="I TIM" rat="LTE" q="78.00" rsrp="-86" sinr="15" rsrq="-9"/>
      </extensions>
    </trkpt>
    <trkpt lat="45.6087842" lon="10.4758886">
      <ele>268.3000183105469</ele>
      <time>2026-07-14T18:09:26.825+02:00</time>
      <extensions>
        <activity type="IN_VEHICLE" conf="97" state="moving" tsMs="1784045362362"/>
        <radio op="vodafone IT" rat="LTE" q="95.00" rsrp="-87" sinr="21" rsrq="-6"/>
        <radio op="I TIM" rat="LTE" q="91.20" rsrp="-87" sinr="19" rsrq="-7"/>
      </extensions>
    </trkpt>
    <trkpt lat="45.6078494" lon="10.4720653">
      <ele>274.1000061035156</ele>
      <time>2026-07-14T18:09:58.149+02:00</time>
      <extensions>
        <activity type="IN_VEHICLE" conf="98" state="moving" tsMs="1784045393333"/>
        <radio op="vodafone IT" rat="LTE" q="100.00" rsrp="-82" sinr="25" rsrq="-6"/>
        <radio op="I TIM" rat="LTE" q="92.00" rsrp="-79" sinr="18" rsrq="-7"/>
      </extensions>
    </trkpt>
    <trkpt lat="45.6071126" lon="10.4708428">
      <ele>270.43094958366646</ele>
      <time>2026-07-14T18:10:04.427+02:00</time>
      <extensions>
        <activity type="IN_VEHICLE" conf="97" state="moving" tsMs="1784045408355"/>
        <radio op="vodafone IT" rat="LTE" q="92.50" rsrp="-88" sinr="26" rsrq="-6"/>
        <radio op="I TIM" rat="LTE" q="76.00" rsrp="-81" sinr="14" rsrq="-5"/>
      </extensions>
    </trkpt>
    <trkpt lat="45.6042278" lon="10.4612392">
      <ele>266.6000061035156</ele>
      <time>2026-07-14T18:11:14.427+02:00</time>
      <extensions>
        <activity type="IN_VEHICLE" conf="97" state="moving" tsMs="1784045480626"/>
        <radio op="vodafone IT" rat="LTE" q="100.00" rsrp="-81" sinr="25" rsrq="-8"/>
        <radio op="I TIM" rat="LTE" rsrp="-111" rsrq="-16"/>
      </extensions>
    </trkpt>
    <trkpt lat="45.6031126" lon="10.4577145">
      <ele>266.6000061035156</ele>
      <time>2026-07-14T18:11:53.253+02:00</time>
      <extensions>
        <activity type="IN_VEHICLE" conf="97" state="moving" tsMs="1784045512655"/>
        <radio op="vodafone IT" rat="LTE" q="100.00" rsrp="-81" sinr="25" rsrq="-6"/>
        <radio op="I TIM" rat="LTE" q="100.00" rsrp="-77" sinr="27" rsrq="-9"/>
      </extensions>
    </trkpt>
    <trkpt lat="45.6012607" lon="10.4538594">
      <ele>263.7305416700955</ele>
      <time>2026-07-14T18:12:24.624+02:00</time>
      <extensions>
        <activity type="IN_VEHICLE" conf="97" state="moving" tsMs="1784045540886"/>
        <radio op="vodafone IT" rat="LTE" q="31.20" rsrp="-101" sinr="8" rsrq="-9"/>
        <radio op="I TIM" rat="LTE" rsrp="-98" rsrq="-15"/>
      </extensions>
    </trkpt>
    <trkpt lat="45.6007496" lon="10.4523267">
      <ele>258.9000244140625</ele>
      <time>2026-07-14T18:12:56.154+02:00</time>
      <extensions>
        <activity type="IN_VEHICLE" conf="97" state="moving" tsMs="1784045571100"/>
        <radio op="vodafone IT" rat="LTE" q="37.80" rsrp="-98" sinr="9" rsrq="-8"/>
        <radio op="I TIM" rat="LTE" q="75.90" rsrp="-92" sinr="18" rsrq="-11"/>
      </extensions>
    </trkpt>
    <trkpt lat="45.5993211" lon="10.4501664">
      <ele>261.1012425336568</ele>
      <time>2026-07-14T18:13:27.686+02:00</time>
      <extensions>
        <activity type="IN_VEHICLE" conf="97" state="moving" tsMs="1784045602652"/>
        <radio op="vodafone IT" rat="LTE" q="25.20" rsrp="-97" sinr="4" rsrq="-10"/>
        <radio op="I TIM" rat="LTE" q="42.90" rsrp="-92" sinr="8" rsrq="-11"/>
      </extensions>
    </trkpt>
    <trkpt lat="45.5978416" lon="10.4470415">
      <ele>259.2941255594442</ele>
      <time>2026-07-14T18:13:58.918+02:00</time>
      <extensions>
        <activity type="IN_VEHICLE" conf="97" state="moving" tsMs="1784045634086"/>
        <radio op="vodafone IT" rat="LTE" q="20.00" rsrp="-100" sinr="3" rsrq="-14"/>
        <radio op="I TIM" rat="LTE" q="20.40" rsrp="-91" sinr="1" rsrq="-13"/>
      </extensions>
    </trkpt>
    <trkpt lat="45.5961272" lon="10.4450339">
      <ele>256.79998779296875</ele>
      <time>2026-07-14T18:14:30.063+02:00</time>
      <extensions>
        <activity type="IN_VEHICLE" conf="97" state="moving" tsMs="1784045665345"/>
        <radio op="vodafone IT" rat="LTE" q="26.40" rsrp="-92" sinr="3" rsrq="-8"/>
        <radio op="I TIM" rat="LTE" q="18.60" rsrp="-94" sinr="1" rsrq="-15"/>
      </extensions>
    </trkpt>
    <trkpt lat="45.5952351" lon="10.443082">
      <ele>258.9000244140625</ele>
      <time>2026-07-14T18:15:01.608+02:00</time>
      <extensions>
        <activity type="IN_VEHICLE" conf="97" state="moving" tsMs="1784045696554"/>
        <radio op="vodafone IT" rat="LTE" q="76.00" rsrp="-81" sinr="14" rsrq="-8"/>
        <radio op="I TIM" rat="LTE" q="80.00" rsrp="-78" sinr="15" rsrq="-7"/>
      </extensions>
    </trkpt>
    <trkpt lat="45.5954423" lon="10.4422825">
      <ele>256.20001220703125</ele>
      <time>2026-07-14T18:15:08.427+02:00</time>
      <extensions>
        <activity type="IN_VEHICLE" conf="97" state="moving" tsMs="1784045712009"/>
        <radio op="vodafone IT" rat="LTE" q="46.20" rsrp="-92" sinr="9" rsrq="-12"/>
        <radio op="I TIM" rat="LTE" q="76.00" rsrp="-83" sinr="14" rsrq="-6"/>
      </extensions>
    </trkpt>
    <trkpt lat="45.5950095" lon="10.4423934">
      <ele>256.20001220703125</ele>
      <time>2026-07-14T18:15:44.359+02:00</time>
      <extensions>
        <activity type="IN_VEHICLE" conf="97" state="moving" tsMs="1784045738709"/>
        <radio op="vodafone IT" rat="LTE" q="26.60" rsrp="-87" sinr="2" rsrq="-9"/>
        <radio op="I TIM" rat="LTE" q="88.00" rsrp="-75" sinr="17" rsrq="-9"/>
      </extensions>
    </trkpt>
    <trkpt lat="45.5950223" lon="10.4423595">
      <ele>256.20001220703125</ele>
      <time>2026-07-14T18:16:16.467+02:00</time>
      <extensions>
        <activity type="STILL" conf="99" state="still" tsMs="1784045769238"/>
        <radio op="vodafone IT" rat="LTE" q="40.00" rsrp="-84" sinr="5" rsrq="-8"/>
        <radio op="I TIM" rat="LTE" q="88.00" rsrp="-75" sinr="17" rsrq="-6"/>
      </extensions>
    </trkpt>
    <trkpt lat="45.5950024" lon="10.44238">
      <ele>258.20001220703125</ele>
      <time>2026-07-14T18:16:49.427+02:00</time>
      <extensions>
        <activity type="STILL" conf="99" state="still" tsMs="1784045814376"/>
        <radio op="vodafone IT" rat="LTE" rsrp="-85" rsrq="-9"/>
        <radio op="I TIM" rat="LTE" q="80.00" rsrp="-75" sinr="15" rsrq="-5"/>
      </extensions>
    </trkpt>
    <trkpt lat="45.5954251" lon="10.4424828">
      <ele>256.20001220703125</ele>
      <time>2026-07-14T18:17:20.029+02:00</time>
      <extensions>
        <activity type="STILL" conf="99" state="still" tsMs="1784045835746"/>
        <radio op="vodafone IT" rat="LTE" q="32.00" rsrp="-85" sinr="3" rsrq="-10"/>
        <radio op="I TIM" rat="LTE" q="88.00" rsrp="-75" sinr="17" rsrq="-9"/>
      </extensions>
    </trkpt>
    <trkpt lat="45.5950295" lon="10.442387">
      <ele>258.20001220703125</ele>
      <time>2026-07-14T18:17:57.426+02:00</time>
      <extensions>
        <activity type="STILL" conf="99" state="still" tsMs="1784045886946"/>
        <radio op="vodafone IT" rat="LTE" rsrp="-85" rsrq="-11"/>
        <radio op="I TIM" rat="LTE" q="76.00" rsrp="-74" sinr="14" rsrq="-7"/>
      </extensions>
    </trkpt>
    <trkpt lat="45.5945269" lon="10.4425778">
      <ele>256.29998779296875</ele>
      <time>2026-07-14T18:18:32.442+02:00</time>
      <extensions>
        <activity type="STILL" conf="99" state="still" tsMs="1784045908293"/>
        <radio op="vodafone IT" rat="LTE" rsrp="-85" rsrq="-9"/>
        <radio op="I TIM" rat="LTE" q="80.00" rsrp="-75" sinr="15" rsrq="-12"/>
      </extensions>
    </trkpt>
    <trkpt lat="45.5944731" lon="10.443515">
      <ele>260.0</ele>
      <time>2026-07-14T18:19:03.605+02:00</time>
      <extensions>
        <activity type="STILL" conf="99" state="still" tsMs="1784045938885"/>
        <radio op="vodafone IT" rat="LTE" q="36.00" rsrp="-84" sinr="4" rsrq="-8"/>
        <radio op="I TIM" rat="LTE" q="80.00" rsrp="-74" sinr="15" rsrq="-7"/>
      </extensions>
    </trkpt>
    <trkpt lat="45.595208" lon="10.4432563">
      <ele>260.0</ele>
      <time>2026-07-14T18:19:34.871+02:00</time>
      <extensions>
        <activity type="STILL" conf="99" state="still" tsMs="1784045969984"/>
        <radio op="vodafone IT" rat="LTE" q="24.00" rsrp="-84" sinr="1" rsrq="-9"/>
        <radio op="I TIM" rat="LTE" q="88.00" rsrp="-75" sinr="17" rsrq="-6"/>
      </extensions>
    </trkpt>
    <trkpt lat="45.5953518" lon="10.4429627">
      <ele>258.20001220703125</ele>
      <time>2026-07-14T18:20:05.588+02:00</time>
      <extensions>
        <activity type="UNKNOWN" conf="40" state="unknown" tsMs="1784046005266"/>
        <radio op="vodafone IT" rat="LTE" q="38.00" rsrp="-87" sinr="5" rsrq="-9"/>
        <radio op="I TIM" rat="LTE" q="64.00" rsrp="-84" sinr="11" rsrq="-9"/>
      </extensions>
    </trkpt>
    <trkpt lat="45.595389" lon="10.4422197">
      <ele>256.29998779296875</ele>
      <time>2026-07-14T18:20:28.4+02:00</time>
      <extensions>
        <activity type="UNKNOWN" conf="40" state="unknown" tsMs="1784046025706"/>
        <radio op="vodafone IT" rat="LTE" q="48.00" rsrp="-93" sinr="10" rsrq="-12"/>
        <radio op="I TIM" rat="LTE" q="68.00" rsrp="-79" sinr="12" rsrq="-5"/>
      </extensions>
    </trkpt>
    <trkpt lat="45.595196" lon="10.4433449">
      <ele>256.29998779296875</ele>
      <time>2026-07-14T18:21:02.42+02:00</time>
      <extensions>
        <activity type="UNKNOWN" conf="40" state="unknown" tsMs="1784046066753"/>
        <radio op="vodafone IT" rat="LTE" q="18.50" rsrp="-88" sinr="0" rsrq="-12"/>
        <radio op="I TIM" rat="LTE" q="60.00" rsrp="-79" sinr="10" rsrq="-9"/>
      </extensions>
    </trkpt>
    <trkpt lat="45.5953427" lon="10.4426836">
      <ele>258.1441824214095</ele>
      <time>2026-07-14T18:21:37.607+02:00</time>
      <extensions>
        <activity type="STILL" conf="68" state="still" tsMs="1784046094708"/>
        <radio op="vodafone IT" rat="LTE" rsrp="-85" rsrq="-10"/>
        <radio op="I TIM" rat="LTE" q="72.00" rsrp="-80" sinr="13" rsrq="-6"/>
      </extensions>
    </trkpt>
    <trkpt lat="45.5954238" lon="10.4424944">
      <ele>256.29998779296875</ele>
      <time>2026-07-14T18:22:08.953+02:00</time>
      <extensions>
        <activity type="STILL" conf="45" state="still" tsMs="1784046125335"/>
        <radio op="vodafone IT" rat="LTE" rsrp="-87" rsrq="-16"/>
        <radio op="I TIM" rat="LTE" q="68.00" rsrp="-80" sinr="12" rsrq="-8"/>
      </extensions>
    </trkpt>
    <trkpt lat="45.5954778" lon="10.4426556">
      <ele>256.20001220703125</ele>
      <time>2026-07-14T18:22:39.887+02:00</time>
      <extensions>
        <activity type="UNKNOWN" conf="40" state="unknown" tsMs="1784046154171"/>
        <radio op="vodafone IT" rat="LTE" q="31.50" rsrp="-90" sinr="4" rsrq="-9"/>
        <radio op="I TIM" rat="LTE" q="72.00" rsrp="-81" sinr="13" rsrq="-7"/>
      </extensions>
    </trkpt>
    <trkpt lat="45.5949354" lon="10.4424098">
      <ele>256.20001220703125</ele>
      <time>2026-07-14T18:22:43.184+02:00</time>
      <extensions>
        <activity type="UNKNOWN" conf="40" state="unknown" tsMs="1784046159538"/>
        <radio op="vodafone IT" rat="LTE" q="31.20" rsrp="-86" sinr="3" rsrq="-10"/>
        <radio op="I TIM" rat="LTE" q="76.00" rsrp="-79" sinr="14" rsrq="-8"/>
      </extensions>
    </trkpt>
    <trkpt lat="45.5955553" lon="10.4424483">
      <ele>256.29998779296875</ele>
      <time>2026-07-14T18:23:21.265+02:00</time>
      <extensions>
        <activity type="STILL" conf="99" state="still" tsMs="1784046196086"/>
        <radio op="vodafone IT" rat="LTE" q="46.80" rsrp="-86" sinr="7" rsrq="-8"/>
        <radio op="I TIM" rat="LTE" q="76.00" rsrp="-83" sinr="14" rsrq="-7"/>
      </extensions>
    </trkpt>
    <trkpt lat="45.595139" lon="10.4431441">
      <ele>256.20001220703125</ele>
      <time>2026-07-14T18:23:52.336+02:00</time>
      <extensions>
        <activity type="STILL" conf="50" state="still" tsMs="1784046227608"/>
        <radio op="vodafone IT" rat="LTE" rsrp="-86" rsrq="-7"/>
        <radio op="I TIM" rat="LTE" q="72.00" rsrp="-82" sinr="13" rsrq="-7"/>
      </extensions>
    </trkpt>
    <trkpt lat="45.5954557" lon="10.442512">
      <ele>256.29998779296875</ele>
      <time>2026-07-14T18:24:37.714+02:00</time>
      <extensions>
        <activity type="ON_FOOT" conf="90" state="moving" tsMs="1784046275928"/>
        <radio op="vodafone IT" rat="LTE" q="47.60" rsrp="-97" sinr="12" rsrq="-8"/>
        <radio op="I TIM" rat="LTE" q="85.10" rsrp="-88" sinr="18" rsrq="-10"/>
      </extensions>
    </trkpt>
    <trkpt lat="45.5954715" lon="10.442509">
      <ele>256.29998779296875</ele>
      <time>2026-07-14T18:25:09.281+02:00</time>
      <extensions>
        <activity type="ON_FOOT" conf="83" state="moving" tsMs="1784046308640"/>
        <radio op="vodafone IT" rat="LTE" q="69.30" rsrp="-92" sinr="16" rsrq="-5"/>
        <radio op="I TIM" rat="LTE" q="61.20" rsrp="-91" sinr="13" rsrq="-10"/>
      </extensions>
    </trkpt>
    <trkpt lat="45.5954427" lon="10.4425732">
      <ele>256.20001220703125</ele>
      <time>2026-07-14T18:25:52.617+02:00</time>
      <extensions>
        <activity type="UNKNOWN" conf="40" state="unknown" tsMs="1784046351441"/>
        <radio op="vodafone IT" rat="LTE" q="62.00" rsrp="-94" sinr="15" rsrq="-7"/>
        <radio op="I TIM" rat="LTE" q="100.00" rsrp="-85" sinr="26" rsrq="-9"/>
      </extensions>
    </trkpt>
    <trkpt lat="45.5954415" lon="10.4425816">
      <ele>256.29998779296875</ele>
      <time>2026-07-14T18:26:28.131+02:00</time>
      <extensions>
        <activity type="UNKNOWN" conf="40" state="unknown" tsMs="1784046387086"/>
        <radio op="vodafone IT" rat="LTE" q="100.00" rsrp="-82" sinr="21" rsrq="-8"/>
        <radio op="I TIM" rat="LTE" q="100.00" rsrp="-80" sinr="25" rsrq="-5"/>
      </extensions>
    </trkpt>
    <trkpt lat="45.5954428" lon="10.4425084">
      <ele>256.20001220703125</ele>
      <time>2026-07-14T18:26:59.418+02:00</time>
      <extensions>
        <activity type="UNKNOWN" conf="40" state="unknown" tsMs="1784046413596"/>
        <radio op="vodafone IT" rat="LTE" q="60.90" rsrp="-96" sinr="16" rsrq="-8"/>
        <radio op="I TIM" rat="LTE" q="49.30" rsrp="-96" sinr="12" rsrq="-10"/>
      </extensions>
    </trkpt>
    <trkpt lat="45.5955145" lon="10.4424645">
      <ele>256.20001220703125</ele>
      <time>2026-07-14T18:27:39.67+02:00</time>
      <extensions>
        <activity type="ON_FOOT" conf="82" state="moving" tsMs="1784046455680"/>
        <radio op="vodafone IT" rat="LTE" q="18.00" rsrp="-113" sinr="10" rsrq="-8"/>
        <radio op="I TIM" rat="LTE" q="18.70" rsrp="-108" sinr="6" rsrq="-8"/>
      </extensions>
    </trkpt>
    <trkpt lat="45.5954435" lon="10.4425104">
      <ele>256.20001220703125</ele>
      <time>2026-07-14T18:28:17.251+02:00</time>
      <extensions>
        <activity type="ON_FOOT" conf="87" state="moving" tsMs="1784046491405"/>
        <radio op="vodafone IT" rat="LTE" q="48.30" rsrp="-102" sinr="16" rsrq="-7"/>
        <radio op="I TIM" rat="LTE" q="50.40" rsrp="-101" sinr="16" rsrq="-6"/>
      </extensions>
    </trkpt>
    <trkpt lat="45.5956828" lon="10.4423928">
      <ele>256.20001220703125</ele>
      <time>2026-07-14T18:28:52.731+02:00</time>
      <extensions>
        <activity type="ON_FOOT" conf="93" state="moving" tsMs="1784046529868"/>
        <radio op="vodafone IT" rat="LTE" q="14.00" rsrp="-111" sinr="5" rsrq="-10"/>
        <radio op="I TIM" rat="LTE" q="9.80" rsrp="-111" sinr="2" rsrq="-10"/>
      </extensions>
    </trkpt>
    <trkpt lat="45.5957085" lon="10.4423972">
      <ele>256.20001220703125</ele>
      <time>2026-07-14T18:29:41.303+02:00</time>
      <extensions>
        <activity type="UNKNOWN" conf="40" state="unknown" tsMs="1784046575449"/>
        <radio op="vodafone IT" rat="LTE" rsrp="-109" rsrq="-11"/>
        <radio op="I TIM" rat="LTE" q="10.50" rsrp="-110" sinr="2" rsrq="-10"/>
      </extensions>
    </trkpt>
    <trkpt lat="45.5956813" lon="10.4423933">
      <ele>256.20001220703125</ele>
      <time>2026-07-14T18:30:21.615+02:00</time>
      <extensions>
        <activity type="UNKNOWN" conf="40" state="unknown" tsMs="1784046619510"/>
        <radio op="vodafone IT" rat="LTE" q="12.80" rsrp="-109" sinr="3" rsrq="-12"/>
        <radio op="I TIM" rat="LTE" q="16.80" rsrp="-111" sinr="7" rsrq="-10"/>
      </extensions>
    </trkpt>
    <trkpt lat="45.5957058" lon="10.4423882">
      <ele>254.25702261851666</ele>
      <time>2026-07-14T18:30:52.856+02:00</time>
      <extensions>
        <activity type="UNKNOWN" conf="40" state="unknown" tsMs="1784046646978"/>
        <radio op="vodafone IT" rat="LTE" rsrp="-109" rsrq="-12"/>
        <radio op="I TIM" rat="LTE" q="25.60" rsrp="-109" sinr="11" rsrq="-10"/>
      </extensions>
    </trkpt>
    <trkpt lat="45.5957087" lon="10.4423653">
      <ele>254.44972302855967</ele>
      <time>2026-07-14T18:31:24.058+02:00</time>
      <extensions>
        <activity type="UNKNOWN" conf="40" state="unknown" tsMs="1784046678206"/>
        <radio op="vodafone IT" rat="LTE" q="16.50" rsrp="-110" sinr="6" rsrq="-13"/>
        <radio op="I TIM" rat="LTE" q="16.80" rsrp="-111" sinr="7" rsrq="-8"/>
      </extensions>
    </trkpt>
    <trkpt lat="45.5957247" lon="10.4423778">
      <ele>256.20001220703125</ele>
      <time>2026-07-14T18:31:56.446+02:00</time>
      <extensions>
        <activity type="UNKNOWN" conf="40" state="unknown" tsMs="1784046715481"/>
        <radio op="vodafone IT" rat="LTE" q="11.70" rsrp="-112" sinr="4" rsrq="-10"/>
        <radio op="I TIM" rat="LTE" q="7.20" rsrp="-116" sinr="3" rsrq="-8"/>
      </extensions>
    </trkpt>
    <trkpt lat="45.5956165" lon="10.4424421">
      <ele>256.20001220703125</ele>
      <time>2026-07-14T18:32:53.732+02:00</time>
      <extensions>
        <activity type="UNKNOWN" conf="40" state="unknown" tsMs="1784046767900"/>
        <radio op="vodafone IT" rat="LTE" q="18.70" rsrp="-108" sinr="6" rsrq="-10"/>
        <radio op="I TIM" rat="LTE" q="21.00" rsrp="-110" sinr="9" rsrq="-10"/>
      </extensions>
    </trkpt>
    <trkpt lat="45.5955645" lon="10.4424612">
      <ele>256.20001220703125</ele>
      <time>2026-07-14T18:33:49.944+02:00</time>
      <extensions>
        <activity type="ON_FOOT" conf="87" state="moving" tsMs="1784046829193"/>
        <radio op="vodafone IT" rat="LTE" q="52.90" rsrp="-102" sinr="18" rsrq="-9"/>
        <radio op="I TIM" rat="LTE" q="44.10" rsrp="-104" sinr="16" rsrq="-8"/>
      </extensions>
    </trkpt>
    <trkpt lat="45.5955801" lon="10.4424693">
      <ele>256.20001220703125</ele>
      <time>2026-07-14T18:34:22.528+02:00</time>
      <extensions>
        <activity type="UNKNOWN" conf="40" state="unknown" tsMs="1784046861496"/>
        <radio op="vodafone IT" rat="LTE" q="18.20" rsrp="-112" sinr="9" rsrq="-9"/>
        <radio op="I TIM" rat="LTE" q="21.00" rsrp="-110" sinr="9" rsrq="-9"/>
      </extensions>
    </trkpt>
    <trkpt lat="45.5956354" lon="10.4424155">
      <ele>256.20001220703125</ele>
      <time>2026-07-14T18:35:05.174+02:00</time>
      <extensions>
        <activity type="UNKNOWN" conf="40" state="unknown" tsMs="1784046903276"/>
        <radio op="vodafone IT" rat="LTE" q="13.30" rsrp="-106" sinr="2" rsrq="-10"/>
        <radio op="I TIM" rat="LTE" q="22.40" rsrp="-111" sinr="11" rsrq="-10"/>
      </extensions>
    </trkpt>
    <trkpt lat="45.5955122" lon="10.4424729">
      <ele>256.20001220703125</ele>
      <time>2026-07-14T18:35:36.548+02:00</time>
      <extensions>
        <activity type="STILL" conf="55" state="still" tsMs="1784046932857"/>
        <radio op="vodafone IT" rat="LTE" q="32.20" rsrp="-102" sinr="9" rsrq="-9"/>
        <radio op="I TIM" rat="LTE" q="32.40" rsrp="-107" sinr="13" rsrq="-8"/>
      </extensions>
    </trkpt>
    <trkpt lat="45.5954921" lon="10.4424856">
      <ele>256.20001220703125</ele>
      <time>2026-07-14T18:36:22.543+02:00</time>
      <extensions>
        <activity type="UNKNOWN" conf="40" state="unknown" tsMs="1784046981908"/>
        <radio op="vodafone IT" rat="LTE" q="18.00" rsrp="-105" sinr="4" rsrq="-9"/>
        <radio op="I TIM" rat="LTE" q="30.60" rsrp="-108" sinr="13" rsrq="-7"/>
      </extensions>
    </trkpt>
    <trkpt lat="45.5954642" lon="10.4424992">
      <ele>256.20001220703125</ele>
      <time>2026-07-14T18:37:15.65+02:00</time>
      <extensions>
        <activity type="ON_FOOT" conf="91" state="moving" tsMs="1784047035270"/>
        <radio op="vodafone IT" rat="LTE" q="11.90" rsrp="-108" sinr="2" rsrq="-15"/>
        <radio op="I TIM" rat="LTE" q="34.20" rsrp="-107" sinr="14" rsrq="-8"/>
      </extensions>
    </trkpt>
    <trkpt lat="45.5955157" lon="10.4424602">
      <ele>256.20001220703125</ele>
      <time>2026-07-14T18:37:55.83+02:00</time>
      <extensions>
        <activity type="ON_FOOT" conf="84" state="moving" tsMs="1784047072463"/>
        <radio op="vodafone IT" rat="LTE" q="9.50" rsrp="-106" sinr="0" rsrq="-10"/>
        <radio op="I TIM" rat="LTE" q="30.80" rsrp="-103" sinr="9" rsrq="-10"/>
      </extensions>
    </trkpt>
    <trkpt lat="45.5955012" lon="10.4424984">
      <ele>254.19653249413713</ele>
      <time>2026-07-14T18:38:55.229+02:00</time>
      <extensions>
        <activity type="UNKNOWN" conf="40" state="unknown" tsMs="1784047134081"/>
        <radio op="vodafone IT" rat="LTE" q="12.60" rsrp="-107" sinr="2" rsrq="-12"/>
        <radio op="I TIM" rat="LTE" q="16.20" rsrp="-107" sinr="4" rsrq="-8"/>
      </extensions>
    </trkpt>
    <trkpt lat="45.5954937" lon="10.442492">
      <ele>256.20001220703125</ele>
      <time>2026-07-14T18:39:23.84+02:00</time>
      <extensions>
        <activity type="UNKNOWN" conf="40" state="unknown" tsMs="1784047138247"/>
        <radio op="vodafone IT" rat="LTE" q="28.80" rsrp="-101" sinr="7" rsrq="-9"/>
        <radio op="I TIM" rat="LTE" q="39.10" rsrp="-102" sinr="12" rsrq="-7"/>
      </extensions>
    </trkpt>
    <trkpt lat="45.5955412" lon="10.4424688">
      <ele>256.20001220703125</ele>
      <time>2026-07-14T18:39:53.843+02:00</time>
      <extensions>
        <activity type="STILL" conf="36" state="still" tsMs="1784047193914"/>
        <radio op="vodafone IT" rat="LTE" q="80.00" rsrp="-93" sinr="22" rsrq="-7"/>
        <radio op="I TIM" rat="LTE" q="72.50" rsrp="-96" sinr="20" rsrq="-7"/>
      </extensions>
    </trkpt>
    <trkpt lat="45.5954724" lon="10.4424912">
      <ele>256.20001220703125</ele>
      <time>2026-07-14T18:40:26.435+02:00</time>
      <extensions>
        <activity type="UNKNOWN" conf="40" state="unknown" tsMs="1784047224704"/>
        <radio op="vodafone IT" rat="LTE" q="34.00" rsrp="-105" sinr="12" rsrq="-7"/>
        <radio op="I TIM" rat="LTE" q="37.80" rsrp="-104" sinr="13" rsrq="-10"/>
      </extensions>
    </trkpt>
    <trkpt lat="45.5956858" lon="10.4424117">
      <ele>256.20001220703125</ele>
      <time>2026-07-14T18:41:00.601+02:00</time>
      <extensions>
        <activity type="STILL" conf="59" state="still" tsMs="1784047258498"/>
        <radio op="vodafone IT" rat="LTE" q="25.20" rsrp="-107" sinr="9" rsrq="-11"/>
        <radio op="I TIM" rat="LTE" q="41.40" rsrp="-102" sinr="13" rsrq="-11"/>
      </extensions>
    </trkpt>
    <trkpt lat="45.595503" lon="10.4424636">
      <ele>256.29998779296875</ele>
      <time>2026-07-14T18:41:32.144+02:00</time>
      <extensions>
        <activity type="UNKNOWN" conf="40" state="unknown" tsMs="1784047286005"/>
        <radio op="vodafone IT" rat="LTE" q="48.00" rsrp="-101" sinr="15" rsrq="-8"/>
        <radio op="I TIM" rat="LTE" q="37.40" rsrp="-103" sinr="12" rsrq="-6"/>
      </extensions>
    </trkpt>
    <trkpt lat="45.5956906" lon="10.4423839">
      <ele>256.20001220703125</ele>
      <time>2026-07-14T18:42:07.769+02:00</time>
      <extensions>
        <activity type="ON_FOOT" conf="82" state="moving" tsMs="1784047322699"/>
        <radio op="vodafone IT" rat="LTE" q="11.00" rsrp="-114" sinr="5" rsrq="-11"/>
        <radio op="I TIM" rat="LTE" q="13.20" rsrp="-114" sinr="7" rsrq="-9"/>
      </extensions>
    </trkpt>
    <trkpt lat="45.5956758" lon="10.4424007">
      <ele>256.20001220703125</ele>
      <time>2026-07-14T18:42:38.573+02:00</time>
      <extensions>
        <activity type="ON_FOOT" conf="86" state="moving" tsMs="1784047354920"/>
        <radio op="vodafone IT" rat="LTE" q="19.60" rsrp="-111" sinr="9" rsrq="-8"/>
        <radio op="I TIM" rat="LTE" q="19.60" rsrp="-111" sinr="9" rsrq="-9"/>
      </extensions>
    </trkpt>
    <trkpt lat="45.5957078" lon="10.4423976">
      <ele>256.20001220703125</ele>
      <time>2026-07-14T18:43:09.485+02:00</time>
      <extensions>
        <activity type="UNKNOWN" conf="40" state="unknown" tsMs="1784047403154"/>
        <radio op="vodafone IT" rat="LTE" q="12.80" rsrp="-109" sinr="3" rsrq="-11"/>
        <radio op="I TIM" rat="LTE" q="15.60" rsrp="-113" sinr="8" rsrq="-10"/>
      </extensions>
    </trkpt>
    <trkpt lat="45.5956881" lon="10.4423949">
      <ele>256.20001220703125</ele>
      <time>2026-07-14T18:43:46.663+02:00</time>
      <extensions>
        <activity type="STILL" conf="36" state="still" tsMs="1784047422690"/>
        <radio op="vodafone IT" rat="LTE" rsrp="-111" rsrq="-13"/>
        <radio op="I TIM" rat="LTE" q="13.00" rsrp="-115" sinr="8" rsrq="-11"/>
      </extensions>
    </trkpt>
    <trkpt lat="45.5956212" lon="10.442387">
      <ele>256.20001220703125</ele>
      <time>2026-07-14T18:44:45.432+02:00</time>
      <extensions>
        <activity type="STILL" conf="97" state="still" tsMs="1784047480084"/>
        <radio op="vodafone IT" rat="LTE" q="18.20" rsrp="-111" sinr="8" rsrq="-8"/>
        <radio op="I TIM" rat="LTE" q="30.60" rsrp="-108" sinr="13" rsrq="-9"/>
      </extensions>
    </trkpt>
    <trkpt lat="45.5957057" lon="10.4423954">
      <ele>256.20001220703125</ele>
      <time>2026-07-14T18:45:19.682+02:00</time>
      <extensions>
        <activity type="STILL" conf="99" state="still" tsMs="1784047518102"/>
        <radio op="vodafone IT" rat="LTE" q="25.60" rsrp="-109" sinr="11" rsrq="-7"/>
        <radio op="I TIM" rat="LTE" q="22.10" rsrp="-108" sinr="8" rsrq="-6"/>
      </extensions>
    </trkpt>
    <trkpt lat="45.5954588" lon="10.4424878">
      <ele>256.29998779296875</ele>
      <time>2026-07-14T18:49:05.589+02:00</time>
      <extensions>
        <activity type="ON_FOOT" conf="81" state="moving" tsMs="1784047741107"/>
        <radio op="vodafone IT" rat="LTE" q="32.30" rsrp="-108" sinr="14" rsrq="-6"/>
        <radio op="I TIM" rat="LTE" q="30.60" rsrp="-107" sinr="12" rsrq="-12"/>
      </extensions>
    </trkpt>
    <trkpt lat="45.5954975" lon="10.4424801">
      <ele>256.20001220703125</ele>
      <time>2026-07-14T18:49:40.658+02:00</time>
      <extensions>
        <activity type="UNKNOWN" conf="40" state="unknown" tsMs="1784047778547"/>
        <radio op="vodafone IT" rat="LTE" q="34.20" rsrp="-107" sinr="14" rsrq="-8"/>
        <radio op="I TIM" rat="LTE" q="23.80" rsrp="-108" sinr="9" rsrq="-13"/>
      </extensions>
    </trkpt>
    <trkpt lat="45.5954589" lon="10.4425002">
      <ele>256.20001220703125</ele>
      <time>2026-07-14T18:50:11.966+02:00</time>
      <extensions>
        <activity type="UNKNOWN" conf="40" state="unknown" tsMs="1784047806140"/>
        <radio op="vodafone IT" rat="LTE" q="37.40" rsrp="-103" sinr="12" rsrq="-8"/>
        <radio op="I TIM" rat="LTE" q="40.00" rsrp="-100" sinr="11" rsrq="-8"/>
      </extensions>
    </trkpt>
    <trkpt lat="45.5954459" lon="10.4425067">
      <ele>256.20001220703125</ele>
      <time>2026-07-14T18:50:49.836+02:00</time>
      <extensions>
        <activity type="UNKNOWN" conf="40" state="unknown" tsMs="1784047848107"/>
        <radio op="vodafone IT" rat="LTE" q="55.00" rsrp="-100" sinr="17" rsrq="-8"/>
        <radio op="I TIM" rat="LTE" q="34.50" rsrp="-102" sinr="10" rsrq="-11"/>
      </extensions>
    </trkpt>
    <trkpt lat="45.5954533" lon="10.4424969">
      <ele>256.20001220703125</ele>
      <time>2026-07-14T18:51:25.004+02:00</time>
      <extensions>
        <activity type="STILL" conf="99" state="still" tsMs="1784047880558"/>
        <radio op="vodafone IT" rat="LTE" q="37.80" rsrp="-104" sinr="13" rsrq="-12"/>
        <radio op="I TIM" rat="LTE" q="30.60" rsrp="-108" sinr="13" rsrq="-7"/>
      </extensions>
    </trkpt>
    <trkpt lat="45.5954549" lon="10.4425024">
      <ele>256.20001220703125</ele>
      <time>2026-07-14T18:51:59.069+02:00</time>
      <extensions>
        <activity type="STILL" conf="96" state="still" tsMs="1784047917809"/>
        <radio op="vodafone IT" rat="LTE" q="39.60" rsrp="-103" sinr="13" rsrq="-8"/>
        <radio op="I TIM" rat="LTE" q="28.00" rsrp="-105" sinr="9" rsrq="-8"/>
      </extensions>
    </trkpt>
    <trkpt lat="45.5955598" lon="10.4424426">
      <ele>256.20001220703125</ele>
      <time>2026-07-14T18:56:19.89+02:00</time>
      <extensions>
        <activity type="UNKNOWN" conf="40" state="unknown" tsMs="1784048179395"/>
        <radio op="vodafone IT" rat="LTE" q="12.00" rsrp="-113" sinr="5" rsrq="-10"/>
        <radio op="I TIM" rat="LTE" q="14.40" rsrp="-109" sinr="4" rsrq="-8"/>
      </extensions>
    </trkpt>
    <trkpt lat="45.5955067" lon="10.4424599">
      <ele>256.29998779296875</ele>
      <time>2026-07-14T18:56:51.289+02:00</time>
      <extensions>
        <activity type="UNKNOWN" conf="40" state="unknown" tsMs="1784048210672"/>
        <radio op="vodafone IT" rat="LTE" q="55.20" rsrp="-101" sinr="18" rsrq="-11"/>
        <radio op="I TIM" rat="LTE" q="20.00" rsrp="-100" sinr="3" rsrq="-12"/>
      </extensions>
    </trkpt>
    <trkpt lat="45.5954886" lon="10.4424709">
      <ele>256.29998779296875</ele>
      <time>2026-07-14T18:57:22.097+02:00</time>
      <extensions>
        <activity type="UNKNOWN" conf="40" state="unknown" tsMs="1784048241686"/>
        <radio op="vodafone IT" rat="LTE" q="27.50" rsrp="-100" sinr="6" rsrq="-10"/>
        <radio op="I TIM" rat="LTE" q="33.60" rsrp="-97" sinr="7" rsrq="-10"/>
      </extensions>
    </trkpt>
    <trkpt lat="45.5955273" lon="10.4424721">
      <ele>256.20001220703125</ele>
      <time>2026-07-14T18:57:58.308+02:00</time>
      <extensions>
        <activity type="UNKNOWN" conf="40" state="unknown" tsMs="1784048274911"/>
        <radio op="vodafone IT" rat="LTE" q="24.00" rsrp="-109" sinr="10" rsrq="-8"/>
        <radio op="I TIM" rat="LTE" q="9.00" rsrp="-110" sinr="1" rsrq="-9"/>
      </extensions>
    </trkpt>
    <trkpt lat="45.595496" lon="10.4424852">
      <ele>256.20001220703125</ele>
      <time>2026-07-14T18:58:33.499+02:00</time>
      <extensions>
        <activity type="ON_FOOT" conf="86" state="moving" tsMs="1784048309005"/>
        <radio op="vodafone IT" rat="LTE" q="15.40" rsrp="-111" sinr="6" rsrq="-11"/>
        <radio op="I TIM" rat="LTE" q="32.40" rsrp="-107" sinr="13" rsrq="-8"/>
      </extensions>
    </trkpt>
    <trkpt lat="45.5954316" lon="10.4426476">
      <ele>258.04864314358036</ele>
      <time>2026-07-14T18:59:28.284+02:00</time>
      <extensions>
        <activity type="UNKNOWN" conf="40" state="unknown" tsMs="1784048366941"/>
        <radio op="vodafone IT" rat="LTE" q="21.60" rsrp="-107" sinr="7" rsrq="-9"/>
        <radio op="I TIM" rat="LTE" q="20.70" rsrp="-102" sinr="4" rsrq="-8"/>
      </extensions>
    </trkpt>
    <trkpt lat="45.5955325" lon="10.4424595">
      <ele>256.20001220703125</ele>
      <time>2026-07-14T19:00:10.188+02:00</time>
      <extensions>
        <activity type="ON_FOOT" conf="90" state="moving" tsMs="1784048405028"/>
        <radio op="vodafone IT" rat="LTE" q="28.00" rsrp="-105" sinr="9" rsrq="-8"/>
        <radio op="I TIM" rat="LTE" q="22.00" rsrp="-105" sinr="6" rsrq="-8"/>
      </extensions>
    </trkpt>
    <trkpt lat="45.5954452" lon="10.4425202">
      <ele>256.20001220703125</ele>
      <time>2026-07-14T19:00:45.735+02:00</time>
      <extensions>
        <activity type="ON_FOOT" conf="92" state="moving" tsMs="1784048443495"/>
        <radio op="vodafone IT" rat="LTE" q="34.00" rsrp="-105" sinr="12" rsrq="-11"/>
        <radio op="I TIM" rat="LTE" q="17.10" rsrp="-106" sinr="4" rsrq="-9"/>
      </extensions>
    </trkpt>
    <trkpt lat="45.5954396" lon="10.4425601">
      <ele>258.0147002682515</ele>
      <time>2026-07-14T19:01:45.944+02:00</time>
      <extensions>
        <activity type="UNKNOWN" conf="40" state="unknown" tsMs="1784048505481"/>
        <radio op="vodafone IT" rat="LTE" q="60.00" rsrp="-101" sinr="23" rsrq="-9"/>
        <radio op="I TIM" rat="LTE" q="45.60" rsrp="-101" sinr="14" rsrq="-8"/>
      </extensions>
    </trkpt>
    <trkpt lat="45.5954225" lon="10.4426062">
      <ele>256.20001220703125</ele>
      <time>2026-07-14T19:02:24.753+02:00</time>
      <extensions>
        <activity type="UNKNOWN" conf="40" state="unknown" tsMs="1784048544118"/>
        <radio op="vodafone IT" rat="LTE" q="34.50" rsrp="-102" sinr="10" rsrq="-6"/>
        <radio op="I TIM" rat="LTE" q="56.70" rsrp="-98" sinr="16" rsrq="-7"/>
      </extensions>
    </trkpt>
    <trkpt lat="45.5954989" lon="10.4425222">
      <ele>258.23990199741934</ele>
      <time>2026-07-14T19:02:56.056+02:00</time>
      <extensions>
        <activity type="STILL" conf="62" state="still" tsMs="1784048572603"/>
        <radio op="vodafone IT" rat="LTE" q="55.10" rsrp="-96" sinr="14" rsrq="-11"/>
        <radio op="I TIM" rat="LTE" q="53.20" rsrp="-97" sinr="14" rsrq="-9"/>
      </extensions>
    </trkpt>
    <trkpt lat="45.5954477" lon="10.4426212">
      <ele>256.20001220703125</ele>
      <time>2026-07-14T19:03:27.185+02:00</time>
      <extensions>
        <activity type="UNKNOWN" conf="40" state="unknown" tsMs="1784048601408"/>
        <radio op="vodafone IT" rat="LTE" q="52.80" rsrp="-101" sinr="17" rsrq="-7"/>
        <radio op="I TIM" rat="LTE" q="51.30" rsrp="-98" sinr="14" rsrq="-13"/>
      </extensions>
    </trkpt>
    <trkpt lat="45.5951016" lon="10.4422965">
      <ele>256.20001220703125</ele>
      <time>2026-07-14T19:04:01.939+02:00</time>
      <extensions>
        <activity type="ON_FOOT" conf="96" state="moving" tsMs="1784048637965"/>
        <radio op="vodafone IT" rat="LTE" q="90.00" rsrp="-89" sinr="20" rsrq="-11"/>
        <radio op="I TIM" rat="LTE" q="81.90" rsrp="-86" sinr="16" rsrq="-10"/>
      </extensions>
    </trkpt>
    <trkpt lat="45.5950428" lon="10.4424179">
      <ele>256.20001220703125</ele>
      <time>2026-07-14T19:05:11.433+02:00</time>
      <extensions>
        <activity type="UNKNOWN" conf="40" state="unknown" tsMs="1784048704102"/>
        <radio op="vodafone IT" rat="LTE" q="84.00" rsrp="-90" sinr="19" rsrq="-6"/>
        <radio op="I TIM" rat="LTE" q="64.60" rsrp="-91" sinr="14" rsrq="-8"/>
      </extensions>
    </trkpt>
    <trkpt lat="45.595013" lon="10.442403">
      <ele>256.20001220703125</ele>
      <time>2026-07-14T19:05:53.433+02:00</time>
      <extensions>
        <activity type="UNKNOWN" conf="40" state="unknown" tsMs="1784048748803"/>
        <radio op="vodafone IT" rat="LTE" q="43.50" rsrp="-96" sinr="10" rsrq="-10"/>
        <radio op="I TIM" rat="LTE" q="54.00" rsrp="-98" sinr="15" rsrq="-11"/>
      </extensions>
    </trkpt>
    <trkpt lat="45.5950332" lon="10.4423892">
      <ele>256.20001220703125</ele>
      <time>2026-07-14T19:06:40.433+02:00</time>
      <extensions>
        <activity type="UNKNOWN" conf="40" state="unknown" tsMs="1784048792342"/>
        <radio op="vodafone IT" rat="LTE" q="38.40" rsrp="-93" sinr="7" rsrq="-11"/>
        <radio op="I TIM" rat="LTE" q="46.20" rsrp="-92" sinr="9" rsrq="-11"/>
      </extensions>
    </trkpt>
    <trkpt lat="45.595127" lon="10.4439293">
      <ele>256.1000061035156</ele>
      <time>2026-07-14T19:09:02.668+02:00</time>
      <extensions>
        <activity type="UNKNOWN" conf="40" state="unknown" tsMs="1784048941127"/>
        <radio op="vodafone IT" rat="LTE" q="26.40" rsrp="-103" sinr="7" rsrq="-8"/>
        <radio op="I TIM" rat="LTE" q="23.00" rsrp="-102" sinr="5" rsrq="-11"/>
      </extensions>
    </trkpt>
    <trkpt lat="45.5993409" lon="10.4502466">
      <ele>257.9000244140625</ele>
      <time>2026-07-14T19:10:07.657+02:00</time>
      <extensions>
        <activity type="UNKNOWN" conf="40" state="unknown" tsMs="1784049002134"/>
        <radio op="vodafone IT" rat="LTE" q="18.00" rsrp="-105" sinr="4" rsrq="-9"/>
        <radio op="I TIM" rat="LTE" q="28.80" rsrp="-101" sinr="7" rsrq="-11"/>
      </extensions>
    </trkpt>
    <trkpt lat="45.5998078" lon="10.4510677">
      <ele>257.9000244140625</ele>
      <time>2026-07-14T19:10:14.433+02:00</time>
      <extensions>
        <activity type="UNKNOWN" conf="40" state="unknown" tsMs="1784049012837"/>
        <radio op="vodafone IT" rat="LTE" q="44.00" rsrp="-103" sinr="15" rsrq="-11"/>
        <radio op="I TIM" rat="LTE" q="15.00" rsrp="-100" sinr="1" rsrq="-7"/>
      </extensions>
    </trkpt>
    <trkpt lat="45.6008434" lon="10.4528015">
      <ele>259.0</ele>
      <time>2026-07-14T19:10:49.083+02:00</time>
      <extensions>
        <activity type="UNKNOWN" conf="40" state="unknown" tsMs="1784049045317"/>
        <radio op="vodafone IT" rat="LTE" q="42.00" rsrp="-104" sinr="15" rsrq="-10"/>
        <radio op="I TIM" rat="LTE" q="36.00" rsrp="-101" sinr="10" rsrq="-12"/>
      </extensions>
    </trkpt>
    <trkpt lat="45.6021991" lon="10.4533251">
      <ele>259.0</ele>
      <time>2026-07-14T19:12:01.403+02:00</time>
      <extensions>
        <activity type="UNKNOWN" conf="40" state="unknown" tsMs="1784049114485"/>
        <radio op="vodafone IT" rat="LTE" q="31.50" rsrp="-104" sinr="10" rsrq="-12"/>
        <radio op="I TIM" rat="LTE" rsrp="-101" rsrq="-13"/>
      </extensions>
    </trkpt>
    <trkpt lat="45.602078" lon="10.453138">
      <ele>259.0</ele>
      <time>2026-07-14T19:12:07.435+02:00</time>
      <extensions>
        <activity type="UNKNOWN" conf="40" state="unknown" tsMs="1784049114485"/>
        <radio op="vodafone IT" rat="LTE" q="31.50" rsrp="-104" sinr="10" rsrq="-7"/>
        <radio op="I TIM" rat="LTE" rsrp="-102" rsrq="-12"/>
      </extensions>
    </trkpt>
    <trkpt lat="45.602078" lon="10.453138">
      <ele>261.6000061035156</ele>
      <time>2026-07-14T19:12:43.663+02:00</time>
      <extensions>
        <activity type="ON_FOOT" conf="96" state="moving" tsMs="1784049159506"/>
        <radio op="vodafone IT" rat="LTE" rsrp="-112" rsrq="-11"/>
        <radio op="I TIM" rat="LTE" q="23.40" rsrp="-107" sinr="8" rsrq="-13"/>
      </extensions>
    </trkpt>
    <trkpt lat="45.6025618" lon="10.4536913">
      <ele>261.6000061035156</ele>
      <time>2026-07-14T19:13:21.174+02:00</time>
      <extensions>
        <activity type="ON_FOOT" conf="95" state="moving" tsMs="1784049197134"/>
        <radio op="vodafone IT" rat="LTE" q="11.40" rsrp="-106" sinr="1" rsrq="-13"/>
        <radio op="I TIM" rat="LTE" q="2.70" rsrp="-122" sinr="4" rsrq="-13"/>
      </extensions>
    </trkpt>
    <trkpt lat="45.6025564" lon="10.4536803">
      <ele>263.76777420334986</ele>
      <time>2026-07-14T19:14:06.521+02:00</time>
      <extensions>
        <activity type="UNKNOWN" conf="40" state="unknown" tsMs="1784049223909"/>
        <radio op="vodafone IT" rat="LTE" q="3.00" rsrp="-119" sinr="0" rsrq="-14"/>
        <radio op="I TIM" rat="LTE" q="6.80" rsrp="-121" sinr="12" rsrq="-13"/>
      </extensions>
    </trkpt>
    <trkpt lat="45.602554" lon="10.4536732">
      <ele>261.6000061035156</ele>
      <time>2026-07-14T19:14:12.579+02:00</time>
      <extensions>
        <activity type="UNKNOWN" conf="40" state="unknown" tsMs="1784049252154"/>
        <radio op="vodafone IT" rat="LTE" q="15.40" rsrp="-111" sinr="6" rsrq="-13"/>
        <radio op="I TIM" rat="LTE" q="22.50" rsrp="-110" sinr="10" rsrq="-9"/>
      </extensions>
    </trkpt>
    <trkpt lat="45.6025509" lon="10.4536818">
      <ele>261.6000061035156</ele>
      <time>2026-07-14T19:14:48.255+02:00</time>
      <extensions>
        <activity type="STILL" conf="51" state="still" tsMs="1784049285671"/>
        <radio op="vodafone IT" rat="LTE" rsrp="-114" rsrq="-14"/>
        <radio op="I TIM" rat="LTE" rsrp="-111" rsrq="-12"/>
      </extensions>
    </trkpt>
    <trkpt lat="45.6025511" lon="10.4536838">
      <ele>261.6000061035156</ele>
      <time>2026-07-14T19:15:19.753+02:00</time>
      <extensions>
        <activity type="UNKNOWN" conf="40" state="unknown" tsMs="1784049318832"/>
        <radio op="vodafone IT" rat="LTE" q="12.60" rsrp="-107" sinr="2" rsrq="-10"/>
        <radio op="I TIM" rat="LTE" q="3.50" rsrp="-118" sinr="0" rsrq="-11"/>
      </extensions>
    </trkpt>
    <trkpt lat="45.6025502" lon="10.45368">
      <ele>261.6000061035156</ele>
      <time>2026-07-14T19:15:51.294+02:00</time>
      <extensions>
        <activity type="STILL" conf="53" state="still" tsMs="1784049350287"/>
        <radio op="vodafone IT" rat="LTE" q="25.30" rsrp="-102" sinr="6" rsrq="-13"/>
        <radio op="I TIM" rat="LTE" rsrp="-117" rsrq="-15"/>
      </extensions>
    </trkpt>
    <trkpt lat="45.6025496" lon="10.4536808">
      <ele>261.6000061035156</ele>
      <time>2026-07-14T19:16:22.838+02:00</time>
      <extensions>
        <activity type="UNKNOWN" conf="40" state="unknown" tsMs="1784049381820"/>
        <radio op="vodafone IT" rat="LTE" q="16.50" rsrp="-110" sinr="6" rsrq="-12"/>
        <radio op="I TIM" rat="LTE" q="3.00" rsrp="-119" sinr="0" rsrq="-14"/>
      </extensions>
    </trkpt>
  </trkseg></trk>
</gpx>
