<?xml version="1.0" encoding="UTF-8"?>
<gpx version="1.1" creator="CellGPX" xmlns="http://www.topografix.com/GPX/1/1">
  <trk><name>CellGPX</name><trkseg>
    <trkpt lat="45.6025563" lon="10.453653">
      <ele>261.8000183105469</ele>
      <time>2026-06-01T10:58:07.923+02:00</time>
      <extensions>
        <activity type="ON_FOOT" conf="83" state="moving" tsMs="1780304284676"/>
        <radio op="vodafone IT" rat="LTE" q="12.00" rsrp="-113" sinr="5" rsrq="-9"/>
        <radio op="I TIM" rat="LTE" q="0.50" rsrp="-124" sinr="0" rsrq="-10"/>
      </extensions>
    </trkpt>
    <trkpt lat="45.6025563" lon="10.4536527">
      <ele>261.8000183105469</ele>
      <time>2026-06-01T10:58:26.88+02:00</time>
      <extensions>
        <activity type="UNKNOWN" conf="40" state="unknown" tsMs="1780304290732"/>
        <radio op="vodafone IT" rat="LTE" q="2.10" rsrp="-122" sinr="2" rsrq="-11"/>
        <radio op="I TIM" rat="LTE" q="3.00" rsrp="-120" sinr="1" rsrq="-11"/>
      </extensions>
    </trkpt>
    <trkpt lat="45.6025577" lon="10.4536516">
      <ele>261.8000183105469</ele>
      <time>2026-06-01T10:58:34.275+02:00</time>
      <extensions>
        <activity type="UNKNOWN" conf="40" state="unknown" tsMs="1780304316577"/>
        <radio op="vodafone IT" rat="LTE" q="8.00" rsrp="-117" sinr="5" rsrq="-10"/>
        <radio op="I TIM" rat="LTE" q="9.90" rsrp="-114" sinr="4" rsrq="-12"/>
      </extensions>
    </trkpt>
    <trkpt lat="45.6025619" lon="10.4536491">
      <ele>261.8000183105469</ele>
      <time>2026-06-01T10:58:48.841+02:00</time>
      <extensions>
        <activity type="UNKNOWN" conf="40" state="unknown" tsMs="1780304316577"/>
        <radio op="vodafone IT" rat="LTE" q="3.60" rsrp="-121" sinr="4" rsrq="-13"/>
        <radio op="I TIM" rat="LTE" q="9.60" rsrp="-117" sinr="7" rsrq="-11"/>
      </extensions>
    </trkpt>
    <trkpt lat="45.6025583" lon="10.4536464">
      <ele>261.8000183105469</ele>
      <time>2026-06-01T10:58:56.121+02:00</time>
      <extensions>
        <activity type="STILL" conf="100" state="still" tsMs="1780304321965"/>
        <radio op="vodafone IT" rat="LTE" q="5.40" rsrp="-119" sinr="4" rsrq="-12"/>
        <radio op="I TIM" rat="LTE" rsrp="-115" rsrq="-10"/>
      </extensions>
    </trkpt>
    <trkpt lat="45.6025583" lon="10.453646">
      <ele>261.8000183105469</ele>
      <time>2026-06-01T10:59:03.51+02:00</time>
      <extensions>
        <activity type="UNKNOWN" conf="40" state="unknown" tsMs="1780304345949"/>
        <radio op="vodafone IT" rat="LTE" q="3.50" rsrp="-118" sinr="0" rsrq="-10"/>
        <radio op="I TIM" rat="LTE" q="3.50" rsrp="-118" sinr="0" rsrq="-11"/>
      </extensions>
    </trkpt>
    <trkpt lat="45.6025635" lon="10.4536462">
      <ele>261.8000183105469</ele>
      <time>2026-06-01T10:59:18.188+02:00</time>
      <extensions>
        <activity type="UNKNOWN" conf="40" state="unknown" tsMs="1780304345949"/>
        <radio op="vodafone IT" rat="LTE" rsrp="-121" rsrq="-13"/>
        <radio op="I TIM" rat="LTE" rsrp="-120" rsrq="-11"/>
      </extensions>
    </trkpt>
    <trkpt lat="45.602563" lon="10.4536371">
      <ele>261.8000183105469</ele>
      <time>2026-06-01T10:59:28.531+02:00</time>
      <extensions>
        <activity type="UNKNOWN" conf="40" state="unknown" tsMs="1780304351257"/>
        <radio op="vodafone IT" rat="LTE" q="3.50" rsrp="-120" sinr="2" rsrq="-13"/>
        <radio op="I TIM" rat="LTE" q="6.00" rsrp="-119" sinr="5" rsrq="-12"/>
      </extensions>
    </trkpt>
    <trkpt lat="45.6025594" lon="10.4536326">
      <ele>261.8000183105469</ele>
      <time>2026-06-01T10:59:39.026+02:00</time>
      <extensions>
        <activity type="UNKNOWN" conf="40" state="unknown" tsMs="1780304375373"/>
        <radio op="vodafone IT" rat="LTE" rsrp="-120" rsrq="-12"/>
        <radio op="I TIM" rat="LTE" q="8.00" rsrp="-117" sinr="5" rsrq="-10"/>
      </extensions>
    </trkpt>
    <trkpt lat="45.6025553" lon="10.4536359">
      <ele>261.8000183105469</ele>
      <time>2026-06-01T10:59:47.535+02:00</time>
      <extensions>
        <activity type="UNKNOWN" conf="40" state="unknown" tsMs="1780304375373"/>
        <radio op="vodafone IT" rat="LTE" q="6.60" rsrp="-114" sinr="1" rsrq="-11"/>
        <radio op="I TIM" rat="LTE" rsrp="-115" rsrq="-11"/>
      </extensions>
    </trkpt>
    <trkpt lat="45.6025544" lon="10.4536459">
      <ele>261.8000183105469</ele>
      <time>2026-06-01T10:59:57.931+02:00</time>
      <extensions>
        <activity type="UNKNOWN" conf="40" state="unknown" tsMs="1780304399279"/>
        <radio op="vodafone IT" rat="LTE" rsrp="-116" rsrq="-11"/>
        <radio op="I TIM" rat="LTE" q="8.80" rsrp="-114" sinr="3" rsrq="-10"/>
      </extensions>
    </trkpt>
    <trkpt lat="45.6025545" lon="10.4536471">
      <ele>261.8000183105469</ele>
      <time>2026-06-01T11:00:09.607+02:00</time>
      <extensions>
        <activity type="UNKNOWN" conf="40" state="unknown" tsMs="1780304404637"/>
        <radio op="vodafone IT" rat="LTE" q="7.70" rsrp="-118" sinr="6" rsrq="-13"/>
        <radio op="I TIM" rat="LTE" q="8.10" rsrp="-116" sinr="4" rsrq="-10"/>
      </extensions>
    </trkpt>
    <trkpt lat="45.602559" lon="10.4536476">
      <ele>261.8000183105469</ele>
      <time>2026-06-01T11:00:16.887+02:00</time>
      <extensions>
        <activity type="UNKNOWN" conf="40" state="unknown" tsMs="1780304404637"/>
        <radio op="vodafone IT" rat="LTE" q="16.50" rsrp="-114" sinr="10" rsrq="-11"/>
        <radio op="I TIM" rat="LTE" q="9.90" rsrp="-114" sinr="4" rsrq="-12"/>
      </extensions>
    </trkpt>
    <trkpt lat="45.6025573" lon="10.4536534">
      <ele>261.8000183105469</ele>
      <time>2026-06-01T11:00:24.169+02:00</time>
      <extensions>
        <activity type="UNKNOWN" conf="40" state="unknown" tsMs="1780304428561"/>
        <radio op="vodafone IT" rat="LTE" q="11.00" rsrp="-115" sinr="6" rsrq="-8"/>
        <radio op="I TIM" rat="LTE" q="11.70" rsrp="-116" sinr="8" rsrq="-12"/>
      </extensions>
    </trkpt>
    <trkpt lat="45.6025554" lon="10.4536632">
      <ele>261.8000183105469</ele>
      <time>2026-06-01T11:00:38.847+02:00</time>
      <extensions>
        <activity type="UNKNOWN" conf="40" state="unknown" tsMs="1780304433929"/>
        <radio op="vodafone IT" rat="LTE" q="15.40" rsrp="-114" sinr="9" rsrq="-11"/>
        <radio op="I TIM" rat="LTE" q="18.20" rsrp="-111" sinr="8" rsrq="-10"/>
      </extensions>
    </trkpt>
    <trkpt lat="45.602556" lon="10.4536654">
      <ele>261.8000183105469</ele>
      <time>2026-06-01T11:00:49.008+02:00</time>
      <extensions>
        <activity type="UNKNOWN" conf="40" state="unknown" tsMs="1780304433929"/>
        <radio op="vodafone IT" rat="LTE" q="13.20" rsrp="-114" sinr="7" rsrq="-11"/>
        <radio op="I TIM" rat="LTE" rsrp="-113" rsrq="-10"/>
      </extensions>
    </trkpt>
    <trkpt lat="45.6025551" lon="10.4536661">
      <ele>261.8000183105469</ele>
      <time>2026-06-01T11:00:53.635+02:00</time>
      <extensions>
        <activity type="STILL" conf="41" state="still" tsMs="1780304457949"/>
        <radio op="vodafone IT" rat="LTE" q="21.60" rsrp="-113" sinr="13" rsrq="-12"/>
        <radio op="I TIM" rat="LTE" q="3.50" rsrp="-118" sinr="0" rsrq="-11"/>
      </extensions>
    </trkpt>
    <trkpt lat="45.6025508" lon="10.4536646">
      <ele>261.8000183105469</ele>
      <time>2026-06-01T11:01:04.034+02:00</time>
      <extensions>
        <activity type="UNKNOWN" conf="40" state="unknown" tsMs="1780304463329"/>
        <radio op="vodafone IT" rat="LTE" q="9.00" rsrp="-115" sinr="4" rsrq="-10"/>
        <radio op="I TIM" rat="LTE" q="19.50" rsrp="-112" sinr="10" rsrq="-7"/>
      </extensions>
    </trkpt>
    <trkpt lat="45.6025512" lon="10.4536622">
      <ele>261.8000183105469</ele>
      <time>2026-06-01T11:01:11.361+02:00</time>
      <extensions>
        <activity type="UNKNOWN" conf="40" state="unknown" tsMs="1780304463329"/>
        <radio op="vodafone IT" rat="LTE" q="22.00" rsrp="-114" sinr="15" rsrq="-11"/>
        <radio op="I TIM" rat="LTE" q="17.60" rsrp="-114" sinr="11" rsrq="-10"/>
      </extensions>
    </trkpt>
    <trkpt lat="45.6025583" lon="10.4536641">
      <ele>261.8000183105469</ele>
      <time>2026-06-01T11:01:30.158+02:00</time>
      <extensions>
        <activity type="STILL" conf="100" state="still" tsMs="1780304487238"/>
        <radio op="vodafone IT" rat="LTE" q="7.20" rsrp="-117" sinr="4" rsrq="-11"/>
        <radio op="I TIM" rat="LTE" q="18.70" rsrp="-114" sinr="12" rsrq="-10"/>
      </extensions>
    </trkpt>
    <trkpt lat="45.6025979" lon="10.4536832">
      <ele>261.8000183105469</ele>
      <time>2026-06-01T11:01:37.438+02:00</time>
      <extensions>
        <activity type="STILL" conf="38" state="still" tsMs="1780304492586"/>
        <radio op="vodafone IT" rat="LTE" q="12.00" rsrp="-115" sinr="7" rsrq="-11"/>
        <radio op="I TIM" rat="LTE" q="24.70" rsrp="-112" sinr="14" rsrq="-8"/>
      </extensions>
    </trkpt>
    <trkpt lat="45.6025648" lon="10.4537018">
      <ele>261.8000183105469</ele>
      <time>2026-06-01T11:01:44.829+02:00</time>
      <extensions>
        <activity type="STILL" conf="38" state="still" tsMs="1780304492586"/>
        <radio op="vodafone IT" rat="LTE" rsrp="-114" rsrq="-11"/>
        <radio op="I TIM" rat="LTE" q="17.60" rsrp="-114" sinr="11" rsrq="-9"/>
      </extensions>
    </trkpt>
    <trkpt lat="45.602552" lon="10.4536692">
      <ele>261.8000183105469</ele>
      <time>2026-06-01T11:02:00.683+02:00</time>
      <extensions>
        <activity type="UNKNOWN" conf="40" state="unknown" tsMs="1780304516532"/>
        <radio op="vodafone IT" rat="LTE" q="12.00" rsrp="-117" sinr="10" rsrq="-11"/>
        <radio op="I TIM" rat="LTE" q="16.50" rsrp="-110" sinr="6" rsrq="-10"/>
      </extensions>
    </trkpt>
    <trkpt lat="45.6025527" lon="10.4536725">
      <ele>261.8000183105469</ele>
      <time>2026-06-01T11:02:09.686+02:00</time>
      <extensions>
        <activity type="UNKNOWN" conf="40" state="unknown" tsMs="1780304521919"/>
        <radio op="vodafone IT" rat="LTE" q="3.00" rsrp="-120" sinr="1" rsrq="-12"/>
        <radio op="I TIM" rat="LTE" q="5.00" rsrp="-115" sinr="0" rsrq="-13"/>
      </extensions>
    </trkpt>
    <trkpt lat="45.6025516" lon="10.4536641">
      <ele>261.8000183105469</ele>
      <time>2026-06-01T11:02:21.458+02:00</time>
      <extensions>
        <activity type="UNKNOWN" conf="40" state="unknown" tsMs="1780304521919"/>
        <radio op="vodafone IT" rat="LTE" q="4.00" rsrp="-117" sinr="0" rsrq="-13"/>
        <radio op="I TIM" rat="LTE" rsrp="-117" rsrq="-13"/>
      </extensions>
    </trkpt>
    <trkpt lat="45.6025449" lon="10.4536723">
      <ele>261.8000183105469</ele>
      <time>2026-06-01T11:02:31.489+02:00</time>
      <extensions>
        <activity type="UNKNOWN" conf="40" state="unknown" tsMs="1780304545912"/>
        <radio op="vodafone IT" rat="LTE" q="13.00" rsrp="-112" sinr="5" rsrq="-13"/>
        <radio op="I TIM" rat="LTE" q="7.20" rsrp="-113" sinr="1" rsrq="-13"/>
      </extensions>
    </trkpt>
    <trkpt lat="45.6025403" lon="10.4536841">
      <ele>261.8000183105469</ele>
      <time>2026-06-01T11:02:41.304+02:00</time>
      <extensions>
        <activity type="UNKNOWN" conf="40" state="unknown" tsMs="1780304551275"/>
        <radio op="vodafone IT" rat="LTE" rsrp="-108" rsrq="-15"/>
        <radio op="I TIM" rat="LTE" rsrp="-115" rsrq="-14"/>
      </extensions>
    </trkpt>
    <trkpt lat="45.6025354" lon="10.4536824">
      <ele>261.8000183105469</ele>
      <time>2026-06-01T11:02:51.226+02:00</time>
      <extensions>
        <activity type="UNKNOWN" conf="40" state="unknown" tsMs="1780304556469"/>
        <radio op="vodafone IT" rat="LTE" rsrp="-110" rsrq="-13"/>
        <radio op="I TIM" rat="LTE" q="13.60" rsrp="-108" sinr="3" rsrq="-11"/>
      </extensions>
    </trkpt>
    <trkpt lat="45.60253" lon="10.4536873">
      <ele>261.8000183105469</ele>
      <time>2026-06-01T11:02:57.978+02:00</time>
      <extensions>
        <activity type="UNKNOWN" conf="40" state="unknown" tsMs="1780304580383"/>
        <radio op="vodafone IT" rat="LTE" q="12.00" rsrp="-115" sinr="7" rsrq="-11"/>
        <radio op="I TIM" rat="LTE" q="12.00" rsrp="-115" sinr="7" rsrq="-10"/>
      </extensions>
    </trkpt>
    <trkpt lat="45.602521" lon="10.4536878">
      <ele>261.8000183105469</ele>
      <time>2026-06-01T11:03:05.891+02:00</time>
      <extensions>
        <activity type="UNKNOWN" conf="40" state="unknown" tsMs="1780304580383"/>
        <radio op="vodafone IT" rat="LTE" q="11.70" rsrp="-112" sinr="4" rsrq="-13"/>
        <radio op="I TIM" rat="LTE" q="23.80" rsrp="-108" sinr="9" rsrq="-10"/>
      </extensions>
    </trkpt>
    <trkpt lat="45.6025643" lon="10.4536007">
      <ele>264.2644742826824</ele>
      <time>2026-06-01T11:03:38.073+02:00</time>
      <extensions>
        <activity type="UNKNOWN" conf="40" state="unknown" tsMs="1780304613999"/>
        <radio op="vodafone IT" rat="LTE" q="31.20" rsrp="-99" sinr="7" rsrq="-12"/>
        <radio op="I TIM" rat="LTE" q="9.60" rsrp="-109" sinr="1" rsrq="-12"/>
      </extensions>
    </trkpt>
    <trkpt lat="45.6026582" lon="10.453623">
      <ele>271.3906977956032</ele>
      <time>2026-06-01T11:04:12.55+02:00</time>
      <extensions>
        <activity type="UNKNOWN" conf="40" state="unknown" tsMs="1780304647192"/>
        <radio op="vodafone IT" rat="LTE" q="52.80" rsrp="-103" sinr="19" rsrq="-8"/>
        <radio op="I TIM" rat="LTE" q="57.20" rsrp="-99" sinr="17" rsrq="-10"/>
      </extensions>
    </trkpt>
    <trkpt lat="45.6024781" lon="10.4536731">
      <ele>271.2207548541127</ele>
      <time>2026-06-01T11:04:52.514+02:00</time>
      <extensions>
        <activity type="ON_FOOT" conf="81" state="moving" tsMs="1780304690386"/>
        <radio op="vodafone IT" rat="LTE" q="26.60" rsrp="-106" sinr="9" rsrq="-6"/>
        <radio op="I TIM" rat="LTE" q="32.20" rsrp="-102" sinr="9" rsrq="-12"/>
      </extensions>
    </trkpt>
    <trkpt lat="45.6024511" lon="10.4536668">
      <ele>271.6328722897337</ele>
      <time>2026-06-01T11:05:24.034+02:00</time>
      <extensions>
        <activity type="UNKNOWN" conf="40" state="unknown" tsMs="1780304717928"/>
        <radio op="vodafone IT" rat="LTE" q="41.80" rsrp="-103" sinr="14" rsrq="-10"/>
        <radio op="I TIM" rat="LTE" q="26.40" rsrp="-101" sinr="6" rsrq="-10"/>
      </extensions>
    </trkpt>
    <trkpt lat="45.6024975" lon="10.4536631">
      <ele>272.25320999535666</ele>
      <time>2026-06-01T11:06:53.658+02:00</time>
      <extensions>
        <activity type="UNKNOWN" conf="40" state="unknown" tsMs="1780304809148"/>
        <radio op="vodafone IT" rat="LTE" q="57.50" rsrp="-100" sinr="18" rsrq="-11"/>
        <radio op="I TIM" rat="LTE" q="54.60" rsrp="-99" sinr="16" rsrq="-10"/>
      </extensions>
    </trkpt>
    <trkpt lat="45.6024737" lon="10.4536655">
      <ele>271.64774287564137</ele>
      <time>2026-06-01T11:07:21.491+02:00</time>
      <extensions>
        <activity type="UNKNOWN" conf="40" state="unknown" tsMs="1780304840689"/>
        <radio op="vodafone IT" rat="LTE" q="50.00" rsrp="-100" sinr="15" rsrq="-7"/>
        <radio op="I TIM" rat="LTE" q="37.80" rsrp="-98" sinr="9" rsrq="-9"/>
      </extensions>
    </trkpt>
    <trkpt lat="45.6026198" lon="10.4536647">
      <ele>270.9930353300864</ele>
      <time>2026-06-01T11:09:29.552+02:00</time>
      <extensions>
        <activity type="UNKNOWN" conf="40" state="unknown" tsMs="1780304987955"/>
        <radio op="vodafone IT" rat="LTE" q="7.20" rsrp="-113" sinr="1" rsrq="-14"/>
        <radio op="I TIM" rat="LTE" q="11.00" rsrp="-114" sinr="5" rsrq="-8"/>
      </extensions>
    </trkpt>
    <trkpt lat="45.6025531" lon="10.4536612">
      <ele>261.8000183105469</ele>
      <time>2026-06-01T11:10:09.071+02:00</time>
      <extensions>
        <activity type="ON_FOOT" conf="67" state="moving" tsMs="1780305004136"/>
        <radio op="vodafone IT" rat="LTE" q="5.40" rsrp="-116" sinr="1" rsrq="-12"/>
        <radio op="I TIM" rat="LTE" rsrp="-124" rsrq="-11"/>
      </extensions>
    </trkpt>
    <trkpt lat="45.6025552" lon="10.4536487">
      <ele>261.8000183105469</ele>
      <time>2026-06-01T11:10:40.656+02:00</time>
      <extensions>
        <activity type="UNKNOWN" conf="40" state="unknown" tsMs="1780305036421"/>
        <radio op="vodafone IT" rat="LTE" q="18.00" rsrp="-115" sinr="13" rsrq="-12"/>
        <radio op="I TIM" rat="LTE" q="12.00" rsrp="-113" sinr="5" rsrq="-11"/>
      </extensions>
    </trkpt>
    <trkpt lat="45.6025552" lon="10.4536514">
      <ele>261.8000183105469</ele>
      <time>2026-06-01T11:11:12.161+02:00</time>
      <extensions>
        <activity type="UNKNOWN" conf="40" state="unknown" tsMs="1780305067954"/>
        <radio op="vodafone IT" rat="LTE" q="13.20" rsrp="-114" sinr="7" rsrq="-9"/>
        <radio op="I TIM" rat="LTE" q="14.40" rsrp="-113" sinr="7" rsrq="-10"/>
      </extensions>
    </trkpt>
    <trkpt lat="45.6025557" lon="10.4536489">
      <ele>261.8000183105469</ele>
      <time>2026-06-01T11:11:43.735+02:00</time>
      <extensions>
        <activity type="UNKNOWN" conf="40" state="unknown" tsMs="1780305099604"/>
        <radio op="vodafone IT" rat="LTE" q="5.60" rsrp="-117" sinr="2" rsrq="-10"/>
        <radio op="I TIM" rat="LTE" q="8.00" rsrp="-115" sinr="3" rsrq="-12"/>
      </extensions>
    </trkpt>
    <trkpt lat="45.6025503" lon="10.4536592">
      <ele>261.8000183105469</ele>
      <time>2026-06-01T11:12:15.206+02:00</time>
      <extensions>
        <activity type="STILL" conf="34" state="still" tsMs="1780305131113"/>
        <radio op="vodafone IT" rat="LTE" q="4.80" rsrp="-119" sinr="3" rsrq="-9"/>
        <radio op="I TIM" rat="LTE" q="5.40" rsrp="-116" sinr="1" rsrq="-12"/>
      </extensions>
    </trkpt>
    <trkpt lat="45.60255" lon="10.453658">
      <ele>259.2752514693654</ele>
      <time>2026-06-01T11:12:46.736+02:00</time>
      <extensions>
        <activity type="UNKNOWN" conf="40" state="unknown" tsMs="1780305162484"/>
        <radio op="vodafone IT" rat="LTE" rsrp="-125" rsrq="-12"/>
        <radio op="I TIM" rat="LTE" rsrp="-123" rsrq="-13"/>
      </extensions>
    </trkpt>
    <trkpt lat="45.6025492" lon="10.4536652">
      <ele>261.8000183105469</ele>
      <time>2026-06-01T11:32:41.304+02:00</time>
      <extensions>
        <activity type="ON_FOOT" conf="84" state="moving" tsMs="1780306353323"/>
        <radio op="vodafone IT" rat="LTE" q="18.00" rsrp="-107" sinr="5" rsrq="-13"/>
        <radio op="I TIM" rat="LTE" rsrp="-113" rsrq="-12"/>
      </extensions>
    </trkpt>
    <trkpt lat="45.6025517" lon="10.4536601">
      <ele>261.8000183105469</ele>
      <time>2026-06-01T11:33:12.74+02:00</time>
      <extensions>
        <activity type="UNKNOWN" conf="40" state="unknown" tsMs="1780306389884"/>
        <radio op="vodafone IT" rat="LTE" q="11.90" rsrp="-108" sinr="2" rsrq="-15"/>
        <radio op="I TIM" rat="LTE" q="30.80" rsrp="-111" sinr="17" rsrq="-10"/>
      </extensions>
    </trkpt>
    <trkpt lat="45.602552" lon="10.4536593">
      <ele>261.8000183105469</ele>
      <time>2026-06-01T11:34:17.44+02:00</time>
      <extensions>
        <activity type="STILL" conf="99" state="still" tsMs="1780306456626"/>
        <radio op="vodafone IT" rat="LTE" q="14.40" rsrp="-107" sinr="3" rsrq="-10"/>
        <radio op="I TIM" rat="LTE" q="25.20" rsrp="-111" sinr="13" rsrq="-11"/>
      </extensions>
    </trkpt>
    <trkpt lat="45.6025518" lon="10.4536603">
      <ele>261.8000183105469</ele>
      <time>2026-06-01T11:34:54.801+02:00</time>
      <extensions>
        <activity type="STILL" conf="99" state="still" tsMs="1780306492558"/>
        <radio op="vodafone IT" rat="LTE" q="18.00" rsrp="-107" sinr="5" rsrq="-10"/>
        <radio op="I TIM" rat="LTE" q="25.20" rsrp="-111" sinr="13" rsrq="-9"/>
      </extensions>
    </trkpt>
    <trkpt lat="45.6025503" lon="10.4536602">
      <ele>261.8000183105469</ele>
      <time>2026-06-01T11:35:28.414+02:00</time>
      <extensions>
        <activity type="STILL" conf="99" state="still" tsMs="1780306523946"/>
        <radio op="vodafone IT" rat="LTE" q="16.20" rsrp="-107" sinr="4" rsrq="-12"/>
        <radio op="I TIM" rat="LTE" q="25.20" rsrp="-111" sinr="13" rsrq="-11"/>
      </extensions>
    </trkpt>
    <trkpt lat="45.6037093" lon="10.4573021">
      <ele>263.4000244140625</ele>
      <time>2026-06-01T12:18:21.002+02:00</time>
      <extensions>
        <activity type="ON_FOOT" conf="90" state="moving" tsMs="1780309082833"/>
        <radio op="vodafone IT" rat="LTE" q="62.00" rsrp="-94" sinr="15" rsrq="-8"/>
        <radio op="I TIM" rat="LTE" q="73.50" rsrp="-90" sinr="16" rsrq="-12"/>
      </extensions>
    </trkpt>
    <trkpt lat="45.6036851" lon="10.457185">
      <ele>263.4000244140625</ele>
      <time>2026-06-01T12:18:26.578+02:00</time>
      <extensions>
        <activity type="ON_FOOT" conf="91" state="moving" tsMs="1780309108486"/>
        <radio op="vodafone IT" rat="LTE" q="69.30" rsrp="-92" sinr="16" rsrq="-7"/>
        <radio op="I TIM" rat="LTE" q="79.20" rsrp="-92" sinr="19" rsrq="-12"/>
      </extensions>
    </trkpt>
    <trkpt lat="45.6036854" lon="10.4571832">
      <ele>262.4000244140625</ele>
      <time>2026-06-01T12:19:09.157+02:00</time>
      <extensions>
        <activity type="ON_FOOT" conf="93" state="moving" tsMs="1780309146818"/>
        <radio op="vodafone IT" rat="LTE" q="50.60" rsrp="-102" sinr="17" rsrq="-6"/>
        <radio op="I TIM" rat="LTE" q="33.00" rsrp="-103" sinr="10" rsrq="-11"/>
      </extensions>
    </trkpt>
    <trkpt lat="45.6030441" lon="10.4551904">
      <ele>262.20001220703125</ele>
      <time>2026-06-01T12:20:00.578+02:00</time>
      <extensions>
        <activity type="ON_FOOT" conf="93" state="moving" tsMs="1780309195342"/>
        <radio op="vodafone IT" rat="LTE" q="32.30" rsrp="-106" sinr="12" rsrq="-10"/>
        <radio op="I TIM" rat="LTE" q="32.50" rsrp="-100" sinr="8" rsrq="-11"/>
      </extensions>
    </trkpt>
    <trkpt lat="45.6030469" lon="10.4551457">
      <ele>262.20001220703125</ele>
      <time>2026-06-01T12:20:02.578+02:00</time>
      <extensions>
        <activity type="ON_FOOT" conf="96" state="moving" tsMs="1780309206107"/>
        <radio op="vodafone IT" rat="LTE" q="24.20" rsrp="-103" sinr="6" rsrq="-11"/>
        <radio op="I TIM" rat="LTE" q="6.60" rsrp="-114" sinr="1" rsrq="-12"/>
      </extensions>
    </trkpt>
    <trkpt lat="45.6030477" lon="10.4551432">
      <ele>262.1000061035156</ele>
      <time>2026-06-01T12:20:41.296+02:00</time>
      <extensions>
        <activity type="ON_FOOT" conf="96" state="moving" tsMs="1780309238409"/>
        <radio op="vodafone IT" rat="LTE" q="28.50" rsrp="-106" sinr="10" rsrq="-7"/>
        <radio op="I TIM" rat="LTE" q="41.40" rsrp="-102" sinr="13" rsrq="-10"/>
      </extensions>
    </trkpt>
    <trkpt lat="45.6032562" lon="10.4543704">
      <ele>262.1000061035156</ele>
      <time>2026-06-01T12:21:22.386+02:00</time>
      <extensions>
        <activity type="ON_FOOT" conf="97" state="moving" tsMs="1780309281247"/>
        <radio op="vodafone IT" rat="LTE" rsrp="-115" rsrq="-13"/>
        <radio op="I TIM" rat="LTE" q="9.00" rsrp="-107" sinr="0" rsrq="-9"/>
      </extensions>
    </trkpt>
    <trkpt lat="45.6025538" lon="10.4536614">
      <ele>261.8000183105469</ele>
      <time>2026-06-01T12:21:54.354+02:00</time>
      <extensions>
        <activity type="UNKNOWN" conf="40" state="unknown" tsMs="1780309285205"/>
        <radio op="vodafone IT" rat="LTE" q="14.40" rsrp="-107" sinr="3" rsrq="-12"/>
        <radio op="I TIM" rat="LTE" rsrp="-114" rsrq="-12"/>
      </extensions>
    </trkpt>
    <trkpt lat="45.602559" lon="10.4536422">
      <ele>261.8000183105469</ele>
      <time>2026-06-01T12:22:25.784+02:00</time>
      <extensions>
        <activity type="UNKNOWN" conf="40" state="unknown" tsMs="1780309344139"/>
        <radio op="vodafone IT" rat="LTE" q="8.80" rsrp="-114" sinr="3" rsrq="-11"/>
        <radio op="I TIM" rat="LTE" q="8.40" rsrp="-113" sinr="2" rsrq="-14"/>
      </extensions>
    </trkpt>
    <trkpt lat="45.6025493" lon="10.453666">
      <ele>261.8000183105469</ele>
      <time>2026-06-01T12:22:57.609+02:00</time>
      <extensions>
        <activity type="UNKNOWN" conf="40" state="unknown" tsMs="1780309376210"/>
        <radio op="vodafone IT" rat="LTE" q="3.60" rsrp="-119" sinr="1" rsrq="-11"/>
        <radio op="I TIM" rat="LTE" q="4.50" rsrp="-116" sinr="0" rsrq="-11"/>
      </extensions>
    </trkpt>
    <trkpt lat="45.6025487" lon="10.453664">
      <ele>261.8000183105469</ele>
      <time>2026-06-01T12:23:29.395+02:00</time>
      <extensions>
        <activity type="STILL" conf="74" state="still" tsMs="1780309407975"/>
        <radio op="vodafone IT" rat="LTE" q="4.80" rsrp="-119" sinr="3" rsrq="-12"/>
        <radio op="I TIM" rat="LTE" q="5.40" rsrp="-119" sinr="4" rsrq="-12"/>
      </extensions>
    </trkpt>
    <trkpt lat="45.6025507" lon="10.4536638">
      <ele>261.8000183105469</ele>
      <time>2026-06-01T12:24:01.033+02:00</time>
      <extensions>
        <activity type="UNKNOWN" conf="40" state="unknown" tsMs="1780309439700"/>
        <radio op="vodafone IT" rat="LTE" rsrp="-123" rsrq="-12"/>
        <radio op="I TIM" rat="LTE" rsrp="-122" rsrq="-10"/>
      </extensions>
    </trkpt>
    <trkpt lat="45.6025477" lon="10.4536596">
      <ele>261.8000183105469</ele>
      <time>2026-06-01T12:24:32.48+02:00</time>
      <extensions>
        <activity type="STILL" conf="31" state="still" tsMs="1780309471320"/>
        <radio op="vodafone IT" rat="LTE" q="3.50" rsrp="-118" sinr="0" rsrq="-13"/>
        <radio op="I TIM" rat="LTE" q="6.30" rsrp="-118" sinr="4" rsrq="-13"/>
      </extensions>
    </trkpt>
    <trkpt lat="45.6025479" lon="10.4536638">
      <ele>261.8000183105469</ele>
      <time>2026-06-01T12:25:03.788+02:00</time>
      <extensions>
        <activity type="UNKNOWN" conf="40" state="unknown" tsMs="1780309502951"/>
        <radio op="vodafone IT" rat="LTE" rsrp="-122" rsrq="-11"/>
        <radio op="I TIM" rat="LTE" q="4.00" rsrp="-117" sinr="0" rsrq="-13"/>
      </extensions>
    </trkpt>
    <trkpt lat="45.6022583" lon="10.4535355">
      <ele>261.9000244140625</ele>
      <time>2026-06-01T12:27:36.302+02:00</time>
      <extensions>
        <activity type="UNKNOWN" conf="40" state="unknown" tsMs="1780309659054"/>
        <radio op="vodafone IT" rat="LTE" q="24.20" rsrp="-103" sinr="6" rsrq="-11"/>
        <radio op="I TIM" rat="LTE" q="37.40" rsrp="-108" sinr="17" rsrq="-7"/>
      </extensions>
    </trkpt>
    <trkpt lat="45.6023685" lon="10.4536154">
      <ele>261.8000183105469</ele>
      <time>2026-06-01T12:28:07.873+02:00</time>
      <extensions>
        <activity type="UNKNOWN" conf="40" state="unknown" tsMs="1780309681775"/>
        <radio op="vodafone IT" rat="LTE" q="12.60" rsrp="-104" sinr="1" rsrq="-11"/>
        <radio op="I TIM" rat="LTE" rsrp="-114" rsrq="-13"/>
      </extensions>
    </trkpt>
    <trkpt lat="45.6014194" lon="10.4539919">
      <ele>260.9000244140625</ele>
      <time>2026-06-01T12:28:39.358+02:00</time>
      <extensions>
        <activity type="UNKNOWN" conf="40" state="unknown" tsMs="1780309718424"/>
        <radio op="vodafone IT" rat="LTE" q="25.20" rsrp="-104" sinr="7" rsrq="-12"/>
        <radio op="I TIM" rat="LTE" q="32.30" rsrp="-106" sinr="12" rsrq="-10"/>
      </extensions>
    </trkpt>
    <trkpt lat="45.602725" lon="10.4563549">
      <ele>267.61475175495855</ele>
      <time>2026-06-01T12:29:10.657+02:00</time>
      <extensions>
        <activity type="UNKNOWN" conf="40" state="unknown" tsMs="1780309744566"/>
        <radio op="vodafone IT" rat="LTE" q="28.90" rsrp="-108" sinr="12" rsrq="-9"/>
        <radio op="I TIM" rat="LTE" q="38.00" rsrp="-105" sinr="14" rsrq="-12"/>
      </extensions>
    </trkpt>
    <trkpt lat="45.6030289" lon="10.4572791">
      <ele>267.2571171427113</ele>
      <time>2026-06-01T12:29:16.583+02:00</time>
      <extensions>
        <activity type="IN_VEHICLE" conf="92" state="moving" tsMs="1780309749978"/>
        <radio op="vodafone IT" rat="LTE" q="95.00" rsrp="-87" sinr="23" rsrq="-6"/>
        <radio op="I TIM" rat="LTE" q="100.00" rsrp="-84" sinr="28" rsrq="-10"/>
      </extensions>
    </trkpt>
    <trkpt lat="45.6036179" lon="10.4591363">
      <ele>262.4000244140625</ele>
      <time>2026-06-01T12:29:30.586+02:00</time>
      <extensions>
        <activity type="UNKNOWN" conf="40" state="unknown" tsMs="1780309753477"/>
        <radio op="vodafone IT" rat="LTE" q="100.00" rsrp="-81" sinr="21" rsrq="-9"/>
        <radio op="I TIM" rat="LTE" q="100.00" rsrp="-82" sinr="24" rsrq="-12"/>
      </extensions>
    </trkpt>
    <trkpt lat="45.6036556" lon="10.4593653">
      <ele>262.4000244140625</ele>
      <time>2026-06-01T12:29:31.592+02:00</time>
      <extensions>
        <activity type="UNKNOWN" conf="40" state="unknown" tsMs="1780309753477"/>
        <radio op="vodafone IT" rat="LTE" q="92.50" rsrp="-88" sinr="27" rsrq="-6"/>
        <radio op="I TIM" rat="LTE" q="62.00" rsrp="-94" sinr="15" rsrq="-10"/>
      </extensions>
    </trkpt>
    <trkpt lat="45.6036437" lon="10.4588035">
      <ele>265.2884871293493</ele>
      <time>2026-06-01T12:30:08.085+02:00</time>
      <extensions>
        <activity type="IN_VEHICLE" conf="92" state="moving" tsMs="1780309812194"/>
        <radio op="vodafone IT" rat="LTE" q="82.50" rsrp="-92" sinr="26" rsrq="-10"/>
        <radio op="I TIM" rat="LTE" q="87.50" rsrp="-90" sinr="20" rsrq="-9"/>
      </extensions>
    </trkpt>
    <trkpt lat="45.6038337" lon="10.4587739">
      <ele>269.9000244140625</ele>
      <time>2026-06-01T12:30:23.58+02:00</time>
      <extensions>
        <activity type="IN_VEHICLE" conf="94" state="moving" tsMs="1780309821706"/>
        <radio op="vodafone IT" rat="LTE" q="92.50" rsrp="-88" sinr="28" rsrq="-11"/>
        <radio op="I TIM" rat="LTE" q="80.00" rsrp="-93" sinr="21" rsrq="-8"/>
      </extensions>
    </trkpt>
    <trkpt lat="45.6038333" lon="10.458773">
      <ele>269.9000244140625</ele>
      <time>2026-06-01T12:30:24.58+02:00</time>
      <extensions>
        <activity type="UNKNOWN" conf="40" state="unknown" tsMs="1780309832572"/>
        <radio op="vodafone IT" rat="LTE" q="80.00" rsrp="-93" sinr="26" rsrq="-11"/>
        <radio op="I TIM" rat="LTE" q="81.60" rsrp="-91" sinr="19" rsrq="-12"/>
      </extensions>
    </trkpt>
    <trkpt lat="45.6036685" lon="10.458642">
      <ele>266.34607554515765</ele>
      <time>2026-06-01T12:30:55.227+02:00</time>
      <extensions>
        <activity type="UNKNOWN" conf="40" state="unknown" tsMs="1780309854044"/>
        <radio op="vodafone IT" rat="LTE" q="100.00" rsrp="-85" sinr="26" rsrq="-6"/>
        <radio op="I TIM" rat="LTE" q="96.00" rsrp="-85" sinr="19" rsrq="-7"/>
      </extensions>
    </trkpt>
    <trkpt lat="45.6037748" lon="10.4589099">
      <ele>266.4267311034617</ele>
      <time>2026-06-01T12:31:01.58+02:00</time>
      <extensions>
        <activity type="UNKNOWN" conf="40" state="unknown" tsMs="1780309854044"/>
        <radio op="vodafone IT" rat="LTE" q="100.00" rsrp="-82" sinr="25" rsrq="-8"/>
        <radio op="I TIM" rat="LTE" q="100.00" rsrp="-83" sinr="24" rsrq="-9"/>
      </extensions>
    </trkpt>
    <trkpt lat="45.6039344" lon="10.4594135">
      <ele>264.1000061035156</ele>
      <time>2026-06-01T12:31:50.572+02:00</time>
      <extensions>
        <activity type="ON_FOOT" conf="81" state="moving" tsMs="1780309909075"/>
        <radio op="vodafone IT" rat="LTE" q="70.00" rsrp="-97" sinr="21" rsrq="-8"/>
        <radio op="I TIM" rat="LTE" q="59.80" rsrp="-99" sinr="18" rsrq="-13"/>
      </extensions>
    </trkpt>
    <trkpt lat="45.6039184" lon="10.4594228">
      <ele>264.1000061035156</ele>
      <time>2026-06-01T12:32:21.827+02:00</time>
      <extensions>
        <activity type="UNKNOWN" conf="40" state="unknown" tsMs="1780309941003"/>
        <radio op="vodafone IT" rat="LTE" q="55.20" rsrp="-102" sinr="19" rsrq="-11"/>
        <radio op="I TIM" rat="LTE" q="46.00" rsrp="-102" sinr="15" rsrq="-13"/>
      </extensions>
    </trkpt>
    <trkpt lat="45.6039396" lon="10.4594121">
      <ele>264.1000061035156</ele>
      <time>2026-06-01T12:34:00.964+02:00</time>
      <extensions>
        <activity type="UNKNOWN" conf="40" state="unknown" tsMs="1780310035993"/>
        <radio op="vodafone IT" rat="LTE" q="75.00" rsrp="-95" sinr="25" rsrq="-7"/>
        <radio op="I TIM" rat="LTE" q="36.10" rsrp="-106" sinr="14" rsrq="-9"/>
      </extensions>
    </trkpt>
    <trkpt lat="45.6039311" lon="10.4594111">
      <ele>264.1000061035156</ele>
      <time>2026-06-01T12:34:41.102+02:00</time>
      <extensions>
        <activity type="STILL" conf="39" state="still" tsMs="1780310081092"/>
        <radio op="vodafone IT" rat="LTE" q="59.80" rsrp="-99" sinr="18" rsrq="-8"/>
        <radio op="I TIM" rat="LTE" q="41.40" rsrp="-102" sinr="13" rsrq="-8"/>
      </extensions>
    </trkpt>
    <trkpt lat="45.6038593" lon="10.4592658">
      <ele>264.20001220703125</ele>
      <time>2026-06-01T13:00:07.221+02:00</time>
      <extensions>
        <activity type="UNKNOWN" conf="40" state="unknown" tsMs="1780311603104"/>
        <radio op="vodafone IT" rat="LTE" q="28.50" rsrp="-106" sinr="10" rsrq="-8"/>
        <radio op="I TIM" rat="LTE" q="20.00" rsrp="-105" sinr="5" rsrq="-10"/>
      </extensions>
    </trkpt>
    <trkpt lat="45.604106" lon="10.4590202">
      <ele>264.5</ele>
      <time>2026-06-01T13:00:37.218+02:00</time>
      <extensions>
        <activity type="ON_FOOT" conf="95" state="moving" tsMs="1780311639044"/>
        <radio op="vodafone IT" rat="LTE" q="32.00" rsrp="-105" sinr="11" rsrq="-11"/>
        <radio op="I TIM" rat="LTE" q="24.70" rsrp="-106" sinr="8" rsrq="-10"/>
      </extensions>
    </trkpt>
    <trkpt lat="45.6042366" lon="10.4591112">
      <ele>264.5</ele>
      <time>2026-06-01T13:00:40.362+02:00</time>
      <extensions>
        <activity type="ON_FOOT" conf="95" state="moving" tsMs="1780311639044"/>
        <radio op="vodafone IT" rat="LTE" q="25.50" rsrp="-108" sinr="10" rsrq="-11"/>
        <radio op="I TIM" rat="LTE" q="25.50" rsrp="-108" sinr="10" rsrq="-8"/>
      </extensions>
    </trkpt>
    <trkpt lat="45.604206" lon="10.4594851">
      <ele>264.5</ele>
      <time>2026-06-01T13:01:18.568+02:00</time>
      <extensions>
        <activity type="ON_FOOT" conf="85" state="moving" tsMs="1780311673108"/>
        <radio op="vodafone IT" rat="LTE" q="18.20" rsrp="-112" sinr="9" rsrq="-10"/>
        <radio op="I TIM" rat="LTE" q="62.50" rsrp="-100" sinr="23" rsrq="-8"/>
      </extensions>
    </trkpt>
    <trkpt lat="45.6041979" lon="10.4594786">
      <ele>264.5</ele>
      <time>2026-06-01T13:02:02.444+02:00</time>
      <extensions>
        <activity type="UNKNOWN" conf="40" state="unknown" tsMs="1780311721150"/>
        <radio op="vodafone IT" rat="LTE" q="18.70" rsrp="-114" sinr="12" rsrq="-11"/>
        <radio op="I TIM" rat="LTE" q="49.40" rsrp="-99" sinr="14" rsrq="-10"/>
      </extensions>
    </trkpt>
    <trkpt lat="45.6041105" lon="10.4593466">
      <ele>264.5</ele>
      <time>2026-06-01T13:02:36.427+02:00</time>
      <extensions>
        <activity type="UNKNOWN" conf="40" state="unknown" tsMs="1780311750723"/>
        <radio op="vodafone IT" rat="LTE" q="26.60" rsrp="-111" sinr="14" rsrq="-9"/>
        <radio op="I TIM" rat="LTE" q="55.00" rsrp="-103" sinr="21" rsrq="-11"/>
      </extensions>
    </trkpt>
    <trkpt lat="45.604221" lon="10.4595078">
      <ele>264.5</ele>
      <time>2026-06-01T13:03:22.821+02:00</time>
      <extensions>
        <activity type="UNKNOWN" conf="40" state="unknown" tsMs="1780311796771"/>
        <radio op="vodafone IT" rat="LTE" q="55.00" rsrp="-103" sinr="24" rsrq="-8"/>
        <radio op="I TIM" rat="LTE" q="52.50" rsrp="-104" sinr="25" rsrq="-12"/>
      </extensions>
    </trkpt>
    <trkpt lat="45.6041891" lon="10.4594603">
      <ele>264.5</ele>
      <time>2026-06-01T13:04:16.061+02:00</time>
      <extensions>
        <activity type="STILL" conf="45" state="still" tsMs="1780311845048"/>
        <radio op="vodafone IT" rat="LTE" q="16.50" rsrp="-114" sinr="10" rsrq="-9"/>
        <radio op="I TIM" rat="LTE" q="57.50" rsrp="-102" sinr="20" rsrq="-12"/>
      </extensions>
    </trkpt>
    <trkpt lat="45.6041991" lon="10.4594725">
      <ele>264.5</ele>
      <time>2026-06-01T13:04:47.191+02:00</time>
      <extensions>
        <activity type="UNKNOWN" conf="40" state="unknown" tsMs="1780311881134"/>
        <radio op="vodafone IT" rat="LTE" q="55.00" rsrp="-103" sinr="25" rsrq="-8"/>
        <radio op="I TIM" rat="LTE" q="60.00" rsrp="-101" sinr="20" rsrq="-12"/>
      </extensions>
    </trkpt>
    <trkpt lat="45.6041008" lon="10.459289">
      <ele>266.1928199861147</ele>
      <time>2026-06-01T13:05:57.401+02:00</time>
      <extensions>
        <activity type="ON_FOOT" conf="85" state="moving" tsMs="1780311950595"/>
        <radio op="vodafone IT" rat="LTE" q="70.00" rsrp="-97" sinr="23" rsrq="-12"/>
        <radio op="I TIM" rat="LTE" q="39.00" rsrp="-99" sinr="10" rsrq="-12"/>
      </extensions>
    </trkpt>
    <trkpt lat="45.6040481" lon="10.4593196">
      <ele>264.5</ele>
      <time>2026-06-01T13:06:32.107+02:00</time>
      <extensions>
        <activity type="STILL" conf="45" state="still" tsMs="1780311987751"/>
        <radio op="vodafone IT" rat="LTE" q="7.00" rsrp="-115" sinr="2" rsrq="-9"/>
        <radio op="I TIM" rat="LTE" q="75.00" rsrp="-95" sinr="22" rsrq="-9"/>
      </extensions>
    </trkpt>
    <trkpt lat="45.6040356" lon="10.4593316">
      <ele>264.5</ele>
      <time>2026-06-01T13:07:03.211+02:00</time>
      <extensions>
        <activity type="STILL" conf="97" state="still" tsMs="1780312018899"/>
        <radio op="vodafone IT" rat="LTE" q="63.80" rsrp="-96" sinr="17" rsrq="-9"/>
        <radio op="I TIM" rat="LTE" q="37.70" rsrp="-96" sinr="8" rsrq="-9"/>
      </extensions>
    </trkpt>
    <trkpt lat="45.6040527" lon="10.4593336">
      <ele>264.5</ele>
      <time>2026-06-01T13:07:34.305+02:00</time>
      <extensions>
        <activity type="STILL" conf="99" state="still" tsMs="1780312049942"/>
        <radio op="vodafone IT" rat="LTE" q="19.50" rsrp="-112" sinr="10" rsrq="-9"/>
        <radio op="I TIM" rat="LTE" q="80.00" rsrp="-93" sinr="21" rsrq="-11"/>
      </extensions>
    </trkpt>
    <trkpt lat="45.6040497" lon="10.4593321">
      <ele>264.5</ele>
      <time>2026-06-01T13:08:05.546+02:00</time>
      <extensions>
        <activity type="STILL" conf="99" state="still" tsMs="1780312081201"/>
        <radio op="vodafone IT" rat="LTE" q="23.40" rsrp="-112" sinr="13" rsrq="-7"/>
        <radio op="I TIM" rat="LTE" q="82.50" rsrp="-92" sinr="22" rsrq="-8"/>
      </extensions>
    </trkpt>
    <trkpt lat="45.6040716" lon="10.4593364">
      <ele>264.5</ele>
      <time>2026-06-01T13:08:36.789+02:00</time>
      <extensions>
        <activity type="STILL" conf="99" state="still" tsMs="1780312112415"/>
        <radio op="vodafone IT" rat="LTE" q="18.00" rsrp="-113" sinr="10" rsrq="-8"/>
        <radio op="I TIM" rat="LTE" q="77.50" rsrp="-94" sinr="21" rsrq="-12"/>
      </extensions>
    </trkpt>
    <trkpt lat="45.6040534" lon="10.4593429">
      <ele>264.5</ele>
      <time>2026-06-01T13:09:07.889+02:00</time>
      <extensions>
        <activity type="STILL" conf="99" state="still" tsMs="1780312143568"/>
        <radio op="vodafone IT" rat="LTE" q="23.40" rsrp="-112" sinr="13" rsrq="-9"/>
        <radio op="I TIM" rat="LTE" q="82.50" rsrp="-92" sinr="20" rsrq="-13"/>
      </extensions>
    </trkpt>
    <trkpt lat="45.6044088" lon="10.4595753">
      <ele>264.3000183105469</ele>
      <time>2026-06-01T13:43:02.431+02:00</time>
      <extensions>
        <activity type="UNKNOWN" conf="40" state="unknown" tsMs="1780314197650"/>
        <radio op="vodafone IT" rat="LTE" q="23.80" rsrp="-111" sinr="12" rsrq="-7"/>
        <radio op="I TIM" rat="LTE" q="16.90" rsrp="-112" sinr="8" rsrq="-13"/>
      </extensions>
    </trkpt>
    <trkpt lat="45.6041041" lon="10.459324">
      <ele>264.5</ele>
      <time>2026-06-01T13:43:46.709+02:00</time>
      <extensions>
        <activity type="UNKNOWN" conf="40" state="unknown" tsMs="1780314224792"/>
        <radio op="vodafone IT" rat="LTE" q="14.00" rsrp="-115" sinr="9" rsrq="-12"/>
        <radio op="I TIM" rat="LTE" q="16.90" rsrp="-112" sinr="8" rsrq="-13"/>
      </extensions>
    </trkpt>
    <trkpt lat="45.6043381" lon="10.4596722">
      <ele>264.4000244140625</ele>
      <time>2026-06-01T13:44:20.639+02:00</time>
      <extensions>
        <activity type="ON_FOOT" conf="94" state="moving" tsMs="1780314257805"/>
        <radio op="vodafone IT" rat="LTE" q="85.00" rsrp="-91" sinr="30" rsrq="-11"/>
        <radio op="I TIM" rat="LTE" q="18.20" rsrp="-112" sinr="9" rsrq="-13"/>
      </extensions>
    </trkpt>
    <trkpt lat="45.6043366" lon="10.4597163">
      <ele>266.9245447228633</ele>
      <time>2026-06-01T13:44:51.836+02:00</time>
      <extensions>
        <activity type="UNKNOWN" conf="40" state="unknown" tsMs="1780314285668"/>
        <radio op="vodafone IT" rat="LTE" q="80.00" rsrp="-93" sinr="30" rsrq="-9"/>
        <radio op="I TIM" rat="LTE" q="10.00" rsrp="-115" sinr="5" rsrq="-13"/>
      </extensions>
    </trkpt>
    <trkpt lat="45.604628" lon="10.4594702">
      <ele>264.4000244140625</ele>
      <time>2026-06-01T13:46:07.345+02:00</time>
      <extensions>
        <activity type="ON_FOOT" conf="92" state="moving" tsMs="1780314365799"/>
        <radio op="vodafone IT" rat="LTE" q="32.00" rsrp="-109" sinr="15" rsrq="-12"/>
        <radio op="I TIM" rat="LTE" q="34.80" rsrp="-96" sinr="7" rsrq="-12"/>
      </extensions>
    </trkpt>
    <trkpt lat="45.6042741" lon="10.4593551">
      <ele>264.4000244140625</ele>
      <time>2026-06-01T13:46:55.467+02:00</time>
      <extensions>
        <activity type="ON_FOOT" conf="86" state="moving" tsMs="1780314409299"/>
        <radio op="vodafone IT" rat="LTE" q="41.80" rsrp="-106" sinr="17" rsrq="-9"/>
        <radio op="I TIM" rat="LTE" q="62.50" rsrp="-100" sinr="25" rsrq="-12"/>
      </extensions>
    </trkpt>
    <trkpt lat="45.6043959" lon="10.4592856">
      <ele>264.4000244140625</ele>
      <time>2026-06-01T13:47:26.55+02:00</time>
      <extensions>
        <activity type="UNKNOWN" conf="40" state="unknown" tsMs="1780314440432"/>
        <radio op="vodafone IT" rat="LTE" q="48.30" rsrp="-104" sinr="18" rsrq="-12"/>
        <radio op="I TIM" rat="LTE" q="55.00" rsrp="-103" sinr="22" rsrq="-8"/>
      </extensions>
    </trkpt>
    <trkpt lat="45.6046158" lon="10.4590373">
      <ele>264.4000244140625</ele>
      <time>2026-06-01T13:47:57.604+02:00</time>
      <extensions>
        <activity type="ON_FOOT" conf="90" state="moving" tsMs="1780314471764"/>
        <radio op="vodafone IT" rat="LTE" q="67.50" rsrp="-98" sinr="27" rsrq="-8"/>
        <radio op="I TIM" rat="LTE" q="85.00" rsrp="-91" sinr="26" rsrq="-9"/>
      </extensions>
    </trkpt>
    <trkpt lat="45.6047218" lon="10.4592021">
      <ele>264.5</ele>
      <time>2026-06-01T13:48:35.868+02:00</time>
      <extensions>
        <activity type="UNKNOWN" conf="40" state="unknown" tsMs="1780314512121"/>
        <radio op="vodafone IT" rat="LTE" q="46.00" rsrp="-105" sinr="18" rsrq="-10"/>
        <radio op="I TIM" rat="LTE" q="52.50" rsrp="-104" sinr="21" rsrq="-8"/>
      </extensions>
    </trkpt>
    <trkpt lat="45.6047501" lon="10.4593002">
      <ele>264.5</ele>
      <time>2026-06-01T13:49:09.903+02:00</time>
      <extensions>
        <activity type="UNKNOWN" conf="40" state="unknown" tsMs="1780314545784"/>
        <radio op="vodafone IT" rat="LTE" q="50.00" rsrp="-105" sinr="20" rsrq="-7"/>
        <radio op="I TIM" rat="LTE" q="60.00" rsrp="-101" sinr="23" rsrq="-7"/>
      </extensions>
    </trkpt>
    <trkpt lat="45.6047383" lon="10.4593024">
      <ele>264.5</ele>
      <time>2026-06-01T13:49:44.907+02:00</time>
      <extensions>
        <activity type="UNKNOWN" conf="40" state="unknown" tsMs="1780314583555"/>
        <radio op="vodafone IT" rat="LTE" q="50.40" rsrp="-104" sinr="19" rsrq="-6"/>
        <radio op="I TIM" rat="LTE" q="42.50" rsrp="-108" sinr="22" rsrq="-13"/>
      </extensions>
    </trkpt>
    <trkpt lat="45.6047687" lon="10.459347">
      <ele>264.5</ele>
      <time>2026-06-01T13:50:42.605+02:00</time>
      <extensions>
        <activity type="STILL" conf="53" state="still" tsMs="1780314641780"/>
        <radio op="vodafone IT" rat="LTE" q="45.00" rsrp="-107" sinr="20" rsrq="-11"/>
        <radio op="I TIM" rat="LTE" q="55.00" rsrp="-103" sinr="22" rsrq="-8"/>
      </extensions>
    </trkpt>
    <trkpt lat="45.6047696" lon="10.4593305">
      <ele>264.5</ele>
      <time>2026-06-01T13:51:14.643+02:00</time>
      <extensions>
        <activity type="UNKNOWN" conf="40" state="unknown" tsMs="1780314673248"/>
        <radio op="vodafone IT" rat="LTE" q="7.70" rsrp="-118" sinr="6" rsrq="-10"/>
        <radio op="I TIM" rat="LTE" q="55.00" rsrp="-103" sinr="24" rsrq="-12"/>
      </extensions>
    </trkpt>
    <trkpt lat="45.6047246" lon="10.4592632">
      <ele>264.5</ele>
      <time>2026-06-01T13:52:06.923+02:00</time>
      <extensions>
        <activity type="UNKNOWN" conf="40" state="unknown" tsMs="1780314724786"/>
        <radio op="vodafone IT" rat="LTE" q="12.60" rsrp="-116" sinr="9" rsrq="-9"/>
        <radio op="I TIM" rat="LTE" q="50.60" rsrp="-102" sinr="17" rsrq="-10"/>
      </extensions>
    </trkpt>
    <trkpt lat="45.604728" lon="10.4592744">
      <ele>264.5</ele>
      <time>2026-06-01T13:53:01.718+02:00</time>
      <extensions>
        <activity type="UNKNOWN" conf="40" state="unknown" tsMs="1780314777784"/>
        <radio op="vodafone IT" rat="LTE" q="36.00" rsrp="-110" sinr="19" rsrq="-10"/>
        <radio op="I TIM" rat="LTE" q="39.90" rsrp="-106" sinr="16" rsrq="-8"/>
      </extensions>
    </trkpt>
    <trkpt lat="45.6048007" lon="10.4593847">
      <ele>264.6000061035156</ele>
      <time>2026-06-01T13:53:38.977+02:00</time>
      <extensions>
        <activity type="UNKNOWN" conf="40" state="unknown" tsMs="1780314814625"/>
        <radio op="vodafone IT" rat="LTE" q="39.60" rsrp="-107" sinr="17" rsrq="-6"/>
        <radio op="I TIM" rat="LTE" q="55.00" rsrp="-103" sinr="22" rsrq="-10"/>
      </extensions>
    </trkpt>
    <trkpt lat="45.6048104" lon="10.4594025">
      <ele>264.6000061035156</ele>
      <time>2026-06-01T14:00:42.052+02:00</time>
      <extensions>
        <activity type="ON_FOOT" conf="86" state="moving" tsMs="1780315241198"/>
        <radio op="vodafone IT" rat="LTE" q="18.00" rsrp="-110" sinr="7" rsrq="-8"/>
        <radio op="I TIM" rat="LTE" q="29.40" rsrp="-111" sinr="16" rsrq="-10"/>
      </extensions>
    </trkpt>
    <trkpt lat="45.6048216" lon="10.4594032">
      <ele>264.6000061035156</ele>
      <time>2026-06-01T14:01:27.26+02:00</time>
      <extensions>
        <activity type="UNKNOWN" conf="40" state="unknown" tsMs="1780315278195"/>
        <radio op="vodafone IT" rat="LTE" q="36.80" rsrp="-109" sinr="18" rsrq="-6"/>
        <radio op="I TIM" rat="LTE" q="37.50" rsrp="-110" sinr="20" rsrq="-10"/>
      </extensions>
    </trkpt>
    <trkpt lat="45.604712" lon="10.4593518">
      <ele>264.5</ele>
      <time>2026-06-01T14:02:01.951+02:00</time>
      <extensions>
        <activity type="UNKNOWN" conf="40" state="unknown" tsMs="1780315318814"/>
        <radio op="vodafone IT" rat="LTE" q="57.50" rsrp="-102" sinr="20" rsrq="-10"/>
        <radio op="I TIM" rat="LTE" q="65.00" rsrp="-99" sinr="27" rsrq="-6"/>
      </extensions>
    </trkpt>
    <trkpt lat="45.6048256" lon="10.4594003">
      <ele>264.6000061035156</ele>
      <time>2026-06-01T14:03:12.387+02:00</time>
      <extensions>
        <activity type="ON_FOOT" conf="81" state="moving" tsMs="1780315391834"/>
        <radio op="vodafone IT" rat="LTE" q="34.50" rsrp="-110" sinr="18" rsrq="-8"/>
        <radio op="I TIM" rat="LTE" q="26.00" rsrp="-112" sinr="15" rsrq="-8"/>
      </extensions>
    </trkpt>
    <trkpt lat="45.6047135" lon="10.4592385">
      <ele>264.5</ele>
      <time>2026-06-01T14:03:50.649+02:00</time>
      <extensions>
        <activity type="UNKNOWN" conf="40" state="unknown" tsMs="1780315425178"/>
        <radio op="vodafone IT" rat="LTE" q="25.20" rsrp="-111" sinr="13" rsrq="-13"/>
        <radio op="I TIM" rat="LTE" q="28.80" rsrp="-109" sinr="13" rsrq="-6"/>
      </extensions>
    </trkpt>
    <trkpt lat="45.6047444" lon="10.4592707">
      <ele>266.63137272221763</ele>
      <time>2026-06-01T14:04:22.727+02:00</time>
      <extensions>
        <activity type="ON_FOOT" conf="83" state="moving" tsMs="1780315463092"/>
        <radio op="vodafone IT" rat="LTE" q="42.00" rsrp="-104" sinr="15" rsrq="-11"/>
        <radio op="I TIM" rat="LTE" q="47.50" rsrp="-106" sinr="22" rsrq="-6"/>
      </extensions>
    </trkpt>
    <trkpt lat="45.604729" lon="10.4591882">
      <ele>264.5</ele>
      <time>2026-06-01T14:04:52.735+02:00</time>
      <extensions>
        <activity type="ON_FOOT" conf="93" state="moving" tsMs="1780315494498"/>
        <radio op="vodafone IT" rat="LTE" q="55.20" rsrp="-102" sinr="19" rsrq="-10"/>
        <radio op="I TIM" rat="LTE" q="46.00" rsrp="-105" sinr="18" rsrq="-8"/>
      </extensions>
    </trkpt>
    <trkpt lat="45.6046881" lon="10.4591388">
      <ele>266.6504919631258</ele>
      <time>2026-06-01T14:05:26.122+02:00</time>
      <extensions>
        <activity type="UNKNOWN" conf="40" state="unknown" tsMs="1780315520840"/>
        <radio op="vodafone IT" rat="LTE" q="39.90" rsrp="-106" sinr="16" rsrq="-7"/>
        <radio op="I TIM" rat="LTE" q="41.80" rsrp="-106" sinr="17" rsrq="-6"/>
      </extensions>
    </trkpt>
    <trkpt lat="45.604681" lon="10.4590637">
      <ele>264.4000244140625</ele>
      <time>2026-06-01T14:05:57.341+02:00</time>
      <extensions>
        <activity type="UNKNOWN" conf="40" state="unknown" tsMs="1780315553182"/>
        <radio op="vodafone IT" rat="LTE" q="30.60" rsrp="-108" sinr="13" rsrq="-12"/>
        <radio op="I TIM" rat="LTE" q="32.00" rsrp="-109" sinr="15" rsrq="-8"/>
      </extensions>
    </trkpt>
    <trkpt lat="45.6046785" lon="10.4590402">
      <ele>267.96982224661576</ele>
      <time>2026-06-01T14:06:28.578+02:00</time>
      <extensions>
        <activity type="ON_FOOT" conf="89" state="moving" tsMs="1780315584424"/>
        <radio op="vodafone IT" rat="LTE" q="27.20" rsrp="-109" sinr="12" rsrq="-11"/>
        <radio op="I TIM" rat="LTE" q="26.60" rsrp="-111" sinr="14" rsrq="-8"/>
      </extensions>
    </trkpt>
    <trkpt lat="45.6046785" lon="10.4590683">
      <ele>268.71951072571846</ele>
      <time>2026-06-01T14:07:00.463+02:00</time>
      <extensions>
        <activity type="UNKNOWN" conf="40" state="unknown" tsMs="1780315611135"/>
        <radio op="vodafone IT" rat="LTE" q="22.10" rsrp="-112" sinr="12" rsrq="-12"/>
        <radio op="I TIM" rat="LTE" q="39.10" rsrp="-108" sinr="18" rsrq="-10"/>
      </extensions>
    </trkpt>
    <trkpt lat="45.6046803" lon="10.4590548">
      <ele>266.3824585697564</ele>
      <time>2026-06-01T14:08:01.574+02:00</time>
      <extensions>
        <activity type="UNKNOWN" conf="40" state="unknown" tsMs="1780315675821"/>
        <radio op="vodafone IT" rat="LTE" q="28.50" rsrp="-110" sinr="14" rsrq="-8"/>
        <radio op="I TIM" rat="LTE" q="37.40" rsrp="-108" sinr="17" rsrq="-10"/>
      </extensions>
    </trkpt>
    <trkpt lat="45.6046752" lon="10.4590865">
      <ele>264.4000244140625</ele>
      <time>2026-06-01T14:08:46.487+02:00</time>
      <extensions>
        <activity type="UNKNOWN" conf="40" state="unknown" tsMs="1780315720820"/>
        <radio op="vodafone IT" rat="LTE" q="27.00" rsrp="-110" sinr="13" rsrq="-10"/>
        <radio op="I TIM" rat="LTE" q="34.00" rsrp="-108" sinr="15" rsrq="-10"/>
      </extensions>
    </trkpt>
    <trkpt lat="45.6046952" lon="10.4590581">
      <ele>264.4000244140625</ele>
      <time>2026-06-01T14:09:26.901+02:00</time>
      <extensions>
        <activity type="UNKNOWN" conf="40" state="unknown" tsMs="1780315764820"/>
        <radio op="vodafone IT" rat="LTE" q="35.70" rsrp="-108" sinr="16" rsrq="-13"/>
        <radio op="I TIM" rat="LTE" q="27.00" rsrp="-107" sinr="10" rsrq="-13"/>
      </extensions>
    </trkpt>
    <trkpt lat="45.6043887" lon="10.459075">
      <ele>264.4000244140625</ele>
      <time>2026-06-01T14:22:02.523+02:00</time>
      <extensions>
        <activity type="ON_FOOT" conf="95" state="moving" tsMs="1780316517147"/>
        <radio op="vodafone IT" rat="LTE" q="55.00" rsrp="-103" sinr="22" rsrq="-7"/>
        <radio op="I TIM" rat="LTE" q="62.70" rsrp="-92" sinr="14" rsrq="-8"/>
      </extensions>
    </trkpt>
    <trkpt lat="45.6037404" lon="10.4584846">
      <ele>264.5</ele>
      <time>2026-06-01T14:22:58.919+02:00</time>
      <extensions>
        <activity type="ON_FOOT" conf="95" state="moving" tsMs="1780316551282"/>
        <radio op="vodafone IT" rat="LTE" q="59.50" rsrp="-90" sinr="12" rsrq="-7"/>
        <radio op="I TIM" rat="LTE" q="100.00" rsrp="-80" sinr="26" rsrq="-7"/>
      </extensions>
    </trkpt>
    <trkpt lat="45.6038633" lon="10.4587668">
      <ele>264.4000244140625</ele>
      <time>2026-06-01T14:23:30.02+02:00</time>
      <extensions>
        <activity type="UNKNOWN" conf="40" state="unknown" tsMs="1780316580271"/>
        <radio op="vodafone IT" rat="LTE" q="77.50" rsrp="-94" sinr="25" rsrq="-9"/>
        <radio op="I TIM" rat="LTE" q="100.00" rsrp="-82" sinr="24" rsrq="-7"/>
      </extensions>
    </trkpt>
    <trkpt lat="45.6031214" lon="10.4575881">
      <ele>264.4000244140625</ele>
      <time>2026-06-01T14:24:17.312+02:00</time>
      <extensions>
        <activity type="UNKNOWN" conf="40" state="unknown" tsMs="1780316650498"/>
        <radio op="vodafone IT" rat="LTE" q="90.00" rsrp="-89" sinr="29" rsrq="-9"/>
        <radio op="I TIM" rat="LTE" q="96.00" rsrp="-82" sinr="19" rsrq="-12"/>
      </extensions>
    </trkpt>
    <trkpt lat="45.6026335" lon="10.4562031">
      <ele>264.4000244140625</ele>
      <time>2026-06-01T14:24:27.594+02:00</time>
      <extensions>
        <activity type="UNKNOWN" conf="40" state="unknown" tsMs="1780316650498"/>
        <radio op="vodafone IT" rat="LTE" q="70.00" rsrp="-97" sinr="22" rsrq="-10"/>
        <radio op="I TIM" rat="LTE" q="54.00" rsrp="-95" sinr="13" rsrq="-8"/>
      </extensions>
    </trkpt>
    <trkpt lat="45.6020336" lon="10.4535098">
      <ele>261.8000183105469</ele>
      <time>2026-06-01T14:25:18.463+02:00</time>
      <extensions>
        <activity type="UNKNOWN" conf="40" state="unknown" tsMs="1780316696256"/>
        <radio op="vodafone IT" rat="LTE" q="26.00" rsrp="-105" sinr="8" rsrq="-10"/>
        <radio op="I TIM" rat="LTE" q="37.40" rsrp="-103" sinr="12" rsrq="-9"/>
      </extensions>
    </trkpt>
    <trkpt lat="45.6021699" lon="10.4535502">
      <ele>261.8000183105469</ele>
      <time>2026-06-01T14:25:27.599+02:00</time>
      <extensions>
        <activity type="UNKNOWN" conf="40" state="unknown" tsMs="1780316721332"/>
        <radio op="vodafone IT" rat="LTE" q="48.30" rsrp="-102" sinr="16" rsrq="-10"/>
        <radio op="I TIM" rat="LTE" q="30.00" rsrp="-100" sinr="7" rsrq="-11"/>
      </extensions>
    </trkpt>
    <trkpt lat="45.6026423" lon="10.4535675">
      <ele>261.8000183105469</ele>
      <time>2026-06-01T14:26:11.269+02:00</time>
      <extensions>
        <activity type="ON_FOOT" conf="94" state="moving" tsMs="1780316753272"/>
        <radio op="vodafone IT" rat="LTE" q="35.70" rsrp="-104" sinr="12" rsrq="-9"/>
        <radio op="I TIM" rat="LTE" q="48.00" rsrp="-101" sinr="15" rsrq="-9"/>
      </extensions>
    </trkpt>
    <trkpt lat="45.6025501" lon="10.4536577">
      <ele>261.8000183105469</ele>
      <time>2026-06-01T14:26:51.503+02:00</time>
      <extensions>
        <activity type="UNKNOWN" conf="40" state="unknown" tsMs="1780316789206"/>
        <radio op="vodafone IT" rat="LTE" q="16.00" rsrp="-109" sinr="5" rsrq="-10"/>
        <radio op="I TIM" rat="LTE" q="14.40" rsrp="-109" sinr="4" rsrq="-9"/>
      </extensions>
    </trkpt>
    <trkpt lat="45.602554" lon="10.4536529">
      <ele>261.8000183105469</ele>
      <time>2026-06-01T14:28:01.362+02:00</time>
      <extensions>
        <activity type="UNKNOWN" conf="40" state="unknown" tsMs="1780316875995"/>
        <radio op="vodafone IT" rat="LTE" q="5.50" rsrp="-114" sinr="0" rsrq="-11"/>
        <radio op="I TIM" rat="LTE" q="14.40" rsrp="-113" sinr="7" rsrq="-11"/>
      </extensions>
    </trkpt>
    <trkpt lat="45.6025508" lon="10.4536623">
      <ele>261.8000183105469</ele>
      <time>2026-06-01T14:28:54.333+02:00</time>
      <extensions>
        <activity type="UNKNOWN" conf="40" state="unknown" tsMs="1780316933173"/>
        <radio op="vodafone IT" rat="LTE" rsrp="-117" rsrq="-13"/>
        <radio op="I TIM" rat="LTE" rsrp="-121" rsrq="-12"/>
      </extensions>
    </trkpt>
    <trkpt lat="45.6025481" lon="10.4536631">
      <ele>261.8000183105469</ele>
      <time>2026-06-01T14:29:29.276+02:00</time>
      <extensions>
        <activity type="STILL" conf="50" state="still" tsMs="1780316967859"/>
        <radio op="vodafone IT" rat="LTE" q="6.30" rsrp="-116" sinr="2" rsrq="-12"/>
        <radio op="I TIM" rat="LTE" rsrp="-111" rsrq="-10"/>
      </extensions>
    </trkpt>
    <trkpt lat="45.6025514" lon="10.4536647">
      <ele>261.8000183105469</ele>
      <time>2026-06-01T14:30:03.873+02:00</time>
      <extensions>
        <activity type="STILL" conf="42" state="still" tsMs="1780316994297"/>
        <radio op="vodafone IT" rat="LTE" q="4.50" rsrp="-120" sinr="4" rsrq="-11"/>
        <radio op="I TIM" rat="LTE" q="16.20" rsrp="-116" sinr="13" rsrq="-11"/>
      </extensions>
    </trkpt>
    <trkpt lat="45.6025588" lon="10.4536538">
      <ele>261.8000183105469</ele>
      <time>2026-06-01T17:51:59.445+02:00</time>
      <extensions>
        <activity type="STILL" conf="100" state="still" tsMs="1780329099151"/>
        <radio op="vodafone IT" rat="LTE" q="15.30" rsrp="-108" sinr="4" rsrq="-12"/>
        <radio op="I TIM" rat="LTE" rsrp="-118" rsrq="-11"/>
      </extensions>
    </trkpt>
    <trkpt lat="45.6025582" lon="10.4536544">
      <ele>261.8000183105469</ele>
      <time>2026-06-01T17:52:51.479+02:00</time>
      <extensions>
        <activity type="STILL" conf="100" state="still" tsMs="1780329161345"/>
        <radio op="vodafone IT" rat="LTE" q="13.60" rsrp="-108" sinr="3" rsrq="-10"/>
        <radio op="I TIM" rat="LTE" q="3.50" rsrp="-118" sinr="0" rsrq="-11"/>
      </extensions>
    </trkpt>
    <trkpt lat="45.6025577" lon="10.4536551">
      <ele>261.8000183105469</ele>
      <time>2026-06-01T17:53:53.495+02:00</time>
      <extensions>
        <activity type="STILL" conf="100" state="still" tsMs="1780329223293"/>
        <radio op="vodafone IT" rat="LTE" q="20.90" rsrp="-106" sinr="6" rsrq="-12"/>
        <radio op="I TIM" rat="LTE" q="4.20" rsrp="-118" sinr="1" rsrq="-12"/>
      </extensions>
    </trkpt>
    <trkpt lat="45.6025564" lon="10.4536535">
      <ele>261.8000183105469</ele>
      <time>2026-06-01T17:54:55.482+02:00</time>
      <extensions>
        <activity type="STILL" conf="100" state="still" tsMs="1780329285322"/>
        <radio op="vodafone IT" rat="LTE" q="10.40" rsrp="-112" sinr="3" rsrq="-13"/>
        <radio op="I TIM" rat="LTE" q="9.60" rsrp="-117" sinr="7" rsrq="-11"/>
      </extensions>
    </trkpt>
    <trkpt lat="45.5956782" lon="10.4424144">
      <ele>256.20001220703125</ele>
      <time>2026-06-01T20:04:01.286+02:00</time>
      <extensions>
        <activity type="STILL" conf="36" state="still" tsMs="1780337046171"/>
        <radio op="vodafone IT" rat="LTE" rsrp="-109" rsrq="-13"/>
        <radio op="I TIM" rat="LTE" q="22.10" rsrp="-112" sinr="12" rsrq="-9"/>
      </extensions>
    </trkpt>
    <trkpt lat="45.595644" lon="10.4424244">
      <ele>256.20001220703125</ele>
      <time>2026-06-01T20:04:51.819+02:00</time>
      <extensions>
        <activity type="UNKNOWN" conf="40" state="unknown" tsMs="1780337067094"/>
        <radio op="vodafone IT" rat="LTE" q="14.00" rsrp="-105" sinr="2" rsrq="-12"/>
        <radio op="I TIM" rat="LTE" q="29.40" rsrp="-104" sinr="9" rsrq="-10"/>
      </extensions>
    </trkpt>
    <trkpt lat="45.5956303" lon="10.4424206">
      <ele>256.20001220703125</ele>
      <time>2026-06-01T20:05:23.108+02:00</time>
      <extensions>
        <activity type="UNKNOWN" conf="40" state="unknown" tsMs="1780337096486"/>
        <radio op="vodafone IT" rat="LTE" rsrp="-110" rsrq="-12"/>
        <radio op="I TIM" rat="LTE" q="14.30" rsrp="-112" sinr="6" rsrq="-10"/>
      </extensions>
    </trkpt>
    <trkpt lat="45.5956037" lon="10.4423888">
      <ele>256.20001220703125</ele>
      <time>2026-06-01T20:05:54.337+02:00</time>
      <extensions>
        <activity type="ON_FOOT" conf="89" state="moving" tsMs="1780337151314"/>
        <radio op="vodafone IT" rat="LTE" q="8.50" rsrp="-108" sinr="0" rsrq="-15"/>
        <radio op="I TIM" rat="LTE" q="12.10" rsrp="-114" sinr="6" rsrq="-10"/>
      </extensions>
    </trkpt>
    <trkpt lat="45.5957002" lon="10.4424004">
      <ele>256.20001220703125</ele>
      <time>2026-06-01T20:06:25.545+02:00</time>
      <extensions>
        <activity type="UNKNOWN" conf="40" state="unknown" tsMs="1780337185425"/>
        <radio op="vodafone IT" rat="LTE" q="16.00" rsrp="-105" sinr="3" rsrq="-9"/>
        <radio op="I TIM" rat="LTE" q="19.60" rsrp="-111" sinr="9" rsrq="-9"/>
      </extensions>
    </trkpt>
    <trkpt lat="45.5956916" lon="10.4424101">
      <ele>256.20001220703125</ele>
      <time>2026-06-01T20:06:56.78+02:00</time>
      <extensions>
        <activity type="STILL" conf="48" state="still" tsMs="1780337213571"/>
        <radio op="vodafone IT" rat="LTE" rsrp="-110" rsrq="-11"/>
        <radio op="I TIM" rat="LTE" q="18.00" rsrp="-113" sinr="10" rsrq="-8"/>
      </extensions>
    </trkpt>
    <trkpt lat="45.5956814" lon="10.4423904">
      <ele>256.20001220703125</ele>
      <time>2026-06-01T20:07:27.948+02:00</time>
      <extensions>
        <activity type="UNKNOWN" conf="40" state="unknown" tsMs="1780337242464"/>
        <radio op="vodafone IT" rat="LTE" q="11.20" rsrp="-111" sinr="3" rsrq="-14"/>
        <radio op="I TIM" rat="LTE" q="12.00" rsrp="-115" sinr="7" rsrq="-8"/>
      </extensions>
    </trkpt>
    <trkpt lat="45.5955113" lon="10.4424778">
      <ele>256.20001220703125</ele>
      <time>2026-06-01T20:08:13.122+02:00</time>
      <extensions>
        <activity type="UNKNOWN" conf="40" state="unknown" tsMs="1780337290587"/>
        <radio op="vodafone IT" rat="LTE" rsrp="-112" rsrq="-17"/>
        <radio op="I TIM" rat="LTE" q="14.30" rsrp="-112" sinr="6" rsrq="-10"/>
      </extensions>
    </trkpt>
    <trkpt lat="45.595659" lon="10.4424071">
      <ele>256.20001220703125</ele>
      <time>2026-06-01T20:08:45.289+02:00</time>
      <extensions>
        <activity type="UNKNOWN" conf="40" state="unknown" tsMs="1780337296498"/>
        <radio op="vodafone IT" rat="LTE" q="19.80" rsrp="-107" sinr="6" rsrq="-7"/>
        <radio op="I TIM" rat="LTE" q="22.40" rsrp="-111" sinr="11" rsrq="-7"/>
      </extensions>
    </trkpt>
    <trkpt lat="45.5955915" lon="10.4424224">
      <ele>256.20001220703125</ele>
      <time>2026-06-01T20:09:42.398+02:00</time>
      <extensions>
        <activity type="UNKNOWN" conf="40" state="unknown" tsMs="1780337380959"/>
        <radio op="vodafone IT" rat="LTE" q="20.80" rsrp="-112" sinr="11" rsrq="-8"/>
        <radio op="I TIM" rat="LTE" q="17.60" rsrp="-114" sinr="11" rsrq="-8"/>
      </extensions>
    </trkpt>
    <trkpt lat="45.5956452" lon="10.4424288">
      <ele>256.20001220703125</ele>
      <time>2026-06-01T20:10:31.809+02:00</time>
      <extensions>
        <activity type="UNKNOWN" conf="40" state="unknown" tsMs="1780337425596"/>
        <radio op="vodafone IT" rat="LTE" q="24.00" rsrp="-109" sinr="10" rsrq="-12"/>
        <radio op="I TIM" rat="LTE" q="21.00" rsrp="-111" sinr="10" rsrq="-9"/>
      </extensions>
    </trkpt>
    <trkpt lat="45.5956111" lon="10.4424313">
      <ele>256.20001220703125</ele>
      <time>2026-06-01T20:11:13.044+02:00</time>
      <extensions>
        <activity type="UNKNOWN" conf="40" state="unknown" tsMs="1780337472407"/>
        <radio op="vodafone IT" rat="LTE" q="16.80" rsrp="-113" sinr="9" rsrq="-11"/>
        <radio op="I TIM" rat="LTE" q="15.40" rsrp="-114" sinr="9" rsrq="-10"/>
      </extensions>
    </trkpt>
    <trkpt lat="45.5955264" lon="10.4424474">
      <ele>256.20001220703125</ele>
      <time>2026-06-01T20:11:44.036+02:00</time>
      <extensions>
        <activity type="UNKNOWN" conf="40" state="unknown" tsMs="1780337500884"/>
        <radio op="vodafone IT" rat="LTE" q="55.20" rsrp="-101" sinr="18" rsrq="-11"/>
        <radio op="I TIM" rat="LTE" q="44.00" rsrp="-105" sinr="17" rsrq="-9"/>
      </extensions>
    </trkpt>
    <trkpt lat="45.595555" lon="10.4424521">
      <ele>256.20001220703125</ele>
      <time>2026-06-01T20:11:46.337+02:00</time>
      <extensions>
        <activity type="UNKNOWN" conf="40" state="unknown" tsMs="1780337500884"/>
        <radio op="vodafone IT" rat="LTE" q="65.00" rsrp="-99" sinr="20" rsrq="-11"/>
        <radio op="I TIM" rat="LTE" q="46.20" rsrp="-103" sinr="16" rsrq="-10"/>
      </extensions>
    </trkpt>
    <trkpt lat="45.5956149" lon="10.4424993">
      <ele>252.01232994731467</ele>
      <time>2026-06-01T20:12:25.407+02:00</time>
      <extensions>
        <activity type="ON_FOOT" conf="87" state="moving" tsMs="1780337544797"/>
        <radio op="vodafone IT" rat="LTE" q="55.00" rsrp="-100" sinr="17" rsrq="-7"/>
        <radio op="I TIM" rat="LTE" q="20.90" rsrp="-106" sinr="6" rsrq="-11"/>
      </extensions>
    </trkpt>
    <trkpt lat="45.5956576" lon="10.4424289">
      <ele>256.20001220703125</ele>
      <time>2026-06-01T20:12:56.839+02:00</time>
      <extensions>
        <activity type="UNKNOWN" conf="40" state="unknown" tsMs="1780337571388"/>
        <radio op="vodafone IT" rat="LTE" q="30.40" rsrp="-106" sinr="11" rsrq="-8"/>
        <radio op="I TIM" rat="LTE" q="27.20" rsrp="-109" sinr="12" rsrq="-12"/>
      </extensions>
    </trkpt>
    <trkpt lat="45.595526" lon="10.4424569">
      <ele>256.20001220703125</ele>
      <time>2026-06-01T20:13:48.589+02:00</time>
      <extensions>
        <activity type="UNKNOWN" conf="40" state="unknown" tsMs="1780337628585"/>
        <radio op="vodafone IT" rat="LTE" rsrp="-109" rsrq="-8"/>
        <radio op="I TIM" rat="LTE" q="28.00" rsrp="-105" sinr="9" rsrq="-12"/>
      </extensions>
    </trkpt>
    <trkpt lat="45.5954293" lon="10.4426579">
      <ele>256.20001220703125</ele>
      <time>2026-06-01T20:14:27.604+02:00</time>
      <extensions>
        <activity type="UNKNOWN" conf="40" state="unknown" tsMs="1780337659956"/>
        <radio op="vodafone IT" rat="LTE" q="23.80" rsrp="-108" sinr="9" rsrq="-10"/>
        <radio op="I TIM" rat="LTE" q="28.50" rsrp="-106" sinr="10" rsrq="-9"/>
      </extensions>
    </trkpt>
    <trkpt lat="45.5954464" lon="10.4426239">
      <ele>256.20001220703125</ele>
      <time>2026-06-01T20:15:41.806+02:00</time>
      <extensions>
        <activity type="UNKNOWN" conf="40" state="unknown" tsMs="1780337732986"/>
        <radio op="vodafone IT" rat="LTE" q="31.50" rsrp="-104" sinr="10" rsrq="-9"/>
        <radio op="I TIM" rat="LTE" q="35.20" rsrp="-103" sinr="11" rsrq="-8"/>
      </extensions>
    </trkpt>
    <trkpt lat="45.5954577" lon="10.4425952">
      <ele>256.20001220703125</ele>
      <time>2026-06-01T20:16:13+02:00</time>
      <extensions>
        <activity type="ON_FOOT" conf="81" state="moving" tsMs="1780337767635"/>
        <radio op="vodafone IT" rat="LTE" q="37.40" rsrp="-103" sinr="12" rsrq="-10"/>
        <radio op="I TIM" rat="LTE" q="33.00" rsrp="-103" sinr="10" rsrq="-11"/>
      </extensions>
    </trkpt>
    <trkpt lat="45.5955195" lon="10.4424935">
      <ele>256.20001220703125</ele>
      <time>2026-06-01T20:17:00.796+02:00</time>
      <extensions>
        <activity type="UNKNOWN" conf="40" state="unknown" tsMs="1780337824409"/>
        <radio op="vodafone IT" rat="LTE" q="29.40" rsrp="-104" sinr="9" rsrq="-7"/>
        <radio op="I TIM" rat="LTE" q="54.00" rsrp="-95" sinr="13" rsrq="-13"/>
      </extensions>
    </trkpt>
    <trkpt lat="45.5955176" lon="10.4424815">
      <ele>256.20001220703125</ele>
      <time>2026-06-01T20:17:07.352+02:00</time>
      <extensions>
        <activity type="UNKNOWN" conf="40" state="unknown" tsMs="1780337824409"/>
        <radio op="vodafone IT" rat="LTE" q="28.00" rsrp="-105" sinr="9" rsrq="-12"/>
        <radio op="I TIM" rat="LTE" q="38.40" rsrp="-101" sinr="11" rsrq="-12"/>
      </extensions>
    </trkpt>
    <trkpt lat="45.5953185" lon="10.4423478">
      <ele>255.70001220703125</ele>
      <time>2026-06-01T20:17:48.14+02:00</time>
      <extensions>
        <activity type="ON_FOOT" conf="86" state="moving" tsMs="1780337873655"/>
        <radio op="vodafone IT" rat="LTE" rsrp="-97" rsrq="-18"/>
        <radio op="I TIM" rat="LTE" q="42.90" rsrp="-86" sinr="6" rsrq="-12"/>
      </extensions>
    </trkpt>
    <trkpt lat="45.5953189" lon="10.4423465">
      <ele>256.20001220703125</ele>
      <time>2026-06-01T20:18:28.104+02:00</time>
      <extensions>
        <activity type="STILL" conf="99" state="still" tsMs="1780337907523"/>
        <radio op="vodafone IT" rat="LTE" q="27.90" rsrp="-94" sinr="4" rsrq="-9"/>
        <radio op="I TIM" rat="LTE" q="35.10" rsrp="-86" sinr="4" rsrq="-13"/>
      </extensions>
    </trkpt>
    <trkpt lat="45.5951109" lon="10.4432479">
      <ele>256.20001220703125</ele>
      <time>2026-06-01T20:19:00.854+02:00</time>
      <extensions>
        <activity type="IN_VEHICLE" conf="96" state="moving" tsMs="1780337937607"/>
        <radio op="vodafone IT" rat="LTE" q="64.80" rsrp="-89" sinr="13" rsrq="-10"/>
        <radio op="I TIM" rat="LTE" q="84.00" rsrp="-80" sinr="16" rsrq="-12"/>
      </extensions>
    </trkpt>
    <trkpt lat="45.5928207" lon="10.4422533">
      <ele>253.50001525878906</ele>
      <time>2026-06-01T20:19:49.143+02:00</time>
      <extensions>
        <activity type="IN_VEHICLE" conf="97" state="moving" tsMs="1780337993425"/>
        <radio op="vodafone IT" rat="LTE" q="84.00" rsrp="-79" sinr="16" rsrq="-7"/>
        <radio op="I TIM" rat="LTE" q="92.00" rsrp="-78" sinr="18" rsrq="-7"/>
      </extensions>
    </trkpt>
    <trkpt lat="45.5927223" lon="10.4431285">
      <ele>256.4962102851804</ele>
      <time>2026-06-01T20:20:16.739+02:00</time>
      <extensions>
        <activity type="IN_VEHICLE" conf="87" state="moving" tsMs="1780338017209"/>
        <radio op="vodafone IT" rat="LTE" q="64.00" rsrp="-81" sinr="11" rsrq="-11"/>
        <radio op="I TIM" rat="LTE" q="88.00" rsrp="-76" sinr="17" rsrq="-8"/>
      </extensions>
    </trkpt>
    <trkpt lat="45.5931329" lon="10.442848">
      <ele>256.4962102851804</ele>
      <time>2026-06-01T20:20:27.149+02:00</time>
      <extensions>
        <activity type="UNKNOWN" conf="40" state="unknown" tsMs="1780338026302"/>
        <radio op="vodafone IT" rat="LTE" q="76.00" rsrp="-78" sinr="14" rsrq="-9"/>
        <radio op="I TIM" rat="LTE" q="88.00" rsrp="-78" sinr="17" rsrq="-10"/>
      </extensions>
    </trkpt>
    <trkpt lat="45.5932547" lon="10.4427742">
      <ele>254.60000610351562</ele>
      <time>2026-06-01T20:21:04.782+02:00</time>
      <extensions>
        <activity type="UNKNOWN" conf="40" state="unknown" tsMs="1780338064609"/>
        <radio op="vodafone IT" rat="LTE" q="52.00" rsrp="-99" sinr="15" rsrq="-7"/>
        <radio op="I TIM" rat="LTE" q="37.80" rsrp="-98" sinr="9" rsrq="-6"/>
      </extensions>
    </trkpt>
    <trkpt lat="45.5932339" lon="10.4428149">
      <ele>254.60000610351562</ele>
      <time>2026-06-01T20:21:40.756+02:00</time>
      <extensions>
        <activity type="UNKNOWN" conf="40" state="unknown" tsMs="1780338100839"/>
        <radio op="vodafone IT" rat="LTE" q="58.80" rsrp="-97" sinr="16" rsrq="-11"/>
        <radio op="I TIM" rat="LTE" q="60.80" rsrp="-93" sinr="14" rsrq="-6"/>
      </extensions>
    </trkpt>
    <trkpt lat="45.5932346" lon="10.4428016">
      <ele>254.60000610351562</ele>
      <time>2026-06-01T20:22:13.82+02:00</time>
      <extensions>
        <activity type="UNKNOWN" conf="40" state="unknown" tsMs="1780338128929"/>
        <radio op="vodafone IT" rat="LTE" q="51.30" rsrp="-98" sinr="14" rsrq="-9"/>
        <radio op="I TIM" rat="LTE" q="58.00" rsrp="-96" sinr="15" rsrq="-10"/>
      </extensions>
    </trkpt>
    <trkpt lat="45.5933826" lon="10.4425266">
      <ele>254.60000610351562</ele>
      <time>2026-06-01T20:22:40.772+02:00</time>
      <extensions>
        <activity type="ON_FOOT" conf="97" state="moving" tsMs="1780338161360"/>
        <radio op="vodafone IT" rat="LTE" q="18.40" rsrp="-102" sinr="3" rsrq="-9"/>
        <radio op="I TIM" rat="LTE" q="31.90" rsrp="-96" sinr="6" rsrq="-10"/>
      </extensions>
    </trkpt>
    <trkpt lat="45.5933748" lon="10.4426103">
      <ele>254.60000610351562</ele>
      <time>2026-06-01T20:23:15.402+02:00</time>
      <extensions>
        <activity type="ON_FOOT" conf="81" state="moving" tsMs="1780338191873"/>
        <radio op="vodafone IT" rat="LTE" rsrp="-106" rsrq="-10"/>
        <radio op="I TIM" rat="LTE" q="44.20" rsrp="-99" sinr="12" rsrq="-9"/>
      </extensions>
    </trkpt>
    <trkpt lat="45.5934088" lon="10.4425075">
      <ele>254.60000610351562</ele>
      <time>2026-06-01T20:23:46.592+02:00</time>
      <extensions>
        <activity type="STILL" conf="51" state="still" tsMs="1780338222926"/>
        <radio op="vodafone IT" rat="LTE" q="40.80" rsrp="-101" sinr="12" rsrq="-11"/>
        <radio op="I TIM" rat="LTE" q="44.20" rsrp="-91" sinr="8" rsrq="-9"/>
      </extensions>
    </trkpt>
    <trkpt lat="45.593392" lon="10.4424716">
      <ele>254.60000610351562</ele>
      <time>2026-06-01T20:24:17.835+02:00</time>
      <extensions>
        <activity type="UNKNOWN" conf="40" state="unknown" tsMs="1780338254221"/>
        <radio op="vodafone IT" rat="LTE" q="18.90" rsrp="-104" sinr="4" rsrq="-8"/>
        <radio op="I TIM" rat="LTE" q="54.60" rsrp="-99" sinr="16" rsrq="-7"/>
      </extensions>
    </trkpt>
    <trkpt lat="45.5934232" lon="10.442477">
      <ele>254.60000610351562</ele>
      <time>2026-06-01T20:24:59.187+02:00</time>
      <extensions>
        <activity type="UNKNOWN" conf="40" state="unknown" tsMs="1780338298607"/>
        <radio op="vodafone IT" rat="LTE" q="47.50" rsrp="-100" sinr="14" rsrq="-12"/>
        <radio op="I TIM" rat="LTE" q="47.50" rsrp="-100" sinr="14" rsrq="-11"/>
      </extensions>
    </trkpt>
    <trkpt lat="45.5934445" lon="10.4424538">
      <ele>254.60000610351562</ele>
      <time>2026-06-01T20:25:58.568+02:00</time>
      <extensions>
        <activity type="UNKNOWN" conf="40" state="unknown" tsMs="1780338353603"/>
        <radio op="vodafone IT" rat="LTE" q="61.60" rsrp="-97" sinr="17" rsrq="-8"/>
        <radio op="I TIM" rat="LTE" q="84.00" rsrp="-90" sinr="19" rsrq="-8"/>
      </extensions>
    </trkpt>
    <trkpt lat="45.5932675" lon="10.4427616">
      <ele>254.60000610351562</ele>
      <time>2026-06-01T20:31:21.73+02:00</time>
      <extensions>
        <activity type="ON_FOOT" conf="88" state="moving" tsMs="1780338677631"/>
        <radio op="vodafone IT" rat="LTE" q="43.70" rsrp="-106" sinr="18" rsrq="-13"/>
        <radio op="I TIM" rat="LTE" q="46.00" rsrp="-102" sinr="15" rsrq="-8"/>
      </extensions>
    </trkpt>
    <trkpt lat="45.593239" lon="10.4427902">
      <ele>254.60000610351562</ele>
      <time>2026-06-01T20:32:48.655+02:00</time>
      <extensions>
        <activity type="UNKNOWN" conf="40" state="unknown" tsMs="1780338758983"/>
        <radio op="vodafone IT" rat="LTE" q="34.20" rsrp="-106" sinr="13" rsrq="-7"/>
        <radio op="I TIM" rat="LTE" q="45.60" rsrp="-106" sinr="19" rsrq="-10"/>
      </extensions>
    </trkpt>
    <trkpt lat="45.5933814" lon="10.442572">
      <ele>254.60000610351562</ele>
      <time>2026-06-01T20:33:19.821+02:00</time>
      <extensions>
        <activity type="ON_FOOT" conf="86" state="moving" tsMs="1780338794464"/>
        <radio op="vodafone IT" rat="LTE" q="21.00" rsrp="-110" sinr="9" rsrq="-7"/>
        <radio op="I TIM" rat="LTE" q="24.00" rsrp="-109" sinr="10" rsrq="-12"/>
      </extensions>
    </trkpt>
    <trkpt lat="45.5934171" lon="10.4424643">
      <ele>254.60000610351562</ele>
      <time>2026-06-01T20:33:51.102+02:00</time>
      <extensions>
        <activity type="ON_FOOT" conf="94" state="moving" tsMs="1780338825630"/>
        <radio op="vodafone IT" rat="LTE" q="20.80" rsrp="-109" sinr="8" rsrq="-9"/>
        <radio op="I TIM" rat="LTE" q="33.00" rsrp="-103" sinr="10" rsrq="-11"/>
      </extensions>
    </trkpt>
    <trkpt lat="45.5934461" lon="10.4424502">
      <ele>254.60000610351562</ele>
      <time>2026-06-01T20:34:22.334+02:00</time>
      <extensions>
        <activity type="ON_FOOT" conf="87" state="moving" tsMs="1780338856869"/>
        <radio op="vodafone IT" rat="LTE" q="16.20" rsrp="-107" sinr="4" rsrq="-7"/>
        <radio op="I TIM" rat="LTE" q="26.00" rsrp="-105" sinr="8" rsrq="-10"/>
      </extensions>
    </trkpt>
    <trkpt lat="45.5934194" lon="10.4424686">
      <ele>254.60000610351562</ele>
      <time>2026-06-01T20:34:51.552+02:00</time>
      <extensions>
        <activity type="UNKNOWN" conf="40" state="unknown" tsMs="1780338893322"/>
        <radio op="vodafone IT" rat="LTE" q="20.00" rsrp="-105" sinr="5" rsrq="-12"/>
        <radio op="I TIM" rat="LTE" q="37.80" rsrp="-98" sinr="9" rsrq="-8"/>
      </extensions>
    </trkpt>
    <trkpt lat="45.593426" lon="10.4424639">
      <ele>254.60000610351562</ele>
      <time>2026-06-01T20:35:24.658+02:00</time>
      <extensions>
        <activity type="UNKNOWN" conf="40" state="unknown" tsMs="1780338924494"/>
        <radio op="vodafone IT" rat="LTE" q="18.70" rsrp="-108" sinr="6" rsrq="-14"/>
        <radio op="I TIM" rat="LTE" q="29.70" rsrp="-98" sinr="6" rsrq="-8"/>
      </extensions>
    </trkpt>
    <trkpt lat="45.5934141" lon="10.4424806">
      <ele>254.60000610351562</ele>
      <time>2026-06-01T20:35:57.622+02:00</time>
      <extensions>
        <activity type="STILL" conf="98" state="still" tsMs="1780338955740"/>
        <radio op="vodafone IT" rat="LTE" q="16.00" rsrp="-105" sinr="3" rsrq="-10"/>
        <radio op="I TIM" rat="LTE" q="33.60" rsrp="-101" sinr="9" rsrq="-9"/>
      </extensions>
    </trkpt>
    <trkpt lat="45.5934097" lon="10.4425406">
      <ele>254.60000610351562</ele>
      <time>2026-06-01T20:36:28.888+02:00</time>
      <extensions>
        <activity type="ON_FOOT" conf="91" state="moving" tsMs="1780338983277"/>
        <radio op="vodafone IT" rat="LTE" rsrp="-112" rsrq="-8"/>
        <radio op="I TIM" rat="LTE" q="25.20" rsrp="-107" sinr="9" rsrq="-11"/>
      </extensions>
    </trkpt>
    <trkpt lat="45.5933951" lon="10.4425252">
      <ele>253.70001220703125</ele>
      <time>2026-06-01T20:36:55.11+02:00</time>
      <extensions>
        <activity type="UNKNOWN" conf="40" state="unknown" tsMs="1780339014559"/>
        <radio op="vodafone IT" rat="LTE" q="16.00" rsrp="-109" sinr="5" rsrq="-12"/>
        <radio op="I TIM" rat="LTE" q="44.20" rsrp="-99" sinr="12" rsrq="-10"/>
      </extensions>
    </trkpt>
    <trkpt lat="45.5934025" lon="10.4425039">
      <ele>252.93534871507674</ele>
      <time>2026-06-01T20:37:30.366+02:00</time>
      <extensions>
        <activity type="UNKNOWN" conf="40" state="unknown" tsMs="1780339046707"/>
        <radio op="vodafone IT" rat="LTE" q="28.80" rsrp="-107" sinr="11" rsrq="-9"/>
        <radio op="I TIM" rat="LTE" q="39.10" rsrp="-102" sinr="12" rsrq="-9"/>
      </extensions>
    </trkpt>
    <trkpt lat="45.5934" lon="10.4425046">
      <ele>250.5097816445034</ele>
      <time>2026-06-01T20:38:01.637+02:00</time>
      <extensions>
        <activity type="UNKNOWN" conf="40" state="unknown" tsMs="1780339078368"/>
        <radio op="vodafone IT" rat="LTE" q="13.50" rsrp="-110" sinr="4" rsrq="-14"/>
        <radio op="I TIM" rat="LTE" q="30.40" rsrp="-106" sinr="11" rsrq="-8"/>
      </extensions>
    </trkpt>
    <trkpt lat="45.593403" lon="10.4424863">
      <ele>249.09889593508032</ele>
      <time>2026-06-01T20:38:32.87+02:00</time>
      <extensions>
        <activity type="UNKNOWN" conf="40" state="unknown" tsMs="1780339109367"/>
        <radio op="vodafone IT" rat="LTE" q="9.10" rsrp="-112" sinr="2" rsrq="-11"/>
        <radio op="I TIM" rat="LTE" q="38.00" rsrp="-105" sinr="14" rsrq="-7"/>
      </extensions>
    </trkpt>
    <trkpt lat="45.5933883" lon="10.4425683">
      <ele>248.2779306350167</ele>
      <time>2026-06-01T20:39:04.096+02:00</time>
      <extensions>
        <activity type="UNKNOWN" conf="40" state="unknown" tsMs="1780339140569"/>
        <radio op="vodafone IT" rat="LTE" q="32.40" rsrp="-107" sinr="13" rsrq="-9"/>
        <radio op="I TIM" rat="LTE" q="45.60" rsrp="-101" sinr="14" rsrq="-10"/>
      </extensions>
    </trkpt>
    <trkpt lat="45.5934055" lon="10.4425176">
      <ele>249.9941980743755</ele>
      <time>2026-06-01T20:39:35.096+02:00</time>
      <extensions>
        <activity type="ON_FOOT" conf="90" state="moving" tsMs="1780339171681"/>
        <radio op="vodafone IT" rat="LTE" rsrp="-109" rsrq="-12"/>
        <radio op="I TIM" rat="LTE" q="32.50" rsrp="-100" sinr="8" rsrq="-11"/>
      </extensions>
    </trkpt>
    <trkpt lat="45.5934464" lon="10.4424518">
      <ele>249.23467035862495</ele>
      <time>2026-06-01T20:40:06.404+02:00</time>
      <extensions>
        <activity type="ON_FOOT" conf="90" state="moving" tsMs="1780339202851"/>
        <radio op="vodafone IT" rat="LTE" q="19.20" rsrp="-109" sinr="7" rsrq="-9"/>
        <radio op="I TIM" rat="LTE" q="34.00" rsrp="-105" sinr="12" rsrq="-8"/>
      </extensions>
    </trkpt>
    <trkpt lat="45.59344" lon="10.4424623">
      <ele>248.91857384274985</ele>
      <time>2026-06-01T20:40:37.706+02:00</time>
      <extensions>
        <activity type="UNKNOWN" conf="40" state="unknown" tsMs="1780339234099"/>
        <radio op="vodafone IT" rat="LTE" q="9.60" rsrp="-109" sinr="1" rsrq="-12"/>
        <radio op="I TIM" rat="LTE" q="34.00" rsrp="-105" sinr="12" rsrq="-10"/>
      </extensions>
    </trkpt>
    <trkpt lat="45.5934348" lon="10.4424818">
      <ele>249.08192428285545</ele>
      <time>2026-06-01T20:41:08.985+02:00</time>
      <extensions>
        <activity type="UNKNOWN" conf="40" state="unknown" tsMs="1780339265432"/>
        <radio op="vodafone IT" rat="LTE" q="13.20" rsrp="-114" sinr="7" rsrq="-8"/>
        <radio op="I TIM" rat="LTE" q="23.40" rsrp="-107" sinr="8" rsrq="-10"/>
      </extensions>
    </trkpt>
    <trkpt lat="45.5934337" lon="10.4424595">
      <ele>254.60000610351562</ele>
      <time>2026-06-01T20:41:40.23+02:00</time>
      <extensions>
        <activity type="STILL" conf="64" state="still" tsMs="1780339296762"/>
        <radio op="vodafone IT" rat="LTE" q="15.40" rsrp="-111" sinr="6" rsrq="-11"/>
        <radio op="I TIM" rat="LTE" q="18.00" rsrp="-107" sinr="5" rsrq="-11"/>
      </extensions>
    </trkpt>
    <trkpt lat="45.5934297" lon="10.4424663">
      <ele>248.9201649035015</ele>
      <time>2026-06-01T20:42:11.521+02:00</time>
      <extensions>
        <activity type="UNKNOWN" conf="40" state="unknown" tsMs="1780339328001"/>
        <radio op="vodafone IT" rat="LTE" q="14.00" rsrp="-111" sinr="5" rsrq="-11"/>
        <radio op="I TIM" rat="LTE" q="22.10" rsrp="-108" sinr="8" rsrq="-9"/>
      </extensions>
    </trkpt>
    <trkpt lat="45.5934091" lon="10.4425068">
      <ele>250.53471290923846</ele>
      <time>2026-06-01T20:42:42.809+02:00</time>
      <extensions>
        <activity type="UNKNOWN" conf="40" state="unknown" tsMs="1780339359300"/>
        <radio op="vodafone IT" rat="LTE" rsrp="-106" rsrq="-11"/>
        <radio op="I TIM" rat="LTE" q="22.00" rsrp="-103" sinr="5" rsrq="-8"/>
      </extensions>
    </trkpt>
    <trkpt lat="45.5934066" lon="10.4425437">
      <ele>249.42197904643203</ele>
      <time>2026-06-01T20:43:14.078+02:00</time>
      <extensions>
        <activity type="UNKNOWN" conf="40" state="unknown" tsMs="1780339390479"/>
        <radio op="vodafone IT" rat="LTE" rsrp="-107" rsrq="-10"/>
        <radio op="I TIM" rat="LTE" q="37.40" rsrp="-103" sinr="12" rsrq="-7"/>
      </extensions>
    </trkpt>
    <trkpt lat="45.5933912" lon="10.4425179">
      <ele>249.66171228300234</ele>
      <time>2026-06-01T20:43:40.293+02:00</time>
      <extensions>
        <activity type="ON_FOOT" conf="89" state="moving" tsMs="1780339421826"/>
        <radio op="vodafone IT" rat="LTE" rsrp="-108" rsrq="-11"/>
        <radio op="I TIM" rat="LTE" q="42.50" rsrp="-100" sinr="12" rsrq="-12"/>
      </extensions>
    </trkpt>
    <trkpt lat="45.5933849" lon="10.4425002">
      <ele>249.79537176779482</ele>
      <time>2026-06-01T20:44:10.747+02:00</time>
      <extensions>
        <activity type="UNKNOWN" conf="40" state="unknown" tsMs="1780339452077"/>
        <radio op="vodafone IT" rat="LTE" rsrp="-112" rsrq="-9"/>
        <radio op="I TIM" rat="LTE" q="31.50" rsrp="-104" sinr="10" rsrq="-8"/>
      </extensions>
    </trkpt>
    <trkpt lat="45.5933825" lon="10.4425429">
      <ele>249.57685019621405</ele>
      <time>2026-06-01T20:44:46.074+02:00</time>
      <extensions>
        <activity type="STILL" conf="71" state="still" tsMs="1780339482435"/>
        <radio op="vodafone IT" rat="LTE" q="12.00" rsrp="-110" sinr="3" rsrq="-8"/>
        <radio op="I TIM" rat="LTE" q="30.00" rsrp="-105" sinr="10" rsrq="-8"/>
      </extensions>
    </trkpt>
    <trkpt lat="45.5932355" lon="10.4428124">
      <ele>247.53889586209596</ele>
      <time>2026-06-01T20:45:17.19+02:00</time>
      <extensions>
        <activity type="ON_FOOT" conf="90" state="moving" tsMs="1780339513601"/>
        <radio op="vodafone IT" rat="LTE" q="34.00" rsrp="-108" sinr="15" rsrq="-8"/>
        <radio op="I TIM" rat="LTE" q="39.60" rsrp="-107" sinr="17" rsrq="-8"/>
      </extensions>
    </trkpt>
    <trkpt lat="45.5932854" lon="10.4429374">
      <ele>249.44701451326193</ele>
      <time>2026-06-01T20:45:48.409+02:00</time>
      <extensions>
        <activity type="ON_FOOT" conf="86" state="moving" tsMs="1780339544881"/>
        <radio op="vodafone IT" rat="LTE" q="41.80" rsrp="-106" sinr="17" rsrq="-7"/>
        <radio op="I TIM" rat="LTE" q="50.60" rsrp="-102" sinr="17" rsrq="-7"/>
      </extensions>
    </trkpt>
    <trkpt lat="45.5932838" lon="10.4429455">
      <ele>249.66865134207563</ele>
      <time>2026-06-01T20:46:19.711+02:00</time>
      <extensions>
        <activity type="UNKNOWN" conf="40" state="unknown" tsMs="1780339576183"/>
        <radio op="vodafone IT" rat="LTE" q="50.60" rsrp="-102" sinr="17" rsrq="-8"/>
        <radio op="I TIM" rat="LTE" q="44.00" rsrp="-103" sinr="15" rsrq="-8"/>
      </extensions>
    </trkpt>
    <trkpt lat="45.5932869" lon="10.4429485">
      <ele>252.55005472949284</ele>
      <time>2026-06-01T20:46:59.6+02:00</time>
      <extensions>
        <activity type="UNKNOWN" conf="40" state="unknown" tsMs="1780339618995"/>
        <radio op="vodafone IT" rat="LTE" q="37.80" rsrp="-107" sinr="16" rsrq="-9"/>
        <radio op="I TIM" rat="LTE" q="55.20" rsrp="-102" sinr="19" rsrq="-6"/>
      </extensions>
    </trkpt>
    <trkpt lat="45.5933083" lon="10.4429148">
      <ele>252.55853993760493</ele>
      <time>2026-06-01T20:47:33.628+02:00</time>
      <extensions>
        <activity type="STILL" conf="42" state="still" tsMs="1780339647611"/>
        <radio op="vodafone IT" rat="LTE" q="32.30" rsrp="-108" sinr="14" rsrq="-7"/>
        <radio op="I TIM" rat="LTE" q="57.50" rsrp="-102" sinr="20" rsrq="-7"/>
      </extensions>
    </trkpt>
    <trkpt lat="45.5932872" lon="10.4429487">
      <ele>252.866134384188</ele>
      <time>2026-06-01T20:48:20.806+02:00</time>
      <extensions>
        <activity type="STILL" conf="47" state="still" tsMs="1780339699236"/>
        <radio op="vodafone IT" rat="LTE" q="33.00" rsrp="-103" sinr="10" rsrq="-7"/>
        <radio op="I TIM" rat="LTE" q="26.40" rsrp="-103" sinr="7" rsrq="-8"/>
      </extensions>
    </trkpt>
    <trkpt lat="45.5925751" lon="10.4431213">
      <ele>254.10000610351562</ele>
      <time>2026-06-01T20:50:28.405+02:00</time>
      <extensions>
        <activity type="ON_FOOT" conf="93" state="moving" tsMs="1780339827945"/>
        <radio op="vodafone IT" rat="LTE" q="62.90" rsrp="-88" sinr="12" rsrq="-10"/>
        <radio op="I TIM" rat="LTE" q="92.00" rsrp="-78" sinr="18" rsrq="-8"/>
      </extensions>
    </trkpt>
    <trkpt lat="45.5928018" lon="10.4429706">
      <ele>254.10000610351562</ele>
      <time>2026-06-01T20:51:08.209+02:00</time>
      <extensions>
        <activity type="UNKNOWN" conf="40" state="unknown" tsMs="1780339865647"/>
        <radio op="vodafone IT" rat="LTE" q="54.60" rsrp="-86" sinr="9" rsrq="-8"/>
        <radio op="I TIM" rat="LTE" q="60.00" rsrp="-84" sinr="10" rsrq="-8"/>
      </extensions>
    </trkpt>
    <trkpt lat="45.5948004" lon="10.4439621">
      <ele>254.20001220703125</ele>
      <time>2026-06-01T20:51:47.345+02:00</time>
      <extensions>
        <activity type="IN_VEHICLE" conf="90" state="moving" tsMs="1780339904970"/>
        <radio op="vodafone IT" rat="LTE" q="32.40" rsrp="-98" sinr="7" rsrq="-12"/>
        <radio op="I TIM" rat="LTE" q="37.50" rsrp="-100" sinr="10" rsrq="-9"/>
      </extensions>
    </trkpt>
    <trkpt lat="45.5966602" lon="10.4462238">
      <ele>257.20001220703125</ele>
      <time>2026-06-01T20:52:18.002+02:00</time>
      <extensions>
        <activity type="UNKNOWN" conf="40" state="unknown" tsMs="1780339933656"/>
        <radio op="vodafone IT" rat="LTE" q="16.00" rsrp="-105" sinr="3" rsrq="-12"/>
        <radio op="I TIM" rat="LTE" q="19.60" rsrp="-97" sinr="2" rsrq="-10"/>
      </extensions>
    </trkpt>
    <trkpt lat="45.597339" lon="10.4471589">
      <ele>257.20001220703125</ele>
      <time>2026-06-01T20:52:24.154+02:00</time>
      <extensions>
        <activity type="UNKNOWN" conf="40" state="unknown" tsMs="1780339949650"/>
        <radio op="vodafone IT" rat="LTE" rsrp="-108" rsrq="-14"/>
        <radio op="I TIM" rat="LTE" q="36.00" rsrp="-101" sinr="10" rsrq="-11"/>
      </extensions>
    </trkpt>
    <trkpt lat="45.5983313" lon="10.4488017">
      <ele>257.8000183105469</ele>
      <time>2026-06-01T20:52:38.565+02:00</time>
      <extensions>
        <activity type="IN_VEHICLE" conf="88" state="moving" tsMs="1780339964625"/>
        <radio op="vodafone IT" rat="LTE" q="26.40" rsrp="-103" sinr="7" rsrq="-10"/>
        <radio op="I TIM" rat="LTE" q="31.20" rsrp="-99" sinr="7" rsrq="-11"/>
      </extensions>
    </trkpt>
    <trkpt lat="45.5993039" lon="10.4502993">
      <ele>257.8000183105469</ele>
      <time>2026-06-01T20:52:52.154+02:00</time>
      <extensions>
        <activity type="UNKNOWN" conf="40" state="unknown" tsMs="1780339975313"/>
        <radio op="vodafone IT" rat="LTE" q="20.40" rsrp="-108" sinr="7" rsrq="-11"/>
        <radio op="I TIM" rat="LTE" q="51.30" rsrp="-98" sinr="14" rsrq="-12"/>
      </extensions>
    </trkpt>
    <trkpt lat="45.6021851" lon="10.4535865">
      <ele>257.20001220703125</ele>
      <time>2026-06-01T20:53:58.144+02:00</time>
      <extensions>
        <activity type="IN_VEHICLE" conf="86" state="moving" tsMs="1780340036639"/>
        <radio op="vodafone IT" rat="LTE" q="9.60" rsrp="-113" sinr="3" rsrq="-10"/>
        <radio op="I TIM" rat="LTE" q="11.70" rsrp="-112" sinr="4" rsrq="-11"/>
      </extensions>
    </trkpt>
    <trkpt lat="45.6022013" lon="10.4535339">
      <ele>257.20001220703125</ele>
      <time>2026-06-01T20:54:03.154+02:00</time>
      <extensions>
        <activity type="IN_VEHICLE" conf="86" state="moving" tsMs="1780340036639"/>
        <radio op="vodafone IT" rat="LTE" rsrp="-107" rsrq="-9"/>
        <radio op="I TIM" rat="LTE" q="12.00" rsrp="-101" sinr="0" rsrq="-8"/>
      </extensions>
    </trkpt>
    <trkpt lat="45.6022371" lon="10.4535036">
      <ele>261.8000183105469</ele>
      <time>2026-06-01T20:54:17.154+02:00</time>
      <extensions>
        <activity type="IN_VEHICLE" conf="86" state="moving" tsMs="1780340036639"/>
        <radio op="vodafone IT" rat="LTE" q="19.00" rsrp="-106" sinr="5" rsrq="-8"/>
        <radio op="I TIM" rat="LTE" q="35.00" rsrp="-100" sinr="9" rsrq="-11"/>
      </extensions>
    </trkpt>
    <trkpt lat="45.6022701" lon="10.4535245">
      <ele>261.8000183105469</ele>
      <time>2026-06-01T20:54:34.155+02:00</time>
      <extensions>
        <activity type="STILL" conf="36" state="still" tsMs="1780340078822"/>
        <radio op="vodafone IT" rat="LTE" q="18.90" rsrp="-104" sinr="4" rsrq="-10"/>
        <radio op="I TIM" rat="LTE" q="33.60" rsrp="-101" sinr="9" rsrq="-11"/>
      </extensions>
    </trkpt>
    <trkpt lat="45.602233" lon="10.4535466">
      <ele>261.8000183105469</ele>
      <time>2026-06-01T20:54:48.154+02:00</time>
      <extensions>
        <activity type="STILL" conf="40" state="still" tsMs="1780340084141"/>
        <radio op="vodafone IT" rat="LTE" q="16.00" rsrp="-105" sinr="3" rsrq="-12"/>
        <radio op="I TIM" rat="LTE" q="38.40" rsrp="-101" sinr="11" rsrq="-10"/>
      </extensions>
    </trkpt>
    <trkpt lat="45.6022062" lon="10.4535168">
      <ele>261.8000183105469</ele>
      <time>2026-06-01T20:54:50.154+02:00</time>
      <extensions>
        <activity type="STILL" conf="37" state="still" tsMs="1780340098833"/>
        <radio op="vodafone IT" rat="LTE" q="9.50" rsrp="-106" sinr="0" rsrq="-10"/>
        <radio op="I TIM" rat="LTE" q="50.40" rsrp="-101" sinr="16" rsrq="-10"/>
      </extensions>
    </trkpt>
    <trkpt lat="45.6021472" lon="10.4534607">
      <ele>261.8000183105469</ele>
      <time>2026-06-01T20:54:58.757+02:00</time>
      <extensions>
        <activity type="STILL" conf="82" state="still" tsMs="1780340104212"/>
        <radio op="vodafone IT" rat="LTE" rsrp="-97" rsrq="-9"/>
        <radio op="I TIM" rat="LTE" q="41.60" rsrp="-99" sinr="11" rsrq="-11"/>
      </extensions>
    </trkpt>
    <trkpt lat="45.6023515" lon="10.4536315">
      <ele>257.20001220703125</ele>
      <time>2026-06-01T20:55:29.669+02:00</time>
      <extensions>
        <activity type="ON_FOOT" conf="97" state="moving" tsMs="1780340125743"/>
        <radio op="vodafone IT" rat="LTE" q="16.00" rsrp="-105" sinr="3" rsrq="-10"/>
        <radio op="I TIM" rat="LTE" q="43.20" rsrp="-98" sinr="11" rsrq="-11"/>
      </extensions>
    </trkpt>
    <trkpt lat="45.6021726" lon="10.4534561">
      <ele>257.20001220703125</ele>
      <time>2026-06-01T20:56:00.773+02:00</time>
      <extensions>
        <activity type="ON_FOOT" conf="96" state="moving" tsMs="1780340157296"/>
        <radio op="vodafone IT" rat="LTE" q="19.50" rsrp="-110" sinr="8" rsrq="-12"/>
        <radio op="I TIM" rat="LTE" q="34.00" rsrp="-105" sinr="12" rsrq="-11"/>
      </extensions>
    </trkpt>
    <trkpt lat="45.6024574" lon="10.4536511">
      <ele>258.63704121529247</ele>
      <time>2026-06-01T20:56:32.286+02:00</time>
      <extensions>
        <activity type="ON_FOOT" conf="97" state="moving" tsMs="1780340188914"/>
        <radio op="vodafone IT" rat="LTE" q="10.40" rsrp="-112" sinr="3" rsrq="-11"/>
        <radio op="I TIM" rat="LTE" q="17.10" rsrp="-106" sinr="4" rsrq="-13"/>
      </extensions>
    </trkpt>
    <trkpt lat="45.6025532" lon="10.4536636">
      <ele>258.8062959442555</ele>
      <time>2026-06-01T20:57:03.849+02:00</time>
      <extensions>
        <activity type="ON_FOOT" conf="91" state="moving" tsMs="1780340220310"/>
        <radio op="vodafone IT" rat="LTE" q="7.20" rsrp="-117" sinr="4" rsrq="-14"/>
        <radio op="I TIM" rat="LTE" rsrp="-108" rsrq="-13"/>
      </extensions>
    </trkpt>
    <trkpt lat="45.602547" lon="10.4536617">
      <ele>257.89372288925944</ele>
      <time>2026-06-01T20:57:35.413+02:00</time>
      <extensions>
        <activity type="UNKNOWN" conf="40" state="unknown" tsMs="1780340251917"/>
        <radio op="vodafone IT" rat="LTE" q="5.50" rsrp="-120" sinr="6" rsrq="-14"/>
        <radio op="I TIM" rat="LTE" rsrp="-120" rsrq="-11"/>
      </extensions>
    </trkpt>
    <trkpt lat="45.6025508" lon="10.4536631">
      <ele>258.31813560680683</ele>
      <time>2026-06-01T20:58:06.929+02:00</time>
      <extensions>
        <activity type="UNKNOWN" conf="40" state="unknown" tsMs="1780340283608"/>
        <radio op="vodafone IT" rat="LTE" q="4.20" rsrp="-118" sinr="1" rsrq="-13"/>
        <radio op="I TIM" rat="LTE" q="5.00" rsrp="-115" sinr="0" rsrq="-11"/>
      </extensions>
    </trkpt>
    <trkpt lat="45.6025521" lon="10.4536626">
      <ele>258.678861552425</ele>
      <time>2026-06-01T20:58:38.461+02:00</time>
      <extensions>
        <activity type="STILL" conf="97" state="still" tsMs="1780340314679"/>
        <radio op="vodafone IT" rat="LTE" rsrp="-117" rsrq="-12"/>
        <radio op="I TIM" rat="LTE" rsrp="-115" rsrq="-13"/>
      </extensions>
    </trkpt>
    <trkpt lat="45.6025553" lon="10.4536556">
      <ele>259.31348870765953</ele>
      <time>2026-06-01T20:59:09.802+02:00</time>
      <extensions>
        <activity type="STILL" conf="49" state="still" tsMs="1780340346392"/>
        <radio op="vodafone IT" rat="LTE" rsrp="-109" rsrq="-16"/>
        <radio op="I TIM" rat="LTE" rsrp="-111" rsrq="-12"/>
      </extensions>
    </trkpt>
    <trkpt lat="45.6025515" lon="10.4536625">
      <ele>258.7558004100147</ele>
      <time>2026-06-01T20:59:59.903+02:00</time>
      <extensions>
        <activity type="UNKNOWN" conf="40" state="unknown" tsMs="1780340395042"/>
        <radio op="vodafone IT" rat="LTE" q="9.10" rsrp="-112" sinr="2" rsrq="-12"/>
        <radio op="I TIM" rat="LTE" rsrp="-125" rsrq="-12"/>
      </extensions>
    </trkpt>
  </trkseg></trk>
</gpx>
