<?xml version="1.0" encoding="UTF-8"?>
<gpx version="1.1" creator="CellGPX" xmlns="http://www.topografix.com/GPX/1/1">
  <trk><name>CellGPX</name><trkseg>
    <trkpt lat="45.6025458" lon="10.4536668">
      <ele>261.8000183105469</ele>
      <time>2026-05-12T11:04:55.863+02:00</time>
      <extensions>
        <activity type="ON_FOOT" conf="96" state="moving" tsMs="1778576719248"/>
        <radio op="vodafone IT" rat="LTE" q="15.40" rsrp="-103" sinr="2" rsrq="-11"/>
        <radio op="I TIM" rat="LTE" q="60.90" rsrp="-96" sinr="16" rsrq="-10"/>
      </extensions>
    </trkpt>
    <trkpt lat="45.6022506" lon="10.4534493">
      <ele>261.8000183105469</ele>
      <time>2026-05-12T11:05:38.549+02:00</time>
      <extensions>
        <activity type="ON_FOOT" conf="96" state="moving" tsMs="1778576735606"/>
        <radio op="vodafone IT" rat="LTE" q="26.00" rsrp="-99" sinr="5" rsrq="-9"/>
        <radio op="I TIM" rat="LTE" q="41.60" rsrp="-93" sinr="8" rsrq="-9"/>
      </extensions>
    </trkpt>
    <trkpt lat="45.602308" lon="10.455046">
      <ele>261.8000183105469</ele>
      <time>2026-05-12T11:06:50.88+02:00</time>
      <extensions>
        <activity type="UNKNOWN" conf="40" state="unknown" tsMs="1778576810245"/>
        <radio op="vodafone IT" rat="LTE" q="30.60" rsrp="-108" sinr="13" rsrq="-7"/>
        <radio op="I TIM" rat="LTE" q="15.30" rsrp="-108" sinr="4" rsrq="-11"/>
      </extensions>
    </trkpt>
    <trkpt lat="45.6030652" lon="10.4574455">
      <ele>265.80942023809524</ele>
      <time>2026-05-12T11:07:30.205+02:00</time>
      <extensions>
        <activity type="UNKNOWN" conf="40" state="unknown" tsMs="1778576848259"/>
        <radio op="vodafone IT" rat="LTE" q="85.00" rsrp="-91" sinr="26" rsrq="-6"/>
        <radio op="I TIM" rat="LTE" q="75.00" rsrp="-95" sinr="24" rsrq="-9"/>
      </extensions>
    </trkpt>
    <trkpt lat="45.6032916" lon="10.4582852">
      <ele>265.80942023809524</ele>
      <time>2026-05-12T11:07:40.07+02:00</time>
      <extensions>
        <activity type="UNKNOWN" conf="40" state="unknown" tsMs="1778576848259"/>
        <radio op="vodafone IT" rat="LTE" q="100.00" rsrp="-85" sinr="30" rsrq="-8"/>
        <radio op="I TIM" rat="LTE" q="100.00" rsrp="-84" sinr="28" rsrq="-8"/>
      </extensions>
    </trkpt>
    <trkpt lat="45.604785" lon="10.4631829">
      <ele>269.0431677870424</ele>
      <time>2026-05-12T11:08:19.07+02:00</time>
      <extensions>
        <activity type="UNKNOWN" conf="40" state="unknown" tsMs="1778576908977"/>
        <radio op="vodafone IT" rat="LTE" rsrp="-88" rsrq="-4"/>
        <radio op="I TIM" rat="LTE" q="16.00" rsrp="-105" sinr="3" rsrq="-6"/>
      </extensions>
    </trkpt>
    <trkpt lat="45.6064395" lon="10.4686757">
      <ele>275.2588937000281</ele>
      <time>2026-05-12T11:09:01.07+02:00</time>
      <extensions>
        <activity type="IN_VEHICLE" conf="94" state="moving" tsMs="1778576930519"/>
        <radio op="vodafone IT" rat="LTE" q="72.50" rsrp="-96" sinr="25" rsrq="-5"/>
        <radio op="I TIM" rat="LTE" q="48.00" rsrp="-95" sinr="11" rsrq="-8"/>
      </extensions>
    </trkpt>
    <trkpt lat="45.6071273" lon="10.4709448">
      <ele>266.70001220703125</ele>
      <time>2026-05-12T11:09:13.729+02:00</time>
      <extensions>
        <activity type="IN_VEHICLE" conf="94" state="moving" tsMs="1778576930519"/>
        <radio op="vodafone IT" rat="LTE" q="67.50" rsrp="-98" sinr="26" rsrq="-5"/>
        <radio op="I TIM" rat="LTE" q="75.00" rsrp="-95" sinr="21" rsrq="-8"/>
      </extensions>
    </trkpt>
    <trkpt lat="45.610394" lon="10.4784189">
      <ele>275.56797349207733</ele>
      <time>2026-05-12T11:09:58.07+02:00</time>
      <extensions>
        <activity type="IN_VEHICLE" conf="90" state="moving" tsMs="1778576997468"/>
        <radio op="vodafone IT" rat="LTE" q="39.90" rsrp="-106" sinr="16" rsrq="-8"/>
        <radio op="I TIM" rat="LTE" q="11.20" rsrp="-111" sinr="3" rsrq="-8"/>
      </extensions>
    </trkpt>
    <trkpt lat="45.6105633" lon="10.4787466">
      <ele>268.1000061035156</ele>
      <time>2026-05-12T11:10:00.071+02:00</time>
      <extensions>
        <activity type="IN_VEHICLE" conf="88" state="moving" tsMs="1778577008271"/>
        <radio op="vodafone IT" rat="LTE" q="26.60" rsrp="-106" sinr="9" rsrq="-12"/>
        <radio op="I TIM" rat="LTE" q="8.00" rsrp="-115" sinr="3" rsrq="-8"/>
      </extensions>
    </trkpt>
    <trkpt lat="45.611963" lon="10.4855645">
      <ele>260.65252238814253</ele>
      <time>2026-05-12T11:10:44.07+02:00</time>
      <extensions>
        <activity type="IN_VEHICLE" conf="96" state="moving" tsMs="1778577050782"/>
        <radio op="vodafone IT" rat="LTE" q="14.40" rsrp="-107" sinr="3" rsrq="-12"/>
        <radio op="I TIM" rat="LTE" rsrp="-106" rsrq="-11"/>
      </extensions>
    </trkpt>
    <trkpt lat="45.611611" lon="10.4921655">
      <ele>230.77942636392635</ele>
      <time>2026-05-12T11:11:22.465+02:00</time>
      <extensions>
        <activity type="IN_VEHICLE" conf="90" state="moving" tsMs="1778577077667"/>
        <radio op="vodafone IT" rat="LTE" rsrp="-105" rsrq="-14"/>
        <radio op="I TIM" rat="LTE" q="50.60" rsrp="-102" sinr="17" rsrq="-11"/>
      </extensions>
    </trkpt>
    <trkpt lat="45.6109028" lon="10.4931638">
      <ele>230.77942636392635</ele>
      <time>2026-05-12T11:11:29.071+02:00</time>
      <extensions>
        <activity type="IN_VEHICLE" conf="86" state="moving" tsMs="1778577088267"/>
        <radio op="vodafone IT" rat="LTE" q="7.70" rsrp="-118" sinr="6" rsrq="-11"/>
        <radio op="I TIM" rat="LTE" rsrp="-127" rsrq="-20"/>
      </extensions>
    </trkpt>
    <trkpt lat="45.6098435" lon="10.4994262">
      <ele>199.48842657678512</ele>
      <time>2026-05-12T11:12:03.712+02:00</time>
      <extensions>
        <activity type="UNKNOWN" conf="40" state="unknown" tsMs="1778577120593"/>
        <radio op="vodafone IT" rat="LTE" q="37.50" rsrp="-100" sinr="10" rsrq="-10"/>
        <radio op="I TIM" rat="LTE" rsrp="-110" rsrq="-15"/>
      </extensions>
    </trkpt>
    <trkpt lat="45.6099034" lon="10.4996574">
      <ele>194.10000610351562</ele>
      <time>2026-05-12T11:12:35.936+02:00</time>
      <extensions>
        <activity type="UNKNOWN" conf="40" state="unknown" tsMs="1778577151112"/>
        <radio op="vodafone IT" rat="LTE" q="56.00" rsrp="-71" sinr="9" rsrq="-13"/>
        <radio op="I TIM" rat="LTE" rsrp="-88" rsrq="-17"/>
      </extensions>
    </trkpt>
    <trkpt lat="45.6099386" lon="10.4995239">
      <ele>194.50001525878906</ele>
      <time>2026-05-12T11:13:07.166+02:00</time>
      <extensions>
        <activity type="ON_FOOT" conf="97" state="moving" tsMs="1778577183272"/>
        <radio op="vodafone IT" rat="LTE" q="44.40" rsrp="-88" sinr="7" rsrq="-11"/>
        <radio op="I TIM" rat="LTE" rsrp="-94" rsrq="-12"/>
      </extensions>
    </trkpt>
    <trkpt lat="45.6098798" lon="10.4996609">
      <ele>194.10000610351562</ele>
      <time>2026-05-12T11:13:38.389+02:00</time>
      <extensions>
        <activity type="ON_FOOT" conf="93" state="moving" tsMs="1778577215293"/>
        <radio op="vodafone IT" rat="LTE" rsrp="-83" rsrq="-12"/>
        <radio op="I TIM" rat="LTE" rsrp="-85" rsrq="-13"/>
      </extensions>
    </trkpt>
    <trkpt lat="45.6098871" lon="10.4996263">
      <ele>194.10000610351562</ele>
      <time>2026-05-12T11:14:09.655+02:00</time>
      <extensions>
        <activity type="UNKNOWN" conf="40" state="unknown" tsMs="1778577246498"/>
        <radio op="vodafone IT" rat="LTE" q="60.80" rsrp="-93" sinr="14" rsrq="-11"/>
        <radio op="I TIM" rat="LTE" rsrp="-91" rsrq="-16"/>
      </extensions>
    </trkpt>
    <trkpt lat="45.6098759" lon="10.4996403">
      <ele>194.10000610351562</ele>
      <time>2026-05-12T11:14:40.918+02:00</time>
      <extensions>
        <activity type="UNKNOWN" conf="40" state="unknown" tsMs="1778577277780"/>
        <radio op="vodafone IT" rat="LTE" q="13.50" rsrp="-98" sinr="0" rsrq="-12"/>
        <radio op="I TIM" rat="LTE" q="16.00" rsrp="-93" sinr="0" rsrq="-15"/>
      </extensions>
    </trkpt>
    <trkpt lat="45.6098466" lon="10.4996814">
      <ele>194.10000610351562</ele>
      <time>2026-05-12T11:15:13.072+02:00</time>
      <extensions>
        <activity type="UNKNOWN" conf="40" state="unknown" tsMs="1778577315042"/>
        <radio op="vodafone IT" rat="LTE" q="49.60" rsrp="-94" sinr="11" rsrq="-10"/>
        <radio op="I TIM" rat="LTE" q="20.00" rsrp="-85" sinr="0" rsrq="-12"/>
      </extensions>
    </trkpt>
    <trkpt lat="45.609891" lon="10.4996259">
      <ele>194.10000610351562</ele>
      <time>2026-05-12T11:15:46.223+02:00</time>
      <extensions>
        <activity type="STILL" conf="66" state="still" tsMs="1778577341727"/>
        <radio op="vodafone IT" rat="LTE" q="54.40" rsrp="-93" sinr="12" rsrq="-11"/>
        <radio op="I TIM" rat="LTE" q="52.00" rsrp="-85" sinr="8" rsrq="-12"/>
      </extensions>
    </trkpt>
    <trkpt lat="45.6098851" lon="10.4996159">
      <ele>194.10000610351562</ele>
      <time>2026-05-12T11:16:17.525+02:00</time>
      <extensions>
        <activity type="UNKNOWN" conf="40" state="unknown" tsMs="1778577374668"/>
        <radio op="vodafone IT" rat="LTE" q="62.70" rsrp="-92" sinr="14" rsrq="-10"/>
        <radio op="I TIM" rat="LTE" q="18.50" rsrp="-88" sinr="0" rsrq="-13"/>
      </extensions>
    </trkpt>
    <trkpt lat="45.6098913" lon="10.4996299">
      <ele>194.10000610351562</ele>
      <time>2026-05-12T11:16:48.66+02:00</time>
      <extensions>
        <activity type="STILL" conf="98" state="still" tsMs="1778577405418"/>
        <radio op="vodafone IT" rat="LTE" q="35.10" rsrp="-98" sinr="8" rsrq="-13"/>
        <radio op="I TIM" rat="LTE" q="42.90" rsrp="-86" sinr="6" rsrq="-12"/>
      </extensions>
    </trkpt>
    <trkpt lat="45.6098649" lon="10.499644">
      <ele>194.10000610351562</ele>
      <time>2026-05-12T11:45:12.065+02:00</time>
      <extensions>
        <activity type="IN_VEHICLE" conf="77" state="moving" tsMs="1778579111654"/>
        <radio op="vodafone IT" rat="LTE" q="24.00" rsrp="-101" sinr="5" rsrq="-10"/>
        <radio op="I TIM" rat="LTE" q="60.00" rsrp="-85" sinr="10" rsrq="-10"/>
      </extensions>
    </trkpt>
    <trkpt lat="45.6098799" lon="10.4996739">
      <ele>194.10000610351562</ele>
      <time>2026-05-12T11:46:02.632+02:00</time>
      <extensions>
        <activity type="UNKNOWN" conf="40" state="unknown" tsMs="1778579163076"/>
        <radio op="vodafone IT" rat="LTE" q="55.80" rsrp="-94" sinr="13" rsrq="-7"/>
        <radio op="I TIM" rat="LTE" q="84.00" rsrp="-85" sinr="16" rsrq="-9"/>
      </extensions>
    </trkpt>
    <trkpt lat="45.6098854" lon="10.4996426">
      <ele>194.10000610351562</ele>
      <time>2026-05-12T11:46:47.186+02:00</time>
      <extensions>
        <activity type="STILL" conf="58" state="still" tsMs="1778579207281"/>
        <radio op="vodafone IT" rat="LTE" q="40.30" rsrp="-94" sinr="8" rsrq="-6"/>
        <radio op="I TIM" rat="LTE" q="38.00" rsrp="-87" sinr="5" rsrq="-12"/>
      </extensions>
    </trkpt>
    <trkpt lat="45.6099283" lon="10.4995689">
      <ele>194.50001525878906</ele>
      <time>2026-05-12T11:47:42.916+02:00</time>
      <extensions>
        <activity type="STILL" conf="44" state="still" tsMs="1778579257287"/>
        <radio op="vodafone IT" rat="LTE" q="70.30" rsrp="-88" sinr="14" rsrq="-10"/>
        <radio op="I TIM" rat="LTE" q="18.00" rsrp="-89" sinr="0" rsrq="-11"/>
      </extensions>
    </trkpt>
    <trkpt lat="45.6099381" lon="10.4995294">
      <ele>194.50001525878906</ele>
      <time>2026-05-12T11:48:14.136+02:00</time>
      <extensions>
        <activity type="UNKNOWN" conf="40" state="unknown" tsMs="1778579289178"/>
        <radio op="vodafone IT" rat="LTE" q="27.60" rsrp="-102" sinr="7" rsrq="-13"/>
        <radio op="I TIM" rat="LTE" q="20.90" rsrp="-106" sinr="6" rsrq="-11"/>
      </extensions>
    </trkpt>
    <trkpt lat="45.6099567" lon="10.4995422">
      <ele>194.50001525878906</ele>
      <time>2026-05-12T11:48:45.264+02:00</time>
      <extensions>
        <activity type="STILL" conf="98" state="still" tsMs="1778579322498"/>
        <radio op="vodafone IT" rat="LTE" q="25.20" rsrp="-104" sinr="7" rsrq="-9"/>
        <radio op="I TIM" rat="LTE" q="25.30" rsrp="-102" sinr="6" rsrq="-9"/>
      </extensions>
    </trkpt>
    <trkpt lat="45.6099649" lon="10.4995047">
      <ele>194.50001525878906</ele>
      <time>2026-05-12T11:49:16.348+02:00</time>
      <extensions>
        <activity type="STILL" conf="58" state="still" tsMs="1778579353679"/>
        <radio op="vodafone IT" rat="LTE" q="27.30" rsrp="-104" sinr="8" rsrq="-10"/>
        <radio op="I TIM" rat="LTE" q="21.00" rsrp="-104" sinr="5" rsrq="-12"/>
      </extensions>
    </trkpt>
    <trkpt lat="45.6098171" lon="10.4996286">
      <ele>194.10000610351562</ele>
      <time>2026-05-12T11:49:53.129+02:00</time>
      <extensions>
        <activity type="ON_FOOT" conf="96" state="moving" tsMs="1778579389873"/>
        <radio op="vodafone IT" rat="LTE" q="19.20" rsrp="-109" sinr="7" rsrq="-10"/>
        <radio op="I TIM" rat="LTE" q="19.20" rsrp="-101" sinr="3" rsrq="-12"/>
      </extensions>
    </trkpt>
    <trkpt lat="45.611056" lon="10.4984733">
      <ele>202.67223985400688</ele>
      <time>2026-05-12T11:50:54.07+02:00</time>
      <extensions>
        <activity type="IN_VEHICLE" conf="97" state="moving" tsMs="1778579450300"/>
        <radio op="vodafone IT" rat="LTE" q="12.60" rsrp="-111" sinr="4" rsrq="-9"/>
        <radio op="I TIM" rat="LTE" rsrp="-115" rsrq="-12"/>
      </extensions>
    </trkpt>
    <trkpt lat="45.6110077" lon="10.4957471">
      <ele>215.16726023030273</ele>
      <time>2026-05-12T11:51:31.863+02:00</time>
      <extensions>
        <activity type="IN_VEHICLE" conf="81" state="moving" tsMs="1778579487013"/>
        <radio op="vodafone IT" rat="LTE" q="67.50" rsrp="-98" sinr="25" rsrq="-9"/>
        <radio op="I TIM" rat="LTE" rsrp="-121" rsrq="-13"/>
      </extensions>
    </trkpt>
    <trkpt lat="45.617741" lon="10.4939196">
      <ele>221.3138785721116</ele>
      <time>2026-05-12T11:53:36.284+02:00</time>
      <extensions>
        <activity type="UNKNOWN" conf="40" state="unknown" tsMs="1778579615312"/>
        <radio op="vodafone IT" rat="LTE" q="30.80" rsrp="-103" sinr="9" rsrq="-8"/>
        <radio op="I TIM" rat="LTE" q="55.00" rsrp="-103" sinr="20" rsrq="-11"/>
      </extensions>
    </trkpt>
    <trkpt lat="45.6175951" lon="10.4934352">
      <ele>221.35866714662097</ele>
      <time>2026-05-12T11:53:45.074+02:00</time>
      <extensions>
        <activity type="UNKNOWN" conf="40" state="unknown" tsMs="1778579615312"/>
        <radio op="vodafone IT" rat="LTE" q="27.60" rsrp="-102" sinr="7" rsrq="-9"/>
        <radio op="I TIM" rat="LTE" q="57.50" rsrp="-102" sinr="23" rsrq="-12"/>
      </extensions>
    </trkpt>
    <trkpt lat="45.6177051" lon="10.4939785">
      <ele>221.55488650817782</ele>
      <time>2026-05-12T11:54:16.017+02:00</time>
      <extensions>
        <activity type="UNKNOWN" conf="40" state="unknown" tsMs="1778579656310"/>
        <radio op="vodafone IT" rat="LTE" q="28.60" rsrp="-99" sinr="6" rsrq="-9"/>
        <radio op="I TIM" rat="LTE" q="80.00" rsrp="-93" sinr="24" rsrq="-10"/>
      </extensions>
    </trkpt>
    <trkpt lat="45.6177217" lon="10.4939131">
      <ele>222.20542837359162</ele>
      <time>2026-05-12T11:54:49.295+02:00</time>
      <extensions>
        <activity type="ON_FOOT" conf="93" state="moving" tsMs="1778579687650"/>
        <radio op="vodafone IT" rat="LTE" q="28.60" rsrp="-103" sinr="8" rsrq="-11"/>
        <radio op="I TIM" rat="LTE" q="41.60" rsrp="-99" sinr="11" rsrq="-12"/>
      </extensions>
    </trkpt>
    <trkpt lat="45.6176847" lon="10.4940579">
      <ele>223.31892897433542</ele>
      <time>2026-05-12T11:55:22.358+02:00</time>
      <extensions>
        <activity type="ON_FOOT" conf="97" state="moving" tsMs="1778579720735"/>
        <radio op="vodafone IT" rat="LTE" q="39.00" rsrp="-99" sinr="10" rsrq="-6"/>
        <radio op="I TIM" rat="LTE" q="39.10" rsrp="-102" sinr="12" rsrq="-12"/>
      </extensions>
    </trkpt>
    <trkpt lat="45.6176564" lon="10.4940853">
      <ele>221.69352245174474</ele>
      <time>2026-05-12T11:55:57.058+02:00</time>
      <extensions>
        <activity type="ON_FOOT" conf="93" state="moving" tsMs="1778579757321"/>
        <radio op="vodafone IT" rat="LTE" rsrp="-105" rsrq="-13"/>
        <radio op="I TIM" rat="LTE" q="72.50" rsrp="-96" sinr="22" rsrq="-10"/>
      </extensions>
    </trkpt>
    <trkpt lat="45.6176504" lon="10.4940963">
      <ele>222.4699250389447</ele>
      <time>2026-05-12T11:56:28.579+02:00</time>
      <extensions>
        <activity type="UNKNOWN" conf="40" state="unknown" tsMs="1778579788847"/>
        <radio op="vodafone IT" rat="LTE" rsrp="-100" rsrq="-10"/>
        <radio op="I TIM" rat="LTE" q="87.50" rsrp="-90" sinr="24" rsrq="-11"/>
      </extensions>
    </trkpt>
    <trkpt lat="45.6176844" lon="10.4940568">
      <ele>222.45072742654344</ele>
      <time>2026-05-12T11:57:03.467+02:00</time>
      <extensions>
        <activity type="STILL" conf="99" state="still" tsMs="1778579820362"/>
        <radio op="vodafone IT" rat="LTE" q="16.50" rsrp="-92" sinr="0" rsrq="-11"/>
        <radio op="I TIM" rat="LTE" q="92.50" rsrp="-88" sinr="20" rsrq="-9"/>
      </extensions>
    </trkpt>
    <trkpt lat="45.6176647" lon="10.4940814">
      <ele>222.6491920671409</ele>
      <time>2026-05-12T11:57:34.947+02:00</time>
      <extensions>
        <activity type="STILL" conf="99" state="still" tsMs="1778579851796"/>
        <radio op="vodafone IT" rat="LTE" q="26.40" rsrp="-92" sinr="3" rsrq="-9"/>
        <radio op="I TIM" rat="LTE" q="95.00" rsrp="-87" sinr="24" rsrq="-10"/>
      </extensions>
    </trkpt>
    <trkpt lat="45.6177162" lon="10.4940314">
      <ele>222.26737591756986</ele>
      <time>2026-05-12T11:58:06.31+02:00</time>
      <extensions>
        <activity type="STILL" conf="99" state="still" tsMs="1778579883247"/>
        <radio op="vodafone IT" rat="LTE" q="28.80" rsrp="-93" sinr="4" rsrq="-11"/>
        <radio op="I TIM" rat="LTE" q="95.00" rsrp="-87" sinr="22" rsrq="-9"/>
      </extensions>
    </trkpt>
    <trkpt lat="45.6176936" lon="10.4941019">
      <ele>222.83264049182952</ele>
      <time>2026-05-12T11:58:37.763+02:00</time>
      <extensions>
        <activity type="STILL" conf="99" state="still" tsMs="1778579914550"/>
        <radio op="vodafone IT" rat="LTE" q="28.80" rsrp="-93" sinr="4" rsrq="-11"/>
        <radio op="I TIM" rat="LTE" q="92.50" rsrp="-88" sinr="22" rsrq="-12"/>
      </extensions>
    </trkpt>
    <trkpt lat="45.6176837" lon="10.4940662">
      <ele>222.96063008234208</ele>
      <time>2026-05-12T11:59:09.262+02:00</time>
      <extensions>
        <activity type="STILL" conf="99" state="still" tsMs="1778579944832"/>
        <radio op="vodafone IT" rat="LTE" q="25.60" rsrp="-93" sinr="3" rsrq="-8"/>
        <radio op="I TIM" rat="LTE" q="95.00" rsrp="-87" sinr="23" rsrq="-6"/>
      </extensions>
    </trkpt>
    <trkpt lat="45.6175825" lon="10.4943035">
      <ele>222.65132516587062</ele>
      <time>2026-05-12T11:59:41.077+02:00</time>
      <extensions>
        <activity type="STILL" conf="99" state="still" tsMs="1778579977688"/>
        <radio op="vodafone IT" rat="LTE" q="37.40" rsrp="-91" sinr="6" rsrq="-12"/>
        <radio op="I TIM" rat="LTE" q="92.50" rsrp="-88" sinr="20" rsrq="-12"/>
      </extensions>
    </trkpt>
    <trkpt lat="45.6176458" lon="10.4942487">
      <ele>227.10000610351562</ele>
      <time>2026-05-12T12:02:51.077+02:00</time>
      <extensions>
        <activity type="UNKNOWN" conf="40" state="unknown" tsMs="1778580191691"/>
        <radio op="vodafone IT" rat="LTE" q="21.60" rsrp="-98" sinr="3" rsrq="-8"/>
        <radio op="I TIM" rat="LTE" q="97.50" rsrp="-86" sinr="24" rsrq="-10"/>
      </extensions>
    </trkpt>
    <trkpt lat="45.6175852" lon="10.4943504">
      <ele>222.3919535050061</ele>
      <time>2026-05-12T12:03:24.077+02:00</time>
      <extensions>
        <activity type="UNKNOWN" conf="40" state="unknown" tsMs="1778580202328"/>
        <radio op="vodafone IT" rat="LTE" q="33.00" rsrp="-95" sinr="6" rsrq="-9"/>
        <radio op="I TIM" rat="LTE" q="88.80" rsrp="-88" sinr="19" rsrq="-11"/>
      </extensions>
    </trkpt>
    <trkpt lat="45.6176595" lon="10.4940972">
      <ele>222.72043844751877</ele>
      <time>2026-05-12T12:03:54.614+02:00</time>
      <extensions>
        <activity type="STILL" conf="98" state="still" tsMs="1778580229820"/>
        <radio op="vodafone IT" rat="LTE" q="26.10" rsrp="-96" sinr="4" rsrq="-10"/>
        <radio op="I TIM" rat="LTE" q="92.50" rsrp="-88" sinr="25" rsrq="-11"/>
      </extensions>
    </trkpt>
    <trkpt lat="45.6176419" lon="10.4940834">
      <ele>222.7161723288889</ele>
      <time>2026-05-12T12:04:26.004+02:00</time>
      <extensions>
        <activity type="STILL" conf="99" state="still" tsMs="1778580262922"/>
        <radio op="vodafone IT" rat="LTE" q="24.30" rsrp="-98" sinr="4" rsrq="-12"/>
        <radio op="I TIM" rat="LTE" q="95.00" rsrp="-87" sinr="22" rsrq="-11"/>
      </extensions>
    </trkpt>
    <trkpt lat="45.6176884" lon="10.4940557">
      <ele>222.88000221194878</ele>
      <time>2026-05-12T12:04:57.423+02:00</time>
      <extensions>
        <activity type="STILL" conf="99" state="still" tsMs="1778580294214"/>
        <radio op="vodafone IT" rat="LTE" rsrp="-96" rsrq="-10"/>
        <radio op="I TIM" rat="LTE" q="90.00" rsrp="-89" sinr="22" rsrq="-12"/>
      </extensions>
    </trkpt>
    <trkpt lat="45.6176815" lon="10.4940718">
      <ele>223.05064615298468</ele>
      <time>2026-05-12T12:05:28.737+02:00</time>
      <extensions>
        <activity type="STILL" conf="99" state="still" tsMs="1778580325590"/>
        <radio op="vodafone IT" rat="LTE" rsrp="-96" rsrq="-11"/>
        <radio op="I TIM" rat="LTE" q="92.50" rsrp="-88" sinr="20" rsrq="-11"/>
      </extensions>
    </trkpt>
    <trkpt lat="45.6176803" lon="10.4940747">
      <ele>223.0143840322016</ele>
      <time>2026-05-12T12:06:00.08+02:00</time>
      <extensions>
        <activity type="STILL" conf="99" state="still" tsMs="1778580356913"/>
        <radio op="vodafone IT" rat="LTE" rsrp="-96" rsrq="-10"/>
        <radio op="I TIM" rat="LTE" q="92.50" rsrp="-88" sinr="22" rsrq="-11"/>
      </extensions>
    </trkpt>
    <trkpt lat="45.6176542" lon="10.4940998">
      <ele>227.10000610351562</ele>
      <time>2026-05-12T12:06:31.387+02:00</time>
      <extensions>
        <activity type="STILL" conf="99" state="still" tsMs="1778580388226"/>
        <radio op="vodafone IT" rat="LTE" q="21.00" rsrp="-95" sinr="2" rsrq="-11"/>
        <radio op="I TIM" rat="LTE" q="95.00" rsrp="-87" sinr="23" rsrq="-12"/>
      </extensions>
    </trkpt>
    <trkpt lat="45.6177339" lon="10.4940028">
      <ele>227.10000610351562</ele>
      <time>2026-05-12T12:35:57.985+02:00</time>
      <extensions>
        <activity type="UNKNOWN" conf="40" state="unknown" tsMs="1778582161776"/>
        <radio op="vodafone IT" rat="LTE" q="43.40" rsrp="-94" sinr="9" rsrq="-10"/>
        <radio op="I TIM" rat="LTE" q="100.00" rsrp="-83" sinr="21" rsrq="-11"/>
      </extensions>
    </trkpt>
    <trkpt lat="45.6176817" lon="10.4938566">
      <ele>227.10000610351562</ele>
      <time>2026-05-12T12:36:29.128+02:00</time>
      <extensions>
        <activity type="UNKNOWN" conf="40" state="unknown" tsMs="1778582161776"/>
        <radio op="vodafone IT" rat="LTE" rsrp="-99" rsrq="-12"/>
        <radio op="I TIM" rat="LTE" q="80.00" rsrp="-85" sinr="15" rsrq="-11"/>
      </extensions>
    </trkpt>
    <trkpt lat="45.6177593" lon="10.493686">
      <ele>227.10000610351562</ele>
      <time>2026-05-12T12:37:00.233+02:00</time>
      <extensions>
        <activity type="UNKNOWN" conf="40" state="unknown" tsMs="1778582216014"/>
        <radio op="vodafone IT" rat="LTE" q="23.20" rsrp="-96" sinr="3" rsrq="-10"/>
        <radio op="I TIM" rat="LTE" q="70.00" rsrp="-90" sinr="15" rsrq="-11"/>
      </extensions>
    </trkpt>
    <trkpt lat="45.6176713" lon="10.4940665">
      <ele>227.10000610351562</ele>
      <time>2026-05-12T12:37:31.294+02:00</time>
      <extensions>
        <activity type="UNKNOWN" conf="40" state="unknown" tsMs="1778582248121"/>
        <radio op="vodafone IT" rat="LTE" rsrp="-101" rsrq="-12"/>
        <radio op="I TIM" rat="LTE" q="92.50" rsrp="-88" sinr="21" rsrq="-11"/>
      </extensions>
    </trkpt>
    <trkpt lat="45.6176583" lon="10.4940726">
      <ele>227.10000610351562</ele>
      <time>2026-05-12T12:38:02.369+02:00</time>
      <extensions>
        <activity type="UNKNOWN" conf="40" state="unknown" tsMs="1778582279131"/>
        <radio op="vodafone IT" rat="LTE" q="28.00" rsrp="-97" sinr="5" rsrq="-10"/>
        <radio op="I TIM" rat="LTE" q="93.60" rsrp="-86" sinr="19" rsrq="-14"/>
      </extensions>
    </trkpt>
    <trkpt lat="45.6176977" lon="10.4940781">
      <ele>227.10000610351562</ele>
      <time>2026-05-12T12:38:33.419+02:00</time>
      <extensions>
        <activity type="UNKNOWN" conf="40" state="unknown" tsMs="1778582310217"/>
        <radio op="vodafone IT" rat="LTE" q="40.50" rsrp="-98" sinr="10" rsrq="-8"/>
        <radio op="I TIM" rat="LTE" q="96.00" rsrp="-83" sinr="19" rsrq="-11"/>
      </extensions>
    </trkpt>
    <trkpt lat="45.6176843" lon="10.4940651">
      <ele>227.10000610351562</ele>
      <time>2026-05-12T12:39:04.513+02:00</time>
      <extensions>
        <activity type="UNKNOWN" conf="40" state="unknown" tsMs="1778582341297"/>
        <radio op="vodafone IT" rat="LTE" q="13.50" rsrp="-98" sinr="0" rsrq="-10"/>
        <radio op="I TIM" rat="LTE" q="95.00" rsrp="-87" sinr="22" rsrq="-12"/>
      </extensions>
    </trkpt>
    <trkpt lat="45.6177156" lon="10.4940474">
      <ele>227.10000610351562</ele>
      <time>2026-05-12T12:39:35.609+02:00</time>
      <extensions>
        <activity type="UNKNOWN" conf="40" state="unknown" tsMs="1778582372433"/>
        <radio op="vodafone IT" rat="LTE" q="68.40" rsrp="-87" sinr="13" rsrq="-7"/>
        <radio op="I TIM" rat="LTE" q="100.00" rsrp="-80" sinr="25" rsrq="-13"/>
      </extensions>
    </trkpt>
    <trkpt lat="45.6176815" lon="10.494066">
      <ele>227.10000610351562</ele>
      <time>2026-05-12T12:40:06.71+02:00</time>
      <extensions>
        <activity type="UNKNOWN" conf="40" state="unknown" tsMs="1778582402613"/>
        <radio op="vodafone IT" rat="LTE" q="33.80" rsrp="-99" sinr="8" rsrq="-10"/>
        <radio op="I TIM" rat="LTE" q="100.00" rsrp="-84" sinr="21" rsrq="-10"/>
      </extensions>
    </trkpt>
    <trkpt lat="45.6176513" lon="10.4941104">
      <ele>227.10000610351562</ele>
      <time>2026-05-12T12:40:37.8+02:00</time>
      <extensions>
        <activity type="UNKNOWN" conf="40" state="unknown" tsMs="1778582434601"/>
        <radio op="vodafone IT" rat="LTE" q="26.00" rsrp="-99" sinr="5" rsrq="-8"/>
        <radio op="I TIM" rat="LTE" q="100.00" rsrp="-85" sinr="21" rsrq="-12"/>
      </extensions>
    </trkpt>
    <trkpt lat="45.6176931" lon="10.4940421">
      <ele>227.10000610351562</ele>
      <time>2026-05-12T12:42:10.91+02:00</time>
      <extensions>
        <activity type="ON_FOOT" conf="85" state="moving" tsMs="1778582537440"/>
        <radio op="vodafone IT" rat="LTE" q="31.50" rsrp="-90" sinr="4" rsrq="-13"/>
        <radio op="I TIM" rat="LTE" q="93.60" rsrp="-86" sinr="19" rsrq="-11"/>
      </extensions>
    </trkpt>
    <trkpt lat="45.617699" lon="10.4940706">
      <ele>227.10000610351562</ele>
      <time>2026-05-12T12:42:41.973+02:00</time>
      <extensions>
        <activity type="UNKNOWN" conf="40" state="unknown" tsMs="1778582558798"/>
        <radio op="vodafone IT" rat="LTE" rsrp="-93" rsrq="-13"/>
        <radio op="I TIM" rat="LTE" q="87.40" rsrp="-87" sinr="18" rsrq="-11"/>
      </extensions>
    </trkpt>
    <trkpt lat="45.6176931" lon="10.4940503">
      <ele>227.10000610351562</ele>
      <time>2026-05-12T12:43:13.004+02:00</time>
      <extensions>
        <activity type="UNKNOWN" conf="40" state="unknown" tsMs="1778582589882"/>
        <radio op="vodafone IT" rat="LTE" q="33.60" rsrp="-97" sinr="7" rsrq="-12"/>
        <radio op="I TIM" rat="LTE" q="92.50" rsrp="-88" sinr="21" rsrq="-11"/>
      </extensions>
    </trkpt>
    <trkpt lat="45.6176281" lon="10.4941154">
      <ele>227.10000610351562</ele>
      <time>2026-05-12T12:43:44.094+02:00</time>
      <extensions>
        <activity type="UNKNOWN" conf="40" state="unknown" tsMs="1778582619920"/>
        <radio op="vodafone IT" rat="LTE" q="27.20" rsrp="-91" sinr="3" rsrq="-8"/>
        <radio op="I TIM" rat="LTE" q="88.80" rsrp="-88" sinr="19" rsrq="-13"/>
      </extensions>
    </trkpt>
    <trkpt lat="45.6176857" lon="10.4940526">
      <ele>227.10000610351562</ele>
      <time>2026-05-12T12:44:15.121+02:00</time>
      <extensions>
        <activity type="UNKNOWN" conf="40" state="unknown" tsMs="1778582652000"/>
        <radio op="vodafone IT" rat="LTE" q="15.60" rsrp="-99" sinr="1" rsrq="-11"/>
        <radio op="I TIM" rat="LTE" q="77.70" rsrp="-88" sinr="16" rsrq="-10"/>
      </extensions>
    </trkpt>
    <trkpt lat="45.617681" lon="10.4940527">
      <ele>227.10000610351562</ele>
      <time>2026-05-12T12:44:46.25+02:00</time>
      <extensions>
        <activity type="UNKNOWN" conf="40" state="unknown" tsMs="1778582682981"/>
        <radio op="vodafone IT" rat="LTE" q="43.20" rsrp="-98" sinr="11" rsrq="-10"/>
        <radio op="I TIM" rat="LTE" q="77.00" rsrp="-90" sinr="17" rsrq="-11"/>
      </extensions>
    </trkpt>
    <trkpt lat="45.6176358" lon="10.4941077">
      <ele>227.10000610351562</ele>
      <time>2026-05-12T12:45:17.351+02:00</time>
      <extensions>
        <activity type="UNKNOWN" conf="40" state="unknown" tsMs="1778582714109"/>
        <radio op="vodafone IT" rat="LTE" q="17.50" rsrp="-100" sinr="2" rsrq="-10"/>
        <radio op="I TIM" rat="LTE" q="87.50" rsrp="-90" sinr="22" rsrq="-11"/>
      </extensions>
    </trkpt>
    <trkpt lat="45.6176547" lon="10.4940998">
      <ele>227.10000610351562</ele>
      <time>2026-05-12T12:45:48.415+02:00</time>
      <extensions>
        <activity type="ON_FOOT" conf="92" state="moving" tsMs="1778582745212"/>
        <radio op="vodafone IT" rat="LTE" rsrp="-96" rsrq="-9"/>
        <radio op="I TIM" rat="LTE" q="97.50" rsrp="-86" sinr="24" rsrq="-12"/>
      </extensions>
    </trkpt>
    <trkpt lat="45.6176352" lon="10.494109">
      <ele>227.10000610351562</ele>
      <time>2026-05-12T12:46:19.473+02:00</time>
      <extensions>
        <activity type="UNKNOWN" conf="40" state="unknown" tsMs="1778582775396"/>
        <radio op="vodafone IT" rat="LTE" q="45.60" rsrp="-101" sinr="14" rsrq="-9"/>
        <radio op="I TIM" rat="LTE" q="57.50" rsrp="-102" sinr="25" rsrq="-11"/>
      </extensions>
    </trkpt>
    <trkpt lat="45.6176429" lon="10.4940825">
      <ele>227.10000610351562</ele>
      <time>2026-05-12T12:46:46.582+02:00</time>
      <extensions>
        <activity type="ON_FOOT" conf="89" state="moving" tsMs="1778582806377"/>
        <radio op="vodafone IT" rat="LTE" q="44.20" rsrp="-99" sinr="12" rsrq="-7"/>
        <radio op="I TIM" rat="LTE" q="52.00" rsrp="-85" sinr="8" rsrq="-11"/>
      </extensions>
    </trkpt>
    <trkpt lat="45.6176597" lon="10.4940827">
      <ele>227.10000610351562</ele>
      <time>2026-05-12T12:47:21.013+02:00</time>
      <extensions>
        <activity type="UNKNOWN" conf="40" state="unknown" tsMs="1778582837624"/>
        <radio op="vodafone IT" rat="LTE" q="39.00" rsrp="-95" sinr="8" rsrq="-9"/>
        <radio op="I TIM" rat="LTE" q="66.00" rsrp="-95" sinr="17" rsrq="-12"/>
      </extensions>
    </trkpt>
    <trkpt lat="45.6176453" lon="10.494079">
      <ele>227.10000610351562</ele>
      <time>2026-05-12T12:47:52.141+02:00</time>
      <extensions>
        <activity type="UNKNOWN" conf="40" state="unknown" tsMs="1778582868926"/>
        <radio op="vodafone IT" rat="LTE" q="53.20" rsrp="-97" sinr="14" rsrq="-9"/>
        <radio op="I TIM" rat="LTE" q="80.00" rsrp="-93" sinr="20" rsrq="-12"/>
      </extensions>
    </trkpt>
    <trkpt lat="45.6176343" lon="10.4941219">
      <ele>227.10000610351562</ele>
      <time>2026-05-12T12:48:23.315+02:00</time>
      <extensions>
        <activity type="ON_FOOT" conf="83" state="moving" tsMs="1778582900125"/>
        <radio op="vodafone IT" rat="LTE" q="44.80" rsrp="-97" sinr="11" rsrq="-8"/>
        <radio op="I TIM" rat="LTE" q="69.00" rsrp="-95" sinr="18" rsrq="-12"/>
      </extensions>
    </trkpt>
    <trkpt lat="45.6177053" lon="10.49406">
      <ele>227.10000610351562</ele>
      <time>2026-05-12T12:48:54.501+02:00</time>
      <extensions>
        <activity type="ON_FOOT" conf="95" state="moving" tsMs="1778582931321"/>
        <radio op="vodafone IT" rat="LTE" q="50.00" rsrp="-100" sinr="15" rsrq="-7"/>
        <radio op="I TIM" rat="LTE" q="100.00" rsrp="-82" sinr="22" rsrq="-11"/>
      </extensions>
    </trkpt>
    <trkpt lat="45.6176568" lon="10.4940741">
      <ele>227.10000610351562</ele>
      <time>2026-05-12T12:49:25.563+02:00</time>
      <extensions>
        <activity type="UNKNOWN" conf="40" state="unknown" tsMs="1778582962406"/>
        <radio op="vodafone IT" rat="LTE" q="62.10" rsrp="-98" sinr="18" rsrq="-6"/>
        <radio op="I TIM" rat="LTE" q="60.00" rsrp="-95" sinr="15" rsrq="-12"/>
      </extensions>
    </trkpt>
    <trkpt lat="45.6176838" lon="10.494072">
      <ele>227.10000610351562</ele>
      <time>2026-05-12T12:49:56.627+02:00</time>
      <extensions>
        <activity type="ON_FOOT" conf="88" state="moving" tsMs="1778582993487"/>
        <radio op="vodafone IT" rat="LTE" q="64.00" rsrp="-93" sinr="15" rsrq="-8"/>
        <radio op="I TIM" rat="LTE" q="100.00" rsrp="-84" sinr="24" rsrq="-12"/>
      </extensions>
    </trkpt>
    <trkpt lat="45.6176106" lon="10.4944409">
      <ele>227.10000610351562</ele>
      <time>2026-05-12T12:50:27.777+02:00</time>
      <extensions>
        <activity type="ON_FOOT" conf="94" state="moving" tsMs="1778583024539"/>
        <radio op="vodafone IT" rat="LTE" q="49.30" rsrp="-96" sinr="12" rsrq="-12"/>
        <radio op="I TIM" rat="LTE" q="36.30" rsrp="-92" sinr="6" rsrq="-12"/>
      </extensions>
    </trkpt>
    <trkpt lat="45.617631" lon="10.4941163">
      <ele>227.10000610351562</ele>
      <time>2026-05-12T12:50:58.869+02:00</time>
      <extensions>
        <activity type="ON_FOOT" conf="97" state="moving" tsMs="1778583055645"/>
        <radio op="vodafone IT" rat="LTE" q="70.00" rsrp="-97" sinr="22" rsrq="-7"/>
        <radio op="I TIM" rat="LTE" q="86.40" rsrp="-89" sinr="19" rsrq="-12"/>
      </extensions>
    </trkpt>
    <trkpt lat="45.6177065" lon="10.4940455">
      <ele>227.10000610351562</ele>
      <time>2026-05-12T12:51:30.149+02:00</time>
      <extensions>
        <activity type="UNKNOWN" conf="40" state="unknown" tsMs="1778583086957"/>
        <radio op="vodafone IT" rat="LTE" q="59.40" rsrp="-98" sinr="17" rsrq="-11"/>
        <radio op="I TIM" rat="LTE" q="62.70" rsrp="-92" sinr="14" rsrq="-12"/>
      </extensions>
    </trkpt>
    <trkpt lat="45.6177008" lon="10.4940321">
      <ele>227.10000610351562</ele>
      <time>2026-05-12T12:52:01.263+02:00</time>
      <extensions>
        <activity type="UNKNOWN" conf="40" state="unknown" tsMs="1778583118070"/>
        <radio op="vodafone IT" rat="LTE" q="48.40" rsrp="-103" sinr="17" rsrq="-13"/>
        <radio op="I TIM" rat="LTE" q="67.20" rsrp="-93" sinr="16" rsrq="-12"/>
      </extensions>
    </trkpt>
    <trkpt lat="45.6176077" lon="10.4942505">
      <ele>227.10000610351562</ele>
      <time>2026-05-12T12:52:32.437+02:00</time>
      <extensions>
        <activity type="UNKNOWN" conf="40" state="unknown" tsMs="1778583149224"/>
        <radio op="vodafone IT" rat="LTE" q="55.80" rsrp="-94" sinr="13" rsrq="-11"/>
        <radio op="I TIM" rat="LTE" q="82.50" rsrp="-92" sinr="20" rsrq="-12"/>
      </extensions>
    </trkpt>
    <trkpt lat="45.6176998" lon="10.4940365">
      <ele>227.10000610351562</ele>
      <time>2026-05-12T12:53:03.536+02:00</time>
      <extensions>
        <activity type="ON_FOOT" conf="83" state="moving" tsMs="1778583180324"/>
        <radio op="vodafone IT" rat="LTE" q="47.50" rsrp="-100" sinr="14" rsrq="-11"/>
        <radio op="I TIM" rat="LTE" q="79.20" rsrp="-89" sinr="17" rsrq="-12"/>
      </extensions>
    </trkpt>
    <trkpt lat="45.6176827" lon="10.4940449">
      <ele>227.10000610351562</ele>
      <time>2026-05-12T12:53:34.801+02:00</time>
      <extensions>
        <activity type="UNKNOWN" conf="40" state="unknown" tsMs="1778583211663"/>
        <radio op="vodafone IT" rat="LTE" q="39.20" rsrp="-97" sinr="9" rsrq="-12"/>
        <radio op="I TIM" rat="LTE" q="57.60" rsrp="-93" sinr="13" rsrq="-12"/>
      </extensions>
    </trkpt>
    <trkpt lat="45.6176622" lon="10.4940665">
      <ele>227.10000610351562</ele>
      <time>2026-05-12T12:54:06.027+02:00</time>
      <extensions>
        <activity type="UNKNOWN" conf="40" state="unknown" tsMs="1778583242763"/>
        <radio op="vodafone IT" rat="LTE" q="52.00" rsrp="-99" sinr="15" rsrq="-8"/>
        <radio op="I TIM" rat="LTE" q="55.80" rsrp="-94" sinr="13" rsrq="-12"/>
      </extensions>
    </trkpt>
    <trkpt lat="45.6176565" lon="10.4940821">
      <ele>227.10000610351562</ele>
      <time>2026-05-12T12:54:37.184+02:00</time>
      <extensions>
        <activity type="ON_FOOT" conf="86" state="moving" tsMs="1778583273961"/>
        <radio op="vodafone IT" rat="LTE" q="64.80" rsrp="-98" sinr="19" rsrq="-9"/>
        <radio op="I TIM" rat="LTE" q="85.00" rsrp="-91" sinr="21" rsrq="-12"/>
      </extensions>
    </trkpt>
    <trkpt lat="45.6176612" lon="10.4941049">
      <ele>227.10000610351562</ele>
      <time>2026-05-12T12:55:08.233+02:00</time>
      <extensions>
        <activity type="ON_FOOT" conf="96" state="moving" tsMs="1778583305105"/>
        <radio op="vodafone IT" rat="LTE" q="62.40" rsrp="-99" sinr="19" rsrq="-6"/>
        <radio op="I TIM" rat="LTE" q="90.00" rsrp="-89" sinr="25" rsrq="-11"/>
      </extensions>
    </trkpt>
    <trkpt lat="45.6176841" lon="10.4940677">
      <ele>227.10000610351562</ele>
      <time>2026-05-12T12:55:39.315+02:00</time>
      <extensions>
        <activity type="ON_FOOT" conf="97" state="moving" tsMs="1778583336112"/>
        <radio op="vodafone IT" rat="LTE" q="71.40" rsrp="-91" sinr="16" rsrq="-11"/>
        <radio op="I TIM" rat="LTE" q="92.00" rsrp="-85" sinr="18" rsrq="-11"/>
      </extensions>
    </trkpt>
    <trkpt lat="45.6176716" lon="10.4940639">
      <ele>227.10000610351562</ele>
      <time>2026-05-12T12:56:10.488+02:00</time>
      <extensions>
        <activity type="ON_FOOT" conf="88" state="moving" tsMs="1778583367407"/>
        <radio op="vodafone IT" rat="LTE" q="39.00" rsrp="-99" sinr="10" rsrq="-9"/>
        <radio op="I TIM" rat="LTE" q="100.00" rsrp="-82" sinr="22" rsrq="-12"/>
      </extensions>
    </trkpt>
    <trkpt lat="45.6175276" lon="10.4943433">
      <ele>227.10000610351562</ele>
      <time>2026-05-12T12:56:31.074+02:00</time>
      <extensions>
        <activity type="ON_FOOT" conf="83" state="moving" tsMs="1778583388884"/>
        <radio op="vodafone IT" rat="LTE" q="28.60" rsrp="-103" sinr="8" rsrq="-14"/>
        <radio op="I TIM" rat="LTE" q="36.00" rsrp="-95" sinr="7" rsrq="-12"/>
      </extensions>
    </trkpt>
    <trkpt lat="45.617522" lon="10.4943157">
      <ele>227.10000610351562</ele>
      <time>2026-05-12T12:56:34.244+02:00</time>
      <extensions>
        <activity type="ON_FOOT" conf="83" state="moving" tsMs="1778583388884"/>
        <radio op="vodafone IT" rat="LTE" q="73.60" rsrp="-93" sinr="18" rsrq="-13"/>
        <radio op="I TIM" rat="LTE" q="95.00" rsrp="-87" sinr="20" rsrq="-12"/>
      </extensions>
    </trkpt>
    <trkpt lat="45.6177049" lon="10.4940517">
      <ele>227.10000610351562</ele>
      <time>2026-05-12T12:57:20.279+02:00</time>
      <extensions>
        <activity type="STILL" conf="99" state="still" tsMs="1778583439366"/>
        <radio op="vodafone IT" rat="LTE" q="82.50" rsrp="-92" sinr="25" rsrq="-7"/>
        <radio op="I TIM" rat="LTE" q="86.40" rsrp="-89" sinr="19" rsrq="-9"/>
      </extensions>
    </trkpt>
    <trkpt lat="45.6178752" lon="10.4937124">
      <ele>227.10000610351562</ele>
      <time>2026-05-12T12:57:52.881+02:00</time>
      <extensions>
        <activity type="STILL" conf="99" state="still" tsMs="1778583468613"/>
        <radio op="vodafone IT" rat="LTE" q="85.00" rsrp="-91" sinr="27" rsrq="-9"/>
        <radio op="I TIM" rat="LTE" q="71.40" rsrp="-91" sinr="16" rsrq="-9"/>
      </extensions>
    </trkpt>
    <trkpt lat="45.6177076" lon="10.4940573">
      <ele>227.10000610351562</ele>
      <time>2026-05-12T12:58:36.214+02:00</time>
      <extensions>
        <activity type="STILL" conf="99" state="still" tsMs="1778583513364"/>
        <radio op="vodafone IT" rat="LTE" q="85.00" rsrp="-91" sinr="26" rsrq="-9"/>
        <radio op="I TIM" rat="LTE" q="85.00" rsrp="-91" sinr="21" rsrq="-10"/>
      </extensions>
    </trkpt>
    <trkpt lat="45.6177062" lon="10.4940132">
      <ele>227.10000610351562</ele>
      <time>2026-05-12T12:59:12.213+02:00</time>
      <extensions>
        <activity type="STILL" conf="99" state="still" tsMs="1778583544620"/>
        <radio op="vodafone IT" rat="LTE" q="87.50" rsrp="-90" sinr="23" rsrq="-8"/>
        <radio op="I TIM" rat="LTE" q="54.40" rsrp="-93" sinr="12" rsrq="-12"/>
      </extensions>
    </trkpt>
    <trkpt lat="45.6176565" lon="10.4941028">
      <ele>227.10000610351562</ele>
      <time>2026-05-12T12:59:46.333+02:00</time>
      <extensions>
        <activity type="STILL" conf="99" state="still" tsMs="1778583586082"/>
        <radio op="vodafone IT" rat="LTE" q="85.00" rsrp="-91" sinr="26" rsrq="-8"/>
        <radio op="I TIM" rat="LTE" q="82.50" rsrp="-92" sinr="23" rsrq="-12"/>
      </extensions>
    </trkpt>
    <trkpt lat="45.6177204" lon="10.4940551">
      <ele>227.10000610351562</ele>
      <time>2026-05-12T13:00:26.824+02:00</time>
      <extensions>
        <activity type="STILL" conf="99" state="still" tsMs="1778583626691"/>
        <radio op="vodafone IT" rat="LTE" q="85.00" rsrp="-91" sinr="24" rsrq="-12"/>
        <radio op="I TIM" rat="LTE" q="87.50" rsrp="-90" sinr="22" rsrq="-11"/>
      </extensions>
    </trkpt>
    <trkpt lat="45.6177073" lon="10.4940452">
      <ele>227.10000610351562</ele>
      <time>2026-05-12T13:00:58.388+02:00</time>
      <extensions>
        <activity type="STILL" conf="99" state="still" tsMs="1778583657487"/>
        <radio op="vodafone IT" rat="LTE" q="75.00" rsrp="-95" sinr="23" rsrq="-9"/>
        <radio op="I TIM" rat="LTE" q="78.20" rsrp="-91" sinr="18" rsrq="-13"/>
      </extensions>
    </trkpt>
    <trkpt lat="45.6176629" lon="10.494103">
      <ele>227.10000610351562</ele>
      <time>2026-05-12T13:01:38.841+02:00</time>
      <extensions>
        <activity type="STILL" conf="99" state="still" tsMs="1778583698133"/>
        <radio op="vodafone IT" rat="LTE" q="82.50" rsrp="-92" sinr="27" rsrq="-9"/>
        <radio op="I TIM" rat="LTE" q="72.60" rsrp="-92" sinr="17" rsrq="-10"/>
      </extensions>
    </trkpt>
    <trkpt lat="45.6177515" lon="10.4939459">
      <ele>227.10000610351562</ele>
      <time>2026-05-12T13:41:34.483+02:00</time>
      <extensions>
        <activity type="ON_FOOT" conf="94" state="moving" tsMs="1778586066849"/>
        <radio op="vodafone IT" rat="LTE" q="100.00" rsrp="-84" sinr="26" rsrq="-11"/>
        <radio op="I TIM" rat="LTE" q="49.40" rsrp="-99" sinr="14" rsrq="-13"/>
      </extensions>
    </trkpt>
    <trkpt lat="45.617679" lon="10.4940226">
      <ele>227.10000610351562</ele>
      <time>2026-05-12T13:42:05.749+02:00</time>
      <extensions>
        <activity type="UNKNOWN" conf="40" state="unknown" tsMs="1778586122813"/>
        <radio op="vodafone IT" rat="LTE" q="67.20" rsrp="-97" sinr="19" rsrq="-9"/>
        <radio op="I TIM" rat="LTE" q="82.50" rsrp="-92" sinr="20" rsrq="-9"/>
      </extensions>
    </trkpt>
    <trkpt lat="45.6178565" lon="10.4932544">
      <ele>227.90000915527344</ele>
      <time>2026-05-12T13:42:37.03+02:00</time>
      <extensions>
        <activity type="IN_VEHICLE" conf="97" state="moving" tsMs="1778586153822"/>
        <radio op="vodafone IT" rat="LTE" q="32.00" rsrp="-109" sinr="15" rsrq="-12"/>
        <radio op="I TIM" rat="LTE" q="12.00" rsrp="-101" sinr="0" rsrq="-12"/>
      </extensions>
    </trkpt>
    <trkpt lat="45.6157111" lon="10.4953326">
      <ele>229.79322899669324</ele>
      <time>2026-05-12T13:43:17.074+02:00</time>
      <extensions>
        <activity type="IN_VEHICLE" conf="97" state="moving" tsMs="1778586199477"/>
        <radio op="vodafone IT" rat="LTE" q="55.20" rsrp="-101" sinr="18" rsrq="-10"/>
        <radio op="I TIM" rat="LTE" q="59.20" rsrp="-88" sinr="11" rsrq="-12"/>
      </extensions>
    </trkpt>
    <trkpt lat="45.6123017" lon="10.4959574">
      <ele>226.40000915527344</ele>
      <time>2026-05-12T13:43:51.201+02:00</time>
      <extensions>
        <activity type="IN_VEHICLE" conf="97" state="moving" tsMs="1778586231387"/>
        <radio op="vodafone IT" rat="LTE" q="82.50" rsrp="-92" sinr="21" rsrq="-10"/>
        <radio op="I TIM" rat="LTE" rsrp="-110" rsrq="-18"/>
      </extensions>
    </trkpt>
    <trkpt lat="45.6116979" lon="10.4956514">
      <ele>226.40000915527344</ele>
      <time>2026-05-12T13:43:57.383+02:00</time>
      <extensions>
        <activity type="IN_VEHICLE" conf="97" state="moving" tsMs="1778586231387"/>
        <radio op="vodafone IT" rat="LTE" q="75.00" rsrp="-95" sinr="23" rsrq="-7"/>
        <radio op="I TIM" rat="LTE" rsrp="-112" rsrq="-15"/>
      </extensions>
    </trkpt>
    <trkpt lat="45.6110477" lon="10.4953729">
      <ele>217.3000030517578</ele>
      <time>2026-05-12T13:44:32.595+02:00</time>
      <extensions>
        <activity type="IN_VEHICLE" conf="94" state="moving" tsMs="1778586270207"/>
        <radio op="vodafone IT" rat="LTE" q="76.80" rsrp="-93" sinr="19" rsrq="-12"/>
        <radio op="I TIM" rat="LTE" rsrp="-117" rsrq="-19"/>
      </extensions>
    </trkpt>
    <trkpt lat="45.6119814" lon="10.4910989">
      <ele>230.90000915527344</ele>
      <time>2026-05-12T13:45:03.979+02:00</time>
      <extensions>
        <activity type="IN_VEHICLE" conf="97" state="moving" tsMs="1778586304085"/>
        <radio op="vodafone IT" rat="LTE" q="8.80" rsrp="-114" sinr="3" rsrq="-12"/>
        <radio op="I TIM" rat="LTE" q="30.00" rsrp="-105" sinr="10" rsrq="-12"/>
      </extensions>
    </trkpt>
    <trkpt lat="45.6121586" lon="10.4903181">
      <ele>234.70001220703125</ele>
      <time>2026-05-12T13:45:35.294+02:00</time>
      <extensions>
        <activity type="IN_VEHICLE" conf="97" state="moving" tsMs="1778586332358"/>
        <radio op="vodafone IT" rat="LTE" rsrp="-104" rsrq="-14"/>
        <radio op="I TIM" rat="LTE" q="20.90" rsrp="-106" sinr="6" rsrq="-12"/>
      </extensions>
    </trkpt>
    <trkpt lat="45.6061675" lon="10.4692419">
      <ele>253.4983386518239</ele>
      <time>2026-05-12T13:47:09.241+02:00</time>
      <extensions>
        <activity type="IN_VEHICLE" conf="97" state="moving" tsMs="1778586428168"/>
        <radio op="vodafone IT" rat="LTE" q="50.40" rsrp="-104" sinr="19" rsrq="-7"/>
        <radio op="I TIM" rat="LTE" q="65.00" rsrp="-99" sinr="24" rsrq="-8"/>
      </extensions>
    </trkpt>
    <trkpt lat="45.6061675" lon="10.4692419">
      <ele>255.87488189861696</ele>
      <time>2026-05-12T13:47:19.702+02:00</time>
      <extensions>
        <activity type="IN_VEHICLE" conf="96" state="moving" tsMs="1778586433255"/>
        <radio op="vodafone IT" rat="LTE" q="85.00" rsrp="-91" sinr="23" rsrq="-5"/>
        <radio op="I TIM" rat="LTE" q="67.50" rsrp="-98" sinr="26" rsrq="-9"/>
      </extensions>
    </trkpt>
    <trkpt lat="45.6061675" lon="10.4692419">
      <ele>271.4938286444202</ele>
      <time>2026-05-12T13:48:05.162+02:00</time>
      <extensions>
        <activity type="IN_VEHICLE" conf="96" state="moving" tsMs="1778586478808"/>
        <radio op="vodafone IT" rat="LTE" q="84.00" rsrp="-72" sinr="16" rsrq="-11"/>
        <radio op="I TIM" rat="LTE" q="100.00" rsrp="-73" sinr="30" rsrq="-12"/>
      </extensions>
    </trkpt>
    <trkpt lat="45.6061675" lon="10.4692419">
      <ele>274.18407511628914</ele>
      <time>2026-05-12T13:48:10.167+02:00</time>
      <extensions>
        <activity type="IN_VEHICLE" conf="96" state="moving" tsMs="1778586478808"/>
        <radio op="vodafone IT" rat="LTE" q="88.00" rsrp="-68" sinr="17" rsrq="-8"/>
        <radio op="I TIM" rat="LTE" q="100.00" rsrp="-67" sinr="23" rsrq="-10"/>
      </extensions>
    </trkpt>
    <trkpt lat="45.6050974" lon="10.4651784">
      <ele>269.5072306589707</ele>
      <time>2026-05-12T13:48:59.077+02:00</time>
      <extensions>
        <activity type="IN_VEHICLE" conf="97" state="moving" tsMs="1778586539026"/>
        <radio op="vodafone IT" rat="LTE" q="100.00" rsrp="-66" sinr="21" rsrq="-6"/>
        <radio op="I TIM" rat="LTE" q="100.00" rsrp="-70" sinr="27" rsrq="-9"/>
      </extensions>
    </trkpt>
    <trkpt lat="45.6038976" lon="10.4593678">
      <ele>267.7109057983631</ele>
      <time>2026-05-12T13:49:30.721+02:00</time>
      <extensions>
        <activity type="IN_VEHICLE" conf="97" state="moving" tsMs="1778586571026"/>
        <radio op="vodafone IT" rat="LTE" q="100.00" rsrp="-67" sinr="27" rsrq="-11"/>
        <radio op="I TIM" rat="LTE" rsrp="-114" rsrq="-18"/>
      </extensions>
    </trkpt>
    <trkpt lat="45.6038597" lon="10.4600143">
      <ele>267.7109057983631</ele>
      <time>2026-05-12T13:49:37.076+02:00</time>
      <extensions>
        <activity type="IN_VEHICLE" conf="97" state="moving" tsMs="1778586571026"/>
        <radio op="vodafone IT" rat="LTE" q="100.00" rsrp="-62" sinr="26" rsrq="-9"/>
        <radio op="I TIM" rat="LTE" q="100.00" rsrp="-74" sinr="24" rsrq="-11"/>
      </extensions>
    </trkpt>
    <trkpt lat="45.6030431" lon="10.4572282">
      <ele>263.20001220703125</ele>
      <time>2026-05-12T13:50:12.063+02:00</time>
      <extensions>
        <activity type="IN_VEHICLE" conf="97" state="moving" tsMs="1778586609646"/>
        <radio op="vodafone IT" rat="LTE" q="100.00" rsrp="-76" sinr="20" rsrq="-9"/>
        <radio op="I TIM" rat="LTE" q="96.00" rsrp="-85" sinr="19" rsrq="-12"/>
      </extensions>
    </trkpt>
    <trkpt lat="45.602925" lon="10.4572419">
      <ele>263.20001220703125</ele>
      <time>2026-05-12T13:50:18.077+02:00</time>
      <extensions>
        <activity type="IN_VEHICLE" conf="97" state="moving" tsMs="1778586609646"/>
        <radio op="vodafone IT" rat="LTE" q="92.00" rsrp="-78" sinr="18" rsrq="-11"/>
        <radio op="I TIM" rat="LTE" q="85.80" rsrp="-86" sinr="17" rsrq="-12"/>
      </extensions>
    </trkpt>
    <trkpt lat="45.6016766" lon="10.4544113">
      <ele>260.9000244140625</ele>
      <time>2026-05-12T13:50:53.559+02:00</time>
      <extensions>
        <activity type="IN_VEHICLE" conf="97" state="moving" tsMs="1778586648910"/>
        <radio op="vodafone IT" rat="LTE" q="19.00" rsrp="-87" sinr="0" rsrq="-10"/>
        <radio op="I TIM" rat="LTE" q="30.00" rsrp="-100" sinr="7" rsrq="-13"/>
      </extensions>
    </trkpt>
    <trkpt lat="45.6015582" lon="10.4536946">
      <ele>260.9000244140625</ele>
      <time>2026-05-12T13:51:01.076+02:00</time>
      <extensions>
        <activity type="IN_VEHICLE" conf="97" state="moving" tsMs="1778586664748"/>
        <radio op="vodafone IT" rat="LTE" rsrp="-89" rsrq="-10"/>
        <radio op="I TIM" rat="LTE" q="14.50" rsrp="-96" sinr="0" rsrq="-11"/>
      </extensions>
    </trkpt>
    <trkpt lat="45.6021848" lon="10.4534951">
      <ele>258.2331545651434</ele>
      <time>2026-05-12T13:51:34.899+02:00</time>
      <extensions>
        <activity type="IN_VEHICLE" conf="97" state="moving" tsMs="1778586694936"/>
        <radio op="vodafone IT" rat="LTE" q="21.70" rsrp="-94" sinr="2" rsrq="-11"/>
        <radio op="I TIM" rat="LTE" rsrp="-93" rsrq="-13"/>
      </extensions>
    </trkpt>
    <trkpt lat="45.6022221" lon="10.4535258">
      <ele>258.2331545651434</ele>
      <time>2026-05-12T13:51:41.075+02:00</time>
      <extensions>
        <activity type="IN_VEHICLE" conf="97" state="moving" tsMs="1778586694936"/>
        <radio op="vodafone IT" rat="LTE" q="21.70" rsrp="-94" sinr="2" rsrq="-13"/>
        <radio op="I TIM" rat="LTE" rsrp="-102" rsrq="-15"/>
      </extensions>
    </trkpt>
    <trkpt lat="45.6021134" lon="10.4534949">
      <ele>259.2188768328199</ele>
      <time>2026-05-12T13:52:16.243+02:00</time>
      <extensions>
        <activity type="STILL" conf="80" state="still" tsMs="1778586736232"/>
        <radio op="vodafone IT" rat="LTE" rsrp="-93" rsrq="-12"/>
        <radio op="I TIM" rat="LTE" rsrp="-102" rsrq="-15"/>
      </extensions>
    </trkpt>
    <trkpt lat="45.6022604" lon="10.4534846">
      <ele>261.9000244140625</ele>
      <time>2026-05-12T13:52:47.416+02:00</time>
      <extensions>
        <activity type="ON_FOOT" conf="85" state="moving" tsMs="1778586767719"/>
        <radio op="vodafone IT" rat="LTE" q="44.80" rsrp="-93" sinr="9" rsrq="-13"/>
        <radio op="I TIM" rat="LTE" q="36.00" rsrp="-101" sinr="10" rsrq="-11"/>
      </extensions>
    </trkpt>
    <trkpt lat="45.6026312" lon="10.4535158">
      <ele>261.8000183105469</ele>
      <time>2026-05-12T13:53:18.7+02:00</time>
      <extensions>
        <activity type="ON_FOOT" conf="96" state="moving" tsMs="1778586798869"/>
        <radio op="vodafone IT" rat="LTE" q="6.60" rsrp="-114" sinr="1" rsrq="-11"/>
        <radio op="I TIM" rat="LTE" q="46.20" rsrp="-104" sinr="17" rsrq="-12"/>
      </extensions>
    </trkpt>
    <trkpt lat="45.6025475" lon="10.4536417">
      <ele>261.8000183105469</ele>
      <time>2026-05-12T13:53:49.917+02:00</time>
      <extensions>
        <activity type="ON_FOOT" conf="83" state="moving" tsMs="1778586825134"/>
        <radio op="vodafone IT" rat="LTE" rsrp="-106" rsrq="-13"/>
        <radio op="I TIM" rat="LTE" q="25.00" rsrp="-115" sinr="20" rsrq="-11"/>
      </extensions>
    </trkpt>
    <trkpt lat="45.6025571" lon="10.4536512">
      <ele>261.8000183105469</ele>
      <time>2026-05-12T13:54:21.384+02:00</time>
      <extensions>
        <activity type="STILL" conf="99" state="still" tsMs="1778586858327"/>
        <radio op="vodafone IT" rat="LTE" q="9.50" rsrp="-106" sinr="0" rsrq="-13"/>
        <radio op="I TIM" rat="LTE" q="50.60" rsrp="-103" sinr="18" rsrq="-8"/>
      </extensions>
    </trkpt>
    <trkpt lat="45.6025611" lon="10.45366">
      <ele>261.8000183105469</ele>
      <time>2026-05-12T13:54:52.889+02:00</time>
      <extensions>
        <activity type="STILL" conf="99" state="still" tsMs="1778586889741"/>
        <radio op="vodafone IT" rat="LTE" q="9.60" rsrp="-113" sinr="3" rsrq="-9"/>
        <radio op="I TIM" rat="LTE" q="48.30" rsrp="-104" sinr="18" rsrq="-8"/>
      </extensions>
    </trkpt>
    <trkpt lat="45.6025604" lon="10.4536657">
      <ele>261.8000183105469</ele>
      <time>2026-05-12T13:55:24.423+02:00</time>
      <extensions>
        <activity type="STILL" conf="99" state="still" tsMs="1778586921220"/>
        <radio op="vodafone IT" rat="LTE" rsrp="-113" rsrq="-12"/>
        <radio op="I TIM" rat="LTE" q="48.30" rsrp="-104" sinr="18" rsrq="-6"/>
      </extensions>
    </trkpt>
    <trkpt lat="45.6025585" lon="10.4536496">
      <ele>261.8000183105469</ele>
      <time>2026-05-12T13:55:55.907+02:00</time>
      <extensions>
        <activity type="STILL" conf="99" state="still" tsMs="1778586952831"/>
        <radio op="vodafone IT" rat="LTE" rsrp="-116" rsrq="-11"/>
        <radio op="I TIM" rat="LTE" q="32.00" rsrp="-109" sinr="15" rsrq="-10"/>
      </extensions>
    </trkpt>
    <trkpt lat="45.602557" lon="10.4536518">
      <ele>261.8000183105469</ele>
      <time>2026-05-12T13:56:29.634+02:00</time>
      <extensions>
        <activity type="STILL" conf="99" state="still" tsMs="1778586989542"/>
        <radio op="vodafone IT" rat="LTE" q="7.80" rsrp="-112" sinr="1" rsrq="-10"/>
        <radio op="I TIM" rat="LTE" q="46.00" rsrp="-105" sinr="18" rsrq="-11"/>
      </extensions>
    </trkpt>
    <trkpt lat="45.6024673" lon="10.4536578">
      <ele>261.8000183105469</ele>
      <time>2026-05-12T14:38:30.996+02:00</time>
      <extensions>
        <activity type="ON_FOOT" conf="94" state="moving" tsMs="1778589528509"/>
        <radio op="vodafone IT" rat="LTE" q="18.90" rsrp="-104" sinr="4" rsrq="-12"/>
        <radio op="I TIM" rat="LTE" q="11.00" rsrp="-103" sinr="0" rsrq="-13"/>
      </extensions>
    </trkpt>
    <trkpt lat="45.6022124" lon="10.4535195">
      <ele>261.8000183105469</ele>
      <time>2026-05-12T14:39:06.091+02:00</time>
      <extensions>
        <activity type="ON_FOOT" conf="91" state="moving" tsMs="1778589552024"/>
        <radio op="vodafone IT" rat="LTE" q="36.00" rsrp="-101" sinr="10" rsrq="-9"/>
        <radio op="I TIM" rat="LTE" rsrp="-103" rsrq="-13"/>
      </extensions>
    </trkpt>
    <trkpt lat="45.6021339" lon="10.4534668">
      <ele>261.8000183105469</ele>
      <time>2026-05-12T14:39:45.13+02:00</time>
      <extensions>
        <activity type="STILL" conf="51" state="still" tsMs="1778589584104"/>
        <radio op="vodafone IT" rat="LTE" rsrp="-103" rsrq="-11"/>
        <radio op="I TIM" rat="LTE" rsrp="-108" rsrq="-14"/>
      </extensions>
    </trkpt>
    <trkpt lat="45.60229" lon="10.4534068">
      <ele>261.8000183105469</ele>
      <time>2026-05-12T14:40:13.803+02:00</time>
      <extensions>
        <activity type="IN_VEHICLE" conf="97" state="moving" tsMs="1778589616671"/>
        <radio op="vodafone IT" rat="LTE" q="15.00" rsrp="-100" sinr="1" rsrq="-5"/>
        <radio op="I TIM" rat="LTE" q="16.80" rsrp="-101" sinr="2" rsrq="-9"/>
      </extensions>
    </trkpt>
    <trkpt lat="45.601488" lon="10.45417">
      <ele>260.9000244140625</ele>
      <time>2026-05-12T14:40:47.302+02:00</time>
      <extensions>
        <activity type="IN_VEHICLE" conf="97" state="moving" tsMs="1778589643981"/>
        <radio op="vodafone IT" rat="LTE" q="39.20" rsrp="-97" sinr="9" rsrq="-10"/>
        <radio op="I TIM" rat="LTE" rsrp="-98" rsrq="-16"/>
      </extensions>
    </trkpt>
    <trkpt lat="45.6018922" lon="10.4532673">
      <ele>260.9000244140625</ele>
      <time>2026-05-12T14:41:18.486+02:00</time>
      <extensions>
        <activity type="STILL" conf="98" state="still" tsMs="1778589674813"/>
        <radio op="vodafone IT" rat="LTE" q="67.50" rsrp="-98" sinr="21" rsrq="-8"/>
        <radio op="I TIM" rat="LTE" q="22.40" rsrp="-97" sinr="3" rsrq="-13"/>
      </extensions>
    </trkpt>
    <trkpt lat="45.6027262" lon="10.4564423">
      <ele>268.51543782879094</ele>
      <time>2026-05-12T14:41:49.693+02:00</time>
      <extensions>
        <activity type="IN_VEHICLE" conf="97" state="moving" tsMs="1778589705823"/>
        <radio op="vodafone IT" rat="LTE" q="15.60" rsrp="-113" sinr="8" rsrq="-11"/>
        <radio op="I TIM" rat="LTE" q="76.80" rsrp="-93" sinr="19" rsrq="-10"/>
      </extensions>
    </trkpt>
    <trkpt lat="45.6029546" lon="10.457255">
      <ele>268.519720929707</ele>
      <time>2026-05-12T14:41:57.09+02:00</time>
      <extensions>
        <activity type="IN_VEHICLE" conf="96" state="moving" tsMs="1778589715511"/>
        <radio op="vodafone IT" rat="LTE" q="100.00" rsrp="-78" sinr="30" rsrq="-11"/>
        <radio op="I TIM" rat="LTE" q="100.00" rsrp="-75" sinr="27" rsrq="-12"/>
      </extensions>
    </trkpt>
    <trkpt lat="45.6039925" lon="10.4599437">
      <ele>270.5737135949049</ele>
      <time>2026-05-12T14:42:38.057+02:00</time>
      <extensions>
        <activity type="IN_VEHICLE" conf="97" state="moving" tsMs="1778589753078"/>
        <radio op="vodafone IT" rat="LTE" rsrp="-71" rsrq="-8"/>
        <radio op="I TIM" rat="LTE" q="80.00" rsrp="-82" sinr="15" rsrq="-12"/>
      </extensions>
    </trkpt>
    <trkpt lat="45.604277" lon="10.4616328">
      <ele>270.5737135949049</ele>
      <time>2026-05-12T14:42:46.09+02:00</time>
      <extensions>
        <activity type="IN_VEHICLE" conf="97" state="moving" tsMs="1778589758484"/>
        <radio op="vodafone IT" rat="LTE" q="88.00" rsrp="-85" sinr="17" rsrq="-10"/>
        <radio op="I TIM" rat="LTE" q="48.00" rsrp="-82" sinr="7" rsrq="-11"/>
      </extensions>
    </trkpt>
    <trkpt lat="45.6046303" lon="10.4647073">
      <ele>267.0</ele>
      <time>2026-05-12T14:43:17.023+02:00</time>
      <extensions>
        <activity type="IN_VEHICLE" conf="97" state="moving" tsMs="1778589796456"/>
        <radio op="vodafone IT" rat="LTE" q="100.00" rsrp="-76" sinr="25" rsrq="-5"/>
        <radio op="I TIM" rat="LTE" q="38.40" rsrp="-93" sinr="7" rsrq="-11"/>
      </extensions>
    </trkpt>
    <trkpt lat="45.6053832" lon="10.4653536">
      <ele>267.0</ele>
      <time>2026-05-12T14:43:23.09+02:00</time>
      <extensions>
        <activity type="IN_VEHICLE" conf="97" state="moving" tsMs="1778589796456"/>
        <radio op="vodafone IT" rat="LTE" q="100.00" rsrp="-77" sinr="22" rsrq="-7"/>
        <radio op="I TIM" rat="LTE" q="58.00" rsrp="-96" sinr="15" rsrq="-9"/>
      </extensions>
    </trkpt>
    <trkpt lat="45.6076141" lon="10.470463">
      <ele>271.9155965480573</ele>
      <time>2026-05-12T14:44:01.129+02:00</time>
      <extensions>
        <activity type="IN_VEHICLE" conf="97" state="moving" tsMs="1778589840559"/>
        <radio op="vodafone IT" rat="LTE" q="87.50" rsrp="-90" sinr="23" rsrq="-7"/>
        <radio op="I TIM" rat="LTE" q="100.00" rsrp="-85" sinr="23" rsrq="-12"/>
      </extensions>
    </trkpt>
    <trkpt lat="45.6074418" lon="10.4722611">
      <ele>271.9155965480573</ele>
      <time>2026-05-12T14:44:07.089+02:00</time>
      <extensions>
        <activity type="IN_VEHICLE" conf="97" state="moving" tsMs="1778589840559"/>
        <radio op="vodafone IT" rat="LTE" q="97.50" rsrp="-86" sinr="22" rsrq="-4"/>
        <radio op="I TIM" rat="LTE" q="72.00" rsrp="-84" sinr="13" rsrq="-12"/>
      </extensions>
    </trkpt>
    <trkpt lat="45.6112306" lon="10.4799201">
      <ele>276.13991300080926</ele>
      <time>2026-05-12T14:44:58.091+02:00</time>
      <extensions>
        <activity type="IN_VEHICLE" conf="96" state="moving" tsMs="1778589895620"/>
        <radio op="vodafone IT" rat="LTE" q="40.00" rsrp="-100" sinr="11" rsrq="-12"/>
        <radio op="I TIM" rat="LTE" q="16.20" rsrp="-107" sinr="4" rsrq="-13"/>
      </extensions>
    </trkpt>
    <trkpt lat="45.6198525" lon="10.4844739">
      <ele>279.04305616717284</ele>
      <time>2026-05-12T14:46:09.091+02:00</time>
      <extensions>
        <activity type="IN_VEHICLE" conf="97" state="moving" tsMs="1778589993453"/>
        <radio op="vodafone IT" rat="LTE" q="16.80" rsrp="-97" sinr="1" rsrq="-13"/>
        <radio op="I TIM" rat="LTE" rsrp="-113" rsrq="-10"/>
      </extensions>
    </trkpt>
    <trkpt lat="45.6233067" lon="10.4917055">
      <ele>283.4000244140625</ele>
      <time>2026-05-12T14:46:47.478+02:00</time>
      <extensions>
        <activity type="IN_VEHICLE" conf="97" state="moving" tsMs="1778590004453"/>
        <radio op="vodafone IT" rat="LTE" q="57.00" rsrp="-95" sinr="14" rsrq="-13"/>
        <radio op="I TIM" rat="LTE" rsrp="-120" rsrq="-12"/>
      </extensions>
    </trkpt>
    <trkpt lat="45.6232597" lon="10.492363">
      <ele>283.4000244140625</ele>
      <time>2026-05-12T14:46:53.091+02:00</time>
      <extensions>
        <activity type="IN_VEHICLE" conf="97" state="moving" tsMs="1778590018705"/>
        <radio op="vodafone IT" rat="LTE" rsrp="-117" rsrq="-12"/>
        <radio op="I TIM" rat="LTE" q="19.20" rsrp="-109" sinr="7" rsrq="-12"/>
      </extensions>
    </trkpt>
    <trkpt lat="45.6240698" lon="10.4940067">
      <ele>276.1379141092936</ele>
      <time>2026-05-12T14:47:42.235+02:00</time>
      <extensions>
        <activity type="IN_VEHICLE" conf="97" state="moving" tsMs="1778590062474"/>
        <radio op="vodafone IT" rat="LTE" q="36.40" rsrp="-99" sinr="9" rsrq="-12"/>
        <radio op="I TIM" rat="LTE" q="22.50" rsrp="-110" sinr="10" rsrq="-12"/>
      </extensions>
    </trkpt>
    <trkpt lat="45.6240867" lon="10.4939496">
      <ele>276.59233728107733</ele>
      <time>2026-05-12T14:48:19.331+02:00</time>
      <extensions>
        <activity type="STILL" conf="46" state="still" tsMs="1778590098051"/>
        <radio op="vodafone IT" rat="LTE" rsrp="-116" rsrq="-12"/>
        <radio op="I TIM" rat="LTE" q="16.80" rsrp="-111" sinr="7" rsrq="-10"/>
      </extensions>
    </trkpt>
    <trkpt lat="45.6236531" lon="10.4932443">
      <ele>277.70001220703125</ele>
      <time>2026-05-12T14:48:56.532+02:00</time>
      <extensions>
        <activity type="ON_FOOT" conf="96" state="moving" tsMs="1778590132537"/>
        <radio op="vodafone IT" rat="LTE" q="24.00" rsrp="-105" sinr="7" rsrq="-9"/>
        <radio op="I TIM" rat="LTE" q="14.30" rsrp="-114" sinr="8" rsrq="-11"/>
      </extensions>
    </trkpt>
    <trkpt lat="45.6237377" lon="10.4926026">
      <ele>277.70001220703125</ele>
      <time>2026-05-12T14:49:38.063+02:00</time>
      <extensions>
        <activity type="ON_FOOT" conf="87" state="moving" tsMs="1778590176475"/>
        <radio op="vodafone IT" rat="LTE" rsrp="-123" rsrq="-13"/>
        <radio op="I TIM" rat="LTE" rsrp="-126" rsrq="-13"/>
      </extensions>
    </trkpt>
    <trkpt lat="45.6238402" lon="10.4926556">
      <ele>287.3000183105469</ele>
      <time>2026-05-12T14:50:35.465+02:00</time>
      <extensions>
        <activity type="STILL" conf="48" state="still" tsMs="1778590234316"/>
        <radio op="vodafone IT" rat="LTE" q="10.50" rsrp="-104" sinr="0" rsrq="-12"/>
        <radio op="I TIM" rat="LTE" q="28.00" rsrp="-105" sinr="9" rsrq="-11"/>
      </extensions>
    </trkpt>
    <trkpt lat="45.6237394" lon="10.4927822">
      <ele>287.3000183105469</ele>
      <time>2026-05-12T14:51:18.855+02:00</time>
      <extensions>
        <activity type="UNKNOWN" conf="40" state="unknown" tsMs="1778590278479"/>
        <radio op="vodafone IT" rat="LTE" q="16.00" rsrp="-109" sinr="5" rsrq="-8"/>
        <radio op="I TIM" rat="LTE" q="5.00" rsrp="-120" sinr="5" rsrq="-11"/>
      </extensions>
    </trkpt>
    <trkpt lat="45.6237017" lon="10.4928072">
      <ele>287.1000061035156</ele>
      <time>2026-05-12T14:52:48.046+02:00</time>
      <extensions>
        <activity type="UNKNOWN" conf="40" state="unknown" tsMs="1778590363505"/>
        <radio op="vodafone IT" rat="LTE" q="23.80" rsrp="-111" sinr="12" rsrq="-9"/>
        <radio op="I TIM" rat="LTE" q="5.00" rsrp="-120" sinr="5" rsrq="-12"/>
      </extensions>
    </trkpt>
    <trkpt lat="45.6237449" lon="10.4927819">
      <ele>287.3000183105469</ele>
      <time>2026-05-12T14:54:10.725+02:00</time>
      <extensions>
        <activity type="STILL" conf="46" state="still" tsMs="1778590448454"/>
        <radio op="vodafone IT" rat="LTE" q="15.60" rsrp="-112" sinr="7" rsrq="-8"/>
        <radio op="I TIM" rat="LTE" q="4.50" rsrp="-120" sinr="4" rsrq="-12"/>
      </extensions>
    </trkpt>
    <trkpt lat="45.6238164" lon="10.4927119">
      <ele>287.3000183105469</ele>
      <time>2026-05-12T14:55:47.29+02:00</time>
      <extensions>
        <activity type="UNKNOWN" conf="40" state="unknown" tsMs="1778590536852"/>
        <radio op="vodafone IT" rat="LTE" q="3.00" rsrp="-120" sinr="1" rsrq="-13"/>
        <radio op="I TIM" rat="LTE" q="7.20" rsrp="-117" sinr="4" rsrq="-13"/>
      </extensions>
    </trkpt>
    <trkpt lat="45.6237974" lon="10.4927441">
      <ele>287.1000061035156</ele>
      <time>2026-05-12T14:56:19.699+02:00</time>
      <extensions>
        <activity type="UNKNOWN" conf="40" state="unknown" tsMs="1778590579151"/>
        <radio op="vodafone IT" rat="LTE" q="17.00" rsrp="-108" sinr="5" rsrq="-11"/>
        <radio op="I TIM" rat="LTE" q="12.60" rsrp="-111" sinr="4" rsrq="-14"/>
      </extensions>
    </trkpt>
    <trkpt lat="45.6238112" lon="10.4927434">
      <ele>287.3000183105469</ele>
      <time>2026-05-12T14:56:59.421+02:00</time>
      <extensions>
        <activity type="UNKNOWN" conf="40" state="unknown" tsMs="1778590616890"/>
        <radio op="vodafone IT" rat="LTE" rsrp="-117" rsrq="-12"/>
        <radio op="I TIM" rat="LTE" q="17.60" rsrp="-114" sinr="11" rsrq="-12"/>
      </extensions>
    </trkpt>
    <trkpt lat="45.6238124" lon="10.492728">
      <ele>287.1000061035156</ele>
      <time>2026-05-12T14:57:30.182+02:00</time>
      <extensions>
        <activity type="UNKNOWN" conf="40" state="unknown" tsMs="1778590645517"/>
        <radio op="vodafone IT" rat="LTE" q="3.00" rsrp="-119" sinr="0" rsrq="-13"/>
        <radio op="I TIM" rat="LTE" q="9.90" rsrp="-116" sinr="6" rsrq="-10"/>
      </extensions>
    </trkpt>
    <trkpt lat="45.6237995" lon="10.4927264">
      <ele>287.3000183105469</ele>
      <time>2026-05-12T14:58:04.42+02:00</time>
      <extensions>
        <activity type="UNKNOWN" conf="40" state="unknown" tsMs="1778590686415"/>
        <radio op="vodafone IT" rat="LTE" rsrp="-116" rsrq="-12"/>
        <radio op="I TIM" rat="LTE" q="17.00" rsrp="-108" sinr="5" rsrq="-11"/>
      </extensions>
    </trkpt>
    <trkpt lat="45.6238117" lon="10.4927273">
      <ele>287.3000183105469</ele>
      <time>2026-05-12T14:58:38.091+02:00</time>
      <extensions>
        <activity type="STILL" conf="36" state="still" tsMs="1778590713672"/>
        <radio op="vodafone IT" rat="LTE" rsrp="-112" rsrq="-12"/>
        <radio op="I TIM" rat="LTE" q="13.60" rsrp="-108" sinr="3" rsrq="-12"/>
      </extensions>
    </trkpt>
    <trkpt lat="45.6238218" lon="10.4927183">
      <ele>287.3000183105469</ele>
      <time>2026-05-12T16:47:03.594+02:00</time>
      <extensions>
        <activity type="UNKNOWN" conf="40" state="unknown" tsMs="1778597211301"/>
        <radio op="vodafone IT" rat="LTE" q="6.00" rsrp="-121" sinr="10" rsrq="-12"/>
        <radio op="I TIM" rat="LTE" q="3.20" rsrp="-121" sinr="3" rsrq="-13"/>
      </extensions>
    </trkpt>
    <trkpt lat="45.6238151" lon="10.4927137">
      <ele>287.3000183105469</ele>
      <time>2026-05-12T16:48:10.329+02:00</time>
      <extensions>
        <activity type="STILL" conf="99" state="still" tsMs="1778597289958"/>
        <radio op="vodafone IT" rat="LTE" q="2.40" rsrp="-122" sinr="3" rsrq="-13"/>
        <radio op="I TIM" rat="LTE" q="2.10" rsrp="-122" sinr="2" rsrq="-14"/>
      </extensions>
    </trkpt>
    <trkpt lat="45.6238143" lon="10.4927161">
      <ele>287.3000183105469</ele>
      <time>2026-05-12T16:48:52.606+02:00</time>
      <extensions>
        <activity type="STILL" conf="99" state="still" tsMs="1778597326949"/>
        <radio op="vodafone IT" rat="LTE" q="5.60" rsrp="-121" sinr="9" rsrq="-14"/>
        <radio op="I TIM" rat="LTE" q="4.00" rsrp="-121" sinr="5" rsrq="-14"/>
      </extensions>
    </trkpt>
    <trkpt lat="45.6236703" lon="10.4933427">
      <ele>281.3569267423638</ele>
      <time>2026-05-12T18:03:41.729+02:00</time>
      <extensions>
        <activity type="ON_FOOT" conf="96" state="moving" tsMs="1778601844058"/>
        <radio op="vodafone IT" rat="LTE" q="24.00" rsrp="-109" sinr="10" rsrq="-12"/>
        <radio op="I TIM" rat="LTE" q="13.60" rsrp="-108" sinr="3" rsrq="-12"/>
      </extensions>
    </trkpt>
    <trkpt lat="45.6239166" lon="10.4939555">
      <ele>281.0486819485685</ele>
      <time>2026-05-12T18:04:44.364+02:00</time>
      <extensions>
        <activity type="ON_FOOT" conf="96" state="moving" tsMs="1778601877767"/>
        <radio op="vodafone IT" rat="LTE" q="21.60" rsrp="-107" sinr="7" rsrq="-12"/>
        <radio op="I TIM" rat="LTE" q="22.00" rsrp="-114" sinr="15" rsrq="-12"/>
      </extensions>
    </trkpt>
    <trkpt lat="45.6239454" lon="10.4939658">
      <ele>278.3000183105469</ele>
      <time>2026-05-12T18:05:20.648+02:00</time>
      <extensions>
        <activity type="UNKNOWN" conf="40" state="unknown" tsMs="1778601915319"/>
        <radio op="vodafone IT" rat="LTE" q="14.40" rsrp="-109" sinr="4" rsrq="-14"/>
        <radio op="I TIM" rat="LTE" q="9.60" rsrp="-113" sinr="3" rsrq="-13"/>
      </extensions>
    </trkpt>
    <trkpt lat="45.623942" lon="10.4939738">
      <ele>278.20001220703125</ele>
      <time>2026-05-12T18:05:51.656+02:00</time>
      <extensions>
        <activity type="STILL" conf="77" state="still" tsMs="1778601947821"/>
        <radio op="vodafone IT" rat="LTE" q="12.60" rsrp="-104" sinr="1" rsrq="-12"/>
        <radio op="I TIM" rat="LTE" q="13.60" rsrp="-108" sinr="3" rsrq="-13"/>
      </extensions>
    </trkpt>
    <trkpt lat="45.6239435" lon="10.4939709">
      <ele>278.1000061035156</ele>
      <time>2026-05-12T18:06:22.742+02:00</time>
      <extensions>
        <activity type="STILL" conf="97" state="still" tsMs="1778601978823"/>
        <radio op="vodafone IT" rat="LTE" q="10.20" rsrp="-108" sinr="1" rsrq="-10"/>
        <radio op="I TIM" rat="LTE" q="12.00" rsrp="-110" sinr="3" rsrq="-13"/>
      </extensions>
    </trkpt>
    <trkpt lat="45.6239664" lon="10.4939718">
      <ele>278.20001220703125</ele>
      <time>2026-05-12T18:06:53.909+02:00</time>
      <extensions>
        <activity type="STILL" conf="98" state="still" tsMs="1778602009971"/>
        <radio op="vodafone IT" rat="LTE" q="11.90" rsrp="-108" sinr="2" rsrq="-14"/>
        <radio op="I TIM" rat="LTE" q="14.40" rsrp="-109" sinr="4" rsrq="-13"/>
      </extensions>
    </trkpt>
    <trkpt lat="45.6239603" lon="10.4939844">
      <ele>278.20001220703125</ele>
      <time>2026-05-12T18:07:24.947+02:00</time>
      <extensions>
        <activity type="STILL" conf="41" state="still" tsMs="1778602041087"/>
        <radio op="vodafone IT" rat="LTE" rsrp="-110" rsrq="-14"/>
        <radio op="I TIM" rat="LTE" q="17.60" rsrp="-109" sinr="6" rsrq="-13"/>
      </extensions>
    </trkpt>
    <trkpt lat="45.6240185" lon="10.4940436">
      <ele>278.4000244140625</ele>
      <time>2026-05-12T18:10:39.197+02:00</time>
      <extensions>
        <activity type="UNKNOWN" conf="40" state="unknown" tsMs="1778602235819"/>
        <radio op="vodafone IT" rat="LTE" q="17.10" rsrp="-106" sinr="4" rsrq="-10"/>
        <radio op="I TIM" rat="LTE" rsrp="-114" rsrq="-12"/>
      </extensions>
    </trkpt>
    <trkpt lat="45.6239536" lon="10.4939946">
      <ele>278.3000183105469</ele>
      <time>2026-05-12T18:11:10.281+02:00</time>
      <extensions>
        <activity type="UNKNOWN" conf="40" state="unknown" tsMs="1778602264587"/>
        <radio op="vodafone IT" rat="LTE" q="11.00" rsrp="-103" sinr="0" rsrq="-13"/>
        <radio op="I TIM" rat="LTE" q="18.00" rsrp="-113" sinr="10" rsrq="-11"/>
      </extensions>
    </trkpt>
    <trkpt lat="45.6238777" lon="10.4938908">
      <ele>278.3000183105469</ele>
      <time>2026-05-12T18:11:30.228+02:00</time>
      <extensions>
        <activity type="IN_VEHICLE" conf="95" state="moving" tsMs="1778602273321"/>
        <radio op="vodafone IT" rat="LTE" q="20.70" rsrp="-102" sinr="4" rsrq="-12"/>
        <radio op="I TIM" rat="LTE" q="16.80" rsrp="-111" sinr="7" rsrq="-12"/>
      </extensions>
    </trkpt>
    <trkpt lat="45.623769" lon="10.4936151">
      <ele>278.6000061035156</ele>
      <time>2026-05-12T18:11:41.228+02:00</time>
      <extensions>
        <activity type="IN_VEHICLE" conf="95" state="moving" tsMs="1778602273321"/>
        <radio op="vodafone IT" rat="LTE" q="31.90" rsrp="-96" sinr="6" rsrq="-12"/>
        <radio op="I TIM" rat="LTE" q="14.00" rsrp="-111" sinr="5" rsrq="-13"/>
      </extensions>
    </trkpt>
    <trkpt lat="45.6237174" lon="10.4935777">
      <ele>278.6000061035156</ele>
      <time>2026-05-12T18:11:51.228+02:00</time>
      <extensions>
        <activity type="IN_VEHICLE" conf="97" state="moving" tsMs="1778602306951"/>
        <radio op="vodafone IT" rat="LTE" q="16.80" rsrp="-111" sinr="7" rsrq="-12"/>
        <radio op="I TIM" rat="LTE" q="13.20" rsrp="-113" sinr="6" rsrq="-14"/>
      </extensions>
    </trkpt>
    <trkpt lat="45.6233417" lon="10.4925371">
      <ele>278.6000061035156</ele>
      <time>2026-05-12T18:12:01.228+02:00</time>
      <extensions>
        <activity type="IN_VEHICLE" conf="96" state="moving" tsMs="1778602317696"/>
        <radio op="vodafone IT" rat="LTE" rsrp="-102" rsrq="-16"/>
        <radio op="I TIM" rat="LTE" q="27.00" rsrp="-107" sinr="10" rsrq="-13"/>
      </extensions>
    </trkpt>
    <trkpt lat="45.6229608" lon="10.491026">
      <ele>278.6000061035156</ele>
      <time>2026-05-12T18:12:11.228+02:00</time>
      <extensions>
        <activity type="IN_VEHICLE" conf="98" state="moving" tsMs="1778602328467"/>
        <radio op="vodafone IT" rat="LTE" q="13.00" rsrp="-99" sinr="0" rsrq="-16"/>
        <radio op="I TIM" rat="LTE" q="18.00" rsrp="-110" sinr="7" rsrq="-13"/>
      </extensions>
    </trkpt>
    <trkpt lat="45.622176" lon="10.4894801">
      <ele>278.6000061035156</ele>
      <time>2026-05-12T18:12:21.227+02:00</time>
      <extensions>
        <activity type="IN_VEHICLE" conf="97" state="moving" tsMs="1778602339277"/>
        <radio op="vodafone IT" rat="LTE" q="23.20" rsrp="-96" sinr="3" rsrq="-13"/>
        <radio op="I TIM" rat="LTE" rsrp="-112" rsrq="-14"/>
      </extensions>
    </trkpt>
    <trkpt lat="45.6212999" lon="10.4876762">
      <ele>278.6000061035156</ele>
      <time>2026-05-12T18:12:32.228+02:00</time>
      <extensions>
        <activity type="IN_VEHICLE" conf="96" state="moving" tsMs="1778602350029"/>
        <radio op="vodafone IT" rat="LTE" q="21.60" rsrp="-98" sinr="3" rsrq="-14"/>
        <radio op="I TIM" rat="LTE" rsrp="-112" rsrq="-16"/>
      </extensions>
    </trkpt>
    <trkpt lat="45.620463" lon="10.4858045">
      <ele>278.6000061035156</ele>
      <time>2026-05-12T18:12:42.227+02:00</time>
      <extensions>
        <activity type="IN_VEHICLE" conf="97" state="moving" tsMs="1778602360783"/>
        <radio op="vodafone IT" rat="LTE" q="34.10" rsrp="-94" sinr="6" rsrq="-11"/>
        <radio op="I TIM" rat="LTE" q="14.40" rsrp="-109" sinr="4" rsrq="-14"/>
      </extensions>
    </trkpt>
    <trkpt lat="45.6196526" lon="10.4839592">
      <ele>278.6000061035156</ele>
      <time>2026-05-12T18:12:52.228+02:00</time>
      <extensions>
        <activity type="IN_VEHICLE" conf="97" state="moving" tsMs="1778602371758"/>
        <radio op="vodafone IT" rat="LTE" rsrp="-103" rsrq="-16"/>
        <radio op="I TIM" rat="LTE" rsrp="-111" rsrq="-16"/>
      </extensions>
    </trkpt>
    <trkpt lat="45.6179974" lon="10.4834">
      <ele>283.0</ele>
      <time>2026-05-12T18:13:03.227+02:00</time>
      <extensions>
        <activity type="IN_VEHICLE" conf="97" state="moving" tsMs="1778602382539"/>
        <radio op="vodafone IT" rat="LTE" q="46.20" rsrp="-92" sinr="9" rsrq="-10"/>
        <radio op="I TIM" rat="LTE" rsrp="-104" rsrq="-8"/>
      </extensions>
    </trkpt>
    <trkpt lat="45.6162978" lon="10.4831242">
      <ele>281.0</ele>
      <time>2026-05-12T18:13:13.228+02:00</time>
      <extensions>
        <activity type="IN_VEHICLE" conf="97" state="moving" tsMs="1778602393377"/>
        <radio op="vodafone IT" rat="LTE" q="44.00" rsrp="-103" sinr="15" rsrq="-12"/>
        <radio op="I TIM" rat="LTE" rsrp="-114" rsrq="-14"/>
      </extensions>
    </trkpt>
    <trkpt lat="45.6147209" lon="10.4826459">
      <ele>279.0</ele>
      <time>2026-05-12T18:13:23.227+02:00</time>
      <extensions>
        <activity type="IN_VEHICLE" conf="97" state="moving" tsMs="1778602398799"/>
        <radio op="vodafone IT" rat="LTE" q="45.60" rsrp="-101" sinr="14" rsrq="-12"/>
        <radio op="I TIM" rat="LTE" rsrp="-118" rsrq="-16"/>
      </extensions>
    </trkpt>
    <trkpt lat="45.6142689" lon="10.4824765">
      <ele>278.0</ele>
      <time>2026-05-12T18:13:26.227+02:00</time>
      <extensions>
        <activity type="IN_VEHICLE" conf="97" state="moving" tsMs="1778602404159"/>
        <radio op="vodafone IT" rat="LTE" q="50.40" rsrp="-101" sinr="16" rsrq="-10"/>
        <radio op="I TIM" rat="LTE" rsrp="-117" rsrq="-17"/>
      </extensions>
    </trkpt>
    <trkpt lat="45.612459" lon="10.4814764">
      <ele>272.51008191909716</ele>
      <time>2026-05-12T18:13:57.581+02:00</time>
      <extensions>
        <activity type="IN_VEHICLE" conf="96" state="moving" tsMs="1778602433564"/>
        <radio op="vodafone IT" rat="LTE" q="18.00" rsrp="-110" sinr="7" rsrq="-11"/>
        <radio op="I TIM" rat="LTE" rsrp="-118" rsrq="-17"/>
      </extensions>
    </trkpt>
    <trkpt lat="45.612111" lon="10.4800801">
      <ele>274.5446715919952</ele>
      <time>2026-05-12T18:14:36.866+02:00</time>
      <extensions>
        <activity type="IN_VEHICLE" conf="97" state="moving" tsMs="1778602475117"/>
        <radio op="vodafone IT" rat="LTE" q="44.00" rsrp="-103" sinr="15" rsrq="-11"/>
        <radio op="I TIM" rat="LTE" q="25.20" rsrp="-104" sinr="7" rsrq="-8"/>
      </extensions>
    </trkpt>
    <trkpt lat="45.6086248" lon="10.4762542">
      <ele>275.71943307578624</ele>
      <time>2026-05-12T18:15:18.135+02:00</time>
      <extensions>
        <activity type="IN_VEHICLE" conf="97" state="moving" tsMs="1778602516129"/>
        <radio op="vodafone IT" rat="LTE" q="45.00" rsrp="-95" sinr="10" rsrq="-10"/>
        <radio op="I TIM" rat="LTE" q="62.00" rsrp="-94" sinr="15" rsrq="-7"/>
      </extensions>
    </trkpt>
    <trkpt lat="45.6058863" lon="10.4667617">
      <ele>266.10565824827955</ele>
      <time>2026-05-12T18:16:47.581+02:00</time>
      <extensions>
        <activity type="IN_VEHICLE" conf="98" state="moving" tsMs="1778602604101"/>
        <radio op="vodafone IT" rat="LTE" q="100.00" rsrp="-82" sinr="21" rsrq="-6"/>
        <radio op="I TIM" rat="LTE" rsrp="-108" rsrq="-14"/>
      </extensions>
    </trkpt>
    <trkpt lat="45.6054985" lon="10.4655118">
      <ele>265.98381728980115</ele>
      <time>2026-05-12T18:17:22.532+02:00</time>
      <extensions>
        <activity type="TILTING" conf="100" state="moving" tsMs="1778602630921"/>
        <radio op="vodafone IT" rat="LTE" q="100.00" rsrp="-69" sinr="30" rsrq="-7"/>
        <radio op="I TIM" rat="LTE" q="13.50" rsrp="-110" sinr="4" rsrq="-15"/>
      </extensions>
    </trkpt>
    <trkpt lat="45.6054851" lon="10.4654633">
      <ele>265.9731295687775</ele>
      <time>2026-05-12T18:17:25.227+02:00</time>
      <extensions>
        <activity type="STILL" conf="36" state="still" tsMs="1778602634369"/>
        <radio op="vodafone IT" rat="LTE" q="100.00" rsrp="-74" sinr="24" rsrq="-4"/>
        <radio op="I TIM" rat="LTE" rsrp="-109" rsrq="-15"/>
      </extensions>
    </trkpt>
    <trkpt lat="45.6046347" lon="10.4647333">
      <ele>266.9000244140625</ele>
      <time>2026-05-12T18:18:03.215+02:00</time>
      <extensions>
        <activity type="IN_VEHICLE" conf="85" state="moving" tsMs="1778602682732"/>
        <radio op="vodafone IT" rat="LTE" q="100.00" rsrp="-78" sinr="25" rsrq="-4"/>
        <radio op="I TIM" rat="LTE" q="54.00" rsrp="-89" sinr="10" rsrq="-7"/>
      </extensions>
    </trkpt>
    <trkpt lat="45.6051083" lon="10.464267">
      <ele>266.9000244140625</ele>
      <time>2026-05-12T18:18:09.227+02:00</time>
      <extensions>
        <activity type="IN_VEHICLE" conf="85" state="moving" tsMs="1778602682732"/>
        <radio op="vodafone IT" rat="LTE" q="100.00" rsrp="-72" sinr="29" rsrq="-4"/>
        <radio op="I TIM" rat="LTE" q="56.00" rsrp="-85" sinr="9" rsrq="-9"/>
      </extensions>
    </trkpt>
    <trkpt lat="45.6049357" lon="10.4637069">
      <ele>266.9000244140625</ele>
      <time>2026-05-12T18:18:20.227+02:00</time>
      <extensions>
        <activity type="UNKNOWN" conf="40" state="unknown" tsMs="1778602686403"/>
        <radio op="vodafone IT" rat="LTE" q="97.50" rsrp="-86" sinr="26" rsrq="-7"/>
        <radio op="I TIM" rat="LTE" q="66.30" rsrp="-86" sinr="12" rsrq="-7"/>
      </extensions>
    </trkpt>
    <trkpt lat="45.60385" lon="10.4612987">
      <ele>264.35436636691776</ele>
      <time>2026-05-12T18:18:58.688+02:00</time>
      <extensions>
        <activity type="IN_VEHICLE" conf="97" state="moving" tsMs="1778602735224"/>
        <radio op="vodafone IT" rat="LTE" q="100.00" rsrp="-82" sinr="26" rsrq="-9"/>
        <radio op="I TIM" rat="LTE" q="43.20" rsrp="-89" sinr="7" rsrq="-12"/>
      </extensions>
    </trkpt>
    <trkpt lat="45.6032505" lon="10.4582718">
      <ele>263.8000183105469</ele>
      <time>2026-05-12T18:19:44.198+02:00</time>
      <extensions>
        <activity type="IN_VEHICLE" conf="98" state="moving" tsMs="1778602783123"/>
        <radio op="vodafone IT" rat="LTE" q="100.00" rsrp="-80" sinr="25" rsrq="-6"/>
        <radio op="I TIM" rat="LTE" q="100.00" rsrp="-76" sinr="21" rsrq="-12"/>
      </extensions>
    </trkpt>
    <trkpt lat="45.6033344" lon="10.4579396">
      <ele>263.8000183105469</ele>
      <time>2026-05-12T18:19:50.226+02:00</time>
      <extensions>
        <activity type="IN_VEHICLE" conf="98" state="moving" tsMs="1778602783123"/>
        <radio op="vodafone IT" rat="LTE" q="100.00" rsrp="-81" sinr="28" rsrq="-7"/>
        <radio op="I TIM" rat="LTE" q="100.00" rsrp="-77" sinr="21" rsrq="-12"/>
      </extensions>
    </trkpt>
    <trkpt lat="45.6025891" lon="10.4559404">
      <ele>262.20001220703125</ele>
      <time>2026-05-12T18:20:26.055+02:00</time>
      <extensions>
        <activity type="IN_VEHICLE" conf="97" state="moving" tsMs="1778602820833"/>
        <radio op="vodafone IT" rat="LTE" q="26.40" rsrp="-101" sinr="6" rsrq="-9"/>
        <radio op="I TIM" rat="LTE" q="42.00" rsrp="-97" sinr="10" rsrq="-11"/>
      </extensions>
    </trkpt>
    <trkpt lat="45.6024974" lon="10.4556689">
      <ele>262.20001220703125</ele>
      <time>2026-05-12T18:20:32.226+02:00</time>
      <extensions>
        <activity type="IN_VEHICLE" conf="97" state="moving" tsMs="1778602836520"/>
        <radio op="vodafone IT" rat="LTE" q="46.20" rsrp="-103" sinr="16" rsrq="-8"/>
        <radio op="I TIM" rat="LTE" q="24.00" rsrp="-101" sinr="5" rsrq="-14"/>
      </extensions>
    </trkpt>
    <trkpt lat="45.6013114" lon="10.4542357">
      <ele>261.9000244140625</ele>
      <time>2026-05-12T18:21:11.833+02:00</time>
      <extensions>
        <activity type="IN_VEHICLE" conf="97" state="moving" tsMs="1778602871107"/>
        <radio op="vodafone IT" rat="LTE" q="32.20" rsrp="-102" sinr="9" rsrq="-6"/>
        <radio op="I TIM" rat="LTE" q="36.40" rsrp="-97" sinr="8" rsrq="-13"/>
      </extensions>
    </trkpt>
    <trkpt lat="45.6021937" lon="10.4531521">
      <ele>261.8000183105469</ele>
      <time>2026-05-12T18:21:51.553+02:00</time>
      <extensions>
        <activity type="IN_VEHICLE" conf="97" state="moving" tsMs="1778602908473"/>
        <radio op="vodafone IT" rat="LTE" q="27.60" rsrp="-102" sinr="7" rsrq="-12"/>
        <radio op="I TIM" rat="LTE" q="24.00" rsrp="-101" sinr="5" rsrq="-14"/>
      </extensions>
    </trkpt>
    <trkpt lat="45.6021171" lon="10.4530429">
      <ele>261.8000183105469</ele>
      <time>2026-05-12T18:22:00.227+02:00</time>
      <extensions>
        <activity type="TILTING" conf="100" state="moving" tsMs="1778602918251"/>
        <radio op="vodafone IT" rat="LTE" q="38.40" rsrp="-101" sinr="11" rsrq="-12"/>
        <radio op="I TIM" rat="LTE" q="13.80" rsrp="-102" sinr="1" rsrq="-13"/>
      </extensions>
    </trkpt>
    <trkpt lat="45.6025676" lon="10.4536511">
      <ele>261.8000183105469</ele>
      <time>2026-05-12T18:22:57.186+02:00</time>
      <extensions>
        <activity type="ON_FOOT" conf="96" state="moving" tsMs="1778602971476"/>
        <radio op="vodafone IT" rat="LTE" q="30.60" rsrp="-108" sinr="13" rsrq="-12"/>
        <radio op="I TIM" rat="LTE" q="14.70" rsrp="-104" sinr="2" rsrq="-10"/>
      </extensions>
    </trkpt>
    <trkpt lat="45.6025503" lon="10.4536605">
      <ele>261.8000183105469</ele>
      <time>2026-05-12T18:23:50.799+02:00</time>
      <extensions>
        <activity type="UNKNOWN" conf="40" state="unknown" tsMs="1778603025095"/>
        <radio op="vodafone IT" rat="LTE" q="14.00" rsrp="-111" sinr="5" rsrq="-12"/>
        <radio op="I TIM" rat="LTE" q="7.00" rsrp="-111" sinr="0" rsrq="-13"/>
      </extensions>
    </trkpt>
    <trkpt lat="45.6025517" lon="10.4536621">
      <ele>261.8000183105469</ele>
      <time>2026-05-12T18:24:27.423+02:00</time>
      <extensions>
        <activity type="UNKNOWN" conf="40" state="unknown" tsMs="1778603061722"/>
        <radio op="vodafone IT" rat="LTE" rsrp="-117" rsrq="-13"/>
        <radio op="I TIM" rat="LTE" q="0.00" rsrp="-125" sinr="3" rsrq="-13"/>
      </extensions>
    </trkpt>
    <trkpt lat="45.6025522" lon="10.453664">
      <ele>261.8000183105469</ele>
      <time>2026-05-12T18:25:06.449+02:00</time>
      <extensions>
        <activity type="UNKNOWN" conf="40" state="unknown" tsMs="1778603105114"/>
        <radio op="vodafone IT" rat="LTE" q="15.40" rsrp="-114" sinr="9" rsrq="-11"/>
        <radio op="I TIM" rat="LTE" q="10.80" rsrp="-113" sinr="4" rsrq="-12"/>
      </extensions>
    </trkpt>
    <trkpt lat="45.6025514" lon="10.4536651">
      <ele>261.8000183105469</ele>
      <time>2026-05-12T18:25:58.343+02:00</time>
      <extensions>
        <activity type="STILL" conf="99" state="still" tsMs="1778603157087"/>
        <radio op="vodafone IT" rat="LTE" q="15.60" rsrp="-113" sinr="8" rsrq="-12"/>
        <radio op="I TIM" rat="LTE" q="8.00" rsrp="-115" sinr="3" rsrq="-12"/>
      </extensions>
    </trkpt>
    <trkpt lat="45.6025561" lon="10.4536521">
      <ele>261.8000183105469</ele>
      <time>2026-05-12T23:51:56.528+02:00</time>
      <extensions>
        <activity type="STILL" conf="100" state="still" tsMs="1778622706116"/>
        <radio op="vodafone IT" rat="LTE" q="24.00" rsrp="-109" sinr="10" rsrq="-11"/>
        <radio op="I TIM" rat="LTE" q="50.00" rsrp="-105" sinr="21" rsrq="-10"/>
      </extensions>
    </trkpt>
    <trkpt lat="45.602556" lon="10.4536529">
      <ele>261.8000183105469</ele>
      <time>2026-05-12T23:52:58.787+02:00</time>
      <extensions>
        <activity type="STILL" conf="100" state="still" tsMs="1778622768329"/>
        <radio op="vodafone IT" rat="LTE" q="27.20" rsrp="-109" sinr="12" rsrq="-10"/>
        <radio op="I TIM" rat="LTE" q="46.00" rsrp="-105" sinr="18" rsrq="-8"/>
      </extensions>
    </trkpt>
    <trkpt lat="45.6025594" lon="10.4536455">
      <ele>261.8000183105469</ele>
      <time>2026-05-12T23:54:00.739+02:00</time>
      <extensions>
        <activity type="STILL" conf="100" state="still" tsMs="1778622830458"/>
        <radio op="vodafone IT" rat="LTE" q="18.70" rsrp="-108" sinr="6" rsrq="-10"/>
        <radio op="I TIM" rat="LTE" q="46.00" rsrp="-105" sinr="18" rsrq="-7"/>
      </extensions>
    </trkpt>
    <trkpt lat="45.6025583" lon="10.4536494">
      <ele>261.8000183105469</ele>
      <time>2026-05-12T23:55:02.853+02:00</time>
      <extensions>
        <activity type="STILL" conf="100" state="still" tsMs="1778622892459"/>
        <radio op="vodafone IT" rat="LTE" q="25.60" rsrp="-109" sinr="11" rsrq="-11"/>
        <radio op="I TIM" rat="LTE" q="50.00" rsrp="-105" sinr="20" rsrq="-5"/>
      </extensions>
    </trkpt>
  </trkseg></trk>
</gpx>
