<?xml version="1.0" encoding="UTF-8"?>
<gpx version="1.1" creator="CellGPX" xmlns="http://www.topografix.com/GPX/1/1">
  <trk><name>CellGPX</name><trkseg>
    <trkpt lat="45.6025455" lon="10.4536457">
      <ele>261.9000244140625</ele>
      <time>2026-05-08T02:19:23.412+02:00</time>
      <extensions>
        <activity type="STILL" conf="100" state="still" tsMs="1778199552931"/>
        <radio op="vodafone IT" rat="LTE" rsrp="-119" rsrq="-8"/>
        <radio op="I TIM" rat="LTE" q="26.40" rsrp="-101" sinr="6" rsrq="-7"/>
      </extensions>
    </trkpt>
    <trkpt lat="45.6025471" lon="10.4536471">
      <ele>261.9000244140625</ele>
      <time>2026-05-08T02:20:25.139+02:00</time>
      <extensions>
        <activity type="STILL" conf="100" state="still" tsMs="1778199614738"/>
        <radio op="vodafone IT" rat="LTE" rsrp="-118" rsrq="-8"/>
        <radio op="I TIM" rat="LTE" q="5.00" rsrp="-115" sinr="0" rsrq="-10"/>
      </extensions>
    </trkpt>
    <trkpt lat="45.6025467" lon="10.4536462">
      <ele>261.9000244140625</ele>
      <time>2026-05-08T02:21:27.191+02:00</time>
      <extensions>
        <activity type="STILL" conf="100" state="still" tsMs="1778199676523"/>
        <radio op="vodafone IT" rat="LTE" q="16.50" rsrp="-110" sinr="6" rsrq="-9"/>
        <radio op="I TIM" rat="LTE" q="38.40" rsrp="-101" sinr="11" rsrq="-8"/>
      </extensions>
    </trkpt>
    <trkpt lat="45.6025495" lon="10.4536437">
      <ele>261.9000244140625</ele>
      <time>2026-05-08T02:22:29.139+02:00</time>
      <extensions>
        <activity type="STILL" conf="100" state="still" tsMs="1778199738576"/>
        <radio op="vodafone IT" rat="LTE" q="16.00" rsrp="-109" sinr="5" rsrq="-9"/>
        <radio op="I TIM" rat="LTE" q="19.20" rsrp="-101" sinr="3" rsrq="-7"/>
      </extensions>
    </trkpt>
    <trkpt lat="45.6025974" lon="10.4535156">
      <ele>261.9000244140625</ele>
      <time>2026-05-08T12:52:50.286+02:00</time>
      <extensions>
        <activity type="ON_FOOT" conf="93" state="moving" tsMs="1778237573275"/>
        <radio op="vodafone IT" rat="LTE" q="20.90" rsrp="-106" sinr="6" rsrq="-10"/>
        <radio op="I TIM" rat="LTE" q="17.10" rsrp="-106" sinr="4" rsrq="-15"/>
      </extensions>
    </trkpt>
    <trkpt lat="45.6023174" lon="10.4536442">
      <ele>261.70001220703125</ele>
      <time>2026-05-08T12:53:18.966+02:00</time>
      <extensions>
        <activity type="ON_FOOT" conf="89" state="moving" tsMs="1778237601037"/>
        <radio op="vodafone IT" rat="LTE" q="26.40" rsrp="-103" sinr="7" rsrq="-7"/>
        <radio op="I TIM" rat="LTE" q="20.70" rsrp="-102" sinr="4" rsrq="-15"/>
      </extensions>
    </trkpt>
    <trkpt lat="45.6022487" lon="10.4534614">
      <ele>261.8000183105469</ele>
      <time>2026-05-08T12:53:54.436+02:00</time>
      <extensions>
        <activity type="ON_FOOT" conf="97" state="moving" tsMs="1778237629556"/>
        <radio op="vodafone IT" rat="LTE" q="32.40" rsrp="-98" sinr="7" rsrq="-11"/>
        <radio op="I TIM" rat="LTE" q="17.40" rsrp="-96" sinr="1" rsrq="-13"/>
      </extensions>
    </trkpt>
    <trkpt lat="45.6022241" lon="10.4531835">
      <ele>261.8000183105469</ele>
      <time>2026-05-08T12:54:25.736+02:00</time>
      <extensions>
        <activity type="ON_FOOT" conf="87" state="moving" tsMs="1778237661915"/>
        <radio op="vodafone IT" rat="LTE" q="36.10" rsrp="-106" sinr="14" rsrq="-11"/>
        <radio op="I TIM" rat="LTE" q="18.00" rsrp="-105" sinr="4" rsrq="-13"/>
      </extensions>
    </trkpt>
    <trkpt lat="45.6018981" lon="10.4539599">
      <ele>260.9000244140625</ele>
      <time>2026-05-08T12:55:01.761+02:00</time>
      <extensions>
        <activity type="UNKNOWN" conf="40" state="unknown" tsMs="1778237706986"/>
        <radio op="vodafone IT" rat="LTE" q="14.30" rsrp="-114" sinr="8" rsrq="-9"/>
        <radio op="I TIM" rat="LTE" q="19.00" rsrp="-106" sinr="5" rsrq="-13"/>
      </extensions>
    </trkpt>
    <trkpt lat="45.6027574" lon="10.4564988">
      <ele>262.5</ele>
      <time>2026-05-08T12:55:39.982+02:00</time>
      <extensions>
        <activity type="UNKNOWN" conf="40" state="unknown" tsMs="1778237723209"/>
        <radio op="vodafone IT" rat="LTE" q="42.50" rsrp="-100" sinr="12" rsrq="-9"/>
        <radio op="I TIM" rat="LTE" q="26.40" rsrp="-103" sinr="7" rsrq="-8"/>
      </extensions>
    </trkpt>
    <trkpt lat="45.6030569" lon="10.4573789">
      <ele>262.5</ele>
      <time>2026-05-08T12:55:45.705+02:00</time>
      <extensions>
        <activity type="UNKNOWN" conf="40" state="unknown" tsMs="1778237748395"/>
        <radio op="vodafone IT" rat="LTE" q="95.00" rsrp="-87" sinr="30" rsrq="-10"/>
        <radio op="I TIM" rat="LTE" q="97.50" rsrp="-86" sinr="28" rsrq="-10"/>
      </extensions>
    </trkpt>
    <trkpt lat="45.6033764" lon="10.4579196">
      <ele>262.5</ele>
      <time>2026-05-08T12:55:56.761+02:00</time>
      <extensions>
        <activity type="IN_VEHICLE" conf="96" state="moving" tsMs="1778237759210"/>
        <radio op="vodafone IT" rat="LTE" q="100.00" rsrp="-84" sinr="28" rsrq="-10"/>
        <radio op="I TIM" rat="LTE" q="100.00" rsrp="-85" sinr="26" rsrq="-9"/>
      </extensions>
    </trkpt>
    <trkpt lat="45.6038318" lon="10.4580139">
      <ele>263.4000244140625</ele>
      <time>2026-05-08T12:56:08.761+02:00</time>
      <extensions>
        <activity type="UNKNOWN" conf="40" state="unknown" tsMs="1778237764574"/>
        <radio op="vodafone IT" rat="LTE" q="52.80" rsrp="-101" sinr="17" rsrq="-11"/>
        <radio op="I TIM" rat="LTE" q="48.60" rsrp="-98" sinr="13" rsrq="-11"/>
      </extensions>
    </trkpt>
    <trkpt lat="45.6039613" lon="10.458353">
      <ele>263.4000244140625</ele>
      <time>2026-05-08T12:56:13.761+02:00</time>
      <extensions>
        <activity type="UNKNOWN" conf="40" state="unknown" tsMs="1778237764574"/>
        <radio op="vodafone IT" rat="LTE" q="60.00" rsrp="-101" sinr="23" rsrq="-9"/>
        <radio op="I TIM" rat="LTE" q="48.30" rsrp="-102" sinr="16" rsrq="-12"/>
      </extensions>
    </trkpt>
    <trkpt lat="45.6037767" lon="10.4585864">
      <ele>264.5</ele>
      <time>2026-05-08T12:56:29.762+02:00</time>
      <extensions>
        <activity type="UNKNOWN" conf="40" state="unknown" tsMs="1778237768323"/>
        <radio op="vodafone IT" rat="LTE" q="100.00" rsrp="-83" sinr="27" rsrq="-8"/>
        <radio op="I TIM" rat="LTE" q="97.50" rsrp="-86" sinr="25" rsrq="-7"/>
      </extensions>
    </trkpt>
    <trkpt lat="45.604171" lon="10.458555">
      <ele>264.5</ele>
      <time>2026-05-08T12:57:01.981+02:00</time>
      <extensions>
        <activity type="ON_FOOT" conf="98" state="moving" tsMs="1778237816794"/>
        <radio op="vodafone IT" rat="LTE" q="67.50" rsrp="-98" sinr="20" rsrq="-7"/>
        <radio op="I TIM" rat="LTE" q="77.50" rsrp="-94" sinr="21" rsrq="-8"/>
      </extensions>
    </trkpt>
    <trkpt lat="45.6040891" lon="10.4587271">
      <ele>264.5</ele>
      <time>2026-05-08T12:57:07.762+02:00</time>
      <extensions>
        <activity type="ON_FOOT" conf="96" state="moving" tsMs="1778237827764"/>
        <radio op="vodafone IT" rat="LTE" q="72.00" rsrp="-95" sinr="19" rsrq="-11"/>
        <radio op="I TIM" rat="LTE" q="80.00" rsrp="-93" sinr="22" rsrq="-13"/>
      </extensions>
    </trkpt>
    <trkpt lat="45.6041833" lon="10.4594167">
      <ele>264.4000244140625</ele>
      <time>2026-05-08T12:57:43.403+02:00</time>
      <extensions>
        <activity type="ON_FOOT" conf="96" state="moving" tsMs="1778237859962"/>
        <radio op="vodafone IT" rat="LTE" q="55.00" rsrp="-103" sinr="20" rsrq="-5"/>
        <radio op="I TIM" rat="LTE" q="30.60" rsrp="-108" sinr="13" rsrq="-10"/>
      </extensions>
    </trkpt>
    <trkpt lat="45.6042202" lon="10.4595066">
      <ele>264.4000244140625</ele>
      <time>2026-05-08T12:58:14.535+02:00</time>
      <extensions>
        <activity type="ON_FOOT" conf="82" state="moving" tsMs="1778237894105"/>
        <radio op="vodafone IT" rat="LTE" q="31.50" rsrp="-110" sinr="16" rsrq="-7"/>
        <radio op="I TIM" rat="LTE" q="32.00" rsrp="-109" sinr="15" rsrq="-12"/>
      </extensions>
    </trkpt>
    <trkpt lat="45.604212" lon="10.4595124">
      <ele>264.4000244140625</ele>
      <time>2026-05-08T12:58:45.725+02:00</time>
      <extensions>
        <activity type="UNKNOWN" conf="40" state="unknown" tsMs="1778237919908"/>
        <radio op="vodafone IT" rat="LTE" q="35.20" rsrp="-109" sinr="17" rsrq="-9"/>
        <radio op="I TIM" rat="LTE" q="23.80" rsrp="-111" sinr="12" rsrq="-12"/>
      </extensions>
    </trkpt>
    <trkpt lat="45.6042163" lon="10.4595129">
      <ele>264.4000244140625</ele>
      <time>2026-05-08T12:59:16.863+02:00</time>
      <extensions>
        <activity type="UNKNOWN" conf="40" state="unknown" tsMs="1778237951026"/>
        <radio op="vodafone IT" rat="LTE" q="45.00" rsrp="-107" sinr="21" rsrq="-5"/>
        <radio op="I TIM" rat="LTE" q="19.50" rsrp="-112" sinr="10" rsrq="-12"/>
      </extensions>
    </trkpt>
    <trkpt lat="45.6042182" lon="10.4594979">
      <ele>264.4000244140625</ele>
      <time>2026-05-08T12:59:48.145+02:00</time>
      <extensions>
        <activity type="UNKNOWN" conf="40" state="unknown" tsMs="1778237984527"/>
        <radio op="vodafone IT" rat="LTE" q="45.60" rsrp="-106" sinr="19" rsrq="-8"/>
        <radio op="I TIM" rat="LTE" q="28.50" rsrp="-110" sinr="14" rsrq="-10"/>
      </extensions>
    </trkpt>
    <trkpt lat="45.6042099" lon="10.4595016">
      <ele>264.4000244140625</ele>
      <time>2026-05-08T13:00:19.381+02:00</time>
      <extensions>
        <activity type="STILL" conf="35" state="still" tsMs="1778238015779"/>
        <radio op="vodafone IT" rat="LTE" q="24.00" rsrp="-110" sinr="11" rsrq="-11"/>
        <radio op="I TIM" rat="LTE" q="12.00" rsrp="-113" sinr="5" rsrq="-12"/>
      </extensions>
    </trkpt>
    <trkpt lat="45.6042114" lon="10.4595077">
      <ele>264.4000244140625</ele>
      <time>2026-05-08T13:00:50.65+02:00</time>
      <extensions>
        <activity type="UNKNOWN" conf="40" state="unknown" tsMs="1778238047039"/>
        <radio op="vodafone IT" rat="LTE" q="30.00" rsrp="-110" sinr="15" rsrq="-9"/>
        <radio op="I TIM" rat="LTE" q="15.60" rsrp="-113" sinr="8" rsrq="-12"/>
      </extensions>
    </trkpt>
    <trkpt lat="45.6041982" lon="10.4594999">
      <ele>264.4000244140625</ele>
      <time>2026-05-08T13:01:21.931+02:00</time>
      <extensions>
        <activity type="UNKNOWN" conf="40" state="unknown" tsMs="1778238076047"/>
        <radio op="vodafone IT" rat="LTE" q="28.00" rsrp="-111" sinr="15" rsrq="-8"/>
        <radio op="I TIM" rat="LTE" q="13.20" rsrp="-114" sinr="7" rsrq="-11"/>
      </extensions>
    </trkpt>
    <trkpt lat="45.6040944" lon="10.459322">
      <ele>264.4000244140625</ele>
      <time>2026-05-08T13:03:36.738+02:00</time>
      <extensions>
        <activity type="UNKNOWN" conf="40" state="unknown" tsMs="1778238209231"/>
        <radio op="vodafone IT" rat="LTE" q="19.80" rsrp="-114" sinr="13" rsrq="-9"/>
        <radio op="I TIM" rat="LTE" q="19.20" rsrp="-113" sinr="11" rsrq="-13"/>
      </extensions>
    </trkpt>
    <trkpt lat="45.6040945" lon="10.4593137">
      <ele>264.4000244140625</ele>
      <time>2026-05-08T13:03:46.855+02:00</time>
      <extensions>
        <activity type="STILL" conf="100" state="still" tsMs="1778238224873"/>
        <radio op="vodafone IT" rat="LTE" q="12.00" rsrp="-117" sinr="10" rsrq="-7"/>
        <radio op="I TIM" rat="LTE" q="13.00" rsrp="-115" sinr="8" rsrq="-10"/>
      </extensions>
    </trkpt>
    <trkpt lat="45.6040654" lon="10.4593373">
      <ele>264.4000244140625</ele>
      <time>2026-05-08T13:03:57.285+02:00</time>
      <extensions>
        <activity type="STILL" conf="99" state="still" tsMs="1778238234747"/>
        <radio op="vodafone IT" rat="LTE" q="14.00" rsrp="-115" sinr="9" rsrq="-12"/>
        <radio op="I TIM" rat="LTE" q="12.60" rsrp="-116" sinr="9" rsrq="-10"/>
      </extensions>
    </trkpt>
    <trkpt lat="45.6040906" lon="10.4593254">
      <ele>264.4000244140625</ele>
      <time>2026-05-08T13:04:07.641+02:00</time>
      <extensions>
        <activity type="STILL" conf="100" state="still" tsMs="1778238244763"/>
        <radio op="vodafone IT" rat="LTE" q="17.00" rsrp="-115" sinr="12" rsrq="-11"/>
        <radio op="I TIM" rat="LTE" q="16.50" rsrp="-114" sinr="10" rsrq="-12"/>
      </extensions>
    </trkpt>
    <trkpt lat="45.6040728" lon="10.4593238">
      <ele>264.4000244140625</ele>
      <time>2026-05-08T13:04:17.992+02:00</time>
      <extensions>
        <activity type="STILL" conf="100" state="still" tsMs="1778238254777"/>
        <radio op="vodafone IT" rat="LTE" q="18.70" rsrp="-114" sinr="12" rsrq="-8"/>
        <radio op="I TIM" rat="LTE" q="17.60" rsrp="-114" sinr="11" rsrq="-8"/>
      </extensions>
    </trkpt>
    <trkpt lat="45.6041026" lon="10.4593179">
      <ele>264.4000244140625</ele>
      <time>2026-05-08T13:04:28.428+02:00</time>
      <extensions>
        <activity type="STILL" conf="100" state="still" tsMs="1778238264800"/>
        <radio op="vodafone IT" rat="LTE" q="27.20" rsrp="-109" sinr="12" rsrq="-10"/>
        <radio op="I TIM" rat="LTE" q="15.40" rsrp="-111" sinr="6" rsrq="-12"/>
      </extensions>
    </trkpt>
    <trkpt lat="45.6041092" lon="10.4593474">
      <ele>264.4000244140625</ele>
      <time>2026-05-08T13:05:02.897+02:00</time>
      <extensions>
        <activity type="STILL" conf="64" state="still" tsMs="1778238302314"/>
        <radio op="vodafone IT" rat="LTE" q="28.50" rsrp="-110" sinr="14" rsrq="-9"/>
        <radio op="I TIM" rat="LTE" q="18.00" rsrp="-110" sinr="7" rsrq="-11"/>
      </extensions>
    </trkpt>
    <trkpt lat="45.6041084" lon="10.4593407">
      <ele>264.4000244140625</ele>
      <time>2026-05-08T13:05:36.617+02:00</time>
      <extensions>
        <activity type="STILL" conf="56" state="still" tsMs="1778238332570"/>
        <radio op="vodafone IT" rat="LTE" q="21.60" rsrp="-113" sinr="13" rsrq="-12"/>
        <radio op="I TIM" rat="LTE" q="15.60" rsrp="-112" sinr="7" rsrq="-9"/>
      </extensions>
    </trkpt>
    <trkpt lat="45.6041008" lon="10.4593231">
      <ele>264.5</ele>
      <time>2026-05-08T13:06:07.735+02:00</time>
      <extensions>
        <activity type="STILL" conf="96" state="still" tsMs="1778238362972"/>
        <radio op="vodafone IT" rat="LTE" q="23.40" rsrp="-112" sinr="13" rsrq="-8"/>
        <radio op="I TIM" rat="LTE" q="16.90" rsrp="-112" sinr="8" rsrq="-13"/>
      </extensions>
    </trkpt>
    <trkpt lat="45.6040902" lon="10.4593406">
      <ele>264.4000244140625</ele>
      <time>2026-05-08T13:06:38.856+02:00</time>
      <extensions>
        <activity type="STILL" conf="54" state="still" tsMs="1778238394071"/>
        <radio op="vodafone IT" rat="LTE" q="18.70" rsrp="-114" sinr="12" rsrq="-12"/>
        <radio op="I TIM" rat="LTE" q="16.80" rsrp="-111" sinr="7" rsrq="-13"/>
      </extensions>
    </trkpt>
    <trkpt lat="45.6043652" lon="10.4596831">
      <ele>264.3000183105469</ele>
      <time>2026-05-08T13:11:50.165+02:00</time>
      <extensions>
        <activity type="ON_FOOT" conf="98" state="moving" tsMs="1778238708708"/>
        <radio op="vodafone IT" rat="LTE" q="60.00" rsrp="-101" sinr="25" rsrq="-11"/>
        <radio op="I TIM" rat="LTE" q="22.50" rsrp="-110" sinr="10" rsrq="-12"/>
      </extensions>
    </trkpt>
    <trkpt lat="45.6046929" lon="10.4595897">
      <ele>264.3000183105469</ele>
      <time>2026-05-08T13:12:43.256+02:00</time>
      <extensions>
        <activity type="ON_FOOT" conf="97" state="moving" tsMs="1778238759607"/>
        <radio op="vodafone IT" rat="LTE" q="62.50" rsrp="-100" sinr="24" rsrq="-10"/>
        <radio op="I TIM" rat="LTE" q="9.90" rsrp="-116" sinr="6" rsrq="-13"/>
      </extensions>
    </trkpt>
    <trkpt lat="45.6046216" lon="10.4595057">
      <ele>264.3000183105469</ele>
      <time>2026-05-08T13:13:42.655+02:00</time>
      <extensions>
        <activity type="ON_FOOT" conf="90" state="moving" tsMs="1778238815091"/>
        <radio op="vodafone IT" rat="LTE" q="50.00" rsrp="-105" sinr="25" rsrq="-8"/>
        <radio op="I TIM" rat="LTE" q="22.10" rsrp="-112" sinr="12" rsrq="-12"/>
      </extensions>
    </trkpt>
    <trkpt lat="45.6043242" lon="10.4592515">
      <ele>264.4000244140625</ele>
      <time>2026-05-08T13:14:25.02+02:00</time>
      <extensions>
        <activity type="ON_FOOT" conf="97" state="moving" tsMs="1778238859710"/>
        <radio op="vodafone IT" rat="LTE" q="30.80" rsrp="-111" sinr="17" rsrq="-10"/>
        <radio op="I TIM" rat="LTE" q="14.00" rsrp="-115" sinr="9" rsrq="-12"/>
      </extensions>
    </trkpt>
    <trkpt lat="45.6043016" lon="10.4592936">
      <ele>264.4000244140625</ele>
      <time>2026-05-08T13:15:08.821+02:00</time>
      <extensions>
        <activity type="UNKNOWN" conf="40" state="unknown" tsMs="1778238916585"/>
        <radio op="vodafone IT" rat="LTE" q="32.30" rsrp="-106" sinr="12" rsrq="-9"/>
        <radio op="I TIM" rat="LTE" q="19.60" rsrp="-111" sinr="9" rsrq="-12"/>
      </extensions>
    </trkpt>
    <trkpt lat="45.6045017" lon="10.458869">
      <ele>264.4000244140625</ele>
      <time>2026-05-08T13:15:56.221+02:00</time>
      <extensions>
        <activity type="ON_FOOT" conf="97" state="moving" tsMs="1778238955727"/>
        <radio op="vodafone IT" rat="LTE" q="67.50" rsrp="-98" sinr="27" rsrq="-8"/>
        <radio op="I TIM" rat="LTE" q="60.00" rsrp="-101" sinr="21" rsrq="-12"/>
      </extensions>
    </trkpt>
    <trkpt lat="45.6036999" lon="10.4587561">
      <ele>264.4000244140625</ele>
      <time>2026-05-08T13:16:29.209+02:00</time>
      <extensions>
        <activity type="ON_FOOT" conf="99" state="moving" tsMs="1778238959266"/>
        <radio op="vodafone IT" rat="LTE" q="97.50" rsrp="-86" sinr="22" rsrq="-7"/>
        <radio op="I TIM" rat="LTE" q="19.00" rsrp="-106" sinr="5" rsrq="-14"/>
      </extensions>
    </trkpt>
    <trkpt lat="45.6038862" lon="10.458305">
      <ele>264.4000244140625</ele>
      <time>2026-05-08T13:17:00.182+02:00</time>
      <extensions>
        <activity type="UNKNOWN" conf="40" state="unknown" tsMs="1778239019788"/>
        <radio op="vodafone IT" rat="LTE" q="100.00" rsrp="-85" sinr="30" rsrq="-7"/>
        <radio op="I TIM" rat="LTE" q="95.00" rsrp="-87" sinr="24" rsrq="-12"/>
      </extensions>
    </trkpt>
    <trkpt lat="45.6039008" lon="10.4598805">
      <ele>264.3000183105469</ele>
      <time>2026-05-08T13:18:00.003+02:00</time>
      <extensions>
        <activity type="IN_VEHICLE" conf="83" state="moving" tsMs="1778239079061"/>
        <radio op="vodafone IT" rat="LTE" rsrp="-83" rsrq="-6"/>
        <radio op="I TIM" rat="LTE" q="80.00" rsrp="-93" sinr="21" rsrq="-12"/>
      </extensions>
    </trkpt>
    <trkpt lat="45.6040421" lon="10.4602317">
      <ele>264.3000183105469</ele>
      <time>2026-05-08T13:18:39.28+02:00</time>
      <extensions>
        <activity type="UNKNOWN" conf="40" state="unknown" tsMs="1778239117044"/>
        <radio op="vodafone IT" rat="LTE" rsrp="-82" rsrq="-9"/>
        <radio op="I TIM" rat="LTE" q="36.40" rsrp="-97" sinr="8" rsrq="-11"/>
      </extensions>
    </trkpt>
    <trkpt lat="45.6037441" lon="10.4615899">
      <ele>271.0211802982475</ele>
      <time>2026-05-08T13:19:09.614+02:00</time>
      <extensions>
        <activity type="UNKNOWN" conf="40" state="unknown" tsMs="1778239145727"/>
        <radio op="vodafone IT" rat="LTE" rsrp="-83" rsrq="-7"/>
        <radio op="I TIM" rat="LTE" q="35.00" rsrp="-100" sinr="9" rsrq="-12"/>
      </extensions>
    </trkpt>
    <trkpt lat="45.6044305" lon="10.4663059">
      <ele>270.3745757727629</ele>
      <time>2026-05-08T13:19:48.758+02:00</time>
      <extensions>
        <activity type="IN_VEHICLE" conf="93" state="moving" tsMs="1778239194592"/>
        <radio op="vodafone IT" rat="LTE" q="62.40" rsrp="-99" sinr="19" rsrq="-7"/>
        <radio op="I TIM" rat="LTE" q="48.00" rsrp="-101" sinr="15" rsrq="-12"/>
      </extensions>
    </trkpt>
    <trkpt lat="45.6122573" lon="10.4885884">
      <ele>249.0780568169551</ele>
      <time>2026-05-08T13:21:43.795+02:00</time>
      <extensions>
        <activity type="UNKNOWN" conf="40" state="unknown" tsMs="1778239298562"/>
        <radio op="vodafone IT" rat="LTE" q="14.40" rsrp="-109" sinr="4" rsrq="-10"/>
        <radio op="I TIM" rat="LTE" q="18.00" rsrp="-113" sinr="10" rsrq="-12"/>
      </extensions>
    </trkpt>
    <trkpt lat="45.611583" lon="10.4927208">
      <ele>228.42317557775277</ele>
      <time>2026-05-08T13:22:23.73+02:00</time>
      <extensions>
        <activity type="IN_VEHICLE" conf="86" state="moving" tsMs="1778239342099"/>
        <radio op="vodafone IT" rat="LTE" q="22.00" rsrp="-105" sinr="6" rsrq="-10"/>
        <radio op="I TIM" rat="LTE" rsrp="-119" rsrq="-14"/>
      </extensions>
    </trkpt>
    <trkpt lat="45.6112349" lon="10.4959615">
      <ele>220.20001220703125</ele>
      <time>2026-05-08T13:22:58.438+02:00</time>
      <extensions>
        <activity type="IN_VEHICLE" conf="96" state="moving" tsMs="1778239369063"/>
        <radio op="vodafone IT" rat="LTE" q="60.00" rsrp="-100" sinr="19" rsrq="-9"/>
        <radio op="I TIM" rat="LTE" q="2.50" rsrp="-120" sinr="0" rsrq="-15"/>
      </extensions>
    </trkpt>
    <trkpt lat="45.6158756" lon="10.4944228">
      <ele>225.90000915527344</ele>
      <time>2026-05-08T13:23:53.769+02:00</time>
      <extensions>
        <activity type="IN_VEHICLE" conf="86" state="moving" tsMs="1778239430118"/>
        <radio op="vodafone IT" rat="LTE" q="80.00" rsrp="-93" sinr="23" rsrq="-11"/>
        <radio op="I TIM" rat="LTE" q="12.00" rsrp="-105" sinr="1" rsrq="-12"/>
      </extensions>
    </trkpt>
    <trkpt lat="45.6176894" lon="10.4939904">
      <ele>222.70639365445064</ele>
      <time>2026-05-08T13:24:49.231+02:00</time>
      <extensions>
        <activity type="UNKNOWN" conf="40" state="unknown" tsMs="1778239488026"/>
        <radio op="vodafone IT" rat="LTE" q="41.80" rsrp="-106" sinr="17" rsrq="-10"/>
        <radio op="I TIM" rat="LTE" q="57.50" rsrp="-102" sinr="20" rsrq="-11"/>
      </extensions>
    </trkpt>
    <trkpt lat="45.6177344" lon="10.4938651">
      <ele>223.66446132472956</ele>
      <time>2026-05-08T13:25:20.194+02:00</time>
      <extensions>
        <activity type="STILL" conf="29" state="still" tsMs="1778239519442"/>
        <radio op="vodafone IT" rat="LTE" q="63.80" rsrp="-96" sinr="17" rsrq="-12"/>
        <radio op="I TIM" rat="LTE" q="92.50" rsrp="-88" sinr="26" rsrq="-12"/>
      </extensions>
    </trkpt>
    <trkpt lat="45.6177495" lon="10.4938445">
      <ele>223.93856283378292</ele>
      <time>2026-05-08T13:25:57.363+02:00</time>
      <extensions>
        <activity type="UNKNOWN" conf="40" state="unknown" tsMs="1778239556719"/>
        <radio op="vodafone IT" rat="LTE" q="59.80" rsrp="-99" sinr="18" rsrq="-11"/>
        <radio op="I TIM" rat="LTE" q="52.80" rsrp="-101" sinr="17" rsrq="-13"/>
      </extensions>
    </trkpt>
    <trkpt lat="45.6176476" lon="10.4940756">
      <ele>223.7376992875023</ele>
      <time>2026-05-08T13:26:59.333+02:00</time>
      <extensions>
        <activity type="ON_FOOT" conf="90" state="moving" tsMs="1778239618894"/>
        <radio op="vodafone IT" rat="LTE" q="50.40" rsrp="-104" sinr="19" rsrq="-12"/>
        <radio op="I TIM" rat="LTE" q="46.00" rsrp="-102" sinr="15" rsrq="-13"/>
      </extensions>
    </trkpt>
    <trkpt lat="45.6176096" lon="10.4942904">
      <ele>226.3000030517578</ele>
      <time>2026-05-08T13:27:31.682+02:00</time>
      <extensions>
        <activity type="STILL" conf="50" state="still" tsMs="1778239651105"/>
        <radio op="vodafone IT" rat="LTE" q="57.50" rsrp="-100" sinr="18" rsrq="-7"/>
        <radio op="I TIM" rat="LTE" q="80.50" rsrp="-90" sinr="18" rsrq="-11"/>
      </extensions>
    </trkpt>
    <trkpt lat="45.617657" lon="10.4940559">
      <ele>223.7466603865282</ele>
      <time>2026-05-08T13:28:05.809+02:00</time>
      <extensions>
        <activity type="STILL" conf="67" state="still" tsMs="1778239681886"/>
        <radio op="vodafone IT" rat="LTE" q="77.50" rsrp="-94" sinr="21" rsrq="-8"/>
        <radio op="I TIM" rat="LTE" q="74.80" rsrp="-91" sinr="17" rsrq="-12"/>
      </extensions>
    </trkpt>
    <trkpt lat="45.617657" lon="10.4940559">
      <ele>223.4019008671287</ele>
      <time>2026-05-08T13:28:37.164+02:00</time>
      <extensions>
        <activity type="STILL" conf="87" state="still" tsMs="1778239713411"/>
        <radio op="vodafone IT" rat="LTE" q="67.50" rsrp="-98" sinr="22" rsrq="-10"/>
        <radio op="I TIM" rat="LTE" q="72.00" rsrp="-95" sinr="19" rsrq="-11"/>
      </extensions>
    </trkpt>
    <trkpt lat="45.6176238" lon="10.4942994">
      <ele>224.032648940889</ele>
      <time>2026-05-08T13:29:16.766+02:00</time>
      <extensions>
        <activity type="STILL" conf="98" state="still" tsMs="1778239755946"/>
        <radio op="vodafone IT" rat="LTE" q="70.00" rsrp="-97" sinr="25" rsrq="-6"/>
        <radio op="I TIM" rat="LTE" q="66.70" rsrp="-96" sinr="18" rsrq="-11"/>
      </extensions>
    </trkpt>
    <trkpt lat="45.6176574" lon="10.4940672">
      <ele>224.13684446932692</ele>
      <time>2026-05-08T13:29:50.93+02:00</time>
      <extensions>
        <activity type="STILL" conf="96" state="still" tsMs="1778239788239"/>
        <radio op="vodafone IT" rat="LTE" q="90.00" rsrp="-89" sinr="27" rsrq="-12"/>
        <radio op="I TIM" rat="LTE" q="70.40" rsrp="-93" sinr="17" rsrq="-12"/>
      </extensions>
    </trkpt>
    <trkpt lat="45.6177109" lon="10.4940333">
      <ele>224.18112429165626</ele>
      <time>2026-05-08T13:30:22.372+02:00</time>
      <extensions>
        <activity type="STILL" conf="96" state="still" tsMs="1778239818536"/>
        <radio op="vodafone IT" rat="LTE" q="75.00" rsrp="-95" sinr="22" rsrq="-9"/>
        <radio op="I TIM" rat="LTE" q="62.00" rsrp="-94" sinr="15" rsrq="-12"/>
      </extensions>
    </trkpt>
    <trkpt lat="45.6176969" lon="10.4940589">
      <ele>224.28233617025538</ele>
      <time>2026-05-08T13:30:53.849+02:00</time>
      <extensions>
        <activity type="STILL" conf="96" state="still" tsMs="1778239849779"/>
        <radio op="vodafone IT" rat="LTE" q="80.00" rsrp="-93" sinr="25" rsrq="-11"/>
        <radio op="I TIM" rat="LTE" q="57.00" rsrp="-95" sinr="14" rsrq="-12"/>
      </extensions>
    </trkpt>
    <trkpt lat="45.6176493" lon="10.4940981">
      <ele>224.4446993802325</ele>
      <time>2026-05-08T13:31:25.307+02:00</time>
      <extensions>
        <activity type="STILL" conf="41" state="still" tsMs="1778239881357"/>
        <radio op="vodafone IT" rat="LTE" q="38.40" rsrp="-101" sinr="11" rsrq="-6"/>
        <radio op="I TIM" rat="LTE" q="82.50" rsrp="-92" sinr="24" rsrq="-12"/>
      </extensions>
    </trkpt>
    <trkpt lat="45.6176626" lon="10.494078">
      <ele>224.3996452059475</ele>
      <time>2026-05-08T13:31:56.793+02:00</time>
      <extensions>
        <activity type="ON_FOOT" conf="93" state="moving" tsMs="1778239912871"/>
        <radio op="vodafone IT" rat="LTE" q="55.10" rsrp="-96" sinr="14" rsrq="-9"/>
        <radio op="I TIM" rat="LTE" rsrp="-90" rsrq="-12"/>
      </extensions>
    </trkpt>
    <trkpt lat="45.6177143" lon="10.4940538">
      <ele>224.49874922055537</ele>
      <time>2026-05-08T13:32:28.2+02:00</time>
      <extensions>
        <activity type="STILL" conf="59" state="still" tsMs="1778239944367"/>
        <radio op="vodafone IT" rat="LTE" q="52.50" rsrp="-100" sinr="16" rsrq="-11"/>
        <radio op="I TIM" rat="LTE" q="78.00" rsrp="-86" sinr="15" rsrq="-11"/>
      </extensions>
    </trkpt>
    <trkpt lat="45.617717" lon="10.4940361">
      <ele>224.54935596637168</ele>
      <time>2026-05-08T13:32:59.663+02:00</time>
      <extensions>
        <activity type="STILL" conf="55" state="still" tsMs="1778239975757"/>
        <radio op="vodafone IT" rat="LTE" q="60.90" rsrp="-96" sinr="16" rsrq="-9"/>
        <radio op="I TIM" rat="LTE" q="39.20" rsrp="-97" sinr="9" rsrq="-11"/>
      </extensions>
    </trkpt>
    <trkpt lat="45.6176627" lon="10.4940636">
      <ele>226.3000030517578</ele>
      <time>2026-05-08T13:33:31.086+02:00</time>
      <extensions>
        <activity type="UNKNOWN" conf="40" state="unknown" tsMs="1778240007249"/>
        <radio op="vodafone IT" rat="LTE" q="46.80" rsrp="-89" sinr="8" rsrq="-9"/>
        <radio op="I TIM" rat="LTE" q="100.00" rsrp="-78" sinr="24" rsrq="-13"/>
      </extensions>
    </trkpt>
    <trkpt lat="45.6176597" lon="10.4940752">
      <ele>224.4998035247214</ele>
      <time>2026-05-08T13:34:02.567+02:00</time>
      <extensions>
        <activity type="STILL" conf="49" state="still" tsMs="1778240038613"/>
        <radio op="vodafone IT" rat="LTE" rsrp="-90" rsrq="-11"/>
        <radio op="I TIM" rat="LTE" q="100.00" rsrp="-79" sinr="23" rsrq="-12"/>
      </extensions>
    </trkpt>
    <trkpt lat="45.6177152" lon="10.4940357">
      <ele>226.3000030517578</ele>
      <time>2026-05-08T13:34:34.063+02:00</time>
      <extensions>
        <activity type="STILL" conf="99" state="still" tsMs="1778240070147"/>
        <radio op="vodafone IT" rat="LTE" q="28.80" rsrp="-89" sinr="3" rsrq="-10"/>
        <radio op="I TIM" rat="LTE" q="100.00" rsrp="-81" sinr="20" rsrq="-12"/>
      </extensions>
    </trkpt>
    <trkpt lat="45.6181755" lon="10.4938707">
      <ele>225.8000030517578</ele>
      <time>2026-05-08T13:41:40.308+02:00</time>
      <extensions>
        <activity type="UNKNOWN" conf="40" state="unknown" tsMs="1778240498843"/>
        <radio op="vodafone IT" rat="LTE" q="15.60" rsrp="-99" sinr="1" rsrq="-10"/>
        <radio op="I TIM" rat="LTE" q="73.50" rsrp="-90" sinr="16" rsrq="-12"/>
      </extensions>
    </trkpt>
    <trkpt lat="45.6176098" lon="10.4942813">
      <ele>226.3000030517578</ele>
      <time>2026-05-08T13:42:10.754+02:00</time>
      <extensions>
        <activity type="UNKNOWN" conf="40" state="unknown" tsMs="1778240525611"/>
        <radio op="vodafone IT" rat="LTE" q="25.00" rsrp="-100" sinr="5" rsrq="-9"/>
        <radio op="I TIM" rat="LTE" q="45.50" rsrp="-90" sinr="8" rsrq="-11"/>
      </extensions>
    </trkpt>
    <trkpt lat="45.617675" lon="10.4940828">
      <ele>226.3000030517578</ele>
      <time>2026-05-08T13:42:41.999+02:00</time>
      <extensions>
        <activity type="STILL" conf="91" state="still" tsMs="1778240559464"/>
        <radio op="vodafone IT" rat="LTE" q="24.00" rsrp="-95" sinr="3" rsrq="-8"/>
        <radio op="I TIM" rat="LTE" q="75.60" rsrp="-89" sinr="16" rsrq="-11"/>
      </extensions>
    </trkpt>
    <trkpt lat="45.6177151" lon="10.4940322">
      <ele>226.3000030517578</ele>
      <time>2026-05-08T13:43:11.73+02:00</time>
      <extensions>
        <activity type="STILL" conf="99" state="still" tsMs="1778240589684"/>
        <radio op="vodafone IT" rat="LTE" q="25.60" rsrp="-93" sinr="3" rsrq="-9"/>
        <radio op="I TIM" rat="LTE" q="64.80" rsrp="-89" sinr="13" rsrq="-11"/>
      </extensions>
    </trkpt>
    <trkpt lat="45.6177022" lon="10.4940658">
      <ele>226.3000030517578</ele>
      <time>2026-05-08T13:43:44.966+02:00</time>
      <extensions>
        <activity type="STILL" conf="99" state="still" tsMs="1778240621055"/>
        <radio op="vodafone IT" rat="LTE" q="24.00" rsrp="-95" sinr="3" rsrq="-8"/>
        <radio op="I TIM" rat="LTE" q="92.50" rsrp="-88" sinr="21" rsrq="-12"/>
      </extensions>
    </trkpt>
    <trkpt lat="45.617694" lon="10.4940586">
      <ele>226.3000030517578</ele>
      <time>2026-05-08T13:44:16.298+02:00</time>
      <extensions>
        <activity type="STILL" conf="97" state="still" tsMs="1778240652402"/>
        <radio op="vodafone IT" rat="LTE" q="24.80" rsrp="-94" sinr="3" rsrq="-12"/>
        <radio op="I TIM" rat="LTE" q="72.00" rsrp="-89" sinr="15" rsrq="-12"/>
      </extensions>
    </trkpt>
    <trkpt lat="45.6175549" lon="10.4950331">
      <ele>226.3000030517578</ele>
      <time>2026-05-08T13:44:47.718+02:00</time>
      <extensions>
        <activity type="STILL" conf="99" state="still" tsMs="1778240682521"/>
        <radio op="vodafone IT" rat="LTE" q="25.60" rsrp="-93" sinr="3" rsrq="-8"/>
        <radio op="I TIM" rat="LTE" q="74.00" rsrp="-88" sinr="15" rsrq="-11"/>
      </extensions>
    </trkpt>
    <trkpt lat="45.6176724" lon="10.4940828">
      <ele>226.3000030517578</ele>
      <time>2026-05-08T13:45:19.138+02:00</time>
      <extensions>
        <activity type="STILL" conf="99" state="still" tsMs="1778240715225"/>
        <radio op="vodafone IT" rat="LTE" rsrp="-94" rsrq="-11"/>
        <radio op="I TIM" rat="LTE" rsrp="-88" rsrq="-12"/>
      </extensions>
    </trkpt>
    <trkpt lat="45.6176582" lon="10.494052">
      <ele>226.3000030517578</ele>
      <time>2026-05-08T13:45:50.581+02:00</time>
      <extensions>
        <activity type="STILL" conf="99" state="still" tsMs="1778240746637"/>
        <radio op="vodafone IT" rat="LTE" rsrp="-93" rsrq="-12"/>
        <radio op="I TIM" rat="LTE" q="72.00" rsrp="-89" sinr="15" rsrq="-12"/>
      </extensions>
    </trkpt>
    <trkpt lat="45.617642" lon="10.4940967">
      <ele>226.3000030517578</ele>
      <time>2026-05-08T13:46:21.996+02:00</time>
      <extensions>
        <activity type="STILL" conf="99" state="still" tsMs="1778240778020"/>
        <radio op="vodafone IT" rat="LTE" q="16.00" rsrp="-93" sinr="0" rsrq="-12"/>
        <radio op="I TIM" rat="LTE" q="92.50" rsrp="-88" sinr="21" rsrq="-13"/>
      </extensions>
    </trkpt>
    <trkpt lat="45.6176716" lon="10.4940943">
      <ele>226.3000030517578</ele>
      <time>2026-05-08T13:46:53.347+02:00</time>
      <extensions>
        <activity type="STILL" conf="99" state="still" tsMs="1778240809485"/>
        <radio op="vodafone IT" rat="LTE" rsrp="-93" rsrq="-10"/>
        <radio op="I TIM" rat="LTE" q="90.00" rsrp="-89" sinr="22" rsrq="-11"/>
      </extensions>
    </trkpt>
    <trkpt lat="45.6176527" lon="10.4940955">
      <ele>226.3000030517578</ele>
      <time>2026-05-08T13:47:24.665+02:00</time>
      <extensions>
        <activity type="STILL" conf="99" state="still" tsMs="1778240840811"/>
        <radio op="vodafone IT" rat="LTE" q="19.20" rsrp="-93" sinr="1" rsrq="-9"/>
        <radio op="I TIM" rat="LTE" q="88.80" rsrp="-88" sinr="19" rsrq="-11"/>
      </extensions>
    </trkpt>
    <trkpt lat="45.6176668" lon="10.4940682">
      <ele>226.3000030517578</ele>
      <time>2026-05-08T13:47:56.081+02:00</time>
      <extensions>
        <activity type="STILL" conf="99" state="still" tsMs="1778240872164"/>
        <radio op="vodafone IT" rat="LTE" q="28.80" rsrp="-93" sinr="4" rsrq="-8"/>
        <radio op="I TIM" rat="LTE" q="92.50" rsrp="-88" sinr="21" rsrq="-11"/>
      </extensions>
    </trkpt>
    <trkpt lat="45.617661" lon="10.494076">
      <ele>226.3000030517578</ele>
      <time>2026-05-08T13:48:27.467+02:00</time>
      <extensions>
        <activity type="STILL" conf="99" state="still" tsMs="1778240903550"/>
        <radio op="vodafone IT" rat="LTE" q="28.80" rsrp="-93" sinr="4" rsrq="-11"/>
        <radio op="I TIM" rat="LTE" q="95.00" rsrp="-87" sinr="23" rsrq="-12"/>
      </extensions>
    </trkpt>
    <trkpt lat="45.6178704" lon="10.493522">
      <ele>226.3000030517578</ele>
      <time>2026-05-08T14:31:13.822+02:00</time>
      <extensions>
        <activity type="ON_FOOT" conf="97" state="moving" tsMs="1778243490599"/>
        <radio op="vodafone IT" rat="LTE" q="16.80" rsrp="-101" sinr="2" rsrq="-9"/>
        <radio op="I TIM" rat="LTE" q="85.00" rsrp="-91" sinr="20" rsrq="-11"/>
      </extensions>
    </trkpt>
    <trkpt lat="45.617763" lon="10.4934276">
      <ele>226.3000030517578</ele>
      <time>2026-05-08T14:31:45.15+02:00</time>
      <extensions>
        <activity type="ON_FOOT" conf="96" state="moving" tsMs="1778243501346"/>
        <radio op="vodafone IT" rat="LTE" q="16.80" rsrp="-97" sinr="1" rsrq="-8"/>
        <radio op="I TIM" rat="LTE" q="85.00" rsrp="-91" sinr="22" rsrq="-11"/>
      </extensions>
    </trkpt>
    <trkpt lat="45.617666" lon="10.4940345">
      <ele>226.3000030517578</ele>
      <time>2026-05-08T14:32:16.608+02:00</time>
      <extensions>
        <activity type="IN_VEHICLE" conf="97" state="moving" tsMs="1778243532562"/>
        <radio op="vodafone IT" rat="LTE" q="79.20" rsrp="-89" sinr="17" rsrq="-7"/>
        <radio op="I TIM" rat="LTE" q="85.00" rsrp="-91" sinr="28" rsrq="-11"/>
      </extensions>
    </trkpt>
    <trkpt lat="45.6164207" lon="10.4938664">
      <ele>229.02092817363666</ele>
      <time>2026-05-08T14:32:52.762+02:00</time>
      <extensions>
        <activity type="IN_VEHICLE" conf="97" state="moving" tsMs="1778243578124"/>
        <radio op="vodafone IT" rat="LTE" q="100.00" rsrp="-83" sinr="21" rsrq="-5"/>
        <radio op="I TIM" rat="LTE" rsrp="-89" rsrq="-12"/>
      </extensions>
    </trkpt>
    <trkpt lat="45.6148551" lon="10.4969052">
      <ele>226.40000915527344</ele>
      <time>2026-05-08T14:33:18.762+02:00</time>
      <extensions>
        <activity type="IN_VEHICLE" conf="96" state="moving" tsMs="1778243594057"/>
        <radio op="vodafone IT" rat="LTE" q="55.50" rsrp="-88" sinr="10" rsrq="-7"/>
        <radio op="I TIM" rat="LTE" q="100.00" rsrp="-84" sinr="26" rsrq="-12"/>
      </extensions>
    </trkpt>
    <trkpt lat="45.611104" lon="10.4955851">
      <ele>221.43026272551262</ele>
      <time>2026-05-08T14:33:51.011+02:00</time>
      <extensions>
        <activity type="IN_VEHICLE" conf="97" state="moving" tsMs="1778243627731"/>
        <radio op="vodafone IT" rat="LTE" q="85.00" rsrp="-91" sinr="20" rsrq="-11"/>
        <radio op="I TIM" rat="LTE" rsrp="-100" rsrq="-17"/>
      </extensions>
    </trkpt>
    <trkpt lat="45.6117745" lon="10.4921522">
      <ele>230.5222540966884</ele>
      <time>2026-05-08T14:34:22.378+02:00</time>
      <extensions>
        <activity type="IN_VEHICLE" conf="97" state="moving" tsMs="1778243658648"/>
        <radio op="vodafone IT" rat="LTE" q="16.80" rsrp="-111" sinr="7" rsrq="-11"/>
        <radio op="I TIM" rat="LTE" rsrp="-115" rsrq="-19"/>
      </extensions>
    </trkpt>
    <trkpt lat="45.6124275" lon="10.4885418">
      <ele>245.18206925184245</ele>
      <time>2026-05-08T14:34:53.745+02:00</time>
      <extensions>
        <activity type="IN_VEHICLE" conf="97" state="moving" tsMs="1778243688737"/>
        <radio op="vodafone IT" rat="LTE" rsrp="-104" rsrq="-18"/>
        <radio op="I TIM" rat="LTE" rsrp="-115" rsrq="-15"/>
      </extensions>
    </trkpt>
    <trkpt lat="45.6055021" lon="10.4668153">
      <ele>272.4000244140625</ele>
      <time>2026-05-08T14:36:45.763+02:00</time>
      <extensions>
        <activity type="IN_VEHICLE" conf="96" state="moving" tsMs="1778243824053"/>
        <radio op="vodafone IT" rat="LTE" q="67.20" rsrp="-93" sinr="16" rsrq="-6"/>
        <radio op="I TIM" rat="LTE" q="100.00" rsrp="-81" sinr="20" rsrq="-8"/>
      </extensions>
    </trkpt>
    <trkpt lat="45.6046488" lon="10.4647464">
      <ele>266.5</ele>
      <time>2026-05-08T14:37:25.99+02:00</time>
      <extensions>
        <activity type="IN_VEHICLE" conf="97" state="moving" tsMs="1778243845376"/>
        <radio op="vodafone IT" rat="LTE" q="100.00" rsrp="-74" sinr="25" rsrq="-6"/>
        <radio op="I TIM" rat="LTE" q="100.00" rsrp="-67" sinr="28" rsrq="-7"/>
      </extensions>
    </trkpt>
    <trkpt lat="45.6051961" lon="10.4651149">
      <ele>266.5</ele>
      <time>2026-05-08T14:37:31.763+02:00</time>
      <extensions>
        <activity type="IN_VEHICLE" conf="97" state="moving" tsMs="1778243845376"/>
        <radio op="vodafone IT" rat="LTE" q="100.00" rsrp="-70" sinr="26" rsrq="-5"/>
        <radio op="I TIM" rat="LTE" q="100.00" rsrp="-66" sinr="23" rsrq="-9"/>
      </extensions>
    </trkpt>
    <trkpt lat="45.6049696" lon="10.4637398">
      <ele>266.5</ele>
      <time>2026-05-08T14:37:43.763+02:00</time>
      <extensions>
        <activity type="IN_VEHICLE" conf="97" state="moving" tsMs="1778243862929"/>
        <radio op="vodafone IT" rat="LTE" q="96.00" rsrp="-79" sinr="19" rsrq="-6"/>
        <radio op="I TIM" rat="LTE" q="84.00" rsrp="-75" sinr="16" rsrq="-8"/>
      </extensions>
    </trkpt>
    <trkpt lat="45.6034528" lon="10.4588601">
      <ele>264.4000244140625</ele>
      <time>2026-05-08T14:38:17.456+02:00</time>
      <extensions>
        <activity type="IN_VEHICLE" conf="97" state="moving" tsMs="1778243894860"/>
        <radio op="vodafone IT" rat="LTE" q="64.00" rsrp="-78" sinr="11" rsrq="-10"/>
        <radio op="I TIM" rat="LTE" q="100.00" rsrp="-78" sinr="27" rsrq="-10"/>
      </extensions>
    </trkpt>
    <trkpt lat="45.6033133" lon="10.4581303">
      <ele>264.4000244140625</ele>
      <time>2026-05-08T14:38:25.763+02:00</time>
      <extensions>
        <activity type="IN_VEHICLE" conf="97" state="moving" tsMs="1778243894860"/>
        <radio op="vodafone IT" rat="LTE" q="100.00" rsrp="-76" sinr="29" rsrq="-10"/>
        <radio op="I TIM" rat="LTE" q="100.00" rsrp="-76" sinr="25" rsrq="-9"/>
      </extensions>
    </trkpt>
    <trkpt lat="45.6022285" lon="10.4550294">
      <ele>261.8000183105469</ele>
      <time>2026-05-08T14:38:58.844+02:00</time>
      <extensions>
        <activity type="IN_VEHICLE" conf="97" state="moving" tsMs="1778243933842"/>
        <radio op="vodafone IT" rat="LTE" q="18.20" rsrp="-99" sinr="2" rsrq="-10"/>
        <radio op="I TIM" rat="LTE" rsrp="-102" rsrq="-15"/>
      </extensions>
    </trkpt>
    <trkpt lat="45.6019007" lon="10.4530483">
      <ele>259.1222598579533</ele>
      <time>2026-05-08T14:39:30.097+02:00</time>
      <extensions>
        <activity type="IN_VEHICLE" conf="97" state="moving" tsMs="1778243965216"/>
        <radio op="vodafone IT" rat="LTE" q="28.00" rsrp="-97" sinr="5" rsrq="-8"/>
        <radio op="I TIM" rat="LTE" rsrp="-97" rsrq="-13"/>
      </extensions>
    </trkpt>
    <trkpt lat="45.6019772" lon="10.4534433">
      <ele>259.1222598579533</ele>
      <time>2026-05-08T14:39:37.762+02:00</time>
      <extensions>
        <activity type="IN_VEHICLE" conf="97" state="moving" tsMs="1778243980514"/>
        <radio op="vodafone IT" rat="LTE" q="25.20" rsrp="-97" sinr="4" rsrq="-8"/>
        <radio op="I TIM" rat="LTE" q="46.50" rsrp="-94" sinr="10" rsrq="-12"/>
      </extensions>
    </trkpt>
    <trkpt lat="45.6021234" lon="10.453397">
      <ele>261.3000183105469</ele>
      <time>2026-05-08T14:40:11.534+02:00</time>
      <extensions>
        <activity type="UNKNOWN" conf="40" state="unknown" tsMs="1778244007920"/>
        <radio op="vodafone IT" rat="LTE" q="29.00" rsrp="-96" sinr="5" rsrq="-9"/>
        <radio op="I TIM" rat="LTE" q="51.00" rsrp="-91" sinr="10" rsrq="-11"/>
      </extensions>
    </trkpt>
    <trkpt lat="45.6023661" lon="10.4536358">
      <ele>261.8000183105469</ele>
      <time>2026-05-08T14:40:43.018+02:00</time>
      <extensions>
        <activity type="ON_FOOT" conf="96" state="moving" tsMs="1778244042087"/>
        <radio op="vodafone IT" rat="LTE" q="13.30" rsrp="-106" sinr="2" rsrq="-11"/>
        <radio op="I TIM" rat="LTE" q="44.80" rsrp="-97" sinr="11" rsrq="-11"/>
      </extensions>
    </trkpt>
    <trkpt lat="45.6025548" lon="10.4536566">
      <ele>261.9000244140625</ele>
      <time>2026-05-08T14:41:14.511+02:00</time>
      <extensions>
        <activity type="ON_FOOT" conf="97" state="moving" tsMs="1778244073870"/>
        <radio op="vodafone IT" rat="LTE" q="14.40" rsrp="-109" sinr="4" rsrq="-12"/>
        <radio op="I TIM" rat="LTE" rsrp="-118" rsrq="-10"/>
      </extensions>
    </trkpt>
    <trkpt lat="45.6025542" lon="10.4536455">
      <ele>261.9000244140625</ele>
      <time>2026-05-08T14:41:46.149+02:00</time>
      <extensions>
        <activity type="UNKNOWN" conf="40" state="unknown" tsMs="1778244104936"/>
        <radio op="vodafone IT" rat="LTE" q="21.00" rsrp="-104" sinr="5" rsrq="-11"/>
        <radio op="I TIM" rat="LTE" q="21.00" rsrp="-111" sinr="10" rsrq="-11"/>
      </extensions>
    </trkpt>
    <trkpt lat="45.6025527" lon="10.4536527">
      <ele>261.9000244140625</ele>
      <time>2026-05-08T14:42:17.702+02:00</time>
      <extensions>
        <activity type="STILL" conf="99" state="still" tsMs="1778244133463"/>
        <radio op="vodafone IT" rat="LTE" q="26.40" rsrp="-103" sinr="7" rsrq="-9"/>
        <radio op="I TIM" rat="LTE" q="14.00" rsrp="-111" sinr="5" rsrq="-11"/>
      </extensions>
    </trkpt>
    <trkpt lat="45.6025565" lon="10.4536534">
      <ele>261.9000244140625</ele>
      <time>2026-05-08T14:42:49.395+02:00</time>
      <extensions>
        <activity type="STILL" conf="99" state="still" tsMs="1778244165248"/>
        <radio op="vodafone IT" rat="LTE" q="4.80" rsrp="-117" sinr="1" rsrq="-9"/>
        <radio op="I TIM" rat="LTE" rsrp="-112" rsrq="-13"/>
      </extensions>
    </trkpt>
    <trkpt lat="45.6025549" lon="10.4536528">
      <ele>261.9000244140625</ele>
      <time>2026-05-08T14:43:20.832+02:00</time>
      <extensions>
        <activity type="STILL" conf="99" state="still" tsMs="1778244196708"/>
        <radio op="vodafone IT" rat="LTE" q="20.00" rsrp="-105" sinr="5" rsrq="-11"/>
        <radio op="I TIM" rat="LTE" q="15.40" rsrp="-111" sinr="6" rsrq="-13"/>
      </extensions>
    </trkpt>
    <trkpt lat="45.6025575" lon="10.4536513">
      <ele>261.9000244140625</ele>
      <time>2026-05-08T14:43:52.281+02:00</time>
      <extensions>
        <activity type="STILL" conf="99" state="still" tsMs="1778244228111"/>
        <radio op="vodafone IT" rat="LTE" q="16.80" rsrp="-104" sinr="3" rsrq="-11"/>
        <radio op="I TIM" rat="LTE" q="9.00" rsrp="-110" sinr="1" rsrq="-13"/>
      </extensions>
    </trkpt>
    <trkpt lat="45.6025554" lon="10.4536492">
      <ele>261.9000244140625</ele>
      <time>2026-05-08T14:44:23.844+02:00</time>
      <extensions>
        <activity type="STILL" conf="99" state="still" tsMs="1778244259625"/>
        <radio op="vodafone IT" rat="LTE" q="21.00" rsrp="-104" sinr="5" rsrq="-12"/>
        <radio op="I TIM" rat="LTE" q="21.00" rsrp="-110" sinr="9" rsrq="-13"/>
      </extensions>
    </trkpt>
    <trkpt lat="45.6025529" lon="10.4536575">
      <ele>261.9000244140625</ele>
      <time>2026-05-08T14:56:21.463+02:00</time>
      <extensions>
        <activity type="UNKNOWN" conf="40" state="unknown" tsMs="1778244984428"/>
        <radio op="vodafone IT" rat="LTE" rsrp="-129" rsrq="-16"/>
        <radio op="I TIM" rat="LTE" rsrp="-126" rsrq="-13"/>
      </extensions>
    </trkpt>
    <trkpt lat="45.6025543" lon="10.4536563">
      <ele>261.9000244140625</ele>
      <time>2026-05-08T14:56:52.581+02:00</time>
      <extensions>
        <activity type="UNKNOWN" conf="40" state="unknown" tsMs="1778245006776"/>
        <radio op="vodafone IT" rat="LTE" q="8.40" rsrp="-113" sinr="2" rsrq="-13"/>
        <radio op="I TIM" rat="LTE" q="6.60" rsrp="-119" sinr="6" rsrq="-11"/>
      </extensions>
    </trkpt>
    <trkpt lat="45.6023252" lon="10.4536464">
      <ele>261.8000183105469</ele>
      <time>2026-05-08T14:57:24.244+02:00</time>
      <extensions>
        <activity type="ON_FOOT" conf="90" state="moving" tsMs="1778245039055"/>
        <radio op="vodafone IT" rat="LTE" q="24.00" rsrp="-109" sinr="10" rsrq="-10"/>
        <radio op="I TIM" rat="LTE" q="16.10" rsrp="-102" sinr="2" rsrq="-11"/>
      </extensions>
    </trkpt>
    <trkpt lat="45.601922" lon="10.4533802">
      <ele>260.9000244140625</ele>
      <time>2026-05-08T14:57:55.856+02:00</time>
      <extensions>
        <activity type="ON_FOOT" conf="97" state="moving" tsMs="1778245071847"/>
        <radio op="vodafone IT" rat="LTE" q="57.20" rsrp="-99" sinr="17" rsrq="-10"/>
        <radio op="I TIM" rat="LTE" q="57.50" rsrp="-100" sinr="18" rsrq="-12"/>
      </extensions>
    </trkpt>
    <trkpt lat="45.6023396" lon="10.4536572">
      <ele>261.70001220703125</ele>
      <time>2026-05-08T14:58:27.325+02:00</time>
      <extensions>
        <activity type="UNKNOWN" conf="40" state="unknown" tsMs="1778245103551"/>
        <radio op="vodafone IT" rat="LTE" q="9.00" rsrp="-107" sinr="0" rsrq="-11"/>
        <radio op="I TIM" rat="LTE" rsrp="-109" rsrq="-14"/>
      </extensions>
    </trkpt>
    <trkpt lat="45.6020067" lon="10.4545948">
      <ele>261.8000183105469</ele>
      <time>2026-05-08T14:59:04.761+02:00</time>
      <extensions>
        <activity type="IN_VEHICLE" conf="82" state="moving" tsMs="1778245143778"/>
        <radio op="vodafone IT" rat="LTE" q="32.40" rsrp="-98" sinr="7" rsrq="-6"/>
        <radio op="I TIM" rat="LTE" q="15.30" rsrp="-108" sinr="4" rsrq="-12"/>
      </extensions>
    </trkpt>
    <trkpt lat="45.6039755" lon="10.4605725">
      <ele>271.24238837842375</ele>
      <time>2026-05-08T14:59:49.761+02:00</time>
      <extensions>
        <activity type="UNKNOWN" conf="40" state="unknown" tsMs="1778245184911"/>
        <radio op="vodafone IT" rat="LTE" q="92.00" rsrp="-82" sinr="18" rsrq="-9"/>
        <radio op="I TIM" rat="LTE" rsrp="-99" rsrq="-13"/>
      </extensions>
    </trkpt>
    <trkpt lat="45.6057435" lon="10.4664712">
      <ele>270.4576824750126</ele>
      <time>2026-05-08T15:00:34.762+02:00</time>
      <extensions>
        <activity type="IN_VEHICLE" conf="88" state="moving" tsMs="1778245233793"/>
        <radio op="vodafone IT" rat="LTE" q="82.50" rsrp="-92" sinr="24" rsrq="-5"/>
        <radio op="I TIM" rat="LTE" q="35.70" rsrp="-104" sinr="12" rsrq="-9"/>
      </extensions>
    </trkpt>
    <trkpt lat="45.6063524" lon="10.4683652">
      <ele>272.4000244140625</ele>
      <time>2026-05-08T15:00:45.762+02:00</time>
      <extensions>
        <activity type="IN_VEHICLE" conf="86" state="moving" tsMs="1778245243541"/>
        <radio op="vodafone IT" rat="LTE" q="75.00" rsrp="-95" sinr="25" rsrq="-7"/>
        <radio op="I TIM" rat="LTE" q="41.60" rsrp="-99" sinr="11" rsrq="-8"/>
      </extensions>
    </trkpt>
    <trkpt lat="45.6064749" lon="10.4687375">
      <ele>272.4000244140625</ele>
      <time>2026-05-08T15:00:47.761+02:00</time>
      <extensions>
        <activity type="IN_VEHICLE" conf="86" state="moving" tsMs="1778245254380"/>
        <radio op="vodafone IT" rat="LTE" q="41.80" rsrp="-106" sinr="17" rsrq="-7"/>
        <radio op="I TIM" rat="LTE" q="46.20" rsrp="-103" sinr="16" rsrq="-7"/>
      </extensions>
    </trkpt>
    <trkpt lat="45.6084198" lon="10.4757982">
      <ele>277.1681688825297</ele>
      <time>2026-05-08T15:01:26.639+02:00</time>
      <extensions>
        <activity type="UNKNOWN" conf="40" state="unknown" tsMs="1778245281334"/>
        <radio op="vodafone IT" rat="LTE" q="35.00" rsrp="-100" sinr="9" rsrq="-6"/>
        <radio op="I TIM" rat="LTE" q="58.80" rsrp="-97" sinr="16" rsrq="-7"/>
      </extensions>
    </trkpt>
    <trkpt lat="45.6090096" lon="10.4767782">
      <ele>277.1681688825297</ele>
      <time>2026-05-08T15:01:34.762+02:00</time>
      <extensions>
        <activity type="IN_VEHICLE" conf="91" state="moving" tsMs="1778245297037"/>
        <radio op="vodafone IT" rat="LTE" q="14.40" rsrp="-113" sinr="7" rsrq="-12"/>
        <radio op="I TIM" rat="LTE" q="13.60" rsrp="-108" sinr="3" rsrq="-11"/>
      </extensions>
    </trkpt>
    <trkpt lat="45.611976" lon="10.4807651">
      <ele>275.5977470500717</ele>
      <time>2026-05-08T15:02:08.603+02:00</time>
      <extensions>
        <activity type="IN_VEHICLE" conf="92" state="moving" tsMs="1778245323976"/>
        <radio op="vodafone IT" rat="LTE" q="24.00" rsrp="-109" sinr="10" rsrq="-9"/>
        <radio op="I TIM" rat="LTE" rsrp="-114" rsrq="-9"/>
      </extensions>
    </trkpt>
    <trkpt lat="45.6139404" lon="10.4822887">
      <ele>280.4606188675817</ele>
      <time>2026-05-08T15:02:44.762+02:00</time>
      <extensions>
        <activity type="UNKNOWN" conf="40" state="unknown" tsMs="1778245359408"/>
        <radio op="vodafone IT" rat="LTE" q="33.00" rsrp="-103" sinr="10" rsrq="-13"/>
        <radio op="I TIM" rat="LTE" rsrp="-119" rsrq="-15"/>
      </extensions>
    </trkpt>
    <trkpt lat="45.6199964" lon="10.4842092">
      <ele>285.27525651273044</ele>
      <time>2026-05-08T15:03:26.762+02:00</time>
      <extensions>
        <activity type="IN_VEHICLE" conf="95" state="moving" tsMs="1778245399461"/>
        <radio op="vodafone IT" rat="LTE" q="15.00" rsrp="-110" sinr="5" rsrq="-14"/>
        <radio op="I TIM" rat="LTE" q="7.70" rsrp="-114" sinr="2" rsrq="-14"/>
      </extensions>
    </trkpt>
    <trkpt lat="45.6235556" lon="10.4932687">
      <ele>286.43312543840443</ele>
      <time>2026-05-08T15:04:17.762+02:00</time>
      <extensions>
        <activity type="IN_VEHICLE" conf="94" state="moving" tsMs="1778245456240"/>
        <radio op="vodafone IT" rat="LTE" q="5.50" rsrp="-114" sinr="0" rsrq="-13"/>
        <radio op="I TIM" rat="LTE" q="7.00" rsrp="-118" sinr="5" rsrq="-12"/>
      </extensions>
    </trkpt>
    <trkpt lat="45.6237741" lon="10.4935193">
      <ele>278.6000061035156</ele>
      <time>2026-05-08T15:04:47.181+02:00</time>
      <extensions>
        <activity type="IN_VEHICLE" conf="86" state="moving" tsMs="1778245489174"/>
        <radio op="vodafone IT" rat="LTE" q="13.00" rsrp="-112" sinr="5" rsrq="-12"/>
        <radio op="I TIM" rat="LTE" q="10.40" rsrp="-117" sinr="8" rsrq="-12"/>
      </extensions>
    </trkpt>
    <trkpt lat="45.6238198" lon="10.4932874">
      <ele>279.63473444938717</ele>
      <time>2026-05-08T15:05:18.731+02:00</time>
      <extensions>
        <activity type="TILTING" conf="100" state="moving" tsMs="1778245515853"/>
        <radio op="vodafone IT" rat="LTE" q="9.50" rsrp="-106" sinr="0" rsrq="-10"/>
        <radio op="I TIM" rat="LTE" q="22.40" rsrp="-109" sinr="9" rsrq="-11"/>
      </extensions>
    </trkpt>
    <trkpt lat="45.6237029" lon="10.492923">
      <ele>279.9107281305022</ele>
      <time>2026-05-08T15:05:52.979+02:00</time>
      <extensions>
        <activity type="ON_FOOT" conf="97" state="moving" tsMs="1778245550596"/>
        <radio op="vodafone IT" rat="LTE" q="11.70" rsrp="-112" sinr="4" rsrq="-12"/>
        <radio op="I TIM" rat="LTE" q="24.00" rsrp="-110" sinr="11" rsrq="-10"/>
      </extensions>
    </trkpt>
    <trkpt lat="45.6237947" lon="10.4927194">
      <ele>281.3014464329691</ele>
      <time>2026-05-08T15:06:26.048+02:00</time>
      <extensions>
        <activity type="UNKNOWN" conf="40" state="unknown" tsMs="1778245583696"/>
        <radio op="vodafone IT" rat="LTE" q="5.60" rsrp="-117" sinr="2" rsrq="-10"/>
        <radio op="I TIM" rat="LTE" q="18.20" rsrp="-112" sinr="9" rsrq="-20"/>
      </extensions>
    </trkpt>
    <trkpt lat="45.6238161" lon="10.4926928">
      <ele>287.0</ele>
      <time>2026-05-08T15:07:03.682+02:00</time>
      <extensions>
        <activity type="ON_FOOT" conf="90" state="moving" tsMs="1778245622218"/>
        <radio op="vodafone IT" rat="LTE" q="8.00" rsrp="-117" sinr="5" rsrq="-11"/>
        <radio op="I TIM" rat="LTE" q="16.80" rsrp="-113" sinr="9" rsrq="-12"/>
      </extensions>
    </trkpt>
    <trkpt lat="45.623795" lon="10.4927304">
      <ele>291.9974066727993</ele>
      <time>2026-05-08T15:07:35.731+02:00</time>
      <extensions>
        <activity type="ON_FOOT" conf="82" state="moving" tsMs="1778245654496"/>
        <radio op="vodafone IT" rat="LTE" q="8.40" rsrp="-119" sinr="9" rsrq="-13"/>
        <radio op="I TIM" rat="LTE" q="7.20" rsrp="-117" sinr="4" rsrq="-13"/>
      </extensions>
    </trkpt>
    <trkpt lat="45.6238379" lon="10.4926966">
      <ele>291.62375762602846</ele>
      <time>2026-05-08T15:08:16.868+02:00</time>
      <extensions>
        <activity type="UNKNOWN" conf="40" state="unknown" tsMs="1778245693776"/>
        <radio op="vodafone IT" rat="LTE" q="8.10" rsrp="-116" sinr="4" rsrq="-14"/>
        <radio op="I TIM" rat="LTE" q="6.60" rsrp="-119" sinr="6" rsrq="-14"/>
      </extensions>
    </trkpt>
    <trkpt lat="45.6238" lon="10.4927336">
      <ele>291.06918686097345</ele>
      <time>2026-05-08T15:08:49.223+02:00</time>
      <extensions>
        <activity type="UNKNOWN" conf="40" state="unknown" tsMs="1778245723115"/>
        <radio op="vodafone IT" rat="LTE" q="7.80" rsrp="-119" sinr="8" rsrq="-11"/>
        <radio op="I TIM" rat="LTE" q="6.40" rsrp="-117" sinr="3" rsrq="-13"/>
      </extensions>
    </trkpt>
    <trkpt lat="45.623799" lon="10.4927332">
      <ele>291.1691076406271</ele>
      <time>2026-05-08T15:09:34.228+02:00</time>
      <extensions>
        <activity type="STILL" conf="99" state="still" tsMs="1778245768829"/>
        <radio op="vodafone IT" rat="LTE" rsrp="-119" rsrq="-14"/>
        <radio op="I TIM" rat="LTE" q="7.00" rsrp="-118" sinr="5" rsrq="-13"/>
      </extensions>
    </trkpt>
    <trkpt lat="45.6238071" lon="10.492729">
      <ele>290.1112246294671</ele>
      <time>2026-05-08T15:10:07.712+02:00</time>
      <extensions>
        <activity type="STILL" conf="99" state="still" tsMs="1778245806591"/>
        <radio op="vodafone IT" rat="LTE" q="6.60" rsrp="-119" sinr="6" rsrq="-12"/>
        <radio op="I TIM" rat="LTE" q="6.30" rsrp="-118" sinr="4" rsrq="-13"/>
      </extensions>
    </trkpt>
    <trkpt lat="45.6238168" lon="10.4927248">
      <ele>283.49235724905975</ele>
      <time>2026-05-08T16:19:06.221+02:00</time>
      <extensions>
        <activity type="ON_FOOT" conf="84" state="moving" tsMs="1778249946204"/>
        <radio op="vodafone IT" rat="LTE" q="7.20" rsrp="-117" sinr="4" rsrq="-12"/>
        <radio op="I TIM" rat="LTE" q="9.10" rsrp="-118" sinr="8" rsrq="-13"/>
      </extensions>
    </trkpt>
    <trkpt lat="45.6238191" lon="10.4927166">
      <ele>287.0</ele>
      <time>2026-05-08T16:19:37.447+02:00</time>
      <extensions>
        <activity type="UNKNOWN" conf="40" state="unknown" tsMs="1778249977197"/>
        <radio op="vodafone IT" rat="LTE" q="7.80" rsrp="-119" sinr="8" rsrq="-13"/>
        <radio op="I TIM" rat="LTE" q="2.50" rsrp="-120" sinr="0" rsrq="-13"/>
      </extensions>
    </trkpt>
    <trkpt lat="45.6238326" lon="10.4926962">
      <ele>287.0</ele>
      <time>2026-05-08T16:20:49.831+02:00</time>
      <extensions>
        <activity type="STILL" conf="99" state="still" tsMs="1778250046565"/>
        <radio op="vodafone IT" rat="LTE" q="11.00" rsrp="-114" sinr="5" rsrq="-9"/>
        <radio op="I TIM" rat="LTE" q="6.30" rsrp="-116" sinr="2" rsrq="-13"/>
      </extensions>
    </trkpt>
    <trkpt lat="45.6238319" lon="10.4927047">
      <ele>286.8000183105469</ele>
      <time>2026-05-08T16:22:12.912+02:00</time>
      <extensions>
        <activity type="STILL" conf="53" state="still" tsMs="1778250132209"/>
        <radio op="vodafone IT" rat="LTE" q="9.60" rsrp="-119" sinr="11" rsrq="-13"/>
        <radio op="I TIM" rat="LTE" rsrp="-117" rsrq="-12"/>
      </extensions>
    </trkpt>
    <trkpt lat="45.6237981" lon="10.4927283">
      <ele>286.8000183105469</ele>
      <time>2026-05-08T16:39:53.264+02:00</time>
      <extensions>
        <activity type="TILTING" conf="100" state="moving" tsMs="1778251192574"/>
        <radio op="vodafone IT" rat="LTE" q="19.80" rsrp="-103" sinr="4" rsrq="-11"/>
        <radio op="I TIM" rat="LTE" q="19.50" rsrp="-110" sinr="8" rsrq="-13"/>
      </extensions>
    </trkpt>
    <trkpt lat="45.6238166" lon="10.492712">
      <ele>287.0</ele>
      <time>2026-05-08T16:40:24.928+02:00</time>
      <extensions>
        <activity type="STILL" conf="99" state="still" tsMs="1778251223232"/>
        <radio op="vodafone IT" rat="LTE" q="5.60" rsrp="-118" sinr="3" rsrq="-10"/>
        <radio op="I TIM" rat="LTE" q="27.00" rsrp="-107" sinr="10" rsrq="-12"/>
      </extensions>
    </trkpt>
    <trkpt lat="45.6238158" lon="10.4927112">
      <ele>287.0</ele>
      <time>2026-05-08T16:40:56.353+02:00</time>
      <extensions>
        <activity type="STILL" conf="99" state="still" tsMs="1778251252528"/>
        <radio op="vodafone IT" rat="LTE" q="5.60" rsrp="-118" sinr="3" rsrq="-12"/>
        <radio op="I TIM" rat="LTE" q="23.40" rsrp="-107" sinr="8" rsrq="-12"/>
      </extensions>
    </trkpt>
    <trkpt lat="45.6238283" lon="10.4927066">
      <ele>287.0</ele>
      <time>2026-05-08T16:41:27.733+02:00</time>
      <extensions>
        <activity type="STILL" conf="99" state="still" tsMs="1778251282234"/>
        <radio op="vodafone IT" rat="LTE" q="6.30" rsrp="-118" sinr="4" rsrq="-12"/>
        <radio op="I TIM" rat="LTE" q="25.20" rsrp="-107" sinr="9" rsrq="-11"/>
      </extensions>
    </trkpt>
    <trkpt lat="45.6238382" lon="10.492693">
      <ele>287.0</ele>
      <time>2026-05-08T16:41:59.13+02:00</time>
      <extensions>
        <activity type="STILL" conf="99" state="still" tsMs="1778251318275"/>
        <radio op="vodafone IT" rat="LTE" q="6.40" rsrp="-117" sinr="3" rsrq="-11"/>
        <radio op="I TIM" rat="LTE" q="19.20" rsrp="-109" sinr="7" rsrq="-13"/>
      </extensions>
    </trkpt>
    <trkpt lat="45.6238184" lon="10.4927027">
      <ele>287.0</ele>
      <time>2026-05-08T16:42:30.603+02:00</time>
      <extensions>
        <activity type="STILL" conf="99" state="still" tsMs="1778251347430"/>
        <radio op="vodafone IT" rat="LTE" q="4.80" rsrp="-119" sinr="3" rsrq="-13"/>
        <radio op="I TIM" rat="LTE" q="16.00" rsrp="-109" sinr="5" rsrq="-13"/>
      </extensions>
    </trkpt>
    <trkpt lat="45.6238316" lon="10.4927033">
      <ele>287.0</ele>
      <time>2026-05-08T16:43:02.032+02:00</time>
      <extensions>
        <activity type="STILL" conf="99" state="still" tsMs="1778251377720"/>
        <radio op="vodafone IT" rat="LTE" q="5.60" rsrp="-118" sinr="3" rsrq="-13"/>
        <radio op="I TIM" rat="LTE" q="23.40" rsrp="-107" sinr="8" rsrq="-11"/>
      </extensions>
    </trkpt>
    <trkpt lat="45.6236549" lon="10.4930623">
      <ele>277.1293601203022</ele>
      <time>2026-05-08T18:03:01.547+02:00</time>
      <extensions>
        <activity type="UNKNOWN" conf="40" state="unknown" tsMs="1778256177815"/>
        <radio op="vodafone IT" rat="LTE" q="14.40" rsrp="-107" sinr="3" rsrq="-9"/>
        <radio op="I TIM" rat="LTE" q="27.00" rsrp="-110" sinr="13" rsrq="-13"/>
      </extensions>
    </trkpt>
    <trkpt lat="45.6237919" lon="10.4934722">
      <ele>278.4000244140625</ele>
      <time>2026-05-08T18:03:32.802+02:00</time>
      <extensions>
        <activity type="ON_FOOT" conf="97" state="moving" tsMs="1778256209717"/>
        <radio op="vodafone IT" rat="LTE" q="27.20" rsrp="-108" sinr="11" rsrq="-10"/>
        <radio op="I TIM" rat="LTE" q="18.00" rsrp="-107" sinr="5" rsrq="-13"/>
      </extensions>
    </trkpt>
    <trkpt lat="45.6238301" lon="10.4934939">
      <ele>278.4000244140625</ele>
      <time>2026-05-08T18:04:04.053+02:00</time>
      <extensions>
        <activity type="UNKNOWN" conf="40" state="unknown" tsMs="1778256241078"/>
        <radio op="vodafone IT" rat="LTE" q="5.40" rsrp="-116" sinr="1" rsrq="-14"/>
        <radio op="I TIM" rat="LTE" q="14.00" rsrp="-115" sinr="9" rsrq="-12"/>
      </extensions>
    </trkpt>
    <trkpt lat="45.6233873" lon="10.4918602">
      <ele>283.1206000038612</ele>
      <time>2026-05-08T18:04:35.276+02:00</time>
      <extensions>
        <activity type="IN_VEHICLE" conf="96" state="moving" tsMs="1778256272216"/>
        <radio op="vodafone IT" rat="LTE" q="8.10" rsrp="-116" sinr="4" rsrq="-13"/>
        <radio op="I TIM" rat="LTE" q="18.00" rsrp="-113" sinr="10" rsrq="-13"/>
      </extensions>
    </trkpt>
    <trkpt lat="45.6201325" lon="10.4851116">
      <ele>288.6000061035156</ele>
      <time>2026-05-08T18:05:15.119+02:00</time>
      <extensions>
        <activity type="IN_VEHICLE" conf="97" state="moving" tsMs="1778256317726"/>
        <radio op="vodafone IT" rat="LTE" rsrp="-118" rsrq="-16"/>
        <radio op="I TIM" rat="LTE" rsrp="-125" rsrq="-16"/>
      </extensions>
    </trkpt>
    <trkpt lat="45.6138014" lon="10.482063">
      <ele>283.70468384603294</ele>
      <time>2026-05-08T18:05:56.118+02:00</time>
      <extensions>
        <activity type="IN_VEHICLE" conf="96" state="moving" tsMs="1778256350001"/>
        <radio op="vodafone IT" rat="LTE" q="6.00" rsrp="-119" sinr="5" rsrq="-13"/>
        <radio op="I TIM" rat="LTE" rsrp="-124" rsrq="-17"/>
      </extensions>
    </trkpt>
    <trkpt lat="45.6120657" lon="10.480965">
      <ele>272.6000061035156</ele>
      <time>2026-05-08T18:06:32.674+02:00</time>
      <extensions>
        <activity type="IN_VEHICLE" conf="91" state="moving" tsMs="1778256392119"/>
        <radio op="vodafone IT" rat="LTE" q="26.00" rsrp="-105" sinr="8" rsrq="-10"/>
        <radio op="I TIM" rat="LTE" q="8.00" rsrp="-117" sinr="5" rsrq="-13"/>
      </extensions>
    </trkpt>
    <trkpt lat="45.6119507" lon="10.4808046">
      <ele>272.6000061035156</ele>
      <time>2026-05-08T18:06:39.119+02:00</time>
      <extensions>
        <activity type="IN_VEHICLE" conf="91" state="moving" tsMs="1778256392119"/>
        <radio op="vodafone IT" rat="LTE" q="14.30" rsrp="-112" sinr="6" rsrq="-12"/>
        <radio op="I TIM" rat="LTE" q="11.00" rsrp="-115" sinr="6" rsrq="-11"/>
      </extensions>
    </trkpt>
    <trkpt lat="45.611247" lon="10.47992">
      <ele>272.6000061035156</ele>
      <time>2026-05-08T18:06:51.119+02:00</time>
      <extensions>
        <activity type="UNKNOWN" conf="40" state="unknown" tsMs="1778256396540"/>
        <radio op="vodafone IT" rat="LTE" q="10.50" rsrp="-110" sinr="2" rsrq="-13"/>
        <radio op="I TIM" rat="LTE" q="25.50" rsrp="-108" sinr="10" rsrq="-9"/>
      </extensions>
    </trkpt>
    <trkpt lat="45.6093992" lon="10.4773027">
      <ele>272.6000061035156</ele>
      <time>2026-05-08T18:07:27.119+02:00</time>
      <extensions>
        <activity type="IN_VEHICLE" conf="90" state="moving" tsMs="1778256455392"/>
        <radio op="vodafone IT" rat="LTE" q="7.20" rsrp="-116" sinr="3" rsrq="-11"/>
        <radio op="I TIM" rat="LTE" q="30.60" rsrp="-107" sinr="12" rsrq="-10"/>
      </extensions>
    </trkpt>
    <trkpt lat="45.606593" lon="10.4691948">
      <ele>272.4000244140625</ele>
      <time>2026-05-08T18:08:41.119+02:00</time>
      <extensions>
        <activity type="IN_VEHICLE" conf="88" state="moving" tsMs="1778256540475"/>
        <radio op="vodafone IT" rat="LTE" q="85.00" rsrp="-91" sinr="25" rsrq="-6"/>
        <radio op="I TIM" rat="LTE" q="46.80" rsrp="-99" sinr="13" rsrq="-6"/>
      </extensions>
    </trkpt>
    <trkpt lat="45.604617" lon="10.4646555">
      <ele>272.4000244140625</ele>
      <time>2026-05-08T18:09:21.422+02:00</time>
      <extensions>
        <activity type="IN_VEHICLE" conf="84" state="moving" tsMs="1778256556627"/>
        <radio op="vodafone IT" rat="LTE" q="92.50" rsrp="-88" sinr="29" rsrq="-7"/>
        <radio op="I TIM" rat="LTE" q="17.60" rsrp="-103" sinr="3" rsrq="-9"/>
      </extensions>
    </trkpt>
    <trkpt lat="45.6049533" lon="10.4637604">
      <ele>272.4000244140625</ele>
      <time>2026-05-08T18:09:27.119+02:00</time>
      <extensions>
        <activity type="IN_VEHICLE" conf="88" state="moving" tsMs="1778256567225"/>
        <radio op="vodafone IT" rat="LTE" q="30.80" rsrp="-97" sinr="6" rsrq="-12"/>
        <radio op="I TIM" rat="LTE" q="41.60" rsrp="-93" sinr="8" rsrq="-8"/>
      </extensions>
    </trkpt>
    <trkpt lat="45.6041366" lon="10.4609612">
      <ele>266.70001220703125</ele>
      <time>2026-05-08T18:09:44.119+02:00</time>
      <extensions>
        <activity type="UNKNOWN" conf="40" state="unknown" tsMs="1778256582231"/>
        <radio op="vodafone IT" rat="LTE" q="75.00" rsrp="-95" sinr="24" rsrq="-10"/>
        <radio op="I TIM" rat="LTE" q="29.40" rsrp="-104" sinr="9" rsrq="-11"/>
      </extensions>
    </trkpt>
    <trkpt lat="45.6036631" lon="10.4593792">
      <ele>266.70001220703125</ele>
      <time>2026-05-08T18:09:54.119+02:00</time>
      <extensions>
        <activity type="IN_VEHICLE" conf="84" state="moving" tsMs="1778256593047"/>
        <radio op="vodafone IT" rat="LTE" q="87.50" rsrp="-90" sinr="30" rsrq="-11"/>
        <radio op="I TIM" rat="LTE" q="77.50" rsrp="-94" sinr="22" rsrq="-11"/>
      </extensions>
    </trkpt>
    <trkpt lat="45.6035413" lon="10.4590239">
      <ele>266.70001220703125</ele>
      <time>2026-05-08T18:09:57.118+02:00</time>
      <extensions>
        <activity type="UNKNOWN" conf="40" state="unknown" tsMs="1778256604058"/>
        <radio op="vodafone IT" rat="LTE" q="95.00" rsrp="-87" sinr="23" rsrq="-9"/>
        <radio op="I TIM" rat="LTE" q="85.00" rsrp="-91" sinr="25" rsrq="-9"/>
      </extensions>
    </trkpt>
    <trkpt lat="45.6025475" lon="10.4556392">
      <ele>262.0</ele>
      <time>2026-05-08T18:10:35.506+02:00</time>
      <extensions>
        <activity type="IN_VEHICLE" conf="87" state="moving" tsMs="1778256631025"/>
        <radio op="vodafone IT" rat="LTE" q="14.40" rsrp="-113" sinr="7" rsrq="-10"/>
        <radio op="I TIM" rat="LTE" q="10.50" rsrp="-110" sinr="2" rsrq="-12"/>
      </extensions>
    </trkpt>
    <trkpt lat="45.6023638" lon="10.4551054">
      <ele>262.0</ele>
      <time>2026-05-08T18:10:43.118+02:00</time>
      <extensions>
        <activity type="IN_VEHICLE" conf="90" state="moving" tsMs="1778256641360"/>
        <radio op="vodafone IT" rat="LTE" q="7.20" rsrp="-113" sinr="1" rsrq="-13"/>
        <radio op="I TIM" rat="LTE" q="8.40" rsrp="-111" sinr="1" rsrq="-15"/>
      </extensions>
    </trkpt>
    <trkpt lat="45.6016679" lon="10.4544735">
      <ele>261.3000183105469</ele>
      <time>2026-05-08T18:11:16.849+02:00</time>
      <extensions>
        <activity type="IN_VEHICLE" conf="83" state="moving" tsMs="1778256673724"/>
        <radio op="vodafone IT" rat="LTE" q="16.80" rsrp="-113" sinr="9" rsrq="-10"/>
        <radio op="I TIM" rat="LTE" q="20.80" rsrp="-109" sinr="8" rsrq="-10"/>
      </extensions>
    </trkpt>
    <trkpt lat="45.6021897" lon="10.4532435">
      <ele>259.29773175643265</ele>
      <time>2026-05-08T18:11:48.002+02:00</time>
      <extensions>
        <activity type="IN_VEHICLE" conf="97" state="moving" tsMs="1778256704263"/>
        <radio op="vodafone IT" rat="LTE" q="24.00" rsrp="-110" sinr="11" rsrq="-12"/>
        <radio op="I TIM" rat="LTE" q="12.80" rsrp="-109" sinr="3" rsrq="-13"/>
      </extensions>
    </trkpt>
    <trkpt lat="45.6022723" lon="10.4529535">
      <ele>261.3000183105469</ele>
      <time>2026-05-08T18:11:55.118+02:00</time>
      <extensions>
        <activity type="UNKNOWN" conf="40" state="unknown" tsMs="1778256713859"/>
        <radio op="vodafone IT" rat="LTE" q="12.00" rsrp="-115" sinr="7" rsrq="-10"/>
        <radio op="I TIM" rat="LTE" rsrp="-112" rsrq="-14"/>
      </extensions>
    </trkpt>
    <trkpt lat="45.6022895" lon="10.4534641">
      <ele>261.8000183105469</ele>
      <time>2026-05-08T18:12:29.417+02:00</time>
      <extensions>
        <activity type="ON_FOOT" conf="90" state="moving" tsMs="1778256728476"/>
        <radio op="vodafone IT" rat="LTE" q="25.50" rsrp="-110" sinr="12" rsrq="-11"/>
        <radio op="I TIM" rat="LTE" q="9.00" rsrp="-107" sinr="0" rsrq="-12"/>
      </extensions>
    </trkpt>
    <trkpt lat="45.6023199" lon="10.4535445">
      <ele>261.8000183105469</ele>
      <time>2026-05-08T18:12:35.119+02:00</time>
      <extensions>
        <activity type="ON_FOOT" conf="96" state="moving" tsMs="1778256755981"/>
        <radio op="vodafone IT" rat="LTE" q="15.60" rsrp="-112" sinr="7" rsrq="-12"/>
        <radio op="I TIM" rat="LTE" q="24.00" rsrp="-105" sinr="7" rsrq="-13"/>
      </extensions>
    </trkpt>
    <trkpt lat="45.6024093" lon="10.4536586">
      <ele>261.8000183105469</ele>
      <time>2026-05-08T18:12:49.118+02:00</time>
      <extensions>
        <activity type="ON_FOOT" conf="97" state="moving" tsMs="1778256766723"/>
        <radio op="vodafone IT" rat="LTE" q="30.60" rsrp="-107" sinr="12" rsrq="-10"/>
        <radio op="I TIM" rat="LTE" q="24.70" rsrp="-106" sinr="8" rsrq="-13"/>
      </extensions>
    </trkpt>
    <trkpt lat="45.6024138" lon="10.4536654">
      <ele>261.9000244140625</ele>
      <time>2026-05-08T18:12:50.041+02:00</time>
      <extensions>
        <activity type="ON_FOOT" conf="97" state="moving" tsMs="1778256766723"/>
        <radio op="vodafone IT" rat="LTE" q="19.20" rsrp="-109" sinr="7" rsrq="-10"/>
        <radio op="I TIM" rat="LTE" q="19.80" rsrp="-103" sinr="4" rsrq="-13"/>
      </extensions>
    </trkpt>
    <trkpt lat="45.6025558" lon="10.4536537">
      <ele>261.9000244140625</ele>
      <time>2026-05-08T18:13:21+02:00</time>
      <extensions>
        <activity type="UNKNOWN" conf="40" state="unknown" tsMs="1778256779402"/>
        <radio op="vodafone IT" rat="LTE" q="10.50" rsrp="-110" sinr="2" rsrq="-12"/>
        <radio op="I TIM" rat="LTE" q="8.40" rsrp="-118" sinr="7" rsrq="-11"/>
      </extensions>
    </trkpt>
    <trkpt lat="45.6025526" lon="10.4536578">
      <ele>261.9000244140625</ele>
      <time>2026-05-08T18:13:52.572+02:00</time>
      <extensions>
        <activity type="UNKNOWN" conf="40" state="unknown" tsMs="1778256832577"/>
        <radio op="vodafone IT" rat="LTE" q="15.30" rsrp="-108" sinr="4" rsrq="-14"/>
        <radio op="I TIM" rat="LTE" q="12.80" rsrp="-109" sinr="3" rsrq="-11"/>
      </extensions>
    </trkpt>
    <trkpt lat="45.6025483" lon="10.4536541">
      <ele>261.9000244140625</ele>
      <time>2026-05-08T18:14:24.008+02:00</time>
      <extensions>
        <activity type="UNKNOWN" conf="40" state="unknown" tsMs="1778256858740"/>
        <radio op="vodafone IT" rat="LTE" q="9.00" rsrp="-110" sinr="1" rsrq="-12"/>
        <radio op="I TIM" rat="LTE" q="11.00" rsrp="-114" sinr="5" rsrq="-13"/>
      </extensions>
    </trkpt>
    <trkpt lat="45.6025541" lon="10.4536571">
      <ele>261.9000244140625</ele>
      <time>2026-05-08T18:14:55.541+02:00</time>
      <extensions>
        <activity type="UNKNOWN" conf="40" state="unknown" tsMs="1778256867546"/>
        <radio op="vodafone IT" rat="LTE" rsrp="-119" rsrq="-16"/>
        <radio op="I TIM" rat="LTE" q="2.00" rsrp="-121" sinr="0" rsrq="-13"/>
      </extensions>
    </trkpt>
    <trkpt lat="45.6025503" lon="10.4536578">
      <ele>261.9000244140625</ele>
      <time>2026-05-08T18:15:27.077+02:00</time>
      <extensions>
        <activity type="STILL" conf="100" state="still" tsMs="1778256916692"/>
        <radio op="vodafone IT" rat="LTE" q="11.00" rsrp="-115" sinr="6" rsrq="-12"/>
        <radio op="I TIM" rat="LTE" rsrp="-117" rsrq="-12"/>
      </extensions>
    </trkpt>
    <trkpt lat="45.6025534" lon="10.4536588">
      <ele>261.9000244140625</ele>
      <time>2026-05-08T18:15:58.593+02:00</time>
      <extensions>
        <activity type="STILL" conf="99" state="still" tsMs="1778256955436"/>
        <radio op="vodafone IT" rat="LTE" q="11.00" rsrp="-114" sinr="5" rsrq="-12"/>
        <radio op="I TIM" rat="LTE" rsrp="-119" rsrq="-15"/>
      </extensions>
    </trkpt>
  </trkseg></trk>
</gpx>
