<?xml version="1.0" encoding="UTF-8"?>
<gpx version="1.1" creator="CellGPX" xmlns="http://www.topografix.com/GPX/1/1">
  <trk><name>CellGPX</name><trkseg>
    <trkpt lat="45.6025531" lon="10.4536481">
      <ele>262.0</ele>
      <time>2026-04-22T07:20:48.908+02:00</time>
      <extensions>
        <activity type="STILL" conf="100" state="still" tsMs="1776835238578"/>
        <radio op="vodafone IT" rat="LTE" q="28.00" rsrp="-105" sinr="9" rsrq="-7"/>
        <radio op="I TIM" rat="LTE" q="40.80" rsrp="-101" sinr="12" rsrq="-9"/>
      </extensions>
    </trkpt>
    <trkpt lat="45.6008028" lon="10.4528715">
      <ele>261.3000183105469</ele>
      <time>2026-04-22T11:28:29.572+02:00</time>
      <extensions>
        <activity type="STILL" conf="77" state="still" tsMs="1776850129412"/>
        <radio op="vodafone IT" rat="LTE" q="14.30" rsrp="-112" sinr="6" rsrq="-8"/>
        <radio op="I TIM" rat="LTE" q="27.30" rsrp="-104" sinr="8" rsrq="-11"/>
      </extensions>
    </trkpt>
    <trkpt lat="45.6008021" lon="10.4528704">
      <ele>261.3000183105469</ele>
      <time>2026-04-22T11:29:00.877+02:00</time>
      <extensions>
        <activity type="STILL" conf="98" state="still" tsMs="1776850140113"/>
        <radio op="vodafone IT" rat="LTE" q="14.30" rsrp="-112" sinr="6" rsrq="-7"/>
        <radio op="I TIM" rat="LTE" q="33.00" rsrp="-103" sinr="10" rsrq="-11"/>
      </extensions>
    </trkpt>
    <trkpt lat="45.6008167" lon="10.452876">
      <ele>261.3000183105469</ele>
      <time>2026-04-22T11:29:32.135+02:00</time>
      <extensions>
        <activity type="UNKNOWN" conf="40" state="unknown" tsMs="1776850172222"/>
        <radio op="vodafone IT" rat="LTE" q="25.50" rsrp="-110" sinr="12" rsrq="-11"/>
        <radio op="I TIM" rat="LTE" q="37.80" rsrp="-104" sinr="13" rsrq="-9"/>
      </extensions>
    </trkpt>
    <trkpt lat="45.6008075" lon="10.4528697">
      <ele>261.3000183105469</ele>
      <time>2026-04-22T11:30:03.269+02:00</time>
      <extensions>
        <activity type="STILL" conf="96" state="still" tsMs="1776850200322"/>
        <radio op="vodafone IT" rat="LTE" q="12.60" rsrp="-111" sinr="4" rsrq="-8"/>
        <radio op="I TIM" rat="LTE" q="29.40" rsrp="-104" sinr="9" rsrq="-12"/>
      </extensions>
    </trkpt>
    <trkpt lat="45.6008116" lon="10.4528674">
      <ele>261.3000183105469</ele>
      <time>2026-04-22T11:30:34.47+02:00</time>
      <extensions>
        <activity type="UNKNOWN" conf="40" state="unknown" tsMs="1776850231084"/>
        <radio op="vodafone IT" rat="LTE" q="18.20" rsrp="-111" sinr="8" rsrq="-7"/>
        <radio op="I TIM" rat="LTE" q="26.40" rsrp="-103" sinr="7" rsrq="-11"/>
      </extensions>
    </trkpt>
    <trkpt lat="45.600806" lon="10.4528699">
      <ele>261.3000183105469</ele>
      <time>2026-04-22T11:31:05.716+02:00</time>
      <extensions>
        <activity type="STILL" conf="98" state="still" tsMs="1776850262401"/>
        <radio op="vodafone IT" rat="LTE" q="15.60" rsrp="-112" sinr="7" rsrq="-12"/>
        <radio op="I TIM" rat="LTE" q="35.20" rsrp="-103" sinr="11" rsrq="-11"/>
      </extensions>
    </trkpt>
    <trkpt lat="45.6008142" lon="10.4528727">
      <ele>261.3000183105469</ele>
      <time>2026-04-22T11:31:36.87+02:00</time>
      <extensions>
        <activity type="UNKNOWN" conf="40" state="unknown" tsMs="1776850292627"/>
        <radio op="vodafone IT" rat="LTE" q="12.00" rsrp="-113" sinr="5" rsrq="-12"/>
        <radio op="I TIM" rat="LTE" q="27.30" rsrp="-104" sinr="8" rsrq="-8"/>
      </extensions>
    </trkpt>
    <trkpt lat="45.6010254" lon="10.4533637">
      <ele>260.8000183105469</ele>
      <time>2026-04-22T11:44:27.175+02:00</time>
      <extensions>
        <activity type="ON_FOOT" conf="95" state="moving" tsMs="1776851091138"/>
        <radio op="vodafone IT" rat="LTE" q="38.50" rsrp="-90" sinr="6" rsrq="-11"/>
        <radio op="I TIM" rat="LTE" q="43.20" rsrp="-98" sinr="11" rsrq="-12"/>
      </extensions>
    </trkpt>
    <trkpt lat="45.6014862" lon="10.4536382">
      <ele>260.9000244140625</ele>
      <time>2026-04-22T11:45:17.816+02:00</time>
      <extensions>
        <activity type="ON_FOOT" conf="97" state="moving" tsMs="1776851113137"/>
        <radio op="vodafone IT" rat="LTE" q="33.00" rsrp="-92" sinr="5" rsrq="-8"/>
        <radio op="I TIM" rat="LTE" q="20.30" rsrp="-96" sinr="2" rsrq="-13"/>
      </extensions>
    </trkpt>
    <trkpt lat="45.6021071" lon="10.453427">
      <ele>261.70001220703125</ele>
      <time>2026-04-22T11:45:58.895+02:00</time>
      <extensions>
        <activity type="ON_FOOT" conf="93" state="moving" tsMs="1776851158134"/>
        <radio op="vodafone IT" rat="LTE" q="46.20" rsrp="-104" sinr="17" rsrq="-9"/>
        <radio op="I TIM" rat="LTE" q="42.00" rsrp="-95" sinr="9" rsrq="-10"/>
      </extensions>
    </trkpt>
    <trkpt lat="45.6023662" lon="10.453657">
      <ele>265.31170925646927</ele>
      <time>2026-04-22T11:46:31.469+02:00</time>
      <extensions>
        <activity type="ON_FOOT" conf="90" state="moving" tsMs="1776851191548"/>
        <radio op="vodafone IT" rat="LTE" q="12.00" rsrp="-115" sinr="7" rsrq="-12"/>
        <radio op="I TIM" rat="LTE" q="39.90" rsrp="-106" sinr="16" rsrq="-12"/>
      </extensions>
    </trkpt>
    <trkpt lat="45.6025531" lon="10.4536494">
      <ele>262.0</ele>
      <time>2026-04-22T11:47:18.914+02:00</time>
      <extensions>
        <activity type="ON_FOOT" conf="91" state="moving" tsMs="1776851236357"/>
        <radio op="vodafone IT" rat="LTE" q="7.20" rsrp="-116" sinr="3" rsrq="-10"/>
        <radio op="I TIM" rat="LTE" q="4.40" rsrp="-121" sinr="6" rsrq="-13"/>
      </extensions>
    </trkpt>
    <trkpt lat="45.6025502" lon="10.4536481">
      <ele>262.0</ele>
      <time>2026-04-22T11:48:14.995+02:00</time>
      <extensions>
        <activity type="UNKNOWN" conf="40" state="unknown" tsMs="1776851290141"/>
        <radio op="vodafone IT" rat="LTE" q="6.40" rsrp="-117" sinr="3" rsrq="-10"/>
        <radio op="I TIM" rat="LTE" q="6.60" rsrp="-114" sinr="1" rsrq="-13"/>
      </extensions>
    </trkpt>
    <trkpt lat="45.6025534" lon="10.4536526">
      <ele>262.0</ele>
      <time>2026-04-22T11:49:06.424+02:00</time>
      <extensions>
        <activity type="UNKNOWN" conf="40" state="unknown" tsMs="1776851346552"/>
        <radio op="vodafone IT" rat="LTE" rsrp="-115" rsrq="-15"/>
        <radio op="I TIM" rat="LTE" q="10.80" rsrp="-113" sinr="4" rsrq="-11"/>
      </extensions>
    </trkpt>
    <trkpt lat="45.6025526" lon="10.4536501">
      <ele>262.0</ele>
      <time>2026-04-22T11:50:04.074+02:00</time>
      <extensions>
        <activity type="STILL" conf="98" state="still" tsMs="1776851384534"/>
        <radio op="vodafone IT" rat="LTE" q="10.80" rsrp="-116" sinr="7" rsrq="-10"/>
        <radio op="I TIM" rat="LTE" q="16.80" rsrp="-113" sinr="9" rsrq="-14"/>
      </extensions>
    </trkpt>
    <trkpt lat="45.6025564" lon="10.4537488">
      <ele>262.0</ele>
      <time>2026-04-22T11:56:19.546+02:00</time>
      <extensions>
        <activity type="UNKNOWN" conf="40" state="unknown" tsMs="1776851765478"/>
        <radio op="vodafone IT" rat="LTE" q="24.00" rsrp="-95" sinr="3" rsrq="-14"/>
        <radio op="I TIM" rat="LTE" q="37.80" rsrp="-98" sinr="9" rsrq="-10"/>
      </extensions>
    </trkpt>
    <trkpt lat="45.6021927" lon="10.4533263">
      <ele>261.70001220703125</ele>
      <time>2026-04-22T11:57:05.821+02:00</time>
      <extensions>
        <activity type="ON_FOOT" conf="96" state="moving" tsMs="1776851824862"/>
        <radio op="vodafone IT" rat="LTE" q="22.00" rsrp="-105" sinr="6" rsrq="-14"/>
        <radio op="I TIM" rat="LTE" q="57.00" rsrp="-95" sinr="14" rsrq="-11"/>
      </extensions>
    </trkpt>
    <trkpt lat="45.6021802" lon="10.4530268">
      <ele>261.70001220703125</ele>
      <time>2026-04-22T11:57:36.409+02:00</time>
      <extensions>
        <activity type="ON_FOOT" conf="85" state="moving" tsMs="1776851858400"/>
        <radio op="vodafone IT" rat="LTE" q="37.40" rsrp="-103" sinr="12" rsrq="-8"/>
        <radio op="I TIM" rat="LTE" q="44.20" rsrp="-99" sinr="12" rsrq="-12"/>
      </extensions>
    </trkpt>
    <trkpt lat="45.6022903" lon="10.4534963">
      <ele>261.8000183105469</ele>
      <time>2026-04-22T11:58:09.779+02:00</time>
      <extensions>
        <activity type="IN_VEHICLE" conf="97" state="moving" tsMs="1776851885227"/>
        <radio op="vodafone IT" rat="LTE" q="19.20" rsrp="-109" sinr="7" rsrq="-8"/>
        <radio op="I TIM" rat="LTE" q="31.20" rsrp="-99" sinr="7" rsrq="-12"/>
      </extensions>
    </trkpt>
    <trkpt lat="45.6015948" lon="10.4544033">
      <ele>260.9000244140625</ele>
      <time>2026-04-22T11:58:41.113+02:00</time>
      <extensions>
        <activity type="IN_VEHICLE" conf="97" state="moving" tsMs="1776851917001"/>
        <radio op="vodafone IT" rat="LTE" q="33.60" rsrp="-104" sinr="11" rsrq="-10"/>
        <radio op="I TIM" rat="LTE" q="58.80" rsrp="-97" sinr="16" rsrq="-9"/>
      </extensions>
    </trkpt>
    <trkpt lat="45.602961" lon="10.4571307">
      <ele>263.3000183105469</ele>
      <time>2026-04-22T11:59:12.339+02:00</time>
      <extensions>
        <activity type="IN_VEHICLE" conf="97" state="moving" tsMs="1776851948397"/>
        <radio op="vodafone IT" rat="LTE" q="100.00" rsrp="-79" sinr="26" rsrq="-6"/>
        <radio op="I TIM" rat="LTE" q="11.90" rsrp="-108" sinr="2" rsrq="-14"/>
      </extensions>
    </trkpt>
    <trkpt lat="45.6031541" lon="10.4578766">
      <ele>263.3000183105469</ele>
      <time>2026-04-22T11:59:18.037+02:00</time>
      <extensions>
        <activity type="IN_VEHICLE" conf="97" state="moving" tsMs="1776851963501"/>
        <radio op="vodafone IT" rat="LTE" q="100.00" rsrp="-73" sinr="26" rsrq="-5"/>
        <radio op="I TIM" rat="LTE" q="8.00" rsrp="-109" sinr="0" rsrq="-14"/>
      </extensions>
    </trkpt>
    <trkpt lat="45.6037663" lon="10.4597447">
      <ele>263.3000183105469</ele>
      <time>2026-04-22T11:59:33.023+02:00</time>
      <extensions>
        <activity type="IN_VEHICLE" conf="97" state="moving" tsMs="1776851973508"/>
        <radio op="vodafone IT" rat="LTE" rsrp="-73" rsrq="-7"/>
        <radio op="I TIM" rat="LTE" rsrp="-111" rsrq="-14"/>
      </extensions>
    </trkpt>
    <trkpt lat="45.6039127" lon="10.4603735">
      <ele>264.20001220703125</ele>
      <time>2026-04-22T11:59:37.023+02:00</time>
      <extensions>
        <activity type="IN_VEHICLE" conf="97" state="moving" tsMs="1776851978899"/>
        <radio op="vodafone IT" rat="LTE" rsrp="-72" rsrq="-6"/>
        <radio op="I TIM" rat="LTE" rsrp="-109" rsrq="-14"/>
      </extensions>
    </trkpt>
    <trkpt lat="45.6046272" lon="10.4647029">
      <ele>268.6000061035156</ele>
      <time>2026-04-22T12:00:13.968+02:00</time>
      <extensions>
        <activity type="IN_VEHICLE" conf="97" state="moving" tsMs="1776852010990"/>
        <radio op="vodafone IT" rat="LTE" q="100.00" rsrp="-70" sinr="28" rsrq="-6"/>
        <radio op="I TIM" rat="LTE" rsrp="-109" rsrq="-16"/>
      </extensions>
    </trkpt>
    <trkpt lat="45.6054644" lon="10.4656036">
      <ele>268.6000061035156</ele>
      <time>2026-04-22T12:00:20.023+02:00</time>
      <extensions>
        <activity type="IN_VEHICLE" conf="97" state="moving" tsMs="1776852025145"/>
        <radio op="vodafone IT" rat="LTE" q="100.00" rsrp="-79" sinr="24" rsrq="-5"/>
        <radio op="I TIM" rat="LTE" q="19.20" rsrp="-101" sinr="3" rsrq="-10"/>
      </extensions>
    </trkpt>
    <trkpt lat="45.6078782" lon="10.4720831">
      <ele>273.0555689787301</ele>
      <time>2026-04-22T12:00:55.275+02:00</time>
      <extensions>
        <activity type="IN_VEHICLE" conf="97" state="moving" tsMs="1776852051955"/>
        <radio op="vodafone IT" rat="LTE" q="87.50" rsrp="-90" sinr="23" rsrq="-6"/>
        <radio op="I TIM" rat="LTE" q="26.40" rsrp="-103" sinr="7" rsrq="-9"/>
      </extensions>
    </trkpt>
    <trkpt lat="45.6077373" lon="10.473366">
      <ele>273.0555689787301</ele>
      <time>2026-04-22T12:01:01.025+02:00</time>
      <extensions>
        <activity type="IN_VEHICLE" conf="97" state="moving" tsMs="1776852066455"/>
        <radio op="vodafone IT" rat="LTE" q="100.00" rsrp="-85" sinr="25" rsrq="-5"/>
        <radio op="I TIM" rat="LTE" q="36.00" rsrp="-101" sinr="10" rsrq="-11"/>
      </extensions>
    </trkpt>
    <trkpt lat="45.6085414" lon="10.476018">
      <ele>266.6000061035156</ele>
      <time>2026-04-22T12:01:15.025+02:00</time>
      <extensions>
        <activity type="IN_VEHICLE" conf="97" state="moving" tsMs="1776852076134"/>
        <radio op="vodafone IT" rat="LTE" q="52.70" rsrp="-94" sinr="12" rsrq="-9"/>
        <radio op="I TIM" rat="LTE" rsrp="-120" rsrq="-18"/>
      </extensions>
    </trkpt>
    <trkpt lat="45.6085414" lon="10.476018">
      <ele>269.1000061035156</ele>
      <time>2026-04-22T12:01:15.663+02:00</time>
      <extensions>
        <activity type="IN_VEHICLE" conf="97" state="moving" tsMs="1776852081531"/>
        <radio op="vodafone IT" rat="LTE" q="62.70" rsrp="-92" sinr="14" rsrq="-8"/>
        <radio op="I TIM" rat="LTE" rsrp="-120" rsrq="-19"/>
      </extensions>
    </trkpt>
    <trkpt lat="45.6111174" lon="10.4797164">
      <ele>273.8000183105469</ele>
      <time>2026-04-22T12:01:55.024+02:00</time>
      <extensions>
        <activity type="IN_VEHICLE" conf="97" state="moving" tsMs="1776852123494"/>
        <radio op="vodafone IT" rat="LTE" q="87.50" rsrp="-90" sinr="22" rsrq="-12"/>
        <radio op="I TIM" rat="LTE" rsrp="-117" rsrq="-16"/>
      </extensions>
    </trkpt>
    <trkpt lat="45.6112906" lon="10.4816551">
      <ele>271.7857664651675</ele>
      <time>2026-04-22T12:02:28.351+02:00</time>
      <extensions>
        <activity type="IN_VEHICLE" conf="97" state="moving" tsMs="1776852144927"/>
        <radio op="vodafone IT" rat="LTE" rsrp="-103" rsrq="-15"/>
        <radio op="I TIM" rat="LTE" q="10.50" rsrp="-110" sinr="2" rsrq="-14"/>
      </extensions>
    </trkpt>
    <trkpt lat="45.6123199" lon="10.4868229">
      <ele>250.10000610351562</ele>
      <time>2026-04-22T12:02:59.698+02:00</time>
      <extensions>
        <activity type="IN_VEHICLE" conf="97" state="moving" tsMs="1776852175601"/>
        <radio op="vodafone IT" rat="LTE" q="28.00" rsrp="-84" sinr="2" rsrq="-10"/>
        <radio op="I TIM" rat="LTE" q="46.20" rsrp="-92" sinr="9" rsrq="-12"/>
      </extensions>
    </trkpt>
    <trkpt lat="45.6121219" lon="10.4898707">
      <ele>236.8103316883928</ele>
      <time>2026-04-22T12:03:31.002+02:00</time>
      <extensions>
        <activity type="IN_VEHICLE" conf="97" state="moving" tsMs="1776852206978"/>
        <radio op="vodafone IT" rat="LTE" q="39.10" rsrp="-102" sinr="12" rsrq="-13"/>
        <radio op="I TIM" rat="LTE" rsrp="-104" rsrq="-13"/>
      </extensions>
    </trkpt>
    <trkpt lat="45.6099158" lon="10.4959773">
      <ele>211.92758531272247</ele>
      <time>2026-04-22T12:04:06.025+02:00</time>
      <extensions>
        <activity type="IN_VEHICLE" conf="96" state="moving" tsMs="1776852253582"/>
        <radio op="vodafone IT" rat="LTE" rsrp="-104" rsrq="-12"/>
        <radio op="I TIM" rat="LTE" rsrp="-104" rsrq="-13"/>
      </extensions>
    </trkpt>
    <trkpt lat="45.6098679" lon="10.4995509">
      <ele>190.9167910108934</ele>
      <time>2026-04-22T12:04:45.485+02:00</time>
      <extensions>
        <activity type="IN_VEHICLE" conf="96" state="moving" tsMs="1776852285722"/>
        <radio op="vodafone IT" rat="LTE" q="59.50" rsrp="-90" sinr="12" rsrq="-10"/>
        <radio op="I TIM" rat="LTE" q="15.50" rsrp="-94" sinr="0" rsrq="-12"/>
      </extensions>
    </trkpt>
    <trkpt lat="45.609968" lon="10.4996798">
      <ele>194.40000915527344</ele>
      <time>2026-04-22T12:05:16.698+02:00</time>
      <extensions>
        <activity type="ON_FOOT" conf="96" state="moving" tsMs="1776852316880"/>
        <radio op="vodafone IT" rat="LTE" q="66.50" rsrp="-90" sinr="14" rsrq="-9"/>
        <radio op="I TIM" rat="LTE" q="17.00" rsrp="-91" sinr="0" rsrq="-10"/>
      </extensions>
    </trkpt>
    <trkpt lat="45.6099454" lon="10.4995521">
      <ele>196.20967841461083</ele>
      <time>2026-04-22T12:05:47.923+02:00</time>
      <extensions>
        <activity type="ON_FOOT" conf="95" state="moving" tsMs="1776852345114"/>
        <radio op="vodafone IT" rat="LTE" q="28.60" rsrp="-103" sinr="8" rsrq="-10"/>
        <radio op="I TIM" rat="LTE" rsrp="-102" rsrq="-15"/>
      </extensions>
    </trkpt>
    <trkpt lat="45.6098298" lon="10.4996282">
      <ele>194.00001525878906</ele>
      <time>2026-04-22T12:06:18.024+02:00</time>
      <extensions>
        <activity type="ON_FOOT" conf="82" state="moving" tsMs="1776852374016"/>
        <radio op="vodafone IT" rat="LTE" q="34.10" rsrp="-94" sinr="6" rsrq="-13"/>
        <radio op="I TIM" rat="LTE" rsrp="-93" rsrq="-15"/>
      </extensions>
    </trkpt>
    <trkpt lat="45.6098785" lon="10.4996764">
      <ele>194.00001525878906</ele>
      <time>2026-04-22T12:06:20.024+02:00</time>
      <extensions>
        <activity type="STILL" conf="98" state="still" tsMs="1776852379793"/>
        <radio op="vodafone IT" rat="LTE" q="57.00" rsrp="-87" sinr="10" rsrq="-8"/>
        <radio op="I TIM" rat="LTE" q="30.60" rsrp="-91" sinr="4" rsrq="-15"/>
      </extensions>
    </trkpt>
    <trkpt lat="45.6098815" lon="10.4996534">
      <ele>194.00001525878906</ele>
      <time>2026-04-22T12:06:59.516+02:00</time>
      <extensions>
        <activity type="STILL" conf="96" state="still" tsMs="1776852414942"/>
        <radio op="vodafone IT" rat="LTE" q="22.40" rsrp="-93" sinr="2" rsrq="-12"/>
        <radio op="I TIM" rat="LTE" rsrp="-86" rsrq="-14"/>
      </extensions>
    </trkpt>
    <trkpt lat="45.6099497" lon="10.4995739">
      <ele>194.00001525878906</ele>
      <time>2026-04-22T12:07:34.024+02:00</time>
      <extensions>
        <activity type="STILL" conf="51" state="still" tsMs="1776852459991"/>
        <radio op="vodafone IT" rat="LTE" q="48.00" rsrp="-85" sinr="7" rsrq="-7"/>
        <radio op="I TIM" rat="LTE" rsrp="-83" rsrq="-14"/>
      </extensions>
    </trkpt>
    <trkpt lat="45.6098929" lon="10.499629">
      <ele>194.00001525878906</ele>
      <time>2026-04-22T12:08:13.758+02:00</time>
      <extensions>
        <activity type="STILL" conf="46" state="still" tsMs="1776852492080"/>
        <radio op="vodafone IT" rat="LTE" rsrp="-88" rsrq="-10"/>
        <radio op="I TIM" rat="LTE" rsrp="-83" rsrq="-13"/>
      </extensions>
    </trkpt>
    <trkpt lat="45.6098926" lon="10.499639">
      <ele>194.00001525878906</ele>
      <time>2026-04-22T12:08:44.136+02:00</time>
      <extensions>
        <activity type="STILL" conf="96" state="still" tsMs="1776852525200"/>
        <radio op="vodafone IT" rat="LTE" q="33.30" rsrp="-88" sinr="4" rsrq="-10"/>
        <radio op="I TIM" rat="LTE" rsrp="-83" rsrq="-12"/>
      </extensions>
    </trkpt>
    <trkpt lat="45.6098946" lon="10.4996352">
      <ele>194.00001525878906</ele>
      <time>2026-04-22T12:09:17.44+02:00</time>
      <extensions>
        <activity type="STILL" conf="99" state="still" tsMs="1776852556391"/>
        <radio op="vodafone IT" rat="LTE" q="45.50" rsrp="-90" sinr="8" rsrq="-11"/>
        <radio op="I TIM" rat="LTE" q="24.00" rsrp="-85" sinr="1" rsrq="-17"/>
      </extensions>
    </trkpt>
    <trkpt lat="45.6099004" lon="10.4996542">
      <ele>194.00001525878906</ele>
      <time>2026-04-22T12:09:48.676+02:00</time>
      <extensions>
        <activity type="STILL" conf="99" state="still" tsMs="1776852585718"/>
        <radio op="vodafone IT" rat="LTE" q="48.00" rsrp="-85" sinr="7" rsrq="-11"/>
        <radio op="I TIM" rat="LTE" rsrp="-88" rsrq="-14"/>
      </extensions>
    </trkpt>
    <trkpt lat="45.6098925" lon="10.4996444">
      <ele>194.00001525878906</ele>
      <time>2026-04-22T12:10:19.781+02:00</time>
      <extensions>
        <activity type="STILL" conf="98" state="still" tsMs="1776852616579"/>
        <radio op="vodafone IT" rat="LTE" q="58.50" rsrp="-86" sinr="10" rsrq="-9"/>
        <radio op="I TIM" rat="LTE" rsrp="-87" rsrq="-17"/>
      </extensions>
    </trkpt>
    <trkpt lat="45.6098924" lon="10.4996303">
      <ele>194.00001525878906</ele>
      <time>2026-04-22T12:10:51.015+02:00</time>
      <extensions>
        <activity type="STILL" conf="98" state="still" tsMs="1776852647683"/>
        <radio op="vodafone IT" rat="LTE" q="76.00" rsrp="-84" sinr="14" rsrq="-9"/>
        <radio op="I TIM" rat="LTE" rsrp="-87" rsrq="-16"/>
      </extensions>
    </trkpt>
    <trkpt lat="45.6237883" lon="10.4934205">
      <ele>194.00001525878906</ele>
      <time>2026-04-22T13:36:16.028+02:00</time>
      <extensions>
        <activity type="STILL" conf="100" state="still" tsMs="1776857758734"/>
        <radio op="vodafone IT" rat="LTE" q="20.80" rsrp="-109" sinr="8" rsrq="-11"/>
        <radio op="I TIM" rat="LTE" q="23.80" rsrp="-108" sinr="9" rsrq="-12"/>
      </extensions>
    </trkpt>
    <trkpt lat="45.6238237" lon="10.4926975">
      <ele>194.00001525878906</ele>
      <time>2026-04-22T13:38:23.029+02:00</time>
      <extensions>
        <activity type="STILL" conf="100" state="still" tsMs="1776857894805"/>
        <radio op="vodafone IT" rat="LTE" q="7.70" rsrp="-118" sinr="6" rsrq="-10"/>
        <radio op="I TIM" rat="LTE" q="16.80" rsrp="-111" sinr="7" rsrq="-11"/>
      </extensions>
    </trkpt>
    <trkpt lat="45.6237907" lon="10.4927624">
      <ele>194.00001525878906</ele>
      <time>2026-04-22T13:38:28.029+02:00</time>
      <extensions>
        <activity type="STILL" conf="100" state="still" tsMs="1776857894805"/>
        <radio op="vodafone IT" rat="LTE" rsrp="-123" rsrq="-15"/>
        <radio op="I TIM" rat="LTE" rsrp="-125" rsrq="-15"/>
      </extensions>
    </trkpt>
    <trkpt lat="45.6238176" lon="10.4927064">
      <ele>285.1000061035156</ele>
      <time>2026-04-22T13:39:28.15+02:00</time>
      <extensions>
        <activity type="STILL" conf="100" state="still" tsMs="1776857955655"/>
        <radio op="vodafone IT" rat="LTE" q="25.20" rsrp="-104" sinr="7" rsrq="-13"/>
        <radio op="I TIM" rat="LTE" q="17.60" rsrp="-109" sinr="6" rsrq="-13"/>
      </extensions>
    </trkpt>
    <trkpt lat="45.623821" lon="10.4927035">
      <ele>285.1000061035156</ele>
      <time>2026-04-22T13:39:58.811+02:00</time>
      <extensions>
        <activity type="STILL" conf="100" state="still" tsMs="1776857972658"/>
        <radio op="vodafone IT" rat="LTE" q="14.00" rsrp="-115" sinr="9" rsrq="-12"/>
        <radio op="I TIM" rat="LTE" q="18.00" rsrp="-110" sinr="7" rsrq="-13"/>
      </extensions>
    </trkpt>
    <trkpt lat="45.6238033" lon="10.4927059">
      <ele>285.1000061035156</ele>
      <time>2026-04-22T15:41:00.182+02:00</time>
      <extensions>
        <activity type="IN_VEHICLE" conf="88" state="moving" tsMs="1776865259647"/>
        <radio op="vodafone IT" rat="LTE" q="2.40" rsrp="-122" sinr="3" rsrq="-13"/>
        <radio op="I TIM" rat="LTE" rsrp="-124" rsrq="-14"/>
      </extensions>
    </trkpt>
    <trkpt lat="45.6238189" lon="10.4926933">
      <ele>285.1000061035156</ele>
      <time>2026-04-22T15:41:31.813+02:00</time>
      <extensions>
        <activity type="STILL" conf="99" state="still" tsMs="1776865291301"/>
        <radio op="vodafone IT" rat="LTE" q="4.80" rsrp="-122" sinr="11" rsrq="-13"/>
        <radio op="I TIM" rat="LTE" rsrp="-124" rsrq="-13"/>
      </extensions>
    </trkpt>
    <trkpt lat="45.623824" lon="10.4926864">
      <ele>285.1000061035156</ele>
      <time>2026-04-22T15:42:03.415+02:00</time>
      <extensions>
        <activity type="IN_VEHICLE" conf="86" state="moving" tsMs="1776865317505"/>
        <radio op="vodafone IT" rat="LTE" q="4.00" rsrp="-121" sinr="5" rsrq="-13"/>
        <radio op="I TIM" rat="LTE" q="0.00" rsrp="-125" sinr="0" rsrq="-14"/>
      </extensions>
    </trkpt>
    <trkpt lat="45.6238266" lon="10.4926873">
      <ele>285.1000061035156</ele>
      <time>2026-04-22T15:43:30.2+02:00</time>
      <extensions>
        <activity type="STILL" conf="99" state="still" tsMs="1776865400249"/>
        <radio op="vodafone IT" rat="LTE" q="2.10" rsrp="-122" sinr="2" rsrq="-13"/>
        <radio op="I TIM" rat="LTE" rsrp="-127" rsrq="-14"/>
      </extensions>
    </trkpt>
    <trkpt lat="45.6238257" lon="10.492694">
      <ele>285.1000061035156</ele>
      <time>2026-04-22T16:04:47.13+02:00</time>
      <extensions>
        <activity type="IN_VEHICLE" conf="75" state="moving" tsMs="1776866684907"/>
        <radio op="vodafone IT" rat="LTE" q="8.00" rsrp="-120" sinr="11" rsrq="-10"/>
        <radio op="I TIM" rat="LTE" q="0.50" rsrp="-124" sinr="0" rsrq="-13"/>
      </extensions>
    </trkpt>
    <trkpt lat="45.6238277" lon="10.4926875">
      <ele>285.1000061035156</ele>
      <time>2026-04-22T16:05:53.783+02:00</time>
      <extensions>
        <activity type="STILL" conf="99" state="still" tsMs="1776866752264"/>
        <radio op="vodafone IT" rat="LTE" q="1.40" rsrp="-123" sinr="2" rsrq="-12"/>
        <radio op="I TIM" rat="LTE" rsrp="-124" rsrq="-13"/>
      </extensions>
    </trkpt>
    <trkpt lat="45.6238305" lon="10.4926818">
      <ele>285.1000061035156</ele>
      <time>2026-04-22T16:06:26.931+02:00</time>
      <extensions>
        <activity type="STILL" conf="99" state="still" tsMs="1776866781918"/>
        <radio op="vodafone IT" rat="LTE" q="2.40" rsrp="-122" sinr="3" rsrq="-11"/>
        <radio op="I TIM" rat="LTE" rsrp="-131" rsrq="-17"/>
      </extensions>
    </trkpt>
    <trkpt lat="45.6237903" lon="10.4926934">
      <ele>285.1000061035156</ele>
      <time>2026-04-22T16:33:30.298+02:00</time>
      <extensions>
        <activity type="IN_VEHICLE" conf="74" state="moving" tsMs="1776868404341"/>
        <radio op="vodafone IT" rat="LTE" q="7.00" rsrp="-120" sinr="9" rsrq="-13"/>
        <radio op="I TIM" rat="LTE" q="3.00" rsrp="-120" sinr="1" rsrq="-14"/>
      </extensions>
    </trkpt>
    <trkpt lat="45.6238055" lon="10.4927004">
      <ele>285.1000061035156</ele>
      <time>2026-04-22T16:34:03.768+02:00</time>
      <extensions>
        <activity type="STILL" conf="99" state="still" tsMs="1776868441327"/>
        <radio op="vodafone IT" rat="LTE" q="7.80" rsrp="-119" sinr="8" rsrq="-12"/>
        <radio op="I TIM" rat="LTE" q="3.00" rsrp="-119" sinr="0" rsrq="-13"/>
      </extensions>
    </trkpt>
    <trkpt lat="45.6238094" lon="10.4927013">
      <ele>285.1000061035156</ele>
      <time>2026-04-22T16:34:35.212+02:00</time>
      <extensions>
        <activity type="STILL" conf="99" state="still" tsMs="1776868471580"/>
        <radio op="vodafone IT" rat="LTE" q="13.30" rsrp="-118" sinr="14" rsrq="-11"/>
        <radio op="I TIM" rat="LTE" q="4.90" rsrp="-118" sinr="2" rsrq="-13"/>
      </extensions>
    </trkpt>
    <trkpt lat="45.6238214" lon="10.4927088">
      <ele>285.1000061035156</ele>
      <time>2026-04-22T16:35:08.168+02:00</time>
      <extensions>
        <activity type="STILL" conf="99" state="still" tsMs="1776868491308"/>
        <radio op="vodafone IT" rat="LTE" q="17.10" rsrp="-116" sinr="14" rsrq="-13"/>
        <radio op="I TIM" rat="LTE" q="6.60" rsrp="-119" sinr="6" rsrq="-12"/>
      </extensions>
    </trkpt>
    <trkpt lat="45.6238249" lon="10.4926933">
      <ele>285.1000061035156</ele>
      <time>2026-04-22T16:35:39.458+02:00</time>
      <extensions>
        <activity type="UNKNOWN" conf="40" state="unknown" tsMs="1776868539027"/>
        <radio op="vodafone IT" rat="LTE" q="6.00" rsrp="-115" sinr="1" rsrq="-10"/>
        <radio op="I TIM" rat="LTE" q="17.00" rsrp="-108" sinr="5" rsrq="-9"/>
      </extensions>
    </trkpt>
    <trkpt lat="45.6238132" lon="10.4927033">
      <ele>285.1000061035156</ele>
      <time>2026-04-22T16:36:10.928+02:00</time>
      <extensions>
        <activity type="STILL" conf="66" state="still" tsMs="1776868570428"/>
        <radio op="vodafone IT" rat="LTE" q="3.60" rsrp="-121" sinr="4" rsrq="-11"/>
        <radio op="I TIM" rat="LTE" q="9.10" rsrp="-112" sinr="2" rsrq="-11"/>
      </extensions>
    </trkpt>
    <trkpt lat="45.6263088" lon="10.4974048">
      <ele>285.1000061035156</ele>
      <time>2026-04-22T18:23:52.215+02:00</time>
      <extensions>
        <activity type="STILL" conf="100" state="still" tsMs="1776875029990"/>
        <radio op="vodafone IT" rat="LTE" q="28.80" rsrp="-107" sinr="11" rsrq="-11"/>
        <radio op="I TIM" rat="LTE" q="13.50" rsrp="-110" sinr="4" rsrq="-13"/>
      </extensions>
    </trkpt>
    <trkpt lat="45.6264132" lon="10.4971179">
      <ele>281.9000244140625</ele>
      <time>2026-04-22T18:25:09.647+02:00</time>
      <extensions>
        <activity type="STILL" conf="100" state="still" tsMs="1776875099277"/>
        <radio op="vodafone IT" rat="LTE" q="15.20" rsrp="-106" sinr="3" rsrq="-14"/>
        <radio op="I TIM" rat="LTE" q="9.00" rsrp="-110" sinr="1" rsrq="-11"/>
      </extensions>
    </trkpt>
    <trkpt lat="45.6261443" lon="10.4973948">
      <ele>282.0</ele>
      <time>2026-04-22T18:25:40.724+02:00</time>
      <extensions>
        <activity type="UNKNOWN" conf="40" state="unknown" tsMs="1776875114208"/>
        <radio op="vodafone IT" rat="LTE" q="22.00" rsrp="-105" sinr="6" rsrq="-13"/>
        <radio op="I TIM" rat="LTE" q="19.50" rsrp="-112" sinr="10" rsrq="-13"/>
      </extensions>
    </trkpt>
    <trkpt lat="45.6262524" lon="10.4972053">
      <ele>282.0</ele>
      <time>2026-04-22T18:26:29.546+02:00</time>
      <extensions>
        <activity type="UNKNOWN" conf="40" state="unknown" tsMs="1776875186123"/>
        <radio op="vodafone IT" rat="LTE" q="41.60" rsrp="-99" sinr="11" rsrq="-11"/>
        <radio op="I TIM" rat="LTE" rsrp="-112" rsrq="-15"/>
      </extensions>
    </trkpt>
    <trkpt lat="45.6261938" lon="10.4974576">
      <ele>282.0</ele>
      <time>2026-04-22T18:27:10.425+02:00</time>
      <extensions>
        <activity type="STILL" conf="49" state="still" tsMs="1776875230123"/>
        <radio op="vodafone IT" rat="LTE" q="19.00" rsrp="-106" sinr="5" rsrq="-9"/>
        <radio op="I TIM" rat="LTE" q="34.50" rsrp="-102" sinr="10" rsrq="-12"/>
      </extensions>
    </trkpt>
    <trkpt lat="45.6261293" lon="10.4972411">
      <ele>282.0</ele>
      <time>2026-04-22T18:27:48.878+02:00</time>
      <extensions>
        <activity type="UNKNOWN" conf="40" state="unknown" tsMs="1776875268251"/>
        <radio op="vodafone IT" rat="LTE" q="19.20" rsrp="-101" sinr="3" rsrq="-11"/>
        <radio op="I TIM" rat="LTE" q="19.50" rsrp="-110" sinr="8" rsrq="-12"/>
      </extensions>
    </trkpt>
    <trkpt lat="45.6262179" lon="10.4970322">
      <ele>282.0</ele>
      <time>2026-04-22T18:28:47.379+02:00</time>
      <extensions>
        <activity type="ON_FOOT" conf="84" state="moving" tsMs="1776875326120"/>
        <radio op="vodafone IT" rat="LTE" q="50.60" rsrp="-103" sinr="18" rsrq="-11"/>
        <radio op="I TIM" rat="LTE" q="27.30" rsrp="-104" sinr="8" rsrq="-12"/>
      </extensions>
    </trkpt>
    <trkpt lat="45.6262568" lon="10.497009">
      <ele>282.0</ele>
      <time>2026-04-22T18:29:28.982+02:00</time>
      <extensions>
        <activity type="UNKNOWN" conf="40" state="unknown" tsMs="1776875365116"/>
        <radio op="vodafone IT" rat="LTE" q="28.90" rsrp="-108" sinr="12" rsrq="-9"/>
        <radio op="I TIM" rat="LTE" q="18.00" rsrp="-107" sinr="5" rsrq="-12"/>
      </extensions>
    </trkpt>
    <trkpt lat="45.6263376" lon="10.4969879">
      <ele>282.0</ele>
      <time>2026-04-22T18:30:19.126+02:00</time>
      <extensions>
        <activity type="UNKNOWN" conf="40" state="unknown" tsMs="1776875417303"/>
        <radio op="vodafone IT" rat="LTE" q="16.50" rsrp="-110" sinr="6" rsrq="-8"/>
        <radio op="I TIM" rat="LTE" q="19.50" rsrp="-112" sinr="10" rsrq="-13"/>
      </extensions>
    </trkpt>
    <trkpt lat="45.6262738" lon="10.4970163">
      <ele>282.0</ele>
      <time>2026-04-22T18:30:56.367+02:00</time>
      <extensions>
        <activity type="UNKNOWN" conf="40" state="unknown" tsMs="1776875450523"/>
        <radio op="vodafone IT" rat="LTE" q="15.40" rsrp="-114" sinr="9" rsrq="-10"/>
        <radio op="I TIM" rat="LTE" q="22.10" rsrp="-108" sinr="8" rsrq="-12"/>
      </extensions>
    </trkpt>
    <trkpt lat="45.6261721" lon="10.4970405">
      <ele>282.0</ele>
      <time>2026-04-22T18:31:28.955+02:00</time>
      <extensions>
        <activity type="UNKNOWN" conf="40" state="unknown" tsMs="1776875483460"/>
        <radio op="vodafone IT" rat="LTE" q="30.60" rsrp="-107" sinr="12" rsrq="-8"/>
        <radio op="I TIM" rat="LTE" q="20.80" rsrp="-109" sinr="8" rsrq="-12"/>
      </extensions>
    </trkpt>
    <trkpt lat="45.6261614" lon="10.4974282">
      <ele>282.0</ele>
      <time>2026-04-22T18:32:24.501+02:00</time>
      <extensions>
        <activity type="ON_FOOT" conf="89" state="moving" tsMs="1776875539498"/>
        <radio op="vodafone IT" rat="LTE" q="39.10" rsrp="-102" sinr="12" rsrq="-11"/>
        <radio op="I TIM" rat="LTE" rsrp="-110" rsrq="-13"/>
      </extensions>
    </trkpt>
    <trkpt lat="45.6260652" lon="10.4974501">
      <ele>282.0</ele>
      <time>2026-04-22T18:32:54.216+02:00</time>
      <extensions>
        <activity type="UNKNOWN" conf="40" state="unknown" tsMs="1776875578651"/>
        <radio op="vodafone IT" rat="LTE" q="27.00" rsrp="-98" sinr="5" rsrq="-7"/>
        <radio op="I TIM" rat="LTE" q="31.20" rsrp="-99" sinr="7" rsrq="-12"/>
      </extensions>
    </trkpt>
    <trkpt lat="45.626076" lon="10.4973354">
      <ele>285.5821537619949</ele>
      <time>2026-04-22T18:33:36.123+02:00</time>
      <extensions>
        <activity type="UNKNOWN" conf="40" state="unknown" tsMs="1776875611130"/>
        <radio op="vodafone IT" rat="LTE" q="50.00" rsrp="-100" sinr="15" rsrq="-5"/>
        <radio op="I TIM" rat="LTE" q="16.00" rsrp="-109" sinr="5" rsrq="-13"/>
      </extensions>
    </trkpt>
    <trkpt lat="45.6260063" lon="10.4974958">
      <ele>282.0</ele>
      <time>2026-04-22T18:34:05.738+02:00</time>
      <extensions>
        <activity type="ON_FOOT" conf="88" state="moving" tsMs="1776875649453"/>
        <radio op="vodafone IT" rat="LTE" q="32.40" rsrp="-98" sinr="7" rsrq="-9"/>
        <radio op="I TIM" rat="LTE" q="33.60" rsrp="-101" sinr="9" rsrq="-13"/>
      </extensions>
    </trkpt>
    <trkpt lat="45.6251826" lon="10.4972961">
      <ele>282.0</ele>
      <time>2026-04-22T18:34:35.943+02:00</time>
      <extensions>
        <activity type="ON_FOOT" conf="96" state="moving" tsMs="1776875675934"/>
        <radio op="vodafone IT" rat="LTE" q="26.40" rsrp="-103" sinr="7" rsrq="-10"/>
        <radio op="I TIM" rat="LTE" q="87.40" rsrp="-87" sinr="18" rsrq="-11"/>
      </extensions>
    </trkpt>
    <trkpt lat="45.6259214" lon="10.4975045">
      <ele>278.6186943156157</ele>
      <time>2026-04-22T18:35:10.247+02:00</time>
      <extensions>
        <activity type="ON_FOOT" conf="92" state="moving" tsMs="1776875707623"/>
        <radio op="vodafone IT" rat="LTE" q="33.80" rsrp="-99" sinr="8" rsrq="-11"/>
        <radio op="I TIM" rat="LTE" q="15.60" rsrp="-113" sinr="8" rsrq="-13"/>
      </extensions>
    </trkpt>
    <trkpt lat="45.6258479" lon="10.4974642">
      <ele>278.8492557508189</ele>
      <time>2026-04-22T18:35:22.587+02:00</time>
      <extensions>
        <activity type="ON_FOOT" conf="93" state="moving" tsMs="1776875730994"/>
        <radio op="vodafone IT" rat="LTE" q="35.20" rsrp="-103" sinr="11" rsrq="-10"/>
        <radio op="I TIM" rat="LTE" rsrp="-122" rsrq="-14"/>
      </extensions>
    </trkpt>
    <trkpt lat="45.6258866" lon="10.497306">
      <ele>278.87463903883054</ele>
      <time>2026-04-22T18:35:32.661+02:00</time>
      <extensions>
        <activity type="ON_FOOT" conf="93" state="moving" tsMs="1776875730994"/>
        <radio op="vodafone IT" rat="LTE" q="30.80" rsrp="-103" sinr="9" rsrq="-9"/>
        <radio op="I TIM" rat="LTE" rsrp="-117" rsrq="-14"/>
      </extensions>
    </trkpt>
    <trkpt lat="45.6259531" lon="10.4972712">
      <ele>279.2449397915159</ele>
      <time>2026-04-22T18:35:43.582+02:00</time>
      <extensions>
        <activity type="UNKNOWN" conf="40" state="unknown" tsMs="1776875737531"/>
        <radio op="vodafone IT" rat="LTE" q="34.50" rsrp="-102" sinr="10" rsrq="-10"/>
        <radio op="I TIM" rat="LTE" rsrp="-120" rsrq="-15"/>
      </extensions>
    </trkpt>
    <trkpt lat="45.6259363" lon="10.4972098">
      <ele>277.7707183632997</ele>
      <time>2026-04-22T18:36:22.425+02:00</time>
      <extensions>
        <activity type="UNKNOWN" conf="40" state="unknown" tsMs="1776875777286"/>
        <radio op="vodafone IT" rat="LTE" q="15.40" rsrp="-114" sinr="9" rsrq="-9"/>
        <radio op="I TIM" rat="LTE" rsrp="-125" rsrq="-14"/>
      </extensions>
    </trkpt>
    <trkpt lat="45.625404" lon="10.4973275">
      <ele>278.10065128074814</ele>
      <time>2026-04-22T18:37:13.72+02:00</time>
      <extensions>
        <activity type="IN_VEHICLE" conf="82" state="moving" tsMs="1776875821128"/>
        <radio op="vodafone IT" rat="LTE" rsrp="-104" rsrq="-16"/>
        <radio op="I TIM" rat="LTE" q="35.20" rsrp="-103" sinr="11" rsrq="-12"/>
      </extensions>
    </trkpt>
    <trkpt lat="45.6254621" lon="10.4974452">
      <ele>278.11545625967335</ele>
      <time>2026-04-22T18:37:16.221+02:00</time>
      <extensions>
        <activity type="IN_VEHICLE" conf="89" state="moving" tsMs="1776875859158"/>
        <radio op="vodafone IT" rat="LTE" q="58.90" rsrp="-94" sinr="14" rsrq="-8"/>
        <radio op="I TIM" rat="LTE" q="12.00" rsrp="-105" sinr="1" rsrq="-13"/>
      </extensions>
    </trkpt>
    <trkpt lat="45.6248536" lon="10.4959986">
      <ele>279.5</ele>
      <time>2026-04-22T18:37:56.843+02:00</time>
      <extensions>
        <activity type="IN_VEHICLE" conf="90" state="moving" tsMs="1776875875398"/>
        <radio op="vodafone IT" rat="LTE" q="30.60" rsrp="-108" sinr="13" rsrq="-12"/>
        <radio op="I TIM" rat="LTE" q="37.80" rsrp="-107" sinr="16" rsrq="-12"/>
      </extensions>
    </trkpt>
    <trkpt lat="45.6158751" lon="10.4830765">
      <ele>276.6000061035156</ele>
      <time>2026-04-22T18:39:30.222+02:00</time>
      <extensions>
        <activity type="IN_VEHICLE" conf="95" state="moving" tsMs="1776875989136"/>
        <radio op="vodafone IT" rat="LTE" q="19.00" rsrp="-106" sinr="5" rsrq="-13"/>
        <radio op="I TIM" rat="LTE" rsrp="-115" rsrq="-19"/>
      </extensions>
    </trkpt>
    <trkpt lat="45.6081446" lon="10.4730116">
      <ele>270.2185234433573</ele>
      <time>2026-04-22T18:41:01.202+02:00</time>
      <extensions>
        <activity type="IN_VEHICLE" conf="94" state="moving" tsMs="1776876059528"/>
        <radio op="vodafone IT" rat="LTE" q="67.20" rsrp="-97" sinr="19" rsrq="-6"/>
        <radio op="I TIM" rat="LTE" q="63.00" rsrp="-95" sinr="16" rsrq="-6"/>
      </extensions>
    </trkpt>
    <trkpt lat="45.6050685" lon="10.4641278">
      <ele>266.6000061035156</ele>
      <time>2026-04-22T18:42:00.222+02:00</time>
      <extensions>
        <activity type="IN_VEHICLE" conf="81" state="moving" tsMs="1776876107526"/>
        <radio op="vodafone IT" rat="LTE" q="92.50" rsrp="-88" sinr="22" rsrq="-8"/>
        <radio op="I TIM" rat="LTE" q="47.60" rsrp="-97" sinr="12" rsrq="-7"/>
      </extensions>
    </trkpt>
    <trkpt lat="45.6041968" lon="10.4611967">
      <ele>264.60941385350407</ele>
      <time>2026-04-22T18:42:44.222+02:00</time>
      <extensions>
        <activity type="UNKNOWN" conf="40" state="unknown" tsMs="1776876169099"/>
        <radio op="vodafone IT" rat="LTE" q="90.00" rsrp="-89" sinr="24" rsrq="-10"/>
        <radio op="I TIM" rat="LTE" q="46.20" rsrp="-104" sinr="17" rsrq="-13"/>
      </extensions>
    </trkpt>
    <trkpt lat="45.6023632" lon="10.4550632">
      <ele>261.8000183105469</ele>
      <time>2026-04-22T18:43:55.222+02:00</time>
      <extensions>
        <activity type="UNKNOWN" conf="40" state="unknown" tsMs="1776876215539"/>
        <radio op="vodafone IT" rat="LTE" rsrp="-111" rsrq="-12"/>
        <radio op="I TIM" rat="LTE" rsrp="-111" rsrq="-15"/>
      </extensions>
    </trkpt>
    <trkpt lat="45.6021896" lon="10.4532142">
      <ele>258.94902644210066</ele>
      <time>2026-04-22T18:44:28.769+02:00</time>
      <extensions>
        <activity type="IN_VEHICLE" conf="96" state="moving" tsMs="1776876266152"/>
        <radio op="vodafone IT" rat="LTE" q="18.00" rsrp="-110" sinr="7" rsrq="-8"/>
        <radio op="I TIM" rat="LTE" rsrp="-103" rsrq="-10"/>
      </extensions>
    </trkpt>
    <trkpt lat="45.6020949" lon="10.4530264">
      <ele>258.9728319923735</ele>
      <time>2026-04-22T18:44:36.222+02:00</time>
      <extensions>
        <activity type="IN_VEHICLE" conf="96" state="moving" tsMs="1776876266152"/>
        <radio op="vodafone IT" rat="LTE" q="7.50" rsrp="-110" sinr="0" rsrq="-10"/>
        <radio op="I TIM" rat="LTE" q="27.60" rsrp="-102" sinr="7" rsrq="-11"/>
      </extensions>
    </trkpt>
    <trkpt lat="45.6022052" lon="10.4531686">
      <ele>259.66717756874516</ele>
      <time>2026-04-22T18:45:18.223+02:00</time>
      <extensions>
        <activity type="TILTING" conf="100" state="moving" tsMs="1776876310448"/>
        <radio op="vodafone IT" rat="LTE" rsrp="-107" rsrq="-11"/>
        <radio op="I TIM" rat="LTE" q="25.30" rsrp="-102" sinr="6" rsrq="-11"/>
      </extensions>
    </trkpt>
    <trkpt lat="45.6021458" lon="10.4532864">
      <ele>261.70001220703125</ele>
      <time>2026-04-22T18:45:50.378+02:00</time>
      <extensions>
        <activity type="UNKNOWN" conf="40" state="unknown" tsMs="1776876347340"/>
        <radio op="vodafone IT" rat="LTE" rsrp="-106" rsrq="-9"/>
        <radio op="I TIM" rat="LTE" q="16.80" rsrp="-104" sinr="3" rsrq="-12"/>
      </extensions>
    </trkpt>
    <trkpt lat="45.6025286" lon="10.4535975">
      <ele>262.0</ele>
      <time>2026-04-22T18:46:24.372+02:00</time>
      <extensions>
        <activity type="ON_FOOT" conf="96" state="moving" tsMs="1776876379548"/>
        <radio op="vodafone IT" rat="LTE" q="30.60" rsrp="-107" sinr="12" rsrq="-10"/>
        <radio op="I TIM" rat="LTE" q="29.40" rsrp="-104" sinr="9" rsrq="-11"/>
      </extensions>
    </trkpt>
    <trkpt lat="45.6025534" lon="10.4536503">
      <ele>262.0</ele>
      <time>2026-04-22T18:46:55.605+02:00</time>
      <extensions>
        <activity type="ON_FOOT" conf="82" state="moving" tsMs="1776876411908"/>
        <radio op="vodafone IT" rat="LTE" q="8.80" rsrp="-114" sinr="3" rsrq="-10"/>
        <radio op="I TIM" rat="LTE" q="6.00" rsrp="-119" sinr="5" rsrq="-13"/>
      </extensions>
    </trkpt>
    <trkpt lat="45.6025497" lon="10.4536493">
      <ele>262.0</ele>
      <time>2026-04-22T18:47:27.025+02:00</time>
      <extensions>
        <activity type="UNKNOWN" conf="40" state="unknown" tsMs="1776876443463"/>
        <radio op="vodafone IT" rat="LTE" q="11.90" rsrp="-108" sinr="2" rsrq="-13"/>
        <radio op="I TIM" rat="LTE" q="38.00" rsrp="-105" sinr="14" rsrq="-11"/>
      </extensions>
    </trkpt>
    <trkpt lat="45.6025436" lon="10.4536399">
      <ele>262.0</ele>
      <time>2026-04-22T18:48:12.128+02:00</time>
      <extensions>
        <activity type="UNKNOWN" conf="40" state="unknown" tsMs="1776876486523"/>
        <radio op="vodafone IT" rat="LTE" rsrp="-116" rsrq="-16"/>
        <radio op="I TIM" rat="LTE" rsrp="-116" rsrq="-14"/>
      </extensions>
    </trkpt>
    <trkpt lat="45.6025509" lon="10.4536505">
      <ele>262.0</ele>
      <time>2026-04-22T18:48:43.599+02:00</time>
      <extensions>
        <activity type="UNKNOWN" conf="40" state="unknown" tsMs="1776876523078"/>
        <radio op="vodafone IT" rat="LTE" q="4.00" rsrp="-117" sinr="0" rsrq="-13"/>
        <radio op="I TIM" rat="LTE" q="0.90" rsrp="-124" sinr="4" rsrq="-14"/>
      </extensions>
    </trkpt>
    <trkpt lat="45.6025522" lon="10.4536507">
      <ele>262.0</ele>
      <time>2026-04-22T18:49:21.865+02:00</time>
      <extensions>
        <activity type="UNKNOWN" conf="40" state="unknown" tsMs="1776876559522"/>
        <radio op="vodafone IT" rat="LTE" q="3.50" rsrp="-118" sinr="0" rsrq="-14"/>
        <radio op="I TIM" rat="LTE" q="5.40" rsrp="-116" sinr="1" rsrq="-14"/>
      </extensions>
    </trkpt>
    <trkpt lat="45.6025523" lon="10.453651">
      <ele>262.0</ele>
      <time>2026-04-22T18:49:53.464+02:00</time>
      <extensions>
        <activity type="UNKNOWN" conf="40" state="unknown" tsMs="1776876592891"/>
        <radio op="vodafone IT" rat="LTE" q="4.80" rsrp="-117" sinr="1" rsrq="-15"/>
        <radio op="I TIM" rat="LTE" rsrp="-120" rsrq="-13"/>
      </extensions>
    </trkpt>
    <trkpt lat="45.6025554" lon="10.4536473">
      <ele>262.0</ele>
      <time>2026-04-22T19:46:31.517+02:00</time>
      <extensions>
        <activity type="STILL" conf="100" state="still" tsMs="1776879970944"/>
        <radio op="vodafone IT" rat="LTE" q="13.00" rsrp="-112" sinr="5" rsrq="-10"/>
        <radio op="I TIM" rat="LTE" rsrp="-112" rsrq="-17"/>
      </extensions>
    </trkpt>
    <trkpt lat="45.6025561" lon="10.4536503">
      <ele>262.0</ele>
      <time>2026-04-22T19:47:23.246+02:00</time>
      <extensions>
        <activity type="STILL" conf="100" state="still" tsMs="1776880032859"/>
        <radio op="vodafone IT" rat="LTE" q="7.80" rsrp="-112" sinr="1" rsrq="-14"/>
        <radio op="I TIM" rat="LTE" rsrp="-112" rsrq="-16"/>
      </extensions>
    </trkpt>
    <trkpt lat="45.6025584" lon="10.4536523">
      <ele>262.0</ele>
      <time>2026-04-22T19:48:25.184+02:00</time>
      <extensions>
        <activity type="STILL" conf="100" state="still" tsMs="1776880094748"/>
        <radio op="vodafone IT" rat="LTE" q="13.60" rsrp="-108" sinr="3" rsrq="-13"/>
        <radio op="I TIM" rat="LTE" rsrp="-115" rsrq="-14"/>
      </extensions>
    </trkpt>
    <trkpt lat="45.6025516" lon="10.4536479">
      <ele>262.0</ele>
      <time>2026-04-22T19:49:27.133+02:00</time>
      <extensions>
        <activity type="STILL" conf="100" state="still" tsMs="1776880156730"/>
        <radio op="vodafone IT" rat="LTE" q="8.40" rsrp="-111" sinr="1" rsrq="-14"/>
        <radio op="I TIM" rat="LTE" rsrp="-115" rsrq="-15"/>
      </extensions>
    </trkpt>
  </trkseg></trk>
</gpx>
