<?xml version="1.0" encoding="UTF-8"?>
<gpx version="1.1" creator="CellGPX" xmlns="http://www.topografix.com/GPX/1/1">
  <trk><name>CellGPX</name><trkseg>
    <trkpt lat="45.6027883" lon="10.4534802">
      <ele>261.0</ele>
      <time>2026-10-02T18:01:42.72+02:00</time>
      <extensions>
        <activity type="ON_FOOT" conf="97" state="moving" tsMs="1790956905842"/>
        <radio op="vodafone IT" rat="LTE" q="13.30" rsrp="-106" sinr="2" rsrq="-12"/>
        <radio op="I TIM" rat="LTE" q="24.00" rsrp="-105" sinr="7" rsrq="-12"/>
      </extensions>
    </trkpt>
    <trkpt lat="45.6029692" lon="10.4535393">
      <ele>261.0</ele>
      <time>2026-10-02T18:02:14.552+02:00</time>
      <extensions>
        <activity type="ON_FOOT" conf="87" state="moving" tsMs="1790956931722"/>
        <radio op="vodafone IT" rat="LTE" q="29.40" rsrp="-104" sinr="9" rsrq="-12"/>
        <radio op="I TIM" rat="LTE" q="39.20" rsrp="-97" sinr="9" rsrq="-11"/>
      </extensions>
    </trkpt>
    <trkpt lat="45.6030171" lon="10.4533808">
      <ele>264.6000061035156</ele>
      <time>2026-10-02T18:02:45.173+02:00</time>
      <extensions>
        <activity type="UNKNOWN" conf="40" state="unknown" tsMs="1790956955703"/>
        <radio op="vodafone IT" rat="LTE" q="20.90" rsrp="-106" sinr="6" rsrq="-10"/>
        <radio op="I TIM" rat="LTE" q="40.60" rsrp="-96" sinr="9" rsrq="-12"/>
      </extensions>
    </trkpt>
    <trkpt lat="45.6031011" lon="10.4534919">
      <ele>260.8000183105469</ele>
      <time>2026-10-02T18:03:20.6+02:00</time>
      <extensions>
        <activity type="UNKNOWN" conf="40" state="unknown" tsMs="1790956981595"/>
        <radio op="vodafone IT" rat="LTE" q="26.40" rsrp="-101" sinr="6" rsrq="-9"/>
        <radio op="I TIM" rat="LTE" q="50.40" rsrp="-97" sinr="13" rsrq="-11"/>
      </extensions>
    </trkpt>
    <trkpt lat="45.6033079" lon="10.4540717">
      <ele>260.8000183105469</ele>
      <time>2026-10-02T18:03:51.644+02:00</time>
      <extensions>
        <activity type="ON_FOOT" conf="97" state="moving" tsMs="1790957018707"/>
        <radio op="vodafone IT" rat="LTE" q="82.50" rsrp="-92" sinr="21" rsrq="-5"/>
        <radio op="I TIM" rat="LTE" q="65.10" rsrp="-94" sinr="16" rsrq="-9"/>
      </extensions>
    </trkpt>
    <trkpt lat="45.6033676" lon="10.4548234">
      <ele>260.8000183105469</ele>
      <time>2026-10-02T18:04:22.957+02:00</time>
      <extensions>
        <activity type="ON_FOOT" conf="94" state="moving" tsMs="1790957044437"/>
        <radio op="vodafone IT" rat="LTE" q="29.40" rsrp="-104" sinr="9" rsrq="-8"/>
        <radio op="I TIM" rat="LTE" q="54.00" rsrp="-95" sinr="13" rsrq="-12"/>
      </extensions>
    </trkpt>
    <trkpt lat="45.6030461" lon="10.455264">
      <ele>261.9000244140625</ele>
      <time>2026-10-02T18:04:54.212+02:00</time>
      <extensions>
        <activity type="ON_FOOT" conf="96" state="moving" tsMs="1790957083177"/>
        <radio op="vodafone IT" rat="LTE" q="10.50" rsrp="-110" sinr="2" rsrq="-9"/>
        <radio op="I TIM" rat="LTE" q="14.40" rsrp="-109" sinr="4" rsrq="-14"/>
      </extensions>
    </trkpt>
    <trkpt lat="45.6032686" lon="10.4558302">
      <ele>261.20001220703125</ele>
      <time>2026-10-02T18:05:25.416+02:00</time>
      <extensions>
        <activity type="ON_FOOT" conf="98" state="moving" tsMs="1790957115048"/>
        <radio op="vodafone IT" rat="LTE" q="23.10" rsrp="-104" sinr="6" rsrq="-7"/>
        <radio op="I TIM" rat="LTE" q="33.80" rsrp="-99" sinr="8" rsrq="-11"/>
      </extensions>
    </trkpt>
    <trkpt lat="45.6034245" lon="10.4562437">
      <ele>260.9000244140625</ele>
      <time>2026-10-02T18:05:56.652+02:00</time>
      <extensions>
        <activity type="ON_FOOT" conf="97" state="moving" tsMs="1790957140861"/>
        <radio op="vodafone IT" rat="LTE" q="46.00" rsrp="-102" sinr="15" rsrq="-9"/>
        <radio op="I TIM" rat="LTE" q="58.00" rsrp="-96" sinr="15" rsrq="-12"/>
      </extensions>
    </trkpt>
    <trkpt lat="45.603536" lon="10.4563538">
      <ele>260.9000244140625</ele>
      <time>2026-10-02T18:06:02.018+02:00</time>
      <extensions>
        <activity type="ON_FOOT" conf="96" state="moving" tsMs="1790957153775"/>
        <radio op="vodafone IT" rat="LTE" q="60.00" rsrp="-100" sinr="19" rsrq="-8"/>
        <radio op="I TIM" rat="LTE" q="52.00" rsrp="-99" sinr="15" rsrq="-12"/>
      </extensions>
    </trkpt>
    <trkpt lat="45.603536" lon="10.4563538">
      <ele>260.9000244140625</ele>
      <time>2026-10-02T18:06:38.211+02:00</time>
      <extensions>
        <activity type="ON_FOOT" conf="96" state="moving" tsMs="1790957183111"/>
        <radio op="vodafone IT" rat="LTE" q="69.60" rsrp="-96" sinr="19" rsrq="-7"/>
        <radio op="I TIM" rat="LTE" q="71.30" rsrp="-94" sinr="18" rsrq="-11"/>
      </extensions>
    </trkpt>
    <trkpt lat="45.6038313" lon="10.4576277">
      <ele>263.3000183105469</ele>
      <time>2026-10-02T18:07:09.388+02:00</time>
      <extensions>
        <activity type="ON_FOOT" conf="99" state="moving" tsMs="1790957221873"/>
        <radio op="vodafone IT" rat="LTE" q="74.80" rsrp="-91" sinr="17" rsrq="-7"/>
        <radio op="I TIM" rat="LTE" q="75.60" rsrp="-89" sinr="16" rsrq="-12"/>
      </extensions>
    </trkpt>
    <trkpt lat="45.603815" lon="10.4577707">
      <ele>263.3000183105469</ele>
      <time>2026-10-02T18:07:15.719+02:00</time>
      <extensions>
        <activity type="ON_FOOT" conf="96" state="moving" tsMs="1790957232556"/>
        <radio op="vodafone IT" rat="LTE" q="86.40" rsrp="-89" sinr="19" rsrq="-7"/>
        <radio op="I TIM" rat="LTE" q="100.00" rsrp="-85" sinr="24" rsrq="-12"/>
      </extensions>
    </trkpt>
    <trkpt lat="45.603815" lon="10.4577707">
      <ele>263.70001220703125</ele>
      <time>2026-10-02T18:07:50.7+02:00</time>
      <extensions>
        <activity type="ON_FOOT" conf="98" state="moving" tsMs="1790957258368"/>
        <radio op="vodafone IT" rat="LTE" q="82.80" rsrp="-89" sinr="18" rsrq="-11"/>
        <radio op="I TIM" rat="LTE" q="63.00" rsrp="-90" sinr="13" rsrq="-10"/>
      </extensions>
    </trkpt>
    <trkpt lat="45.6043478" lon="10.4591215">
      <ele>263.8000183105469</ele>
      <time>2026-10-02T18:08:33.935+02:00</time>
      <extensions>
        <activity type="ON_FOOT" conf="88" state="moving" tsMs="1790957299466"/>
        <radio op="vodafone IT" rat="LTE" q="23.80" rsrp="-111" sinr="12" rsrq="-10"/>
        <radio op="I TIM" rat="LTE" q="15.60" rsrp="-113" sinr="8" rsrq="-13"/>
      </extensions>
    </trkpt>
    <trkpt lat="45.6042216" lon="10.4593713">
      <ele>263.8000183105469</ele>
      <time>2026-10-02T18:08:43.636+02:00</time>
      <extensions>
        <activity type="ON_FOOT" conf="98" state="moving" tsMs="1790957309610"/>
        <radio op="vodafone IT" rat="LTE" q="39.60" rsrp="-107" sinr="17" rsrq="-9"/>
        <radio op="I TIM" rat="LTE" q="26.60" rsrp="-111" sinr="14" rsrq="-12"/>
      </extensions>
    </trkpt>
    <trkpt lat="45.6041387" lon="10.4595118">
      <ele>263.8000183105469</ele>
      <time>2026-10-02T18:08:53.739+02:00</time>
      <extensions>
        <activity type="ON_FOOT" conf="97" state="moving" tsMs="1790957320721"/>
        <radio op="vodafone IT" rat="LTE" q="27.00" rsrp="-110" sinr="13" rsrq="-8"/>
        <radio op="I TIM" rat="LTE" q="11.00" rsrp="-115" sinr="6" rsrq="-13"/>
      </extensions>
    </trkpt>
    <trkpt lat="45.6041485" lon="10.4594996">
      <ele>263.8000183105469</ele>
      <time>2026-10-02T18:09:02.504+02:00</time>
      <extensions>
        <activity type="UNKNOWN" conf="40" state="unknown" tsMs="1790957330860"/>
        <radio op="vodafone IT" rat="LTE" q="65.00" rsrp="-99" sinr="24" rsrq="-12"/>
        <radio op="I TIM" rat="LTE" q="50.00" rsrp="-105" sinr="20" rsrq="-11"/>
      </extensions>
    </trkpt>
    <trkpt lat="45.6041448" lon="10.4594814">
      <ele>263.8000183105469</ele>
      <time>2026-10-02T18:09:12.468+02:00</time>
      <extensions>
        <activity type="UNKNOWN" conf="40" state="unknown" tsMs="1790957343477"/>
        <radio op="vodafone IT" rat="LTE" q="62.50" rsrp="-100" sinr="25" rsrq="-9"/>
        <radio op="I TIM" rat="LTE" q="65.00" rsrp="-99" sinr="24" rsrq="-12"/>
      </extensions>
    </trkpt>
    <trkpt lat="45.6041687" lon="10.4594802">
      <ele>263.8000183105469</ele>
      <time>2026-10-02T18:09:22.655+02:00</time>
      <extensions>
        <activity type="ON_FOOT" conf="90" state="moving" tsMs="1790957355805"/>
        <radio op="vodafone IT" rat="LTE" q="70.00" rsrp="-97" sinr="28" rsrq="-10"/>
        <radio op="I TIM" rat="LTE" q="47.50" rsrp="-106" sinr="20" rsrq="-13"/>
      </extensions>
    </trkpt>
    <trkpt lat="45.6041942" lon="10.459488">
      <ele>263.8000183105469</ele>
      <time>2026-10-02T18:09:32.618+02:00</time>
      <extensions>
        <activity type="STILL" conf="96" state="still" tsMs="1790957368441"/>
        <radio op="vodafone IT" rat="LTE" q="45.00" rsrp="-107" sinr="22" rsrq="-10"/>
        <radio op="I TIM" rat="LTE" q="47.50" rsrp="-106" sinr="21" rsrq="-12"/>
      </extensions>
    </trkpt>
    <trkpt lat="45.6041952" lon="10.4594841">
      <ele>263.8000183105469</ele>
      <time>2026-10-02T18:09:42.693+02:00</time>
      <extensions>
        <activity type="UNKNOWN" conf="40" state="unknown" tsMs="1790957375856"/>
        <radio op="vodafone IT" rat="LTE" q="42.50" rsrp="-108" sinr="21" rsrq="-11"/>
        <radio op="I TIM" rat="LTE" q="33.60" rsrp="-104" sinr="11" rsrq="-12"/>
      </extensions>
    </trkpt>
    <trkpt lat="45.6041924" lon="10.4594795">
      <ele>263.8000183105469</ele>
      <time>2026-10-02T18:09:52.658+02:00</time>
      <extensions>
        <activity type="UNKNOWN" conf="40" state="unknown" tsMs="1790957375856"/>
        <radio op="vodafone IT" rat="LTE" q="37.50" rsrp="-110" sinr="20" rsrq="-9"/>
        <radio op="I TIM" rat="LTE" q="40.00" rsrp="-109" sinr="25" rsrq="-12"/>
      </extensions>
    </trkpt>
    <trkpt lat="45.6041976" lon="10.4594753">
      <ele>263.8000183105469</ele>
      <time>2026-10-02T18:09:55.793+02:00</time>
      <extensions>
        <activity type="UNKNOWN" conf="40" state="unknown" tsMs="1790957388462"/>
        <radio op="vodafone IT" rat="LTE" q="65.00" rsrp="-99" sinr="23" rsrq="-12"/>
        <radio op="I TIM" rat="LTE" q="70.00" rsrp="-97" sinr="23" rsrq="-12"/>
      </extensions>
    </trkpt>
    <trkpt lat="45.6042332" lon="10.4594938">
      <ele>263.8000183105469</ele>
      <time>2026-10-02T18:10:36.044+02:00</time>
      <extensions>
        <activity type="UNKNOWN" conf="40" state="unknown" tsMs="1790957427104"/>
        <radio op="vodafone IT" rat="LTE" q="24.70" rsrp="-106" sinr="8" rsrq="-7"/>
        <radio op="I TIM" rat="LTE" q="70.00" rsrp="-97" sinr="22" rsrq="-12"/>
      </extensions>
    </trkpt>
    <trkpt lat="45.6042129" lon="10.4594971">
      <ele>263.8000183105469</ele>
      <time>2026-10-02T18:11:06.019+02:00</time>
      <extensions>
        <activity type="UNKNOWN" conf="40" state="unknown" tsMs="1790957452077"/>
        <radio op="vodafone IT" rat="LTE" q="28.50" rsrp="-106" sinr="10" rsrq="-9"/>
        <radio op="I TIM" rat="LTE" q="72.50" rsrp="-96" sinr="20" rsrq="-13"/>
      </extensions>
    </trkpt>
    <trkpt lat="45.6041177" lon="10.4593723">
      <ele>263.8000183105469</ele>
      <time>2026-10-02T18:11:39.312+02:00</time>
      <extensions>
        <activity type="ON_FOOT" conf="92" state="moving" tsMs="1790957484762"/>
        <radio op="vodafone IT" rat="LTE" q="27.20" rsrp="-109" sinr="12" rsrq="-9"/>
        <radio op="I TIM" rat="LTE" q="72.50" rsrp="-96" sinr="20" rsrq="-10"/>
      </extensions>
    </trkpt>
    <trkpt lat="45.6041192" lon="10.4593316">
      <ele>263.8000183105469</ele>
      <time>2026-10-02T18:12:10.569+02:00</time>
      <extensions>
        <activity type="STILL" conf="99" state="still" tsMs="1790957510712"/>
        <radio op="vodafone IT" rat="LTE" q="14.00" rsrp="-111" sinr="5" rsrq="-12"/>
        <radio op="I TIM" rat="LTE" q="80.00" rsrp="-93" sinr="20" rsrq="-12"/>
      </extensions>
    </trkpt>
    <trkpt lat="45.6041244" lon="10.4593236">
      <ele>263.8000183105469</ele>
      <time>2026-10-02T18:12:41.745+02:00</time>
      <extensions>
        <activity type="STILL" conf="99" state="still" tsMs="1790957546788"/>
        <radio op="vodafone IT" rat="LTE" q="13.00" rsrp="-112" sinr="5" rsrq="-11"/>
        <radio op="I TIM" rat="LTE" q="15.00" rsrp="-110" sinr="5" rsrq="-13"/>
      </extensions>
    </trkpt>
    <trkpt lat="45.6041107" lon="10.4593197">
      <ele>263.8000183105469</ele>
      <time>2026-10-02T18:13:12.842+02:00</time>
      <extensions>
        <activity type="UNKNOWN" conf="40" state="unknown" tsMs="1790957578716"/>
        <radio op="vodafone IT" rat="LTE" q="13.00" rsrp="-112" sinr="5" rsrq="-7"/>
        <radio op="I TIM" rat="LTE" q="15.00" rsrp="-110" sinr="5" rsrq="-13"/>
      </extensions>
    </trkpt>
    <trkpt lat="45.6041242" lon="10.4593149">
      <ele>263.8000183105469</ele>
      <time>2026-10-02T18:13:44.154+02:00</time>
      <extensions>
        <activity type="STILL" conf="96" state="still" tsMs="1790957617494"/>
        <radio op="vodafone IT" rat="LTE" q="10.40" rsrp="-112" sinr="3" rsrq="-7"/>
        <radio op="I TIM" rat="LTE" q="12.00" rsrp="-110" sinr="3" rsrq="-12"/>
      </extensions>
    </trkpt>
    <trkpt lat="45.6041165" lon="10.4593389">
      <ele>263.8000183105469</ele>
      <time>2026-10-02T18:14:15.397+02:00</time>
      <extensions>
        <activity type="STILL" conf="99" state="still" tsMs="1790957645928"/>
        <radio op="vodafone IT" rat="LTE" q="13.20" rsrp="-113" sinr="6" rsrq="-7"/>
        <radio op="I TIM" rat="LTE" q="14.00" rsrp="-111" sinr="5" rsrq="-13"/>
      </extensions>
    </trkpt>
    <trkpt lat="45.6041107" lon="10.4593268">
      <ele>263.8000183105469</ele>
      <time>2026-10-02T18:14:46.606+02:00</time>
      <extensions>
        <activity type="UNKNOWN" conf="40" state="unknown" tsMs="1790957677769"/>
        <radio op="vodafone IT" rat="LTE" q="9.60" rsrp="-113" sinr="3" rsrq="-9"/>
        <radio op="I TIM" rat="LTE" q="16.50" rsrp="-110" sinr="6" rsrq="-12"/>
      </extensions>
    </trkpt>
    <trkpt lat="45.6042367" lon="10.4594584">
      <ele>263.8000183105469</ele>
      <time>2026-10-02T18:45:32.301+02:00</time>
      <extensions>
        <activity type="ON_FOOT" conf="96" state="moving" tsMs="1790959535480"/>
        <radio op="vodafone IT" rat="LTE" q="62.50" rsrp="-100" sinr="23" rsrq="-11"/>
        <radio op="I TIM" rat="LTE" q="15.00" rsrp="-110" sinr="5" rsrq="-12"/>
      </extensions>
    </trkpt>
    <trkpt lat="45.6046004" lon="10.4587017">
      <ele>263.8000183105469</ele>
      <time>2026-10-02T18:46:06.955+02:00</time>
      <extensions>
        <activity type="ON_FOOT" conf="96" state="moving" tsMs="1790959561321"/>
        <radio op="vodafone IT" rat="LTE" q="90.00" rsrp="-89" sinr="24" rsrq="-11"/>
        <radio op="I TIM" rat="LTE" q="39.90" rsrp="-104" sinr="14" rsrq="-12"/>
      </extensions>
    </trkpt>
    <trkpt lat="45.604054" lon="10.4593416">
      <ele>259.1054286039632</ele>
      <time>2026-10-02T18:46:39.57+02:00</time>
      <extensions>
        <activity type="ON_FOOT" conf="96" state="moving" tsMs="1790959597824"/>
        <radio op="vodafone IT" rat="LTE" q="10.20" rsrp="-108" sinr="1" rsrq="-9"/>
        <radio op="I TIM" rat="LTE" q="39.10" rsrp="-102" sinr="12" rsrq="-11"/>
      </extensions>
    </trkpt>
    <trkpt lat="45.6040521" lon="10.4593364">
      <ele>259.6366840420123</ele>
      <time>2026-10-02T18:47:10.616+02:00</time>
      <extensions>
        <activity type="STILL" conf="40" state="still" tsMs="1790959615445"/>
        <radio op="vodafone IT" rat="LTE" q="11.20" rsrp="-109" sinr="2" rsrq="-9"/>
        <radio op="I TIM" rat="LTE" rsrp="-109" rsrq="-13"/>
      </extensions>
    </trkpt>
    <trkpt lat="45.6039978" lon="10.459079">
      <ele>259.7015634357677</ele>
      <time>2026-10-02T18:47:41.45+02:00</time>
      <extensions>
        <activity type="UNKNOWN" conf="40" state="unknown" tsMs="1790959654142"/>
        <radio op="vodafone IT" rat="LTE" q="10.50" rsrp="-110" sinr="2" rsrq="-9"/>
        <radio op="I TIM" rat="LTE" q="9.60" rsrp="-109" sinr="1" rsrq="-12"/>
      </extensions>
    </trkpt>
    <trkpt lat="45.603948" lon="10.4593801">
      <ele>259.7726787205931</ele>
      <time>2026-10-02T18:48:12.884+02:00</time>
      <extensions>
        <activity type="STILL" conf="38" state="still" tsMs="1790959683606"/>
        <radio op="vodafone IT" rat="LTE" q="32.00" rsrp="-105" sinr="11" rsrq="-8"/>
        <radio op="I TIM" rat="LTE" q="21.00" rsrp="-110" sinr="9" rsrq="-12"/>
      </extensions>
    </trkpt>
    <trkpt lat="45.6037113" lon="10.4587688">
      <ele>263.70001220703125</ele>
      <time>2026-10-02T18:48:44.097+02:00</time>
      <extensions>
        <activity type="ON_FOOT" conf="98" state="moving" tsMs="1790959708874"/>
        <radio op="vodafone IT" rat="LTE" q="82.50" rsrp="-92" sinr="24" rsrq="-7"/>
        <radio op="I TIM" rat="LTE" q="79.20" rsrp="-89" sinr="17" rsrq="-12"/>
      </extensions>
    </trkpt>
    <trkpt lat="45.6036824" lon="10.4586898">
      <ele>263.4000244140625</ele>
      <time>2026-10-02T18:49:24.362+02:00</time>
      <extensions>
        <activity type="ON_FOOT" conf="96" state="moving" tsMs="1790959762322"/>
        <radio op="vodafone IT" rat="LTE" q="100.00" rsrp="-83" sinr="30" rsrq="-9"/>
        <radio op="I TIM" rat="LTE" q="80.00" rsrp="-83" sinr="15" rsrq="-13"/>
      </extensions>
    </trkpt>
    <trkpt lat="45.6037226" lon="10.4579296">
      <ele>262.8000183105469</ele>
      <time>2026-10-02T18:49:59.914+02:00</time>
      <extensions>
        <activity type="ON_FOOT" conf="96" state="moving" tsMs="1790959793968"/>
        <radio op="vodafone IT" rat="LTE" q="84.00" rsrp="-90" sinr="19" rsrq="-8"/>
        <radio op="I TIM" rat="LTE" q="81.60" rsrp="-91" sinr="19" rsrq="-10"/>
      </extensions>
    </trkpt>
    <trkpt lat="45.6037073" lon="10.4570966">
      <ele>262.1000061035156</ele>
      <time>2026-10-02T18:50:31.371+02:00</time>
      <extensions>
        <activity type="ON_FOOT" conf="96" state="moving" tsMs="1790959822541"/>
        <radio op="vodafone IT" rat="LTE" q="77.50" rsrp="-94" sinr="20" rsrq="-6"/>
        <radio op="I TIM" rat="LTE" q="72.60" rsrp="-92" sinr="17" rsrq="-12"/>
      </extensions>
    </trkpt>
    <trkpt lat="45.6035703" lon="10.456636">
      <ele>261.6000061035156</ele>
      <time>2026-10-02T18:51:09.539+02:00</time>
      <extensions>
        <activity type="ON_FOOT" conf="96" state="moving" tsMs="1790959868931"/>
        <radio op="vodafone IT" rat="LTE" q="65.00" rsrp="-99" sinr="22" rsrq="-8"/>
        <radio op="I TIM" rat="LTE" q="55.10" rsrp="-96" sinr="14" rsrq="-12"/>
      </extensions>
    </trkpt>
    <trkpt lat="45.60336" lon="10.4559926">
      <ele>260.8000183105469</ele>
      <time>2026-10-02T18:51:42.497+02:00</time>
      <extensions>
        <activity type="ON_FOOT" conf="96" state="moving" tsMs="1790959896864"/>
        <radio op="vodafone IT" rat="LTE" q="60.00" rsrp="-101" sinr="21" rsrq="-9"/>
        <radio op="I TIM" rat="LTE" q="82.50" rsrp="-92" sinr="22" rsrq="-11"/>
      </extensions>
    </trkpt>
    <trkpt lat="45.6030539" lon="10.4551407">
      <ele>261.70001220703125</ele>
      <time>2026-10-02T18:52:32.374+02:00</time>
      <extensions>
        <activity type="ON_FOOT" conf="96" state="moving" tsMs="1790959946497"/>
        <radio op="vodafone IT" rat="LTE" q="28.50" rsrp="-106" sinr="10" rsrq="-10"/>
        <radio op="I TIM" rat="LTE" q="48.00" rsrp="-101" sinr="15" rsrq="-12"/>
      </extensions>
    </trkpt>
    <trkpt lat="45.6033111" lon="10.4547598">
      <ele>260.8000183105469</ele>
      <time>2026-10-02T18:53:02.803+02:00</time>
      <extensions>
        <activity type="ON_FOOT" conf="96" state="moving" tsMs="1790959978615"/>
        <radio op="vodafone IT" rat="LTE" q="37.50" rsrp="-100" sinr="10" rsrq="-11"/>
        <radio op="I TIM" rat="LTE" q="34.50" rsrp="-102" sinr="10" rsrq="-12"/>
      </extensions>
    </trkpt>
    <trkpt lat="45.6029341" lon="10.4533722">
      <ele>260.70001220703125</ele>
      <time>2026-10-02T18:53:51.484+02:00</time>
      <extensions>
        <activity type="ON_FOOT" conf="96" state="moving" tsMs="1790960031173"/>
        <radio op="vodafone IT" rat="LTE" q="24.00" rsrp="-109" sinr="10" rsrq="-10"/>
        <radio op="I TIM" rat="LTE" q="37.80" rsrp="-104" sinr="13" rsrq="-11"/>
      </extensions>
    </trkpt>
    <trkpt lat="45.6029944" lon="10.4536378">
      <ele>260.70001220703125</ele>
      <time>2026-10-02T18:53:59.726+02:00</time>
      <extensions>
        <activity type="ON_FOOT" conf="96" state="moving" tsMs="1790960043378"/>
        <radio op="vodafone IT" rat="LTE" q="19.80" rsrp="-107" sinr="6" rsrq="-9"/>
        <radio op="I TIM" rat="LTE" q="32.30" rsrp="-106" sinr="12" rsrq="-12"/>
      </extensions>
    </trkpt>
    <trkpt lat="45.6025657" lon="10.4536783">
      <ele>261.0</ele>
      <time>2026-10-02T18:54:40.977+02:00</time>
      <extensions>
        <activity type="ON_FOOT" conf="95" state="moving" tsMs="1790960080079"/>
        <radio op="vodafone IT" rat="LTE" q="26.40" rsrp="-103" sinr="7" rsrq="-11"/>
        <radio op="I TIM" rat="LTE" q="6.40" rsrp="-117" sinr="3" rsrq="-11"/>
      </extensions>
    </trkpt>
    <trkpt lat="45.6025872" lon="10.4537084">
      <ele>261.0</ele>
      <time>2026-10-02T18:55:15.901+02:00</time>
      <extensions>
        <activity type="UNKNOWN" conf="40" state="unknown" tsMs="1790960103180"/>
        <radio op="vodafone IT" rat="LTE" q="11.70" rsrp="-112" sinr="4" rsrq="-11"/>
        <radio op="I TIM" rat="LTE" q="2.60" rsrp="-123" sinr="8" rsrq="-13"/>
      </extensions>
    </trkpt>
    <trkpt lat="45.6025687" lon="10.4536873">
      <ele>261.0</ele>
      <time>2026-10-02T18:55:54.071+02:00</time>
      <extensions>
        <activity type="STILL" conf="98" state="still" tsMs="1790960152168"/>
        <radio op="vodafone IT" rat="LTE" q="7.00" rsrp="-115" sinr="2" rsrq="-11"/>
        <radio op="I TIM" rat="LTE" q="8.40" rsrp="-113" sinr="2" rsrq="-13"/>
      </extensions>
    </trkpt>
    <trkpt lat="45.6025752" lon="10.453693">
      <ele>261.0</ele>
      <time>2026-10-02T18:56:31.959+02:00</time>
      <extensions>
        <activity type="UNKNOWN" conf="40" state="unknown" tsMs="1790960179771"/>
        <radio op="vodafone IT" rat="LTE" q="8.80" rsrp="-114" sinr="3" rsrq="-12"/>
        <radio op="I TIM" rat="LTE" q="9.80" rsrp="-111" sinr="2" rsrq="-8"/>
      </extensions>
    </trkpt>
    <trkpt lat="45.602567" lon="10.4536864">
      <ele>261.0</ele>
      <time>2026-10-02T18:57:03.596+02:00</time>
      <extensions>
        <activity type="UNKNOWN" conf="40" state="unknown" tsMs="1790960211673"/>
        <radio op="vodafone IT" rat="LTE" q="8.40" rsrp="-113" sinr="2" rsrq="-11"/>
        <radio op="I TIM" rat="LTE" q="14.40" rsrp="-113" sinr="7" rsrq="-10"/>
      </extensions>
    </trkpt>
    <trkpt lat="45.6025659" lon="10.453685">
      <ele>261.0</ele>
      <time>2026-10-02T18:57:38.54+02:00</time>
      <extensions>
        <activity type="STILL" conf="99" state="still" tsMs="1790960253807"/>
        <radio op="vodafone IT" rat="LTE" q="9.10" rsrp="-112" sinr="2" rsrq="-12"/>
        <radio op="I TIM" rat="LTE" q="16.80" rsrp="-111" sinr="7" rsrq="-11"/>
      </extensions>
    </trkpt>
  </trkseg></trk>
</gpx>
