<?xml version="1.0" encoding="UTF-8"?>
<gpx version="1.1" creator="CellGPX" xmlns="http://www.topografix.com/GPX/1/1">
  <trk><name>CellGPX</name><trkseg>
    <trkpt lat="45.6029544" lon="10.4535101">
      <ele>260.8000183105469</ele>
      <time>2026-09-30T09:17:17.525+02:00</time>
      <extensions>
        <activity type="ON_FOOT" conf="98" state="moving" tsMs="1790752633679"/>
        <radio op="vodafone IT" rat="LTE" q="30.00" rsrp="-105" sinr="10" rsrq="-10"/>
        <radio op="I TIM" rat="LTE" q="39.60" rsrp="-103" sinr="13" rsrq="-8"/>
      </extensions>
    </trkpt>
    <trkpt lat="45.6029966" lon="10.4536151">
      <ele>260.8000183105469</ele>
      <time>2026-09-30T09:17:23.658+02:00</time>
      <extensions>
        <activity type="ON_FOOT" conf="98" state="moving" tsMs="1790752633679"/>
        <radio op="vodafone IT" rat="LTE" q="43.20" rsrp="-101" sinr="13" rsrq="-8"/>
        <radio op="I TIM" rat="LTE" q="45.00" rsrp="-100" sinr="13" rsrq="-8"/>
      </extensions>
    </trkpt>
    <trkpt lat="45.6030463" lon="10.4537075">
      <ele>260.8000183105469</ele>
      <time>2026-09-30T09:17:31.476+02:00</time>
      <extensions>
        <activity type="ON_FOOT" conf="96" state="moving" tsMs="1790752642944"/>
        <radio op="vodafone IT" rat="LTE" q="38.40" rsrp="-101" sinr="11" rsrq="-7"/>
        <radio op="I TIM" rat="LTE" q="52.20" rsrp="-96" sinr="13" rsrq="-12"/>
      </extensions>
    </trkpt>
    <trkpt lat="45.6030463" lon="10.4537075">
      <ele>261.20001220703125</ele>
      <time>2026-09-30T09:18:08.247+02:00</time>
      <extensions>
        <activity type="ON_FOOT" conf="96" state="moving" tsMs="1790752681637"/>
        <radio op="vodafone IT" rat="LTE" q="54.40" rsrp="-93" sinr="12" rsrq="-9"/>
        <radio op="I TIM" rat="LTE" q="74.80" rsrp="-91" sinr="17" rsrq="-6"/>
      </extensions>
    </trkpt>
    <trkpt lat="45.6034419" lon="10.45488">
      <ele>261.20001220703125</ele>
      <time>2026-09-30T09:18:41.131+02:00</time>
      <extensions>
        <activity type="ON_FOOT" conf="97" state="moving" tsMs="1790752704030"/>
        <radio op="vodafone IT" rat="LTE" q="82.80" rsrp="-89" sinr="18" rsrq="-6"/>
        <radio op="I TIM" rat="LTE" q="97.50" rsrp="-86" sinr="22" rsrq="-6"/>
      </extensions>
    </trkpt>
    <trkpt lat="45.6035511" lon="10.4554432">
      <ele>260.4000244140625</ele>
      <time>2026-09-30T09:19:11.803+02:00</time>
      <extensions>
        <activity type="ON_FOOT" conf="98" state="moving" tsMs="1790752736905"/>
        <radio op="vodafone IT" rat="LTE" q="50.60" rsrp="-103" sinr="18" rsrq="-8"/>
        <radio op="I TIM" rat="LTE" q="27.50" rsrp="-100" sinr="6" rsrq="-8"/>
      </extensions>
    </trkpt>
    <trkpt lat="45.6032885" lon="10.4559454">
      <ele>260.8000183105469</ele>
      <time>2026-09-30T09:19:43.023+02:00</time>
      <extensions>
        <activity type="ON_FOOT" conf="97" state="moving" tsMs="1790752778382"/>
        <radio op="vodafone IT" rat="LTE" q="64.40" rsrp="-97" sinr="18" rsrq="-5"/>
        <radio op="I TIM" rat="LTE" q="59.80" rsrp="-99" sinr="18" rsrq="-9"/>
      </extensions>
    </trkpt>
    <trkpt lat="45.6034945" lon="10.4565106">
      <ele>261.4000244140625</ele>
      <time>2026-09-30T09:20:14.239+02:00</time>
      <extensions>
        <activity type="ON_FOOT" conf="97" state="moving" tsMs="1790752805196"/>
        <radio op="vodafone IT" rat="LTE" q="50.40" rsrp="-101" sinr="16" rsrq="-6"/>
        <radio op="I TIM" rat="LTE" q="67.20" rsrp="-93" sinr="16" rsrq="-9"/>
      </extensions>
    </trkpt>
    <trkpt lat="45.6035387" lon="10.4566588">
      <ele>261.4000244140625</ele>
      <time>2026-09-30T09:20:21.477+02:00</time>
      <extensions>
        <activity type="ON_FOOT" conf="95" state="moving" tsMs="1790752814683"/>
        <radio op="vodafone IT" rat="LTE" q="81.60" rsrp="-91" sinr="19" rsrq="-9"/>
        <radio op="I TIM" rat="LTE" q="75.60" rsrp="-89" sinr="16" rsrq="-7"/>
      </extensions>
    </trkpt>
    <trkpt lat="45.6035978" lon="10.4570795">
      <ele>261.4000244140625</ele>
      <time>2026-09-30T09:20:55.651+02:00</time>
      <extensions>
        <activity type="ON_FOOT" conf="96" state="moving" tsMs="1790752846518"/>
        <radio op="vodafone IT" rat="LTE" q="66.00" rsrp="-92" sinr="15" rsrq="-6"/>
        <radio op="I TIM" rat="LTE" q="82.80" rsrp="-89" sinr="18" rsrq="-9"/>
      </extensions>
    </trkpt>
    <trkpt lat="45.6037776" lon="10.4579262">
      <ele>262.8000183105469</ele>
      <time>2026-09-30T09:21:26.883+02:00</time>
      <extensions>
        <activity type="ON_FOOT" conf="97" state="moving" tsMs="1790752874827"/>
        <radio op="vodafone IT" rat="LTE" q="87.50" rsrp="-90" sinr="26" rsrq="-8"/>
        <radio op="I TIM" rat="LTE" q="100.00" rsrp="-85" sinr="24" rsrq="-5"/>
      </extensions>
    </trkpt>
    <trkpt lat="45.604082" lon="10.4583679">
      <ele>263.70001220703125</ele>
      <time>2026-09-30T09:21:58.119+02:00</time>
      <extensions>
        <activity type="ON_FOOT" conf="95" state="moving" tsMs="1790752903294"/>
        <radio op="vodafone IT" rat="LTE" q="70.00" rsrp="-97" sinr="20" rsrq="-8"/>
        <radio op="I TIM" rat="LTE" q="77.00" rsrp="-90" sinr="17" rsrq="-7"/>
      </extensions>
    </trkpt>
    <trkpt lat="45.6040573" lon="10.4585392">
      <ele>263.70001220703125</ele>
      <time>2026-09-30T09:22:04.476+02:00</time>
      <extensions>
        <activity type="ON_FOOT" conf="94" state="moving" tsMs="1790752916255"/>
        <radio op="vodafone IT" rat="LTE" q="82.50" rsrp="-92" sinr="20" rsrq="-5"/>
        <radio op="I TIM" rat="LTE" q="68.00" rsrp="-91" sinr="15" rsrq="-11"/>
      </extensions>
    </trkpt>
    <trkpt lat="45.6040573" lon="10.4585392">
      <ele>263.8000183105469</ele>
      <time>2026-09-30T09:22:39.463+02:00</time>
      <extensions>
        <activity type="ON_FOOT" conf="96" state="moving" tsMs="1790752942406"/>
        <radio op="vodafone IT" rat="LTE" q="72.50" rsrp="-96" sinr="23" rsrq="-6"/>
        <radio op="I TIM" rat="LTE" q="56.70" rsrp="-98" sinr="16" rsrq="-7"/>
      </extensions>
    </trkpt>
    <trkpt lat="45.6041842" lon="10.4594172">
      <ele>263.8000183105469</ele>
      <time>2026-09-30T09:23:22.514+02:00</time>
      <extensions>
        <activity type="UNKNOWN" conf="40" state="unknown" tsMs="1790753001883"/>
        <radio op="vodafone IT" rat="LTE" q="19.80" rsrp="-114" sinr="13" rsrq="-8"/>
        <radio op="I TIM" rat="LTE" q="14.00" rsrp="-115" sinr="9" rsrq="-11"/>
      </extensions>
    </trkpt>
    <trkpt lat="45.6044197" lon="10.4596565">
      <ele>263.8000183105469</ele>
      <time>2026-09-30T09:23:54.98+02:00</time>
      <extensions>
        <activity type="UNKNOWN" conf="40" state="unknown" tsMs="1790753032306"/>
        <radio op="vodafone IT" rat="LTE" q="77.50" rsrp="-94" sinr="27" rsrq="-9"/>
        <radio op="I TIM" rat="LTE" q="82.50" rsrp="-92" sinr="24" rsrq="-8"/>
      </extensions>
    </trkpt>
    <trkpt lat="45.6044013" lon="10.4592184">
      <ele>263.8000183105469</ele>
      <time>2026-09-30T09:24:25.538+02:00</time>
      <extensions>
        <activity type="UNKNOWN" conf="40" state="unknown" tsMs="1790753051311"/>
        <radio op="vodafone IT" rat="LTE" q="56.70" rsrp="-98" sinr="16" rsrq="-11"/>
        <radio op="I TIM" rat="LTE" q="70.00" rsrp="-97" sinr="22" rsrq="-10"/>
      </extensions>
    </trkpt>
    <trkpt lat="45.6042151" lon="10.4594799">
      <ele>263.8000183105469</ele>
      <time>2026-09-30T09:25:00.953+02:00</time>
      <extensions>
        <activity type="STILL" conf="100" state="still" tsMs="1790753090071"/>
        <radio op="vodafone IT" rat="LTE" q="44.00" rsrp="-105" sinr="17" rsrq="-8"/>
        <radio op="I TIM" rat="LTE" q="41.80" rsrp="-106" sinr="17" rsrq="-11"/>
      </extensions>
    </trkpt>
    <trkpt lat="45.6042025" lon="10.4594877">
      <ele>263.8000183105469</ele>
      <time>2026-09-30T09:25:32.152+02:00</time>
      <extensions>
        <activity type="UNKNOWN" conf="40" state="unknown" tsMs="1790753118742"/>
        <radio op="vodafone IT" rat="LTE" q="12.00" rsrp="-113" sinr="5" rsrq="-7"/>
        <radio op="I TIM" rat="LTE" q="50.00" rsrp="-105" sinr="20" rsrq="-10"/>
      </extensions>
    </trkpt>
    <trkpt lat="45.6042005" lon="10.45948">
      <ele>263.8000183105469</ele>
      <time>2026-09-30T09:26:11.585+02:00</time>
      <extensions>
        <activity type="STILL" conf="100" state="still" tsMs="1790753163918"/>
        <radio op="vodafone IT" rat="LTE" q="20.40" rsrp="-113" sinr="12" rsrq="-7"/>
        <radio op="I TIM" rat="LTE" q="34.50" rsrp="-102" sinr="10" rsrq="-8"/>
      </extensions>
    </trkpt>
    <trkpt lat="45.6041112" lon="10.4593128">
      <ele>263.8000183105469</ele>
      <time>2026-09-30T09:26:53.621+02:00</time>
      <extensions>
        <activity type="ON_FOOT" conf="86" state="moving" tsMs="1790753207467"/>
        <radio op="vodafone IT" rat="LTE" q="24.70" rsrp="-112" sinr="14" rsrq="-9"/>
        <radio op="I TIM" rat="LTE" q="25.50" rsrp="-108" sinr="10" rsrq="-11"/>
      </extensions>
    </trkpt>
    <trkpt lat="45.6040911" lon="10.4593183">
      <ele>263.8000183105469</ele>
      <time>2026-09-30T09:27:25.585+02:00</time>
      <extensions>
        <activity type="UNKNOWN" conf="40" state="unknown" tsMs="1790753226583"/>
        <radio op="vodafone IT" rat="LTE" q="27.00" rsrp="-110" sinr="13" rsrq="-7"/>
        <radio op="I TIM" rat="LTE" q="24.00" rsrp="-110" sinr="11" rsrq="-13"/>
      </extensions>
    </trkpt>
    <trkpt lat="45.6040758" lon="10.4593153">
      <ele>263.8000183105469</ele>
      <time>2026-09-30T09:27:56.824+02:00</time>
      <extensions>
        <activity type="STILL" conf="48" state="still" tsMs="1790753265359"/>
        <radio op="vodafone IT" rat="LTE" q="25.20" rsrp="-111" sinr="13" rsrq="-8"/>
        <radio op="I TIM" rat="LTE" q="15.60" rsrp="-113" sinr="8" rsrq="-12"/>
      </extensions>
    </trkpt>
    <trkpt lat="45.6040914" lon="10.4593395">
      <ele>263.8000183105469</ele>
      <time>2026-09-30T09:28:28.241+02:00</time>
      <extensions>
        <activity type="STILL" conf="100" state="still" tsMs="1790753297141"/>
        <radio op="vodafone IT" rat="LTE" q="31.50" rsrp="-110" sinr="16" rsrq="-9"/>
        <radio op="I TIM" rat="LTE" q="18.20" rsrp="-112" sinr="9" rsrq="-13"/>
      </extensions>
    </trkpt>
    <trkpt lat="45.6040858" lon="10.4593348">
      <ele>263.8000183105469</ele>
      <time>2026-09-30T09:28:59.572+02:00</time>
      <extensions>
        <activity type="STILL" conf="100" state="still" tsMs="1790753335081"/>
        <radio op="vodafone IT" rat="LTE" q="22.10" rsrp="-112" sinr="12" rsrq="-8"/>
        <radio op="I TIM" rat="LTE" q="14.30" rsrp="-114" sinr="8" rsrq="-13"/>
      </extensions>
    </trkpt>
    <trkpt lat="45.604069" lon="10.4593346">
      <ele>263.8000183105469</ele>
      <time>2026-09-30T09:29:31.012+02:00</time>
      <extensions>
        <activity type="STILL" conf="100" state="still" tsMs="1790753361653"/>
        <radio op="vodafone IT" rat="LTE" q="25.20" rsrp="-111" sinr="13" rsrq="-6"/>
        <radio op="I TIM" rat="LTE" q="14.30" rsrp="-114" sinr="8" rsrq="-13"/>
      </extensions>
    </trkpt>
    <trkpt lat="45.6040759" lon="10.4593335">
      <ele>263.8000183105469</ele>
      <time>2026-09-30T09:30:02.412+02:00</time>
      <extensions>
        <activity type="STILL" conf="100" state="still" tsMs="1790753389888"/>
        <radio op="vodafone IT" rat="LTE" q="23.80" rsrp="-111" sinr="12" rsrq="-8"/>
        <radio op="I TIM" rat="LTE" q="14.40" rsrp="-113" sinr="7" rsrq="-13"/>
      </extensions>
    </trkpt>
    <trkpt lat="45.6042308" lon="10.4595161">
      <ele>263.8000183105469</ele>
      <time>2026-09-30T09:48:05.031+02:00</time>
      <extensions>
        <activity type="UNKNOWN" conf="40" state="unknown" tsMs="1790754481250"/>
        <radio op="vodafone IT" rat="LTE" q="35.70" rsrp="-108" sinr="16" rsrq="-7"/>
        <radio op="I TIM" rat="LTE" q="44.10" rsrp="-104" sinr="16" rsrq="-9"/>
      </extensions>
    </trkpt>
    <trkpt lat="45.6043604" lon="10.4596162">
      <ele>263.8000183105469</ele>
      <time>2026-09-30T09:48:36.348+02:00</time>
      <extensions>
        <activity type="UNKNOWN" conf="40" state="unknown" tsMs="1790754507131"/>
        <radio op="vodafone IT" rat="LTE" q="55.00" rsrp="-103" sinr="27" rsrq="-8"/>
        <radio op="I TIM" rat="LTE" q="67.50" rsrp="-98" sinr="21" rsrq="-9"/>
      </extensions>
    </trkpt>
    <trkpt lat="45.6044026" lon="10.4597458">
      <ele>263.8000183105469</ele>
      <time>2026-09-30T09:49:07.61+02:00</time>
      <extensions>
        <activity type="UNKNOWN" conf="40" state="unknown" tsMs="1790754532532"/>
        <radio op="vodafone IT" rat="LTE" q="75.00" rsrp="-95" sinr="26" rsrq="-8"/>
        <radio op="I TIM" rat="LTE" q="82.50" rsrp="-92" sinr="22" rsrq="-7"/>
      </extensions>
    </trkpt>
    <trkpt lat="45.6044357" lon="10.4598067">
      <ele>263.8000183105469</ele>
      <time>2026-09-30T09:49:38.997+02:00</time>
      <extensions>
        <activity type="UNKNOWN" conf="40" state="unknown" tsMs="1790754558521"/>
        <radio op="vodafone IT" rat="LTE" q="60.00" rsrp="-101" sinr="21" rsrq="-7"/>
        <radio op="I TIM" rat="LTE" rsrp="-90" rsrq="-7"/>
      </extensions>
    </trkpt>
    <trkpt lat="45.6044993" lon="10.4597721">
      <ele>263.8000183105469</ele>
      <time>2026-09-30T09:50:33.063+02:00</time>
      <extensions>
        <activity type="UNKNOWN" conf="40" state="unknown" tsMs="1790754624896"/>
        <radio op="vodafone IT" rat="LTE" q="60.00" rsrp="-101" sinr="27" rsrq="-7"/>
        <radio op="I TIM" rat="LTE" q="65.00" rsrp="-99" sinr="20" rsrq="-7"/>
      </extensions>
    </trkpt>
    <trkpt lat="45.6045328" lon="10.4597302">
      <ele>263.8000183105469</ele>
      <time>2026-09-30T09:51:04.643+02:00</time>
      <extensions>
        <activity type="STILL" conf="100" state="still" tsMs="1790754644001"/>
        <radio op="vodafone IT" rat="LTE" q="30.80" rsrp="-111" sinr="17" rsrq="-6"/>
        <radio op="I TIM" rat="LTE" q="62.50" rsrp="-100" sinr="25" rsrq="-9"/>
      </extensions>
    </trkpt>
    <trkpt lat="45.6043212" lon="10.4592704">
      <ele>263.8000183105469</ele>
      <time>2026-09-30T09:51:39.112+02:00</time>
      <extensions>
        <activity type="ON_FOOT" conf="96" state="moving" tsMs="1790754689607"/>
        <radio op="vodafone IT" rat="LTE" q="28.50" rsrp="-110" sinr="14" rsrq="-9"/>
        <radio op="I TIM" rat="LTE" q="82.50" rsrp="-92" sinr="27" rsrq="-9"/>
      </extensions>
    </trkpt>
    <trkpt lat="45.6044015" lon="10.4592421">
      <ele>263.8000183105469</ele>
      <time>2026-09-30T09:52:13.709+02:00</time>
      <extensions>
        <activity type="UNKNOWN" conf="40" state="unknown" tsMs="1790754730930"/>
        <radio op="vodafone IT" rat="LTE" q="57.50" rsrp="-100" sinr="18" rsrq="-12"/>
        <radio op="I TIM" rat="LTE" q="67.50" rsrp="-98" sinr="24" rsrq="-6"/>
      </extensions>
    </trkpt>
    <trkpt lat="45.6044121" lon="10.459236">
      <ele>263.8000183105469</ele>
      <time>2026-09-30T09:52:44.308+02:00</time>
      <extensions>
        <activity type="STILL" conf="99" state="still" tsMs="1790754759445"/>
        <radio op="vodafone IT" rat="LTE" q="70.00" rsrp="-97" sinr="21" rsrq="-7"/>
        <radio op="I TIM" rat="LTE" q="67.50" rsrp="-98" sinr="25" rsrq="-7"/>
      </extensions>
    </trkpt>
    <trkpt lat="45.6043738" lon="10.4592179">
      <ele>263.8000183105469</ele>
      <time>2026-09-30T09:53:19.573+02:00</time>
      <extensions>
        <activity type="UNKNOWN" conf="40" state="unknown" tsMs="1790754781710"/>
        <radio op="vodafone IT" rat="LTE" q="50.60" rsrp="-103" sinr="18" rsrq="-6"/>
        <radio op="I TIM" rat="LTE" q="50.00" rsrp="-105" sinr="20" rsrq="-7"/>
      </extensions>
    </trkpt>
    <trkpt lat="45.6041816" lon="10.45925">
      <ele>263.8000183105469</ele>
      <time>2026-09-30T09:53:31.633+02:00</time>
      <extensions>
        <activity type="ON_FOOT" conf="90" state="moving" tsMs="1790754807754"/>
        <radio op="vodafone IT" rat="LTE" q="100.00" rsrp="-83" sinr="30" rsrq="-8"/>
        <radio op="I TIM" rat="LTE" rsrp="-81" rsrq="-10"/>
      </extensions>
    </trkpt>
    <trkpt lat="45.6039699" lon="10.4585365">
      <ele>263.70001220703125</ele>
      <time>2026-09-30T09:54:10.988+02:00</time>
      <extensions>
        <activity type="ON_FOOT" conf="97" state="moving" tsMs="1790754843391"/>
        <radio op="vodafone IT" rat="LTE" q="80.00" rsrp="-82" sinr="15" rsrq="-7"/>
        <radio op="I TIM" rat="LTE" q="72.00" rsrp="-82" sinr="13" rsrq="-12"/>
      </extensions>
    </trkpt>
    <trkpt lat="45.6034984" lon="10.4579548">
      <ele>263.5</ele>
      <time>2026-09-30T09:54:41.615+02:00</time>
      <extensions>
        <activity type="ON_FOOT" conf="97" state="moving" tsMs="1790754867080"/>
        <radio op="vodafone IT" rat="LTE" q="100.00" rsrp="-80" sinr="20" rsrq="-12"/>
        <radio op="I TIM" rat="LTE" q="78.20" rsrp="-91" sinr="18" rsrq="-7"/>
      </extensions>
    </trkpt>
    <trkpt lat="45.6035466" lon="10.4571151">
      <ele>263.5</ele>
      <time>2026-09-30T09:55:14.84+02:00</time>
      <extensions>
        <activity type="ON_FOOT" conf="98" state="moving" tsMs="1790754902324"/>
        <radio op="vodafone IT" rat="LTE" q="74.10" rsrp="-86" sinr="14" rsrq="-6"/>
        <radio op="I TIM" rat="LTE" q="64.00" rsrp="-93" sinr="15" rsrq="-12"/>
      </extensions>
    </trkpt>
    <trkpt lat="45.6035666" lon="10.4567199">
      <ele>261.70001220703125</ele>
      <time>2026-09-30T09:55:45.971+02:00</time>
      <extensions>
        <activity type="ON_FOOT" conf="97" state="moving" tsMs="1790754928105"/>
        <radio op="vodafone IT" rat="LTE" q="100.00" rsrp="-82" sinr="24" rsrq="-8"/>
        <radio op="I TIM" rat="LTE" q="72.50" rsrp="-96" sinr="21" rsrq="-7"/>
      </extensions>
    </trkpt>
    <trkpt lat="45.6033594" lon="10.4559963">
      <ele>260.8000183105469</ele>
      <time>2026-09-30T09:56:17.273+02:00</time>
      <extensions>
        <activity type="ON_FOOT" conf="97" state="moving" tsMs="1790754973074"/>
        <radio op="vodafone IT" rat="LTE" q="100.00" rsrp="-82" sinr="22" rsrq="-10"/>
        <radio op="I TIM" rat="LTE" q="73.60" rsrp="-93" sinr="18" rsrq="-9"/>
      </extensions>
    </trkpt>
    <trkpt lat="45.6033227" lon="10.4558852">
      <ele>260.8000183105469</ele>
      <time>2026-09-30T09:56:25.472+02:00</time>
      <extensions>
        <activity type="ON_FOOT" conf="97" state="moving" tsMs="1790754980461"/>
        <radio op="vodafone IT" rat="LTE" q="78.20" rsrp="-91" sinr="18" rsrq="-8"/>
        <radio op="I TIM" rat="LTE" q="82.50" rsrp="-92" sinr="22" rsrq="-10"/>
      </extensions>
    </trkpt>
    <trkpt lat="45.6033227" lon="10.4558852">
      <ele>261.9000244140625</ele>
      <time>2026-09-30T09:56:58.748+02:00</time>
      <extensions>
        <activity type="ON_FOOT" conf="96" state="moving" tsMs="1790755002897"/>
        <radio op="vodafone IT" rat="LTE" q="36.40" rsrp="-97" sinr="8" rsrq="-9"/>
        <radio op="I TIM" rat="LTE" q="54.60" rsrp="-99" sinr="16" rsrq="-11"/>
      </extensions>
    </trkpt>
    <trkpt lat="45.6033246" lon="10.4548174">
      <ele>260.70001220703125</ele>
      <time>2026-09-30T09:57:32.221+02:00</time>
      <extensions>
        <activity type="ON_FOOT" conf="97" state="moving" tsMs="1790755043446"/>
        <radio op="vodafone IT" rat="LTE" q="30.00" rsrp="-100" sinr="7" rsrq="-11"/>
        <radio op="I TIM" rat="LTE" q="38.00" rsrp="-106" sinr="15" rsrq="-12"/>
      </extensions>
    </trkpt>
    <trkpt lat="45.6033258" lon="10.4546711">
      <ele>260.70001220703125</ele>
      <time>2026-09-30T09:57:39.475+02:00</time>
      <extensions>
        <activity type="ON_FOOT" conf="96" state="moving" tsMs="1790755053018"/>
        <radio op="vodafone IT" rat="LTE" q="32.50" rsrp="-100" sinr="8" rsrq="-9"/>
        <radio op="I TIM" rat="LTE" q="46.20" rsrp="-103" sinr="16" rsrq="-10"/>
      </extensions>
    </trkpt>
    <trkpt lat="45.6033258" lon="10.4546711">
      <ele>260.70001220703125</ele>
      <time>2026-09-30T09:58:11.586+02:00</time>
      <extensions>
        <activity type="ON_FOOT" conf="96" state="moving" tsMs="1790755083221"/>
        <radio op="vodafone IT" rat="LTE" q="39.20" rsrp="-97" sinr="9" rsrq="-10"/>
        <radio op="I TIM" rat="LTE" q="20.00" rsrp="-105" sinr="5" rsrq="-12"/>
      </extensions>
    </trkpt>
    <trkpt lat="45.6027425" lon="10.4534818">
      <ele>260.8000183105469</ele>
      <time>2026-09-30T09:58:42.892+02:00</time>
      <extensions>
        <activity type="ON_FOOT" conf="96" state="moving" tsMs="1790755115153"/>
        <radio op="vodafone IT" rat="LTE" q="17.60" rsrp="-103" sinr="3" rsrq="-9"/>
        <radio op="I TIM" rat="LTE" q="9.60" rsrp="-109" sinr="1" rsrq="-12"/>
      </extensions>
    </trkpt>
    <trkpt lat="45.6025601" lon="10.4536686">
      <ele>261.0</ele>
      <time>2026-09-30T09:59:19.08+02:00</time>
      <extensions>
        <activity type="ON_FOOT" conf="93" state="moving" tsMs="1790755137666"/>
        <radio op="vodafone IT" rat="LTE" rsrp="-115" rsrq="-11"/>
        <radio op="I TIM" rat="LTE" q="2.80" rsrp="-121" sinr="2" rsrq="-12"/>
      </extensions>
    </trkpt>
    <trkpt lat="45.6025717" lon="10.4536903">
      <ele>261.0</ele>
      <time>2026-09-30T09:59:52.277+02:00</time>
      <extensions>
        <activity type="UNKNOWN" conf="40" state="unknown" tsMs="1790755183865"/>
        <radio op="vodafone IT" rat="LTE" q="3.00" rsrp="-120" sinr="1" rsrq="-11"/>
        <radio op="I TIM" rat="LTE" rsrp="-119" rsrq="-14"/>
      </extensions>
    </trkpt>
    <trkpt lat="45.6025633" lon="10.4536784">
      <ele>261.0</ele>
      <time>2026-09-30T10:00:29.363+02:00</time>
      <extensions>
        <activity type="UNKNOWN" conf="40" state="unknown" tsMs="1790755213648"/>
        <radio op="vodafone IT" rat="LTE" q="4.80" rsrp="-119" sinr="3" rsrq="-9"/>
        <radio op="I TIM" rat="LTE" rsrp="-120" rsrq="-10"/>
      </extensions>
    </trkpt>
    <trkpt lat="45.6025653" lon="10.4536805">
      <ele>261.0</ele>
      <time>2026-09-30T10:01:04.222+02:00</time>
      <extensions>
        <activity type="STILL" conf="100" state="still" tsMs="1790755258340"/>
        <radio op="vodafone IT" rat="LTE" q="4.00" rsrp="-117" sinr="0" rsrq="-12"/>
        <radio op="I TIM" rat="LTE" rsrp="-111" rsrq="-10"/>
      </extensions>
    </trkpt>
    <trkpt lat="45.6025591" lon="10.4536759">
      <ele>261.0</ele>
      <time>2026-09-30T10:01:49.172+02:00</time>
      <extensions>
        <activity type="UNKNOWN" conf="40" state="unknown" tsMs="1790755308847"/>
        <radio op="vodafone IT" rat="LTE" q="4.80" rsrp="-119" sinr="3" rsrq="-11"/>
        <radio op="I TIM" rat="LTE" rsrp="-117" rsrq="-13"/>
      </extensions>
    </trkpt>
    <trkpt lat="45.6025631" lon="10.4536794">
      <ele>261.0</ele>
      <time>2026-09-30T10:02:20.952+02:00</time>
      <extensions>
        <activity type="STILL" conf="100" state="still" tsMs="1790755335028"/>
        <radio op="vodafone IT" rat="LTE" rsrp="-115" rsrq="-10"/>
        <radio op="I TIM" rat="LTE" q="10.40" rsrp="-117" sinr="8" rsrq="-8"/>
      </extensions>
    </trkpt>
    <trkpt lat="45.602378" lon="10.4532128">
      <ele>265.2955570975465</ele>
      <time>2026-09-30T19:19:08.235+02:00</time>
      <extensions>
        <activity type="UNKNOWN" conf="40" state="unknown" tsMs="1790788746192"/>
        <radio op="vodafone IT" rat="OTHER"/>
        <radio op="I TIM" rat="LTE" q="48.30" rsrp="-104" sinr="18" rsrq="-12"/>
      </extensions>
    </trkpt>
    <trkpt lat="45.6026107" lon="10.4537295">
      <ele>271.1853535107101</ele>
      <time>2026-09-30T19:19:46.206+02:00</time>
      <extensions>
        <activity type="UNKNOWN" conf="40" state="unknown" tsMs="1790788771922"/>
        <radio op="vodafone IT" rat="LTE" q="46.40" rsrp="-96" sinr="11" rsrq="-12"/>
        <radio op="I TIM" rat="LTE" q="30.40" rsrp="-106" sinr="11" rsrq="-11"/>
      </extensions>
    </trkpt>
    <trkpt lat="45.6026209" lon="10.4537513">
      <ele>270.5868429814458</ele>
      <time>2026-09-30T19:20:17.306+02:00</time>
      <extensions>
        <activity type="UNKNOWN" conf="40" state="unknown" tsMs="1790788807246"/>
        <radio op="vodafone IT" rat="LTE" q="36.00" rsrp="-101" sinr="10" rsrq="-9"/>
        <radio op="I TIM" rat="LTE" q="56.70" rsrp="-98" sinr="16" rsrq="-10"/>
      </extensions>
    </trkpt>
    <trkpt lat="45.6026128" lon="10.4537407">
      <ele>266.26489498030395</ele>
      <time>2026-09-30T19:21:00.166+02:00</time>
      <extensions>
        <activity type="UNKNOWN" conf="40" state="unknown" tsMs="1790788857984"/>
        <radio op="vodafone IT" rat="LTE" q="16.20" rsrp="-107" sinr="4" rsrq="-10"/>
        <radio op="I TIM" rat="LTE" q="57.00" rsrp="-95" sinr="14" rsrq="-11"/>
      </extensions>
    </trkpt>
    <trkpt lat="45.6026159" lon="10.4537507">
      <ele>261.70001220703125</ele>
      <time>2026-09-30T19:21:41.305+02:00</time>
      <extensions>
        <activity type="UNKNOWN" conf="40" state="unknown" tsMs="1790788895749"/>
        <radio op="vodafone IT" rat="LTE" rsrp="-110" rsrq="-11"/>
        <radio op="I TIM" rat="LTE" q="36.40" rsrp="-97" sinr="8" rsrq="-5"/>
      </extensions>
    </trkpt>
    <trkpt lat="45.6025705" lon="10.4536773">
      <ele>261.0</ele>
      <time>2026-09-30T19:22:39.347+02:00</time>
      <extensions>
        <activity type="UNKNOWN" conf="40" state="unknown" tsMs="1790788956530"/>
        <radio op="vodafone IT" rat="LTE" q="35.00" rsrp="-100" sinr="9" rsrq="-6"/>
        <radio op="I TIM" rat="LTE" q="27.60" rsrp="-102" sinr="7" rsrq="-10"/>
      </extensions>
    </trkpt>
    <trkpt lat="45.602635" lon="10.4535748">
      <ele>261.1000061035156</ele>
      <time>2026-09-30T19:24:40.876+02:00</time>
      <extensions>
        <activity type="UNKNOWN" conf="40" state="unknown" tsMs="1790789090226"/>
        <radio op="vodafone IT" rat="LTE" rsrp="-108" rsrq="-11"/>
        <radio op="I TIM" rat="LTE" q="70.00" rsrp="-97" sinr="20" rsrq="-11"/>
      </extensions>
    </trkpt>
    <trkpt lat="45.6026176" lon="10.4537432">
      <ele>261.70001220703125</ele>
      <time>2026-09-30T19:25:17.473+02:00</time>
      <extensions>
        <activity type="UNKNOWN" conf="40" state="unknown" tsMs="1790789116340"/>
        <radio op="vodafone IT" rat="LTE" q="19.80" rsrp="-107" sinr="6" rsrq="-12"/>
        <radio op="I TIM" rat="LTE" q="58.90" rsrp="-94" sinr="14" rsrq="-12"/>
      </extensions>
    </trkpt>
    <trkpt lat="45.6026106" lon="10.4537363">
      <ele>261.70001220703125</ele>
      <time>2026-09-30T19:26:15.924+02:00</time>
      <extensions>
        <activity type="STILL" conf="57" state="still" tsMs="1790789174949"/>
        <radio op="vodafone IT" rat="LTE" q="14.40" rsrp="-107" sinr="3" rsrq="-8"/>
        <radio op="I TIM" rat="LTE" q="48.00" rsrp="-101" sinr="15" rsrq="-14"/>
      </extensions>
    </trkpt>
    <trkpt lat="45.6026232" lon="10.4537511">
      <ele>261.70001220703125</ele>
      <time>2026-09-30T19:27:06.247+02:00</time>
      <extensions>
        <activity type="STILL" conf="76" state="still" tsMs="1790789221911"/>
        <radio op="vodafone IT" rat="LTE" q="11.40" rsrp="-106" sinr="1" rsrq="-12"/>
        <radio op="I TIM" rat="LTE" rsrp="-102" rsrq="-14"/>
      </extensions>
    </trkpt>
    <trkpt lat="45.6025541" lon="10.4537392">
      <ele>261.70001220703125</ele>
      <time>2026-09-30T19:27:16.241+02:00</time>
      <extensions>
        <activity type="UNKNOWN" conf="40" state="unknown" tsMs="1790789227992"/>
        <radio op="vodafone IT" rat="LTE" q="48.60" rsrp="-98" sinr="13" rsrq="-6"/>
        <radio op="I TIM" rat="LTE" q="54.00" rsrp="-95" sinr="13" rsrq="-10"/>
      </extensions>
    </trkpt>
    <trkpt lat="45.602564" lon="10.4537318">
      <ele>261.70001220703125</ele>
      <time>2026-09-30T19:27:19.242+02:00</time>
      <extensions>
        <activity type="UNKNOWN" conf="40" state="unknown" tsMs="1790789227992"/>
        <radio op="vodafone IT" rat="LTE" q="70.00" rsrp="-97" sinr="22" rsrq="-11"/>
        <radio op="I TIM" rat="LTE" q="57.00" rsrp="-95" sinr="14" rsrq="-13"/>
      </extensions>
    </trkpt>
    <trkpt lat="45.6026582" lon="10.4536375">
      <ele>261.0</ele>
      <time>2026-09-30T19:27:57.669+02:00</time>
      <extensions>
        <activity type="UNKNOWN" conf="40" state="unknown" tsMs="1790789266708"/>
        <radio op="vodafone IT" rat="LTE" q="60.00" rsrp="-100" sinr="19" rsrq="-8"/>
        <radio op="I TIM" rat="LTE" q="52.20" rsrp="-96" sinr="13" rsrq="-12"/>
      </extensions>
    </trkpt>
    <trkpt lat="45.6027004" lon="10.4535362">
      <ele>257.5794150775331</ele>
      <time>2026-09-30T19:32:16.654+02:00</time>
      <extensions>
        <activity type="UNKNOWN" conf="40" state="unknown" tsMs="1790789547281"/>
        <radio op="vodafone IT" rat="LTE" rsrp="-101" rsrq="-13"/>
        <radio op="I TIM" rat="LTE" q="32.00" rsrp="-105" sinr="11" rsrq="-12"/>
      </extensions>
    </trkpt>
    <trkpt lat="45.6025631" lon="10.4536772">
      <ele>251.86065873676864</ele>
      <time>2026-09-30T19:32:49.189+02:00</time>
      <extensions>
        <activity type="UNKNOWN" conf="40" state="unknown" tsMs="1790789553425"/>
        <radio op="vodafone IT" rat="LTE" q="4.50" rsrp="-116" sinr="0" rsrq="-14"/>
        <radio op="I TIM" rat="LTE" q="1.20" rsrp="-123" sinr="1" rsrq="-13"/>
      </extensions>
    </trkpt>
    <trkpt lat="45.6025783" lon="10.4536977">
      <ele>251.4682128198607</ele>
      <time>2026-09-30T19:33:20.794+02:00</time>
      <extensions>
        <activity type="UNKNOWN" conf="40" state="unknown" tsMs="1790789592332"/>
        <radio op="vodafone IT" rat="LTE" q="4.50" rsrp="-116" sinr="0" rsrq="-14"/>
        <radio op="I TIM" rat="LTE" q="7.00" rsrp="-118" sinr="5" rsrq="-12"/>
      </extensions>
    </trkpt>
    <trkpt lat="45.6025604" lon="10.4536777">
      <ele>252.21975831546325</ele>
      <time>2026-09-30T19:33:52.437+02:00</time>
      <extensions>
        <activity type="STILL" conf="68" state="still" tsMs="1790789616961"/>
        <radio op="vodafone IT" rat="LTE" q="9.00" rsrp="-115" sinr="4" rsrq="-12"/>
        <radio op="I TIM" rat="LTE" rsrp="-115" rsrq="-10"/>
      </extensions>
    </trkpt>
    <trkpt lat="45.6025647" lon="10.4536859">
      <ele>254.6357093278213</ele>
      <time>2026-09-30T19:34:35.436+02:00</time>
      <extensions>
        <activity type="UNKNOWN" conf="40" state="unknown" tsMs="1790789673342"/>
        <radio op="vodafone IT" rat="LTE" q="28.80" rsrp="-107" sinr="11" rsrq="-13"/>
        <radio op="I TIM" rat="LTE" q="7.20" rsrp="-117" sinr="4" rsrq="-13"/>
      </extensions>
    </trkpt>
    <trkpt lat="45.6025623" lon="10.4536583">
      <ele>255.09755461935987</ele>
      <time>2026-09-30T19:35:10.823+02:00</time>
      <extensions>
        <activity type="STILL" conf="100" state="still" tsMs="1790789694359"/>
        <radio op="vodafone IT" rat="LTE" q="9.10" rsrp="-112" sinr="2" rsrq="-12"/>
        <radio op="I TIM" rat="LTE" rsrp="-107" rsrq="-13"/>
      </extensions>
    </trkpt>
    <trkpt lat="45.6025567" lon="10.4536761">
      <ele>261.0</ele>
      <time>2026-09-30T19:35:42.393+02:00</time>
      <extensions>
        <activity type="UNKNOWN" conf="40" state="unknown" tsMs="1790789727151"/>
        <radio op="vodafone IT" rat="LTE" q="5.40" rsrp="-116" sinr="1" rsrq="-16"/>
        <radio op="I TIM" rat="LTE" rsrp="-114" rsrq="-12"/>
      </extensions>
    </trkpt>
    <trkpt lat="45.6027911" lon="10.4534325">
      <ele>260.8000183105469</ele>
      <time>2026-09-30T20:28:57.817+02:00</time>
      <extensions>
        <activity type="UNKNOWN" conf="40" state="unknown" tsMs="1790792935480"/>
        <radio op="vodafone IT" rat="LTE" q="19.80" rsrp="-103" sinr="4" rsrq="-14"/>
        <radio op="I TIM" rat="LTE" q="11.70" rsrp="-112" sinr="4" rsrq="-12"/>
      </extensions>
    </trkpt>
    <trkpt lat="45.6013992" lon="10.4539659">
      <ele>260.8000183105469</ele>
      <time>2026-09-30T20:29:48.177+02:00</time>
      <extensions>
        <activity type="UNKNOWN" conf="40" state="unknown" tsMs="1790792985409"/>
        <radio op="vodafone IT" rat="LTE" q="10.40" rsrp="-112" sinr="3" rsrq="-12"/>
        <radio op="I TIM" rat="LTE" q="14.40" rsrp="-107" sinr="3" rsrq="-11"/>
      </extensions>
    </trkpt>
    <trkpt lat="45.6044632" lon="10.4625031">
      <ele>266.1000061035156</ele>
      <time>2026-09-30T20:30:46.815+02:00</time>
      <extensions>
        <activity type="UNKNOWN" conf="40" state="unknown" tsMs="1790793046415"/>
        <radio op="vodafone IT" rat="LTE" q="81.90" rsrp="-86" sinr="16" rsrq="-11"/>
        <radio op="I TIM" rat="LTE" q="42.00" rsrp="-97" sinr="10" rsrq="-12"/>
      </extensions>
    </trkpt>
    <trkpt lat="45.6106463" lon="10.4952368">
      <ele>218.00001525878906</ele>
      <time>2026-09-30T20:34:05.691+02:00</time>
      <extensions>
        <activity type="IN_VEHICLE" conf="90" state="moving" tsMs="1790793240593"/>
        <radio op="vodafone IT" rat="LTE" q="18.20" rsrp="-112" sinr="9" rsrq="-10"/>
        <radio op="I TIM" rat="LTE" rsrp="-115" rsrq="-17"/>
      </extensions>
    </trkpt>
    <trkpt lat="45.6119587" lon="10.4957637">
      <ele>217.8000030517578</ele>
      <time>2026-09-30T20:34:40.27+02:00</time>
      <extensions>
        <activity type="IN_VEHICLE" conf="87" state="moving" tsMs="1790793272597"/>
        <radio op="vodafone IT" rat="LTE" q="28.80" rsrp="-107" sinr="11" rsrq="-11"/>
        <radio op="I TIM" rat="LTE" rsrp="-116" rsrq="-17"/>
      </extensions>
    </trkpt>
    <trkpt lat="45.617902" lon="10.4932605">
      <ele>223.57278390661673</ele>
      <time>2026-09-30T20:35:51.274+02:00</time>
      <extensions>
        <activity type="UNKNOWN" conf="40" state="unknown" tsMs="1790793362415"/>
        <radio op="vodafone IT" rat="LTE" q="18.90" rsrp="-98" sinr="2" rsrq="-11"/>
        <radio op="I TIM" rat="LTE" q="50.40" rsrp="-104" sinr="19" rsrq="-6"/>
      </extensions>
    </trkpt>
    <trkpt lat="45.617729" lon="10.4932743">
      <ele>224.00001525878906</ele>
      <time>2026-09-30T20:36:22.581+02:00</time>
      <extensions>
        <activity type="UNKNOWN" conf="40" state="unknown" tsMs="1790793362415"/>
        <radio op="vodafone IT" rat="LTE" q="43.20" rsrp="-107" sinr="19" rsrq="-7"/>
        <radio op="I TIM" rat="LTE" q="28.80" rsrp="-107" sinr="11" rsrq="-6"/>
      </extensions>
    </trkpt>
    <trkpt lat="45.6177054" lon="10.493207">
      <ele>223.20001220703125</ele>
      <time>2026-09-30T20:36:57.592+02:00</time>
      <extensions>
        <activity type="UNKNOWN" conf="40" state="unknown" tsMs="1790793398872"/>
        <radio op="vodafone IT" rat="LTE" q="67.50" rsrp="-98" sinr="21" rsrq="-11"/>
        <radio op="I TIM" rat="LTE" q="33.80" rsrp="-99" sinr="8" rsrq="-10"/>
      </extensions>
    </trkpt>
    <trkpt lat="45.6176745" lon="10.4931684">
      <ele>223.20001220703125</ele>
      <time>2026-09-30T20:37:38.594+02:00</time>
      <extensions>
        <activity type="ON_FOOT" conf="83" state="moving" tsMs="1790793436790"/>
        <radio op="vodafone IT" rat="LTE" q="77.50" rsrp="-94" sinr="23" rsrq="-10"/>
        <radio op="I TIM" rat="LTE" q="52.80" rsrp="-103" sinr="19" rsrq="-8"/>
      </extensions>
    </trkpt>
    <trkpt lat="45.6176593" lon="10.493226">
      <ele>223.20001220703125</ele>
      <time>2026-09-30T20:38:16.641+02:00</time>
      <extensions>
        <activity type="ON_FOOT" conf="88" state="moving" tsMs="1790793482026"/>
        <radio op="vodafone IT" rat="LTE" q="64.80" rsrp="-98" sinr="19" rsrq="-13"/>
        <radio op="I TIM" rat="LTE" q="70.00" rsrp="-97" sinr="29" rsrq="-6"/>
      </extensions>
    </trkpt>
    <trkpt lat="45.6176212" lon="10.4931569">
      <ele>223.20001220703125</ele>
      <time>2026-09-30T20:38:56.017+02:00</time>
      <extensions>
        <activity type="UNKNOWN" conf="40" state="unknown" tsMs="1790793534457"/>
        <radio op="vodafone IT" rat="LTE" q="62.50" rsrp="-100" sinr="22" rsrq="-10"/>
        <radio op="I TIM" rat="LTE" q="58.80" rsrp="-97" sinr="16" rsrq="-10"/>
      </extensions>
    </trkpt>
    <trkpt lat="45.617703" lon="10.4932126">
      <ele>223.20001220703125</ele>
      <time>2026-09-30T20:39:27.882+02:00</time>
      <extensions>
        <activity type="STILL" conf="100" state="still" tsMs="1790793552773"/>
        <radio op="vodafone IT" rat="LTE" q="35.20" rsrp="-103" sinr="11" rsrq="-10"/>
        <radio op="I TIM" rat="LTE" q="64.60" rsrp="-91" sinr="14" rsrq="-8"/>
      </extensions>
    </trkpt>
    <trkpt lat="45.6177156" lon="10.4932332">
      <ele>223.20001220703125</ele>
      <time>2026-09-30T20:39:59.018+02:00</time>
      <extensions>
        <activity type="UNKNOWN" conf="40" state="unknown" tsMs="1790793588182"/>
        <radio op="vodafone IT" rat="LTE" q="45.00" rsrp="-100" sinr="13" rsrq="-8"/>
        <radio op="I TIM" rat="LTE" q="84.00" rsrp="-90" sinr="19" rsrq="-5"/>
      </extensions>
    </trkpt>
    <trkpt lat="45.6177157" lon="10.493233">
      <ele>223.20001220703125</ele>
      <time>2026-09-30T20:40:56.467+02:00</time>
      <extensions>
        <activity type="UNKNOWN" conf="40" state="unknown" tsMs="1790793655415"/>
        <radio op="vodafone IT" rat="LTE" q="55.00" rsrp="-103" sinr="24" rsrq="-12"/>
        <radio op="I TIM" rat="LTE" q="41.60" rsrp="-93" sinr="8" rsrq="-12"/>
      </extensions>
    </trkpt>
    <trkpt lat="45.6176571" lon="10.493256">
      <ele>223.20001220703125</ele>
      <time>2026-09-30T20:41:46.667+02:00</time>
      <extensions>
        <activity type="UNKNOWN" conf="40" state="unknown" tsMs="1790793700539"/>
        <radio op="vodafone IT" rat="LTE" q="50.40" rsrp="-101" sinr="16" rsrq="-8"/>
        <radio op="I TIM" rat="LTE" q="72.50" rsrp="-96" sinr="23" rsrq="-6"/>
      </extensions>
    </trkpt>
    <trkpt lat="45.6177034" lon="10.4932008">
      <ele>223.20001220703125</ele>
      <time>2026-09-30T20:42:40.656+02:00</time>
      <extensions>
        <activity type="UNKNOWN" conf="40" state="unknown" tsMs="1790793760425"/>
        <radio op="vodafone IT" rat="LTE" q="60.00" rsrp="-101" sinr="21" rsrq="-11"/>
        <radio op="I TIM" rat="LTE" q="70.00" rsrp="-97" sinr="22" rsrq="-10"/>
      </extensions>
    </trkpt>
    <trkpt lat="45.6177147" lon="10.4932077">
      <ele>223.20001220703125</ele>
      <time>2026-09-30T20:43:08.571+02:00</time>
      <extensions>
        <activity type="UNKNOWN" conf="40" state="unknown" tsMs="1790793776886"/>
        <radio op="vodafone IT" rat="LTE" q="62.50" rsrp="-100" sinr="20" rsrq="-10"/>
        <radio op="I TIM" rat="LTE" q="92.50" rsrp="-88" sinr="20" rsrq="-7"/>
      </extensions>
    </trkpt>
    <trkpt lat="45.6177239" lon="10.4932379">
      <ele>223.20001220703125</ele>
      <time>2026-09-30T20:43:42.723+02:00</time>
      <extensions>
        <activity type="UNKNOWN" conf="40" state="unknown" tsMs="1790793802772"/>
        <radio op="vodafone IT" rat="LTE" q="60.00" rsrp="-101" sinr="20" rsrq="-8"/>
        <radio op="I TIM" rat="LTE" q="63.80" rsrp="-96" sinr="17" rsrq="-7"/>
      </extensions>
    </trkpt>
    <trkpt lat="45.6177027" lon="10.4932592">
      <ele>223.20001220703125</ele>
      <time>2026-09-30T20:44:08.819+02:00</time>
      <extensions>
        <activity type="STILL" conf="33" state="still" tsMs="1790793838953"/>
        <radio op="vodafone IT" rat="LTE" q="72.00" rsrp="-95" sinr="19" rsrq="-9"/>
        <radio op="I TIM" rat="LTE" q="78.20" rsrp="-91" sinr="18" rsrq="-7"/>
      </extensions>
    </trkpt>
    <trkpt lat="45.6177164" lon="10.4932196">
      <ele>223.20001220703125</ele>
      <time>2026-09-30T20:44:44.274+02:00</time>
      <extensions>
        <activity type="STILL" conf="99" state="still" tsMs="1790793870852"/>
        <radio op="vodafone IT" rat="LTE" q="72.60" rsrp="-92" sinr="17" rsrq="-5"/>
        <radio op="I TIM" rat="LTE" q="85.00" rsrp="-91" sinr="20" rsrq="-5"/>
      </extensions>
    </trkpt>
    <trkpt lat="45.6175099" lon="10.4943232">
      <ele>223.20001220703125</ele>
      <time>2026-09-30T20:52:09.274+02:00</time>
      <extensions>
        <activity type="UNKNOWN" conf="40" state="unknown" tsMs="1790794321178"/>
        <radio op="vodafone IT" rat="LTE" q="60.00" rsrp="-101" sinr="20" rsrq="-8"/>
        <radio op="I TIM" rat="LTE" q="33.00" rsrp="-95" sinr="6" rsrq="-7"/>
      </extensions>
    </trkpt>
    <trkpt lat="45.6177113" lon="10.4932344">
      <ele>223.20001220703125</ele>
      <time>2026-09-30T20:52:44.731+02:00</time>
      <extensions>
        <activity type="UNKNOWN" conf="40" state="unknown" tsMs="1790794347147"/>
        <radio op="vodafone IT" rat="LTE" q="62.50" rsrp="-100" sinr="23" rsrq="-12"/>
        <radio op="I TIM" rat="LTE" q="62.10" rsrp="-98" sinr="18" rsrq="-9"/>
      </extensions>
    </trkpt>
    <trkpt lat="45.6177258" lon="10.4932378">
      <ele>223.20001220703125</ele>
      <time>2026-09-30T20:53:16.199+02:00</time>
      <extensions>
        <activity type="UNKNOWN" conf="40" state="unknown" tsMs="1790794385985"/>
        <radio op="vodafone IT" rat="LTE" q="42.00" rsrp="-105" sinr="16" rsrq="-10"/>
        <radio op="I TIM" rat="LTE" q="75.00" rsrp="-95" sinr="24" rsrq="-12"/>
      </extensions>
    </trkpt>
    <trkpt lat="45.6177003" lon="10.493209">
      <ele>223.20001220703125</ele>
      <time>2026-09-30T20:53:47.721+02:00</time>
      <extensions>
        <activity type="ON_FOOT" conf="88" state="moving" tsMs="1790794411880"/>
        <radio op="vodafone IT" rat="LTE" q="65.00" rsrp="-99" sinr="24" rsrq="-11"/>
        <radio op="I TIM" rat="LTE" q="80.00" rsrp="-93" sinr="24" rsrq="-7"/>
      </extensions>
    </trkpt>
    <trkpt lat="45.6176282" lon="10.4931326">
      <ele>223.20001220703125</ele>
      <time>2026-09-30T20:54:19.134+02:00</time>
      <extensions>
        <activity type="UNKNOWN" conf="40" state="unknown" tsMs="1790794447388"/>
        <radio op="vodafone IT" rat="LTE" q="40.60" rsrp="-96" sinr="9" rsrq="-9"/>
        <radio op="I TIM" rat="LTE" q="66.30" rsrp="-86" sinr="12" rsrq="-10"/>
      </extensions>
    </trkpt>
    <trkpt lat="45.61763" lon="10.4931362">
      <ele>223.20001220703125</ele>
      <time>2026-09-30T20:54:50.341+02:00</time>
      <extensions>
        <activity type="UNKNOWN" conf="40" state="unknown" tsMs="1790794473352"/>
        <radio op="vodafone IT" rat="LTE" q="77.50" rsrp="-94" sinr="20" rsrq="-8"/>
        <radio op="I TIM" rat="LTE" q="64.00" rsrp="-93" sinr="15" rsrq="-10"/>
      </extensions>
    </trkpt>
    <trkpt lat="45.6176262" lon="10.4931375">
      <ele>223.20001220703125</ele>
      <time>2026-09-30T20:55:21.674+02:00</time>
      <extensions>
        <activity type="STILL" conf="100" state="still" tsMs="1790794508749"/>
        <radio op="vodafone IT" rat="LTE" q="69.00" rsrp="-95" sinr="18" rsrq="-12"/>
        <radio op="I TIM" rat="LTE" q="72.00" rsrp="-95" sinr="19" rsrq="-9"/>
      </extensions>
    </trkpt>
    <trkpt lat="45.6176879" lon="10.4932437">
      <ele>223.20001220703125</ele>
      <time>2026-09-30T20:55:53.176+02:00</time>
      <extensions>
        <activity type="STILL" conf="100" state="still" tsMs="1790794546932"/>
        <radio op="vodafone IT" rat="LTE" q="51.00" rsrp="-95" sinr="12" rsrq="-9"/>
        <radio op="I TIM" rat="LTE" q="24.80" rsrp="-94" sinr="3" rsrq="-9"/>
      </extensions>
    </trkpt>
    <trkpt lat="45.6176612" lon="10.4932482">
      <ele>223.20001220703125</ele>
      <time>2026-09-30T20:56:24.61+02:00</time>
      <extensions>
        <activity type="STILL" conf="100" state="still" tsMs="1790794578837"/>
        <radio op="vodafone IT" rat="LTE" q="46.00" rsrp="-102" sinr="15" rsrq="-11"/>
        <radio op="I TIM" rat="LTE" q="65.10" rsrp="-94" sinr="16" rsrq="-10"/>
      </extensions>
    </trkpt>
    <trkpt lat="45.6176653" lon="10.4932406">
      <ele>223.20001220703125</ele>
      <time>2026-09-30T20:56:56.148+02:00</time>
      <extensions>
        <activity type="STILL" conf="99" state="still" tsMs="1790794610294"/>
        <radio op="vodafone IT" rat="LTE" q="42.00" rsrp="-104" sinr="15" rsrq="-8"/>
        <radio op="I TIM" rat="LTE" q="57.50" rsrp="-102" sinr="20" rsrq="-5"/>
      </extensions>
    </trkpt>
    <trkpt lat="45.6177022" lon="10.4932255">
      <ele>223.20001220703125</ele>
      <time>2026-09-30T20:57:27.323+02:00</time>
      <extensions>
        <activity type="STILL" conf="53" state="still" tsMs="1790794628941"/>
        <radio op="vodafone IT" rat="LTE" q="55.10" rsrp="-96" sinr="14" rsrq="-11"/>
        <radio op="I TIM" rat="LTE" q="55.80" rsrp="-94" sinr="13" rsrq="-10"/>
      </extensions>
    </trkpt>
    <trkpt lat="45.617717" lon="10.4932205">
      <ele>223.20001220703125</ele>
      <time>2026-09-30T20:57:58.56+02:00</time>
      <extensions>
        <activity type="STILL" conf="46" state="still" tsMs="1790794667701"/>
        <radio op="vodafone IT" rat="LTE" q="60.90" rsrp="-96" sinr="16" rsrq="-9"/>
        <radio op="I TIM" rat="LTE" q="79.20" rsrp="-92" sinr="19" rsrq="-6"/>
      </extensions>
    </trkpt>
    <trkpt lat="45.6177058" lon="10.4932136">
      <ele>223.20001220703125</ele>
      <time>2026-09-30T20:58:29.623+02:00</time>
      <extensions>
        <activity type="UNKNOWN" conf="40" state="unknown" tsMs="1790794693574"/>
        <radio op="vodafone IT" rat="LTE" q="62.10" rsrp="-98" sinr="18" rsrq="-9"/>
        <radio op="I TIM" rat="LTE" rsrp="-93" rsrq="-7"/>
      </extensions>
    </trkpt>
    <trkpt lat="45.6177042" lon="10.4932213">
      <ele>223.20001220703125</ele>
      <time>2026-09-30T20:59:00.826+02:00</time>
      <extensions>
        <activity type="UNKNOWN" conf="40" state="unknown" tsMs="1790794732222"/>
        <radio op="vodafone IT" rat="LTE" q="75.00" rsrp="-95" sinr="25" rsrq="-6"/>
        <radio op="I TIM" rat="LTE" q="54.00" rsrp="-89" sinr="10" rsrq="-8"/>
      </extensions>
    </trkpt>
    <trkpt lat="45.6176199" lon="10.493174">
      <ele>223.20001220703125</ele>
      <time>2026-09-30T21:00:44.849+02:00</time>
      <extensions>
        <activity type="ON_FOOT" conf="97" state="moving" tsMs="1790794847454"/>
        <radio op="vodafone IT" rat="LTE" q="58.00" rsrp="-96" sinr="15" rsrq="-7"/>
        <radio op="I TIM" rat="LTE" q="70.00" rsrp="-97" sinr="23" rsrq="-8"/>
      </extensions>
    </trkpt>
    <trkpt lat="45.6177143" lon="10.4932208">
      <ele>223.20001220703125</ele>
      <time>2026-09-30T21:01:16.339+02:00</time>
      <extensions>
        <activity type="ON_FOOT" conf="96" state="moving" tsMs="1790794860372"/>
        <radio op="vodafone IT" rat="LTE" q="34.50" rsrp="-102" sinr="10" rsrq="-8"/>
        <radio op="I TIM" rat="LTE" q="72.00" rsrp="-89" sinr="15" rsrq="-6"/>
      </extensions>
    </trkpt>
    <trkpt lat="45.6177052" lon="10.4932324">
      <ele>223.20001220703125</ele>
      <time>2026-09-30T21:01:47.687+02:00</time>
      <extensions>
        <activity type="UNKNOWN" conf="40" state="unknown" tsMs="1790794898961"/>
        <radio op="vodafone IT" rat="LTE" q="70.00" rsrp="-97" sinr="23" rsrq="-7"/>
        <radio op="I TIM" rat="LTE" q="72.50" rsrp="-96" sinr="24" rsrq="-9"/>
      </extensions>
    </trkpt>
    <trkpt lat="45.6176844" lon="10.4932111">
      <ele>223.20001220703125</ele>
      <time>2026-09-30T21:02:18.887+02:00</time>
      <extensions>
        <activity type="ON_FOOT" conf="89" state="moving" tsMs="1790794923892"/>
        <radio op="vodafone IT" rat="LTE" q="36.00" rsrp="-105" sinr="13" rsrq="-6"/>
        <radio op="I TIM" rat="LTE" q="62.10" rsrp="-98" sinr="18" rsrq="-5"/>
      </extensions>
    </trkpt>
    <trkpt lat="45.6176235" lon="10.4931449">
      <ele>223.20001220703125</ele>
      <time>2026-09-30T21:02:50.044+02:00</time>
      <extensions>
        <activity type="ON_FOOT" conf="91" state="moving" tsMs="1790794962899"/>
        <radio op="vodafone IT" rat="LTE" q="46.00" rsrp="-105" sinr="18" rsrq="-7"/>
        <radio op="I TIM" rat="LTE" q="61.60" rsrp="-97" sinr="17" rsrq="-5"/>
      </extensions>
    </trkpt>
    <trkpt lat="45.6177175" lon="10.4932329">
      <ele>223.20001220703125</ele>
      <time>2026-09-30T21:03:21.431+02:00</time>
      <extensions>
        <activity type="ON_FOOT" conf="86" state="moving" tsMs="1790794986240"/>
        <radio op="vodafone IT" rat="LTE" q="50.00" rsrp="-105" sinr="20" rsrq="-10"/>
        <radio op="I TIM" rat="LTE" q="62.10" rsrp="-98" sinr="18" rsrq="-5"/>
      </extensions>
    </trkpt>
    <trkpt lat="45.6177035" lon="10.4932196">
      <ele>223.20001220703125</ele>
      <time>2026-09-30T21:03:52.727+02:00</time>
      <extensions>
        <activity type="ON_FOOT" conf="87" state="moving" tsMs="1790795025193"/>
        <radio op="vodafone IT" rat="LTE" rsrp="-93" rsrq="-5"/>
        <radio op="I TIM" rat="LTE" q="66.00" rsrp="-95" sinr="17" rsrq="-7"/>
      </extensions>
    </trkpt>
    <trkpt lat="45.6176595" lon="10.4932531">
      <ele>221.18399961451127</ele>
      <time>2026-09-30T21:04:24.05+02:00</time>
      <extensions>
        <activity type="ON_FOOT" conf="88" state="moving" tsMs="1790795048918"/>
        <radio op="vodafone IT" rat="LTE" q="36.10" rsrp="-106" sinr="14" rsrq="-7"/>
        <radio op="I TIM" rat="LTE" q="73.60" rsrp="-93" sinr="18" rsrq="-12"/>
      </extensions>
    </trkpt>
    <trkpt lat="45.6176306" lon="10.4931265">
      <ele>223.20001220703125</ele>
      <time>2026-09-30T21:04:55.374+02:00</time>
      <extensions>
        <activity type="ON_FOOT" conf="94" state="moving" tsMs="1790795087965"/>
        <radio op="vodafone IT" rat="LTE" rsrp="-102" rsrq="-7"/>
        <radio op="I TIM" rat="LTE" q="60.00" rsrp="-101" sinr="20" rsrq="-6"/>
      </extensions>
    </trkpt>
    <trkpt lat="45.6177028" lon="10.4932242">
      <ele>223.20001220703125</ele>
      <time>2026-09-30T21:05:26.587+02:00</time>
      <extensions>
        <activity type="ON_FOOT" conf="93" state="moving" tsMs="1790795111461"/>
        <radio op="vodafone IT" rat="LTE" q="57.50" rsrp="-102" sinr="20" rsrq="-9"/>
        <radio op="I TIM" rat="LTE" q="70.00" rsrp="-97" sinr="23" rsrq="-5"/>
      </extensions>
    </trkpt>
    <trkpt lat="45.6176632" lon="10.4932253">
      <ele>223.20001220703125</ele>
      <time>2026-09-30T21:05:57.85+02:00</time>
      <extensions>
        <activity type="UNKNOWN" conf="40" state="unknown" tsMs="1790795150346"/>
        <radio op="vodafone IT" rat="LTE" q="67.50" rsrp="-98" sinr="22" rsrq="-7"/>
        <radio op="I TIM" rat="LTE" q="82.50" rsrp="-92" sinr="22" rsrq="-11"/>
      </extensions>
    </trkpt>
    <trkpt lat="45.617693" lon="10.4931959">
      <ele>223.20001220703125</ele>
      <time>2026-09-30T21:06:29.162+02:00</time>
      <extensions>
        <activity type="UNKNOWN" conf="40" state="unknown" tsMs="1790795174061"/>
        <radio op="vodafone IT" rat="LTE" q="50.00" rsrp="-100" sinr="15" rsrq="-9"/>
        <radio op="I TIM" rat="LTE" q="52.90" rsrp="-102" sinr="18" rsrq="-6"/>
      </extensions>
    </trkpt>
    <trkpt lat="45.6176323" lon="10.4931392">
      <ele>223.20001220703125</ele>
      <time>2026-09-30T21:07:00.481+02:00</time>
      <extensions>
        <activity type="ON_FOOT" conf="89" state="moving" tsMs="1790795213008"/>
        <radio op="vodafone IT" rat="LTE" q="14.40" rsrp="-107" sinr="3" rsrq="-11"/>
        <radio op="I TIM" rat="LTE" q="80.00" rsrp="-93" sinr="27" rsrq="-8"/>
      </extensions>
    </trkpt>
    <trkpt lat="45.6176764" lon="10.4932347">
      <ele>223.20001220703125</ele>
      <time>2026-09-30T21:07:31.785+02:00</time>
      <extensions>
        <activity type="ON_FOOT" conf="93" state="moving" tsMs="1790795236669"/>
        <radio op="vodafone IT" rat="LTE" q="71.30" rsrp="-94" sinr="18" rsrq="-8"/>
        <radio op="I TIM" rat="LTE" q="69.00" rsrp="-95" sinr="18" rsrq="-10"/>
      </extensions>
    </trkpt>
    <trkpt lat="45.6176219" lon="10.4931624">
      <ele>223.20001220703125</ele>
      <time>2026-09-30T21:08:03.14+02:00</time>
      <extensions>
        <activity type="UNKNOWN" conf="40" state="unknown" tsMs="1790795275577"/>
        <radio op="vodafone IT" rat="LTE" q="67.20" rsrp="-97" sinr="19" rsrq="-13"/>
        <radio op="I TIM" rat="LTE" q="90.00" rsrp="-89" sinr="24" rsrq="-10"/>
      </extensions>
    </trkpt>
    <trkpt lat="45.6176339" lon="10.4931396">
      <ele>223.20001220703125</ele>
      <time>2026-09-30T21:08:34.498+02:00</time>
      <extensions>
        <activity type="ON_FOOT" conf="93" state="moving" tsMs="1790795299246"/>
        <radio op="vodafone IT" rat="LTE" q="42.50" rsrp="-100" sinr="12" rsrq="-7"/>
        <radio op="I TIM" rat="LTE" q="57.00" rsrp="-95" sinr="14" rsrq="-7"/>
      </extensions>
    </trkpt>
    <trkpt lat="45.6176563" lon="10.4933521">
      <ele>223.20001220703125</ele>
      <time>2026-09-30T21:09:05.836+02:00</time>
      <extensions>
        <activity type="UNKNOWN" conf="40" state="unknown" tsMs="1790795338241"/>
        <radio op="vodafone IT" rat="LTE" q="50.40" rsrp="-101" sinr="16" rsrq="-11"/>
        <radio op="I TIM" rat="LTE" q="72.50" rsrp="-96" sinr="22" rsrq="-8"/>
      </extensions>
    </trkpt>
    <trkpt lat="45.6176281" lon="10.4931535">
      <ele>223.20001220703125</ele>
      <time>2026-09-30T21:09:37.144+02:00</time>
      <extensions>
        <activity type="UNKNOWN" conf="40" state="unknown" tsMs="1790795362063"/>
        <radio op="vodafone IT" rat="LTE" q="50.60" rsrp="-103" sinr="18" rsrq="-10"/>
        <radio op="I TIM" rat="LTE" q="61.60" rsrp="-97" sinr="17" rsrq="-8"/>
      </extensions>
    </trkpt>
    <trkpt lat="45.6177001" lon="10.4932058">
      <ele>223.20001220703125</ele>
      <time>2026-09-30T21:10:08.498+02:00</time>
      <extensions>
        <activity type="UNKNOWN" conf="40" state="unknown" tsMs="1790795401069"/>
        <radio op="vodafone IT" rat="LTE" q="59.80" rsrp="-99" sinr="18" rsrq="-12"/>
        <radio op="I TIM" rat="LTE" q="72.50" rsrp="-96" sinr="20" rsrq="-9"/>
      </extensions>
    </trkpt>
    <trkpt lat="45.6176709" lon="10.4932018">
      <ele>223.20001220703125</ele>
      <time>2026-09-30T21:10:39.74+02:00</time>
      <extensions>
        <activity type="UNKNOWN" conf="40" state="unknown" tsMs="1790795424719"/>
        <radio op="vodafone IT" rat="LTE" q="39.00" rsrp="-95" sinr="8" rsrq="-8"/>
        <radio op="I TIM" rat="LTE" q="77.50" rsrp="-94" sinr="21" rsrq="-7"/>
      </extensions>
    </trkpt>
    <trkpt lat="45.6176266" lon="10.4931374">
      <ele>223.20001220703125</ele>
      <time>2026-09-30T21:11:11.094+02:00</time>
      <extensions>
        <activity type="ON_FOOT" conf="87" state="moving" tsMs="1790795450731"/>
        <radio op="vodafone IT" rat="LTE" q="62.50" rsrp="-100" sinr="21" rsrq="-7"/>
        <radio op="I TIM" rat="LTE" q="48.00" rsrp="-95" sinr="11" rsrq="-9"/>
      </extensions>
    </trkpt>
    <trkpt lat="45.6176293" lon="10.4931422">
      <ele>223.20001220703125</ele>
      <time>2026-09-30T21:11:42.424+02:00</time>
      <extensions>
        <activity type="UNKNOWN" conf="40" state="unknown" tsMs="1790795487297"/>
        <radio op="vodafone IT" rat="LTE" q="60.00" rsrp="-101" sinr="22" rsrq="-8"/>
        <radio op="I TIM" rat="LTE" q="72.00" rsrp="-95" sinr="19" rsrq="-11"/>
      </extensions>
    </trkpt>
    <trkpt lat="45.6177233" lon="10.4932367">
      <ele>223.20001220703125</ele>
      <time>2026-09-30T21:12:13.729+02:00</time>
      <extensions>
        <activity type="STILL" conf="100" state="still" tsMs="1790795519468"/>
        <radio op="vodafone IT" rat="LTE" q="64.00" rsrp="-93" sinr="15" rsrq="-6"/>
        <radio op="I TIM" rat="LTE" q="88.80" rsrp="-88" sinr="19" rsrq="-12"/>
      </extensions>
    </trkpt>
    <trkpt lat="45.6176266" lon="10.4931374">
      <ele>223.20001220703125</ele>
      <time>2026-09-30T21:12:45.009+02:00</time>
      <extensions>
        <activity type="STILL" conf="100" state="still" tsMs="1790795554822"/>
        <radio op="vodafone IT" rat="LTE" q="57.50" rsrp="-102" sinr="20" rsrq="-6"/>
        <radio op="I TIM" rat="LTE" q="75.00" rsrp="-95" sinr="20" rsrq="-11"/>
      </extensions>
    </trkpt>
    <trkpt lat="45.6176283" lon="10.4931333">
      <ele>223.20001220703125</ele>
      <time>2026-09-30T21:13:16.267+02:00</time>
      <extensions>
        <activity type="STILL" conf="100" state="still" tsMs="1790795583359"/>
        <radio op="vodafone IT" rat="LTE" q="28.80" rsrp="-101" sinr="7" rsrq="-10"/>
        <radio op="I TIM" rat="LTE" q="72.00" rsrp="-95" sinr="19" rsrq="-8"/>
      </extensions>
    </trkpt>
    <trkpt lat="45.6176295" lon="10.4931374">
      <ele>223.20001220703125</ele>
      <time>2026-09-30T21:13:47.489+02:00</time>
      <extensions>
        <activity type="STILL" conf="100" state="still" tsMs="1790795618704"/>
        <radio op="vodafone IT" rat="LTE" q="52.80" rsrp="-101" sinr="17" rsrq="-10"/>
        <radio op="I TIM" rat="LTE" q="75.00" rsrp="-95" sinr="22" rsrq="-8"/>
      </extensions>
    </trkpt>
    <trkpt lat="45.6177025" lon="10.4932039">
      <ele>223.20001220703125</ele>
      <time>2026-09-30T21:14:18.735+02:00</time>
      <extensions>
        <activity type="STILL" conf="100" state="still" tsMs="1790795647211"/>
        <radio op="vodafone IT" rat="LTE" q="62.10" rsrp="-98" sinr="18" rsrq="-8"/>
        <radio op="I TIM" rat="LTE" q="71.30" rsrp="-94" sinr="18" rsrq="-10"/>
      </extensions>
    </trkpt>
    <trkpt lat="45.6176271" lon="10.4931357">
      <ele>223.20001220703125</ele>
      <time>2026-09-30T21:14:49.962+02:00</time>
      <extensions>
        <activity type="STILL" conf="100" state="still" tsMs="1790795685252"/>
        <radio op="vodafone IT" rat="LTE" q="48.40" rsrp="-103" sinr="17" rsrq="-7"/>
        <radio op="I TIM" rat="LTE" q="77.50" rsrp="-94" sinr="23" rsrq="-6"/>
      </extensions>
    </trkpt>
    <trkpt lat="45.6176287" lon="10.4931322">
      <ele>223.20001220703125</ele>
      <time>2026-09-30T21:15:21.246+02:00</time>
      <extensions>
        <activity type="STILL" conf="100" state="still" tsMs="1790795712202"/>
        <radio op="vodafone IT" rat="LTE" q="57.60" rsrp="-101" sinr="19" rsrq="-9"/>
        <radio op="I TIM" rat="LTE" q="75.00" rsrp="-95" sinr="24" rsrq="-7"/>
      </extensions>
    </trkpt>
    <trkpt lat="45.6177025" lon="10.4932038">
      <ele>223.20001220703125</ele>
      <time>2026-09-30T21:15:52.555+02:00</time>
      <extensions>
        <activity type="STILL" conf="100" state="still" tsMs="1790795740622"/>
        <radio op="vodafone IT" rat="LTE" q="72.50" rsrp="-96" sinr="26" rsrq="-7"/>
        <radio op="I TIM" rat="LTE" q="66.00" rsrp="-95" sinr="17" rsrq="-7"/>
      </extensions>
    </trkpt>
    <trkpt lat="45.6176171" lon="10.4931386">
      <ele>223.20001220703125</ele>
      <time>2026-09-30T21:26:32.103+02:00</time>
      <extensions>
        <activity type="STILL" conf="100" state="still" tsMs="1790796371600"/>
        <radio op="vodafone IT" rat="LTE" q="67.20" rsrp="-97" sinr="19" rsrq="-10"/>
        <radio op="I TIM" rat="LTE" q="70.00" rsrp="-97" sinr="20" rsrq="-5"/>
      </extensions>
    </trkpt>
    <trkpt lat="45.6177126" lon="10.4932185">
      <ele>223.20001220703125</ele>
      <time>2026-09-30T21:27:23.755+02:00</time>
      <extensions>
        <activity type="STILL" conf="100" state="still" tsMs="1790796433568"/>
        <radio op="vodafone IT" rat="LTE" q="52.50" rsrp="-104" sinr="21" rsrq="-7"/>
        <radio op="I TIM" rat="LTE" q="77.50" rsrp="-94" sinr="24" rsrq="-5"/>
      </extensions>
    </trkpt>
    <trkpt lat="45.6177184" lon="10.4932223">
      <ele>223.20001220703125</ele>
      <time>2026-09-30T21:27:54.905+02:00</time>
      <extensions>
        <activity type="UNKNOWN" conf="40" state="unknown" tsMs="1790796465698"/>
        <radio op="vodafone IT" rat="LTE" q="77.50" rsrp="-94" sinr="23" rsrq="-7"/>
        <radio op="I TIM" rat="LTE" q="95.00" rsrp="-87" sinr="21" rsrq="-6"/>
      </extensions>
    </trkpt>
    <trkpt lat="45.6177035" lon="10.4932278">
      <ele>223.20001220703125</ele>
      <time>2026-09-30T21:28:26.238+02:00</time>
      <extensions>
        <activity type="ON_FOOT" conf="91" state="moving" tsMs="1790796490987"/>
        <radio op="vodafone IT" rat="LTE" q="57.50" rsrp="-100" sinr="18" rsrq="-10"/>
        <radio op="I TIM" rat="LTE" q="77.50" rsrp="-94" sinr="23" rsrq="-8"/>
      </extensions>
    </trkpt>
    <trkpt lat="45.6177028" lon="10.4932182">
      <ele>223.20001220703125</ele>
      <time>2026-09-30T21:28:57.456+02:00</time>
      <extensions>
        <activity type="ON_FOOT" conf="89" state="moving" tsMs="1790796526303"/>
        <radio op="vodafone IT" rat="LTE" q="85.00" rsrp="-91" sinr="22" rsrq="-5"/>
        <radio op="I TIM" rat="LTE" q="56.00" rsrp="-85" sinr="9" rsrq="-7"/>
      </extensions>
    </trkpt>
    <trkpt lat="45.6176621" lon="10.4932336">
      <ele>223.20001220703125</ele>
      <time>2026-09-30T21:29:28.782+02:00</time>
      <extensions>
        <activity type="ON_FOOT" conf="91" state="moving" tsMs="1790796552148"/>
        <radio op="vodafone IT" rat="LTE" q="69.60" rsrp="-96" sinr="19" rsrq="-12"/>
        <radio op="I TIM" rat="LTE" q="77.50" rsrp="-94" sinr="21" rsrq="-8"/>
      </extensions>
    </trkpt>
    <trkpt lat="45.6177335" lon="10.4932099">
      <ele>223.20001220703125</ele>
      <time>2026-09-30T21:30:00.063+02:00</time>
      <extensions>
        <activity type="ON_FOOT" conf="96" state="moving" tsMs="1790796590905"/>
        <radio op="vodafone IT" rat="LTE" q="72.50" rsrp="-96" sinr="22" rsrq="-10"/>
        <radio op="I TIM" rat="LTE" q="37.20" rsrp="-94" sinr="7" rsrq="-9"/>
      </extensions>
    </trkpt>
    <trkpt lat="45.617702" lon="10.4932241">
      <ele>223.20001220703125</ele>
      <time>2026-09-30T21:30:31.484+02:00</time>
      <extensions>
        <activity type="STILL" conf="34" state="still" tsMs="1790796622228"/>
        <radio op="vodafone IT" rat="LTE" q="44.00" rsrp="-103" sinr="15" rsrq="-6"/>
        <radio op="I TIM" rat="LTE" q="71.30" rsrp="-94" sinr="18" rsrq="-11"/>
      </extensions>
    </trkpt>
    <trkpt lat="45.6177222" lon="10.4932325">
      <ele>223.20001220703125</ele>
      <time>2026-09-30T21:31:03.05+02:00</time>
      <extensions>
        <activity type="UNKNOWN" conf="40" state="unknown" tsMs="1790796647741"/>
        <radio op="vodafone IT" rat="LTE" q="54.00" rsrp="-98" sinr="15" rsrq="-8"/>
        <radio op="I TIM" rat="LTE" q="59.40" rsrp="-98" sinr="17" rsrq="-10"/>
      </extensions>
    </trkpt>
    <trkpt lat="45.617697" lon="10.4932069">
      <ele>223.20001220703125</ele>
      <time>2026-09-30T21:31:34.595+02:00</time>
      <extensions>
        <activity type="ON_FOOT" conf="91" state="moving" tsMs="1790796686776"/>
        <radio op="vodafone IT" rat="LTE" q="67.50" rsrp="-98" sinr="24" rsrq="-10"/>
        <radio op="I TIM" rat="LTE" q="67.50" rsrp="-98" sinr="21" rsrq="-6"/>
      </extensions>
    </trkpt>
    <trkpt lat="45.6176964" lon="10.4931938">
      <ele>223.20001220703125</ele>
      <time>2026-09-30T21:32:01.915+02:00</time>
      <extensions>
        <activity type="ON_BICYCLE" conf="97" state="moving" tsMs="1790796720400"/>
        <radio op="vodafone IT" rat="LTE" q="72.00" rsrp="-95" sinr="19" rsrq="-10"/>
        <radio op="I TIM" rat="LTE" q="70.00" rsrp="-97" sinr="26" rsrq="-8"/>
      </extensions>
    </trkpt>
    <trkpt lat="45.6177173" lon="10.4932182">
      <ele>223.20001220703125</ele>
      <time>2026-09-30T21:32:36.69+02:00</time>
      <extensions>
        <activity type="UNKNOWN" conf="40" state="unknown" tsMs="1790796742406"/>
        <radio op="vodafone IT" rat="LTE" q="48.00" rsrp="-101" sinr="15" rsrq="-8"/>
        <radio op="I TIM" rat="LTE" q="100.00" rsrp="-84" sinr="26" rsrq="-7"/>
      </extensions>
    </trkpt>
    <trkpt lat="45.6177034" lon="10.493216">
      <ele>223.20001220703125</ele>
      <time>2026-09-30T21:33:08.15+02:00</time>
      <extensions>
        <activity type="UNKNOWN" conf="40" state="unknown" tsMs="1790796774461"/>
        <radio op="vodafone IT" rat="LTE" q="56.10" rsrp="-92" sinr="12" rsrq="-7"/>
        <radio op="I TIM" rat="LTE" q="95.00" rsrp="-87" sinr="20" rsrq="-8"/>
      </extensions>
    </trkpt>
    <trkpt lat="45.6177006" lon="10.4932074">
      <ele>223.20001220703125</ele>
      <time>2026-09-30T21:33:39.559+02:00</time>
      <extensions>
        <activity type="STILL" conf="100" state="still" tsMs="1790796813328"/>
        <radio op="vodafone IT" rat="LTE" q="64.00" rsrp="-93" sinr="15" rsrq="-9"/>
        <radio op="I TIM" rat="LTE" q="73.60" rsrp="-93" sinr="18" rsrq="-7"/>
      </extensions>
    </trkpt>
    <trkpt lat="45.6177133" lon="10.4932255">
      <ele>223.20001220703125</ele>
      <time>2026-09-30T21:34:11.079+02:00</time>
      <extensions>
        <activity type="UNKNOWN" conf="40" state="unknown" tsMs="1790796835777"/>
        <radio op="vodafone IT" rat="LTE" q="36.80" rsrp="-102" sinr="11" rsrq="-9"/>
        <radio op="I TIM" rat="LTE" q="68.20" rsrp="-94" sinr="17" rsrq="-7"/>
      </extensions>
    </trkpt>
    <trkpt lat="45.6177009" lon="10.4932217">
      <ele>223.20001220703125</ele>
      <time>2026-09-30T21:34:41.935+02:00</time>
      <extensions>
        <activity type="STILL" conf="97" state="still" tsMs="1790796871441"/>
        <radio op="vodafone IT" rat="LTE" q="39.10" rsrp="-102" sinr="12" rsrq="-6"/>
        <radio op="I TIM" rat="LTE" q="74.80" rsrp="-91" sinr="17" rsrq="-10"/>
      </extensions>
    </trkpt>
    <trkpt lat="45.6177052" lon="10.4932344">
      <ele>223.20001220703125</ele>
      <time>2026-09-30T21:35:15.256+02:00</time>
      <extensions>
        <activity type="STILL" conf="100" state="still" tsMs="1790796903210"/>
        <radio op="vodafone IT" rat="LTE" q="52.50" rsrp="-100" sinr="16" rsrq="-8"/>
        <radio op="I TIM" rat="LTE" q="82.50" rsrp="-92" sinr="20" rsrq="-8"/>
      </extensions>
    </trkpt>
    <trkpt lat="45.617712" lon="10.4932181">
      <ele>223.20001220703125</ele>
      <time>2026-09-30T21:47:59.336+02:00</time>
      <extensions>
        <activity type="ON_FOOT" conf="88" state="moving" tsMs="1790797682549"/>
        <radio op="vodafone IT" rat="LTE" q="51.30" rsrp="-98" sinr="14" rsrq="-7"/>
        <radio op="I TIM" rat="LTE" q="69.00" rsrp="-95" sinr="18" rsrq="-9"/>
      </extensions>
    </trkpt>
    <trkpt lat="45.6176762" lon="10.4932135">
      <ele>223.20001220703125</ele>
      <time>2026-09-30T21:48:30.85+02:00</time>
      <extensions>
        <activity type="ON_FOOT" conf="89" state="moving" tsMs="1790797695519"/>
        <radio op="vodafone IT" rat="LTE" q="64.40" rsrp="-97" sinr="18" rsrq="-10"/>
        <radio op="I TIM" rat="LTE" q="67.50" rsrp="-98" sinr="22" rsrq="-8"/>
      </extensions>
    </trkpt>
    <trkpt lat="45.6177092" lon="10.4932222">
      <ele>223.20001220703125</ele>
      <time>2026-09-30T21:49:02.292+02:00</time>
      <extensions>
        <activity type="STILL" conf="100" state="still" tsMs="1790797734434"/>
        <radio op="vodafone IT" rat="LTE" q="60.00" rsrp="-101" sinr="24" rsrq="-8"/>
        <radio op="I TIM" rat="LTE" q="79.20" rsrp="-92" sinr="19" rsrq="-8"/>
      </extensions>
    </trkpt>
    <trkpt lat="45.617713" lon="10.4932168">
      <ele>223.20001220703125</ele>
      <time>2026-09-30T21:49:33.67+02:00</time>
      <extensions>
        <activity type="STILL" conf="98" state="still" tsMs="1790797766456"/>
        <radio op="vodafone IT" rat="LTE" q="49.40" rsrp="-99" sinr="14" rsrq="-11"/>
        <radio op="I TIM" rat="LTE" q="72.00" rsrp="-95" sinr="19" rsrq="-12"/>
      </extensions>
    </trkpt>
    <trkpt lat="45.6177003" lon="10.4932186">
      <ele>223.20001220703125</ele>
      <time>2026-09-30T21:50:05.111+02:00</time>
      <extensions>
        <activity type="STILL" conf="100" state="still" tsMs="1790797798343"/>
        <radio op="vodafone IT" rat="LTE" q="60.00" rsrp="-101" sinr="20" rsrq="-7"/>
        <radio op="I TIM" rat="LTE" q="80.00" rsrp="-93" sinr="20" rsrq="-8"/>
      </extensions>
    </trkpt>
    <trkpt lat="45.6176404" lon="10.4931601">
      <ele>223.20001220703125</ele>
      <time>2026-09-30T21:50:36.606+02:00</time>
      <extensions>
        <activity type="STILL" conf="99" state="still" tsMs="1790797826786"/>
        <radio op="vodafone IT" rat="LTE" q="52.80" rsrp="-103" sinr="19" rsrq="-6"/>
        <radio op="I TIM" rat="LTE" q="75.00" rsrp="-95" sinr="20" rsrq="-9"/>
      </extensions>
    </trkpt>
    <trkpt lat="45.6176382" lon="10.4931554">
      <ele>223.20001220703125</ele>
      <time>2026-09-30T21:51:08.172+02:00</time>
      <extensions>
        <activity type="STILL" conf="100" state="still" tsMs="1790797855336"/>
        <radio op="vodafone IT" rat="LTE" q="48.30" rsrp="-102" sinr="16" rsrq="-10"/>
        <radio op="I TIM" rat="LTE" q="69.60" rsrp="-96" sinr="19" rsrq="-7"/>
      </extensions>
    </trkpt>
    <trkpt lat="45.6176758" lon="10.4932394">
      <ele>223.20001220703125</ele>
      <time>2026-09-30T21:56:18.609+02:00</time>
      <extensions>
        <activity type="ON_FOOT" conf="89" state="moving" tsMs="1790798181766"/>
        <radio op="vodafone IT" rat="LTE" q="65.10" rsrp="-94" sinr="16" rsrq="-11"/>
        <radio op="I TIM" rat="LTE" q="85.00" rsrp="-91" sinr="22" rsrq="-8"/>
      </extensions>
    </trkpt>
    <trkpt lat="45.6176805" lon="10.4932094">
      <ele>223.20001220703125</ele>
      <time>2026-09-30T21:56:49.985+02:00</time>
      <extensions>
        <activity type="UNKNOWN" conf="40" state="unknown" tsMs="1790798194746"/>
        <radio op="vodafone IT" rat="LTE" q="48.00" rsrp="-93" sinr="10" rsrq="-10"/>
        <radio op="I TIM" rat="LTE" q="87.50" rsrp="-90" sinr="24" rsrq="-5"/>
      </extensions>
    </trkpt>
    <trkpt lat="45.6177043" lon="10.4932177">
      <ele>223.20001220703125</ele>
      <time>2026-09-30T21:57:21.427+02:00</time>
      <extensions>
        <activity type="UNKNOWN" conf="40" state="unknown" tsMs="1790798233778"/>
        <radio op="vodafone IT" rat="LTE" q="57.50" rsrp="-102" sinr="21" rsrq="-8"/>
        <radio op="I TIM" rat="LTE" q="77.50" rsrp="-94" sinr="23" rsrq="-7"/>
      </extensions>
    </trkpt>
    <trkpt lat="45.6177151" lon="10.4932165">
      <ele>223.20001220703125</ele>
      <time>2026-09-30T21:57:52.903+02:00</time>
      <extensions>
        <activity type="STILL" conf="100" state="still" tsMs="1790798257499"/>
        <radio op="vodafone IT" rat="LTE" q="53.20" rsrp="-97" sinr="14" rsrq="-7"/>
        <radio op="I TIM" rat="LTE" q="78.20" rsrp="-91" sinr="18" rsrq="-5"/>
      </extensions>
    </trkpt>
    <trkpt lat="45.6176224" lon="10.4931411">
      <ele>223.20001220703125</ele>
      <time>2026-09-30T21:58:24.402+02:00</time>
      <extensions>
        <activity type="UNKNOWN" conf="40" state="unknown" tsMs="1790798289408"/>
        <radio op="vodafone IT" rat="LTE" q="46.00" rsrp="-102" sinr="15" rsrq="-10"/>
        <radio op="I TIM" rat="LTE" q="82.50" rsrp="-92" sinr="25" rsrq="-8"/>
      </extensions>
    </trkpt>
    <trkpt lat="45.6176787" lon="10.4932168">
      <ele>223.20001220703125</ele>
      <time>2026-09-30T21:58:55.748+02:00</time>
      <extensions>
        <activity type="UNKNOWN" conf="40" state="unknown" tsMs="1790798328511"/>
        <radio op="vodafone IT" rat="LTE" q="46.40" rsrp="-96" sinr="11" rsrq="-9"/>
        <radio op="I TIM" rat="LTE" q="82.50" rsrp="-92" sinr="26" rsrq="-6"/>
      </extensions>
    </trkpt>
    <trkpt lat="45.6176973" lon="10.4931882">
      <ele>223.20001220703125</ele>
      <time>2026-09-30T21:59:27.263+02:00</time>
      <extensions>
        <activity type="UNKNOWN" conf="40" state="unknown" tsMs="1790798351794"/>
        <radio op="vodafone IT" rat="LTE" q="57.60" rsrp="-101" sinr="19" rsrq="-8"/>
        <radio op="I TIM" rat="LTE" q="75.00" rsrp="-95" sinr="25" rsrq="-8"/>
      </extensions>
    </trkpt>
    <trkpt lat="45.6176761" lon="10.4932342">
      <ele>223.20001220703125</ele>
      <time>2026-09-30T21:59:58.769+02:00</time>
      <extensions>
        <activity type="UNKNOWN" conf="40" state="unknown" tsMs="1790798390732"/>
        <radio op="vodafone IT" rat="LTE" q="60.00" rsrp="-101" sinr="20" rsrq="-8"/>
        <radio op="I TIM" rat="LTE" q="70.00" rsrp="-97" sinr="23" rsrq="-8"/>
      </extensions>
    </trkpt>
    <trkpt lat="45.6176253" lon="10.4931391">
      <ele>223.20001220703125</ele>
      <time>2026-09-30T22:00:30.239+02:00</time>
      <extensions>
        <activity type="STILL" conf="44" state="still" tsMs="1790798414920"/>
        <radio op="vodafone IT" rat="LTE" q="55.00" rsrp="-100" sinr="17" rsrq="-10"/>
        <radio op="I TIM" rat="LTE" q="70.00" rsrp="-97" sinr="27" rsrq="-7"/>
      </extensions>
    </trkpt>
    <trkpt lat="45.6177044" lon="10.4932309">
      <ele>223.20001220703125</ele>
      <time>2026-09-30T22:01:01.691+02:00</time>
      <extensions>
        <activity type="STILL" conf="100" state="still" tsMs="1790798456535"/>
        <radio op="vodafone IT" rat="LTE" q="34.80" rsrp="-96" sinr="7" rsrq="-10"/>
        <radio op="I TIM" rat="LTE" q="82.50" rsrp="-92" sinr="21" rsrq="-9"/>
      </extensions>
    </trkpt>
    <trkpt lat="45.6177045" lon="10.4932376">
      <ele>223.20001220703125</ele>
      <time>2026-09-30T22:01:33.227+02:00</time>
      <extensions>
        <activity type="STILL" conf="99" state="still" tsMs="1790798483905"/>
        <radio op="vodafone IT" rat="LTE" q="72.00" rsrp="-95" sinr="19" rsrq="-10"/>
        <radio op="I TIM" rat="LTE" q="89.70" rsrp="-86" sinr="18" rsrq="-7"/>
      </extensions>
    </trkpt>
    <trkpt lat="45.6177067" lon="10.4932257">
      <ele>223.20001220703125</ele>
      <time>2026-09-30T22:02:04.774+02:00</time>
      <extensions>
        <activity type="STILL" conf="96" state="still" tsMs="1790798512386"/>
        <radio op="vodafone IT" rat="LTE" q="70.00" rsrp="-97" sinr="21" rsrq="-9"/>
        <radio op="I TIM" rat="LTE" q="95.00" rsrp="-87" sinr="21" rsrq="-7"/>
      </extensions>
    </trkpt>
    <trkpt lat="45.6176418" lon="10.4931618">
      <ele>223.20001220703125</ele>
      <time>2026-09-30T22:02:36.347+02:00</time>
      <extensions>
        <activity type="STILL" conf="100" state="still" tsMs="1790798551236"/>
        <radio op="vodafone IT" rat="LTE" q="45.60" rsrp="-106" sinr="19" rsrq="-11"/>
        <radio op="I TIM" rat="LTE" q="67.50" rsrp="-98" sinr="20" rsrq="-6"/>
      </extensions>
    </trkpt>
    <trkpt lat="45.6176404" lon="10.4931601">
      <ele>223.20001220703125</ele>
      <time>2026-09-30T22:03:07.919+02:00</time>
      <extensions>
        <activity type="STILL" conf="100" state="still" tsMs="1790798578517"/>
        <radio op="vodafone IT" rat="LTE" q="35.00" rsrp="-100" sinr="9" rsrq="-9"/>
        <radio op="I TIM" rat="LTE" q="65.00" rsrp="-99" sinr="20" rsrq="-6"/>
      </extensions>
    </trkpt>
    <trkpt lat="45.6177089" lon="10.4932494">
      <ele>223.20001220703125</ele>
      <time>2026-09-30T22:03:39.369+02:00</time>
      <extensions>
        <activity type="STILL" conf="72" state="still" tsMs="1790798606984"/>
        <radio op="vodafone IT" rat="LTE" q="56.00" rsrp="-97" sinr="15" rsrq="-9"/>
        <radio op="I TIM" rat="LTE" q="67.20" rsrp="-93" sinr="16" rsrq="-7"/>
      </extensions>
    </trkpt>
    <trkpt lat="45.6177037" lon="10.4932293">
      <ele>223.20001220703125</ele>
      <time>2026-09-30T22:04:10.842+02:00</time>
      <extensions>
        <activity type="UNKNOWN" conf="40" state="unknown" tsMs="1790798632809"/>
        <radio op="vodafone IT" rat="LTE" q="52.50" rsrp="-100" sinr="16" rsrq="-11"/>
        <radio op="I TIM" rat="LTE" q="82.50" rsrp="-92" sinr="21" rsrq="-11"/>
      </extensions>
    </trkpt>
    <trkpt lat="45.6176293" lon="10.4931422">
      <ele>223.20001220703125</ele>
      <time>2026-09-30T22:08:49.701+02:00</time>
      <extensions>
        <activity type="UNKNOWN" conf="40" state="unknown" tsMs="1790798923951"/>
        <radio op="vodafone IT" rat="LTE" q="59.80" rsrp="-99" sinr="18" rsrq="-9"/>
        <radio op="I TIM" rat="LTE" q="64.00" rsrp="-93" sinr="15" rsrq="-6"/>
      </extensions>
    </trkpt>
    <trkpt lat="45.6177207" lon="10.4932445">
      <ele>223.20001220703125</ele>
      <time>2026-09-30T22:09:21.177+02:00</time>
      <extensions>
        <activity type="STILL" conf="100" state="still" tsMs="1790798949932"/>
        <radio op="vodafone IT" rat="LTE" q="67.50" rsrp="-98" sinr="21" rsrq="-9"/>
        <radio op="I TIM" rat="LTE" q="81.60" rsrp="-91" sinr="19" rsrq="-9"/>
      </extensions>
    </trkpt>
    <trkpt lat="45.6176361" lon="10.4931391">
      <ele>223.20001220703125</ele>
      <time>2026-09-30T22:09:52.694+02:00</time>
      <extensions>
        <activity type="STILL" conf="100" state="still" tsMs="1790798981974"/>
        <radio op="vodafone IT" rat="LTE" q="13.30" rsrp="-106" sinr="2" rsrq="-7"/>
        <radio op="I TIM" rat="LTE" q="75.00" rsrp="-95" sinr="26" rsrq="-8"/>
      </extensions>
    </trkpt>
    <trkpt lat="45.6176295" lon="10.4931374">
      <ele>223.20001220703125</ele>
      <time>2026-09-30T22:10:24.229+02:00</time>
      <extensions>
        <activity type="STILL" conf="100" state="still" tsMs="1790799020016"/>
        <radio op="vodafone IT" rat="LTE" q="52.50" rsrp="-100" sinr="16" rsrq="-11"/>
        <radio op="I TIM" rat="LTE" q="70.00" rsrp="-97" sinr="24" rsrq="-7"/>
      </extensions>
    </trkpt>
    <trkpt lat="45.6176255" lon="10.4931402">
      <ele>223.20001220703125</ele>
      <time>2026-09-30T22:10:55.798+02:00</time>
      <extensions>
        <activity type="STILL" conf="100" state="still" tsMs="1790799046480"/>
        <radio op="vodafone IT" rat="LTE" q="46.80" rsrp="-99" sinr="13" rsrq="-9"/>
        <radio op="I TIM" rat="LTE" q="77.50" rsrp="-94" sinr="24" rsrq="-8"/>
      </extensions>
    </trkpt>
    <trkpt lat="45.6176363" lon="10.4931546">
      <ele>223.20001220703125</ele>
      <time>2026-09-30T22:11:27.305+02:00</time>
      <extensions>
        <activity type="STILL" conf="100" state="still" tsMs="1790799074903"/>
        <radio op="vodafone IT" rat="LTE" q="50.60" rsrp="-102" sinr="17" rsrq="-11"/>
        <radio op="I TIM" rat="LTE" q="77.50" rsrp="-94" sinr="22" rsrq="-5"/>
      </extensions>
    </trkpt>
    <trkpt lat="45.6176335" lon="10.4931408">
      <ele>223.20001220703125</ele>
      <time>2026-09-30T22:11:53.854+02:00</time>
      <extensions>
        <activity type="STILL" conf="100" state="still" tsMs="1790799110379"/>
        <radio op="vodafone IT" rat="LTE" q="55.20" rsrp="-102" sinr="19" rsrq="-10"/>
        <radio op="I TIM" rat="LTE" q="75.00" rsrp="-95" sinr="27" rsrq="-6"/>
      </extensions>
    </trkpt>
    <trkpt lat="45.6176309" lon="10.4931426">
      <ele>223.20001220703125</ele>
      <time>2026-09-30T22:12:29.254+02:00</time>
      <extensions>
        <activity type="STILL" conf="100" state="still" tsMs="1790799138793"/>
        <radio op="vodafone IT" rat="LTE" q="15.60" rsrp="-99" sinr="1" rsrq="-10"/>
        <radio op="I TIM" rat="LTE" q="34.10" rsrp="-94" sinr="6" rsrq="-7"/>
      </extensions>
    </trkpt>
    <trkpt lat="45.6176341" lon="10.4931439">
      <ele>223.20001220703125</ele>
      <time>2026-09-30T22:13:00.834+02:00</time>
      <extensions>
        <activity type="STILL" conf="100" state="still" tsMs="1790799176829"/>
        <radio op="vodafone IT" rat="LTE" q="65.00" rsrp="-99" sinr="20" rsrq="-9"/>
        <radio op="I TIM" rat="LTE" q="76.80" rsrp="-93" sinr="19" rsrq="-8"/>
      </extensions>
    </trkpt>
    <trkpt lat="45.6177103" lon="10.4932148">
      <ele>223.20001220703125</ele>
      <time>2026-09-30T22:38:23.436+02:00</time>
      <extensions>
        <activity type="ON_FOOT" conf="98" state="moving" tsMs="1790800699187"/>
        <radio op="vodafone IT" rat="LTE" q="85.00" rsrp="-91" sinr="23" rsrq="-7"/>
        <radio op="I TIM" rat="LTE" q="50.60" rsrp="-102" sinr="17" rsrq="-7"/>
      </extensions>
    </trkpt>
    <trkpt lat="45.6177324" lon="10.4931785">
      <ele>224.00001525878906</ele>
      <time>2026-09-30T22:38:54.919+02:00</time>
      <extensions>
        <activity type="ON_FOOT" conf="96" state="moving" tsMs="1790800731060"/>
        <radio op="vodafone IT" rat="LTE" q="71.30" rsrp="-94" sinr="18" rsrq="-7"/>
        <radio op="I TIM" rat="LTE" q="60.00" rsrp="-100" sinr="19" rsrq="-8"/>
      </extensions>
    </trkpt>
    <trkpt lat="45.6177253" lon="10.4932392">
      <ele>224.00001525878906</ele>
      <time>2026-09-30T22:39:26.41+02:00</time>
      <extensions>
        <activity type="UNKNOWN" conf="40" state="unknown" tsMs="1790800751078"/>
        <radio op="vodafone IT" rat="LTE" q="59.80" rsrp="-99" sinr="18" rsrq="-8"/>
        <radio op="I TIM" rat="LTE" q="57.20" rsrp="-99" sinr="17" rsrq="-12"/>
      </extensions>
    </trkpt>
    <trkpt lat="45.6177073" lon="10.4932092">
      <ele>223.20001220703125</ele>
      <time>2026-09-30T22:39:57.858+02:00</time>
      <extensions>
        <activity type="STILL" conf="100" state="still" tsMs="1790800783151"/>
        <radio op="vodafone IT" rat="LTE" q="34.50" rsrp="-102" sinr="10" rsrq="-6"/>
        <radio op="I TIM" rat="LTE" q="62.70" rsrp="-92" sinr="14" rsrq="-9"/>
      </extensions>
    </trkpt>
    <trkpt lat="45.6177196" lon="10.4932236">
      <ele>224.00001525878906</ele>
      <time>2026-09-30T22:40:29.354+02:00</time>
      <extensions>
        <activity type="STILL" conf="96" state="still" tsMs="1790800818508"/>
        <radio op="vodafone IT" rat="LTE" q="44.10" rsrp="-104" sinr="16" rsrq="-11"/>
        <radio op="I TIM" rat="LTE" q="24.80" rsrp="-94" sinr="3" rsrq="-8"/>
      </extensions>
    </trkpt>
    <trkpt lat="45.6177158" lon="10.4932206">
      <ele>223.20001220703125</ele>
      <time>2026-09-30T22:41:00.837+02:00</time>
      <extensions>
        <activity type="STILL" conf="100" state="still" tsMs="1790800856460"/>
        <radio op="vodafone IT" rat="LTE" q="37.80" rsrp="-104" sinr="13" rsrq="-13"/>
        <radio op="I TIM" rat="LTE" q="68.20" rsrp="-94" sinr="17" rsrq="-10"/>
      </extensions>
    </trkpt>
    <trkpt lat="45.6177161" lon="10.493221">
      <ele>223.20001220703125</ele>
      <time>2026-09-30T22:41:32.31+02:00</time>
      <extensions>
        <activity type="STILL" conf="100" state="still" tsMs="1790800877002"/>
        <radio op="vodafone IT" rat="LTE" q="37.40" rsrp="-103" sinr="12" rsrq="-6"/>
        <radio op="I TIM" rat="LTE" q="21.00" rsrp="-95" sinr="2" rsrq="-9"/>
      </extensions>
    </trkpt>
    <trkpt lat="45.6177104" lon="10.4932134">
      <ele>223.20001220703125</ele>
      <time>2026-09-30T22:42:03.657+02:00</time>
      <extensions>
        <activity type="STILL" conf="100" state="still" tsMs="1790800918582"/>
        <radio op="vodafone IT" rat="LTE" q="34.20" rsrp="-106" sinr="13" rsrq="-10"/>
        <radio op="I TIM" rat="LTE" q="66.00" rsrp="-95" sinr="17" rsrq="-8"/>
      </extensions>
    </trkpt>
    <trkpt lat="45.6177781" lon="10.4933345">
      <ele>224.3000030517578</ele>
      <time>2026-09-30T22:50:17.292+02:00</time>
      <extensions>
        <activity type="IN_VEHICLE" conf="98" state="moving" tsMs="1790801415469"/>
        <radio op="vodafone IT" rat="LTE" rsrp="-102" rsrq="-11"/>
        <radio op="I TIM" rat="LTE" q="71.30" rsrp="-94" sinr="18" rsrq="-10"/>
      </extensions>
    </trkpt>
    <trkpt lat="45.6177463" lon="10.4932395">
      <ele>224.00001525878906</ele>
      <time>2026-09-30T22:50:48.673+02:00</time>
      <extensions>
        <activity type="IN_VEHICLE" conf="96" state="moving" tsMs="1790801437858"/>
        <radio op="vodafone IT" rat="LTE" rsrp="-100" rsrq="-13"/>
        <radio op="I TIM" rat="LTE" q="100.00" rsrp="-82" sinr="25" rsrq="-11"/>
      </extensions>
    </trkpt>
    <trkpt lat="45.6166191" lon="10.4938669">
      <ele>224.00001525878906</ele>
      <time>2026-09-30T22:51:22.275+02:00</time>
      <extensions>
        <activity type="IN_VEHICLE" conf="96" state="moving" tsMs="1790801488561"/>
        <radio op="vodafone IT" rat="LTE" q="66.50" rsrp="-90" sinr="14" rsrq="-7"/>
        <radio op="I TIM" rat="LTE" q="87.50" rsrp="-90" sinr="20" rsrq="-9"/>
      </extensions>
    </trkpt>
    <trkpt lat="45.6140173" lon="10.4981621">
      <ele>224.00001525878906</ele>
      <time>2026-09-30T22:51:52.879+02:00</time>
      <extensions>
        <activity type="IN_VEHICLE" conf="96" state="moving" tsMs="1790801507445"/>
        <radio op="vodafone IT" rat="LTE" q="37.00" rsrp="-88" sinr="5" rsrq="-11"/>
        <radio op="I TIM" rat="LTE" q="100.00" rsrp="-82" sinr="21" rsrq="-11"/>
      </extensions>
    </trkpt>
    <trkpt lat="45.6109852" lon="10.4954754">
      <ele>217.10000610351562</ele>
      <time>2026-09-30T22:52:24.246+02:00</time>
      <extensions>
        <activity type="IN_VEHICLE" conf="96" state="moving" tsMs="1790801535127"/>
        <radio op="vodafone IT" rat="LTE" q="69.00" rsrp="-95" sinr="18" rsrq="-9"/>
        <radio op="I TIM" rat="LTE" rsrp="-114" rsrq="-19"/>
      </extensions>
    </trkpt>
    <trkpt lat="45.6119681" lon="10.4915254">
      <ele>227.7127630400767</ele>
      <time>2026-09-30T22:52:55.703+02:00</time>
      <extensions>
        <activity type="IN_VEHICLE" conf="96" state="moving" tsMs="1790801566909"/>
        <radio op="vodafone IT" rat="LTE" q="10.50" rsrp="-110" sinr="2" rsrq="-12"/>
        <radio op="I TIM" rat="LTE" rsrp="-114" rsrq="-20"/>
      </extensions>
    </trkpt>
    <trkpt lat="45.6081742" lon="10.4733579">
      <ele>246.12147099567233</ele>
      <time>2026-09-30T22:54:11.53+02:00</time>
      <extensions>
        <activity type="UNKNOWN" conf="40" state="unknown" tsMs="1790801647664"/>
        <radio op="vodafone IT" rat="LTE" q="50.60" rsrp="-103" sinr="18" rsrq="-5"/>
        <radio op="I TIM" rat="LTE" q="45.60" rsrp="-106" sinr="19" rsrq="-7"/>
      </extensions>
    </trkpt>
    <trkpt lat="45.6052776" lon="10.4668039">
      <ele>272.6638533708081</ele>
      <time>2026-09-30T22:55:07.79+02:00</time>
      <extensions>
        <activity type="IN_VEHICLE" conf="96" state="moving" tsMs="1790801713751"/>
        <radio op="vodafone IT" rat="LTE" q="60.00" rsrp="-95" sinr="15" rsrq="-6"/>
        <radio op="I TIM" rat="LTE" q="63.00" rsrp="-95" sinr="16" rsrq="-7"/>
      </extensions>
    </trkpt>
    <trkpt lat="45.60522" lon="10.4650423">
      <ele>264.7244968322359</ele>
      <time>2026-09-30T22:55:50.276+02:00</time>
      <extensions>
        <activity type="IN_VEHICLE" conf="97" state="moving" tsMs="1790801755121"/>
        <radio op="vodafone IT" rat="LTE" q="31.20" rsrp="-86" sinr="3" rsrq="-8"/>
        <radio op="I TIM" rat="LTE" q="48.00" rsrp="-82" sinr="7" rsrq="-9"/>
      </extensions>
    </trkpt>
    <trkpt lat="45.6037264" lon="10.4594875">
      <ele>263.70001220703125</ele>
      <time>2026-09-30T22:56:25.964+02:00</time>
      <extensions>
        <activity type="IN_VEHICLE" conf="96" state="moving" tsMs="1790801777499"/>
        <radio op="vodafone IT" rat="LTE" rsrp="-72" rsrq="-10"/>
        <radio op="I TIM" rat="LTE" q="100.00" rsrp="-74" sinr="25" rsrq="-11"/>
      </extensions>
    </trkpt>
    <trkpt lat="45.6023168" lon="10.4551362">
      <ele>261.3000183105469</ele>
      <time>2026-09-30T22:56:57.347+02:00</time>
      <extensions>
        <activity type="IN_VEHICLE" conf="96" state="moving" tsMs="1790801809335"/>
        <radio op="vodafone IT" rat="LTE" q="36.00" rsrp="-101" sinr="10" rsrq="-10"/>
        <radio op="I TIM" rat="LTE" q="32.40" rsrp="-98" sinr="7" rsrq="-11"/>
      </extensions>
    </trkpt>
    <trkpt lat="45.6019216" lon="10.4545132">
      <ele>261.3000183105469</ele>
      <time>2026-09-30T22:57:03.277+02:00</time>
      <extensions>
        <activity type="IN_VEHICLE" conf="96" state="moving" tsMs="1790801818807"/>
        <radio op="vodafone IT" rat="LTE" q="22.50" rsrp="-100" sinr="4" rsrq="-10"/>
        <radio op="I TIM" rat="LTE" q="60.90" rsrp="-96" sinr="16" rsrq="-10"/>
      </extensions>
    </trkpt>
    <trkpt lat="45.6029221" lon="10.4533672">
      <ele>257.87251880323885</ele>
      <time>2026-09-30T22:57:34.439+02:00</time>
      <extensions>
        <activity type="IN_VEHICLE" conf="96" state="moving" tsMs="1790801847215"/>
        <radio op="vodafone IT" rat="LTE" q="73.60" rsrp="-93" sinr="18" rsrq="-7"/>
        <radio op="I TIM" rat="LTE" q="83.60" rsrp="-87" sinr="17" rsrq="-8"/>
      </extensions>
    </trkpt>
    <trkpt lat="45.6025675" lon="10.4539967">
      <ele>258.61727110144375</ele>
      <time>2026-09-30T22:58:10.688+02:00</time>
      <extensions>
        <activity type="IN_VEHICLE" conf="96" state="moving" tsMs="1790801884955"/>
        <radio op="vodafone IT" rat="LTE" q="17.60" rsrp="-109" sinr="6" rsrq="-13"/>
        <radio op="I TIM" rat="LTE" q="10.50" rsrp="-104" sinr="0" rsrq="-13"/>
      </extensions>
    </trkpt>
    <trkpt lat="45.6026068" lon="10.453803">
      <ele>261.0</ele>
      <time>2026-09-30T22:58:42.152+02:00</time>
      <extensions>
        <activity type="UNKNOWN" conf="40" state="unknown" tsMs="1790801912938"/>
        <radio op="vodafone IT" rat="LTE" q="9.60" rsrp="-109" sinr="1" rsrq="-9"/>
        <radio op="I TIM" rat="LTE" q="17.10" rsrp="-106" sinr="4" rsrq="-11"/>
      </extensions>
    </trkpt>
    <trkpt lat="45.602654" lon="10.4539815">
      <ele>261.0</ele>
      <time>2026-09-30T22:59:13.604+02:00</time>
      <extensions>
        <activity type="STILL" conf="100" state="still" tsMs="1790801956894"/>
        <radio op="vodafone IT" rat="LTE" q="12.00" rsrp="-110" sinr="3" rsrq="-10"/>
        <radio op="I TIM" rat="LTE" q="18.00" rsrp="-105" sinr="4" rsrq="-12"/>
      </extensions>
    </trkpt>
    <trkpt lat="45.6025859" lon="10.4537172">
      <ele>261.0</ele>
      <time>2026-09-30T22:59:46.389+02:00</time>
      <extensions>
        <activity type="TILTING" conf="100" state="moving" tsMs="1790801981968"/>
        <radio op="vodafone IT" rat="LTE" q="14.40" rsrp="-109" sinr="4" rsrq="-9"/>
        <radio op="I TIM" rat="LTE" q="9.60" rsrp="-109" sinr="1" rsrq="-12"/>
      </extensions>
    </trkpt>
    <trkpt lat="45.602558" lon="10.4536691">
      <ele>258.8605883711646</ele>
      <time>2026-09-30T23:00:17.719+02:00</time>
      <extensions>
        <activity type="UNKNOWN" conf="40" state="unknown" tsMs="1790801998295"/>
        <radio op="vodafone IT" rat="LTE" rsrp="-130" rsrq="-15"/>
        <radio op="I TIM" rat="LTE" rsrp="-130" rsrq="-15"/>
      </extensions>
    </trkpt>
    <trkpt lat="45.602564" lon="10.4536783">
      <ele>259.18370783461455</ele>
      <time>2026-09-30T23:00:52.945+02:00</time>
      <extensions>
        <activity type="UNKNOWN" conf="40" state="unknown" tsMs="1790802049798"/>
        <radio op="vodafone IT" rat="OTHER"/>
        <radio op="I TIM" rat="LTE" rsrp="-115" rsrq="-16"/>
      </extensions>
    </trkpt>
    <trkpt lat="45.6025738" lon="10.4536921">
      <ele>261.0</ele>
      <time>2026-09-30T23:01:24.738+02:00</time>
      <extensions>
        <activity type="UNKNOWN" conf="40" state="unknown" tsMs="1790802078564"/>
        <radio op="vodafone IT" rat="LTE" rsrp="-119" rsrq="-13"/>
        <radio op="I TIM" rat="LTE" rsrp="-120" rsrq="-15"/>
      </extensions>
    </trkpt>
    <trkpt lat="45.6025749" lon="10.4536896">
      <ele>261.0</ele>
      <time>2026-09-30T23:02:14.916+02:00</time>
      <extensions>
        <activity type="UNKNOWN" conf="40" state="unknown" tsMs="1790802130165"/>
        <radio op="vodafone IT" rat="LTE" q="4.80" rsrp="-121" sinr="7" rsrq="-13"/>
        <radio op="I TIM" rat="LTE" q="2.40" rsrp="-121" sinr="1" rsrq="-11"/>
      </extensions>
    </trkpt>
    <trkpt lat="45.6025894" lon="10.4537159">
      <ele>261.0</ele>
      <time>2026-09-30T23:02:46.613+02:00</time>
      <extensions>
        <activity type="UNKNOWN" conf="40" state="unknown" tsMs="1790802158689"/>
        <radio op="vodafone IT" rat="LTE" q="5.60" rsrp="-118" sinr="3" rsrq="-12"/>
        <radio op="I TIM" rat="LTE" q="7.00" rsrp="-111" sinr="0" rsrq="-14"/>
      </extensions>
    </trkpt>
  </trkseg></trk>
</gpx>
