<?xml version="1.0" encoding="UTF-8"?>
<gpx version="1.1" creator="CellGPX" xmlns="http://www.topografix.com/GPX/1/1">
  <trk><name>CellGPX</name><trkseg>
    <trkpt lat="45.6025248" lon="10.453535">
      <ele>261.3000183105469</ele>
      <time>2026-09-17T11:04:27.282+02:00</time>
      <extensions>
        <activity type="UNKNOWN" conf="40" state="unknown" tsMs="1789635866180"/>
        <radio op="vodafone IT" rat="LTE" q="18.20" rsrp="-112" sinr="9" rsrq="-13"/>
        <radio op="I TIM" rat="LTE" q="42.00" rsrp="-105" sinr="16" rsrq="-12"/>
      </extensions>
    </trkpt>
    <trkpt lat="45.6022079" lon="10.4535778">
      <ele>261.1000061035156</ele>
      <time>2026-09-17T11:04:58.972+02:00</time>
      <extensions>
        <activity type="UNKNOWN" conf="40" state="unknown" tsMs="1789635879245"/>
        <radio op="vodafone IT" rat="LTE" rsrp="-107" rsrq="-12"/>
        <radio op="I TIM" rat="LTE" rsrp="-106" rsrq="-16"/>
      </extensions>
    </trkpt>
    <trkpt lat="45.6020976" lon="10.4532317">
      <ele>261.0</ele>
      <time>2026-09-17T11:05:30.46+02:00</time>
      <extensions>
        <activity type="UNKNOWN" conf="40" state="unknown" tsMs="1789635921744"/>
        <radio op="vodafone IT" rat="LTE" q="34.20" rsrp="-106" sinr="13" rsrq="-7"/>
        <radio op="I TIM" rat="LTE" q="11.00" rsrp="-103" sinr="0" rsrq="-13"/>
      </extensions>
    </trkpt>
    <trkpt lat="45.6010376" lon="10.4527105">
      <ele>260.70001220703125</ele>
      <time>2026-09-17T11:06:33.649+02:00</time>
      <extensions>
        <activity type="ON_FOOT" conf="97" state="moving" tsMs="1789635992854"/>
        <radio op="vodafone IT" rat="LTE" q="41.60" rsrp="-99" sinr="11" rsrq="-7"/>
        <radio op="I TIM" rat="LTE" q="82.50" rsrp="-92" sinr="20" rsrq="-11"/>
      </extensions>
    </trkpt>
    <trkpt lat="45.6007528" lon="10.4525152">
      <ele>259.20001220703125</ele>
      <time>2026-09-17T11:07:18.804+02:00</time>
      <extensions>
        <activity type="ON_FOOT" conf="97" state="moving" tsMs="1789636036893"/>
        <radio op="vodafone IT" rat="LTE" q="45.60" rsrp="-101" sinr="14" rsrq="-9"/>
        <radio op="I TIM" rat="LTE" rsrp="-98" rsrq="-12"/>
      </extensions>
    </trkpt>
    <trkpt lat="45.6003478" lon="10.4515194">
      <ele>258.9000244140625</ele>
      <time>2026-09-17T11:08:03.704+02:00</time>
      <extensions>
        <activity type="ON_FOOT" conf="96" state="moving" tsMs="1789636077854"/>
        <radio op="vodafone IT" rat="LTE" q="43.20" rsrp="-101" sinr="13" rsrq="-9"/>
        <radio op="I TIM" rat="LTE" q="31.20" rsrp="-101" sinr="8" rsrq="-12"/>
      </extensions>
    </trkpt>
    <trkpt lat="45.6003091" lon="10.4517741">
      <ele>258.9000244140625</ele>
      <time>2026-09-17T11:08:12.33+02:00</time>
      <extensions>
        <activity type="ON_FOOT" conf="96" state="moving" tsMs="1789636086769"/>
        <radio op="vodafone IT" rat="LTE" q="57.50" rsrp="-102" sinr="20" rsrq="-8"/>
        <radio op="I TIM" rat="LTE" q="27.60" rsrp="-102" sinr="7" rsrq="-10"/>
      </extensions>
    </trkpt>
    <trkpt lat="45.5999148" lon="10.4514282">
      <ele>258.3000183105469</ele>
      <time>2026-09-17T11:08:51.715+02:00</time>
      <extensions>
        <activity type="ON_FOOT" conf="96" state="moving" tsMs="1789636129872"/>
        <radio op="vodafone IT" rat="LTE" q="28.80" rsrp="-101" sinr="7" rsrq="-10"/>
        <radio op="I TIM" rat="LTE" q="32.20" rsrp="-102" sinr="9" rsrq="-13"/>
      </extensions>
    </trkpt>
    <trkpt lat="45.5999571" lon="10.4515307">
      <ele>258.3000183105469</ele>
      <time>2026-09-17T11:09:32.679+02:00</time>
      <extensions>
        <activity type="STILL" conf="100" state="still" tsMs="1789636177073"/>
        <radio op="vodafone IT" rat="LTE" q="19.20" rsrp="-109" sinr="7" rsrq="-10"/>
        <radio op="I TIM" rat="LTE" q="17.10" rsrp="-106" sinr="4" rsrq="-10"/>
      </extensions>
    </trkpt>
    <trkpt lat="45.5999425" lon="10.4514167">
      <ele>258.3000183105469</ele>
      <time>2026-09-17T11:09:53.328+02:00</time>
      <extensions>
        <activity type="STILL" conf="97" state="still" tsMs="1789636190044"/>
        <radio op="vodafone IT" rat="LTE" q="16.50" rsrp="-110" sinr="6" rsrq="-11"/>
        <radio op="I TIM" rat="LTE" q="19.00" rsrp="-106" sinr="5" rsrq="-10"/>
      </extensions>
    </trkpt>
    <trkpt lat="45.5999448" lon="10.4515414">
      <ele>258.3000183105469</ele>
      <time>2026-09-17T11:10:29.38+02:00</time>
      <extensions>
        <activity type="STILL" conf="100" state="still" tsMs="1789636218391"/>
        <radio op="vodafone IT" rat="LTE" q="15.40" rsrp="-111" sinr="6" rsrq="-9"/>
        <radio op="I TIM" rat="LTE" q="23.40" rsrp="-107" sinr="8" rsrq="-9"/>
      </extensions>
    </trkpt>
    <trkpt lat="45.5999564" lon="10.45153">
      <ele>258.3000183105469</ele>
      <time>2026-09-17T11:11:00.596+02:00</time>
      <extensions>
        <activity type="STILL" conf="100" state="still" tsMs="1789636246840"/>
        <radio op="vodafone IT" rat="LTE" q="15.00" rsrp="-110" sinr="5" rsrq="-9"/>
        <radio op="I TIM" rat="LTE" q="23.80" rsrp="-108" sinr="9" rsrq="-11"/>
      </extensions>
    </trkpt>
    <trkpt lat="45.5999626" lon="10.4515238">
      <ele>258.3000183105469</ele>
      <time>2026-09-17T11:11:31.742+02:00</time>
      <extensions>
        <activity type="STILL" conf="100" state="still" tsMs="1789636278736"/>
        <radio op="vodafone IT" rat="LTE" q="18.00" rsrp="-110" sinr="7" rsrq="-7"/>
        <radio op="I TIM" rat="LTE" q="20.80" rsrp="-109" sinr="8" rsrq="-11"/>
      </extensions>
    </trkpt>
    <trkpt lat="45.5999533" lon="10.4515359">
      <ele>258.3000183105469</ele>
      <time>2026-09-17T11:12:02.936+02:00</time>
      <extensions>
        <activity type="STILL" conf="100" state="still" tsMs="1789636317646"/>
        <radio op="vodafone IT" rat="LTE" q="30.00" rsrp="-110" sinr="15" rsrq="-8"/>
        <radio op="I TIM" rat="LTE" q="22.40" rsrp="-109" sinr="9" rsrq="-11"/>
      </extensions>
    </trkpt>
    <trkpt lat="45.5999653" lon="10.4515215">
      <ele>258.3000183105469</ele>
      <time>2026-09-17T11:12:33.955+02:00</time>
      <extensions>
        <activity type="STILL" conf="64" state="still" tsMs="1789636335448"/>
        <radio op="vodafone IT" rat="LTE" q="16.00" rsrp="-109" sinr="5" rsrq="-9"/>
        <radio op="I TIM" rat="LTE" q="12.80" rsrp="-109" sinr="3" rsrq="-12"/>
      </extensions>
    </trkpt>
    <trkpt lat="45.5999618" lon="10.451527">
      <ele>258.3000183105469</ele>
      <time>2026-09-17T11:13:05.13+02:00</time>
      <extensions>
        <activity type="STILL" conf="98" state="still" tsMs="1789636374206"/>
        <radio op="vodafone IT" rat="LTE" q="18.70" rsrp="-108" sinr="6" rsrq="-9"/>
        <radio op="I TIM" rat="LTE" q="15.40" rsrp="-111" sinr="6" rsrq="-9"/>
      </extensions>
    </trkpt>
    <trkpt lat="45.6001926" lon="10.4515464">
      <ele>258.8000183105469</ele>
      <time>2026-09-17T12:34:23.426+02:00</time>
      <extensions>
        <activity type="ON_FOOT" conf="96" state="moving" tsMs="1789641251387"/>
        <radio op="vodafone IT" rat="LTE" q="41.60" rsrp="-93" sinr="8" rsrq="-10"/>
        <radio op="I TIM" rat="LTE" q="52.80" rsrp="-92" sinr="11" rsrq="-10"/>
      </extensions>
    </trkpt>
    <trkpt lat="45.6002851" lon="10.4516944">
      <ele>259.20001220703125</ele>
      <time>2026-09-17T12:34:33.418+02:00</time>
      <extensions>
        <activity type="ON_FOOT" conf="96" state="moving" tsMs="1789641260737"/>
        <radio op="vodafone IT" rat="LTE" q="44.40" rsrp="-88" sinr="7" rsrq="-9"/>
        <radio op="I TIM" rat="LTE" rsrp="-99" rsrq="-14"/>
      </extensions>
    </trkpt>
    <trkpt lat="45.6003754" lon="10.4518884">
      <ele>258.9000244140625</ele>
      <time>2026-09-17T12:34:43.865+02:00</time>
      <extensions>
        <activity type="ON_FOOT" conf="98" state="moving" tsMs="1789641270024"/>
        <radio op="vodafone IT" rat="LTE" q="50.40" rsrp="-89" sinr="9" rsrq="-12"/>
        <radio op="I TIM" rat="LTE" q="61.60" rsrp="-97" sinr="17" rsrq="-12"/>
      </extensions>
    </trkpt>
    <trkpt lat="45.6004521" lon="10.4520274">
      <ele>259.1000061035156</ele>
      <time>2026-09-17T12:34:53.93+02:00</time>
      <extensions>
        <activity type="ON_FOOT" conf="96" state="moving" tsMs="1789641281508"/>
        <radio op="vodafone IT" rat="LTE" q="27.00" rsrp="-95" sinr="4" rsrq="-10"/>
        <radio op="I TIM" rat="LTE" q="36.80" rsrp="-102" sinr="11" rsrq="-12"/>
      </extensions>
    </trkpt>
    <trkpt lat="45.6005512" lon="10.4521908">
      <ele>258.9000244140625</ele>
      <time>2026-09-17T12:35:03.845+02:00</time>
      <extensions>
        <activity type="ON_FOOT" conf="96" state="moving" tsMs="1789641291610"/>
        <radio op="vodafone IT" rat="LTE" q="38.40" rsrp="-93" sinr="7" rsrq="-9"/>
        <radio op="I TIM" rat="LTE" q="64.40" rsrp="-97" sinr="18" rsrq="-10"/>
      </extensions>
    </trkpt>
    <trkpt lat="45.6006461" lon="10.4523512">
      <ele>259.1000061035156</ele>
      <time>2026-09-17T12:35:14.301+02:00</time>
      <extensions>
        <activity type="ON_FOOT" conf="97" state="moving" tsMs="1789641300925"/>
        <radio op="vodafone IT" rat="LTE" q="46.20" rsrp="-92" sinr="9" rsrq="-11"/>
        <radio op="I TIM" rat="LTE" q="72.50" rsrp="-96" sinr="20" rsrq="-9"/>
      </extensions>
    </trkpt>
    <trkpt lat="45.6007292" lon="10.4525009">
      <ele>259.20001220703125</ele>
      <time>2026-09-17T12:35:23.642+02:00</time>
      <extensions>
        <activity type="ON_FOOT" conf="97" state="moving" tsMs="1789641311666"/>
        <radio op="vodafone IT" rat="LTE" rsrp="-96" rsrq="-10"/>
        <radio op="I TIM" rat="LTE" q="53.20" rsrp="-97" sinr="14" rsrq="-8"/>
      </extensions>
    </trkpt>
    <trkpt lat="45.6008078" lon="10.4526702">
      <ele>259.20001220703125</ele>
      <time>2026-09-17T12:35:34.418+02:00</time>
      <extensions>
        <activity type="ON_FOOT" conf="96" state="moving" tsMs="1789641320952"/>
        <radio op="vodafone IT" rat="LTE" q="22.80" rsrp="-87" sinr="1" rsrq="-13"/>
        <radio op="I TIM" rat="LTE" q="44.20" rsrp="-99" sinr="12" rsrq="-9"/>
      </extensions>
    </trkpt>
    <trkpt lat="45.6009161" lon="10.4527838">
      <ele>260.6000061035156</ele>
      <time>2026-09-17T12:35:44.418+02:00</time>
      <extensions>
        <activity type="ON_FOOT" conf="98" state="moving" tsMs="1789641330215"/>
        <radio op="vodafone IT" rat="LTE" q="53.20" rsrp="-87" sinr="9" rsrq="-9"/>
        <radio op="I TIM" rat="LTE" q="75.90" rsrp="-92" sinr="18" rsrq="-8"/>
      </extensions>
    </trkpt>
    <trkpt lat="45.6010151" lon="10.4529684">
      <ele>260.6000061035156</ele>
      <time>2026-09-17T12:35:54.459+02:00</time>
      <extensions>
        <activity type="ON_FOOT" conf="98" state="moving" tsMs="1789641342780"/>
        <radio op="vodafone IT" rat="LTE" q="56.00" rsrp="-82" sinr="9" rsrq="-9"/>
        <radio op="I TIM" rat="LTE" q="72.60" rsrp="-92" sinr="17" rsrq="-10"/>
      </extensions>
    </trkpt>
    <trkpt lat="45.6011058" lon="10.4531315">
      <ele>260.70001220703125</ele>
      <time>2026-09-17T12:36:04.562+02:00</time>
      <extensions>
        <activity type="ON_FOOT" conf="98" state="moving" tsMs="1789641353456"/>
        <radio op="vodafone IT" rat="LTE" q="60.90" rsrp="-96" sinr="16" rsrq="-7"/>
        <radio op="I TIM" rat="LTE" q="67.20" rsrp="-93" sinr="16" rsrq="-10"/>
      </extensions>
    </trkpt>
    <trkpt lat="45.6012086" lon="10.4532986">
      <ele>260.9000244140625</ele>
      <time>2026-09-17T12:36:14.918+02:00</time>
      <extensions>
        <activity type="ON_FOOT" conf="97" state="moving" tsMs="1789641363924"/>
        <radio op="vodafone IT" rat="LTE" q="55.10" rsrp="-96" sinr="14" rsrq="-7"/>
        <radio op="I TIM" rat="LTE" q="64.40" rsrp="-97" sinr="18" rsrq="-12"/>
      </extensions>
    </trkpt>
    <trkpt lat="45.6012985" lon="10.453444">
      <ele>260.70001220703125</ele>
      <time>2026-09-17T12:36:24.378+02:00</time>
      <extensions>
        <activity type="ON_FOOT" conf="97" state="moving" tsMs="1789641374266"/>
        <radio op="vodafone IT" rat="LTE" q="59.40" rsrp="-98" sinr="17" rsrq="-7"/>
        <radio op="I TIM" rat="LTE" q="67.20" rsrp="-93" sinr="16" rsrq="-9"/>
      </extensions>
    </trkpt>
    <trkpt lat="45.6014161" lon="10.4535838">
      <ele>260.8000183105469</ele>
      <time>2026-09-17T12:36:34.782+02:00</time>
      <extensions>
        <activity type="ON_FOOT" conf="96" state="moving" tsMs="1789641390377"/>
        <radio op="vodafone IT" rat="LTE" q="40.80" rsrp="-101" sinr="12" rsrq="-9"/>
        <radio op="I TIM" rat="LTE" rsrp="-103" rsrq="-13"/>
      </extensions>
    </trkpt>
    <trkpt lat="45.6015463" lon="10.4535963">
      <ele>261.1000061035156</ele>
      <time>2026-09-17T12:36:45.452+02:00</time>
      <extensions>
        <activity type="ON_FOOT" conf="96" state="moving" tsMs="1789641390377"/>
        <radio op="vodafone IT" rat="LTE" q="55.20" rsrp="-101" sinr="18" rsrq="-6"/>
        <radio op="I TIM" rat="LTE" q="52.80" rsrp="-101" sinr="17" rsrq="-12"/>
      </extensions>
    </trkpt>
    <trkpt lat="45.6017125" lon="10.4535056">
      <ele>261.1000061035156</ele>
      <time>2026-09-17T12:36:55.427+02:00</time>
      <extensions>
        <activity type="ON_FOOT" conf="96" state="moving" tsMs="1789641410818"/>
        <radio op="vodafone IT" rat="LTE" q="50.00" rsrp="-100" sinr="15" rsrq="-6"/>
        <radio op="I TIM" rat="LTE" q="44.80" rsrp="-97" sinr="11" rsrq="-9"/>
      </extensions>
    </trkpt>
    <trkpt lat="45.6018819" lon="10.453425">
      <ele>261.1000061035156</ele>
      <time>2026-09-17T12:37:05.418+02:00</time>
      <extensions>
        <activity type="ON_FOOT" conf="96" state="moving" tsMs="1789641420105"/>
        <radio op="vodafone IT" rat="LTE" q="100.00" rsrp="-83" sinr="26" rsrq="-7"/>
        <radio op="I TIM" rat="LTE" q="92.50" rsrp="-88" sinr="22" rsrq="-11"/>
      </extensions>
    </trkpt>
    <trkpt lat="45.6020201" lon="10.453368">
      <ele>261.1000061035156</ele>
      <time>2026-09-17T12:37:15.499+02:00</time>
      <extensions>
        <activity type="ON_FOOT" conf="97" state="moving" tsMs="1789641429369"/>
        <radio op="vodafone IT" rat="LTE" q="46.00" rsrp="-102" sinr="15" rsrq="-7"/>
        <radio op="I TIM" rat="LTE" q="28.60" rsrp="-99" sinr="6" rsrq="-11"/>
      </extensions>
    </trkpt>
    <trkpt lat="45.602169" lon="10.4534098">
      <ele>261.1000061035156</ele>
      <time>2026-09-17T12:37:26.04+02:00</time>
      <extensions>
        <activity type="ON_FOOT" conf="96" state="moving" tsMs="1789641436913"/>
        <radio op="vodafone IT" rat="LTE" q="21.60" rsrp="-107" sinr="7" rsrq="-11"/>
        <radio op="I TIM" rat="LTE" q="11.40" rsrp="-106" sinr="1" rsrq="-12"/>
      </extensions>
    </trkpt>
    <trkpt lat="45.6022845" lon="10.4535398">
      <ele>261.3000183105469</ele>
      <time>2026-09-17T12:37:35.601+02:00</time>
      <extensions>
        <activity type="ON_FOOT" conf="97" state="moving" tsMs="1789641446185"/>
        <radio op="vodafone IT" rat="LTE" q="14.40" rsrp="-113" sinr="7" rsrq="-10"/>
        <radio op="I TIM" rat="LTE" q="26.60" rsrp="-106" sinr="9" rsrq="-10"/>
      </extensions>
    </trkpt>
    <trkpt lat="45.602386" lon="10.4536809">
      <ele>261.3000183105469</ele>
      <time>2026-09-17T12:37:46.165+02:00</time>
      <extensions>
        <activity type="ON_FOOT" conf="98" state="moving" tsMs="1789641455478"/>
        <radio op="vodafone IT" rat="LTE" q="24.70" rsrp="-112" sinr="14" rsrq="-9"/>
        <radio op="I TIM" rat="LTE" q="34.50" rsrp="-102" sinr="10" rsrq="-12"/>
      </extensions>
    </trkpt>
    <trkpt lat="45.6025146" lon="10.4536524">
      <ele>261.4000244140625</ele>
      <time>2026-09-17T12:37:55.561+02:00</time>
      <extensions>
        <activity type="ON_FOOT" conf="97" state="moving" tsMs="1789641465539"/>
        <radio op="vodafone IT" rat="LTE" q="34.20" rsrp="-107" sinr="14" rsrq="-8"/>
        <radio op="I TIM" rat="LTE" q="50.40" rsrp="-97" sinr="13" rsrq="-12"/>
      </extensions>
    </trkpt>
    <trkpt lat="45.6026065" lon="10.4536562">
      <ele>261.5</ele>
      <time>2026-09-17T12:38:06.376+02:00</time>
      <extensions>
        <activity type="ON_FOOT" conf="94" state="moving" tsMs="1789641478141"/>
        <radio op="vodafone IT" rat="LTE" rsrp="-125" rsrq="-14"/>
        <radio op="I TIM" rat="LTE" rsrp="-120" rsrq="-12"/>
      </extensions>
    </trkpt>
    <trkpt lat="45.6025997" lon="10.4536386">
      <ele>261.6000061035156</ele>
      <time>2026-09-17T12:38:16.399+02:00</time>
      <extensions>
        <activity type="ON_FOOT" conf="94" state="moving" tsMs="1789641478141"/>
        <radio op="vodafone IT" rat="LTE" q="16.80" rsrp="-111" sinr="7" rsrq="-12"/>
        <radio op="I TIM" rat="LTE" q="6.30" rsrp="-116" sinr="2" rsrq="-10"/>
      </extensions>
    </trkpt>
    <trkpt lat="45.6025962" lon="10.4536451">
      <ele>261.6000061035156</ele>
      <time>2026-09-17T12:38:26.12+02:00</time>
      <extensions>
        <activity type="UNKNOWN" conf="40" state="unknown" tsMs="1789641490738"/>
        <radio op="vodafone IT" rat="LTE" q="6.60" rsrp="-114" sinr="1" rsrq="-13"/>
        <radio op="I TIM" rat="LTE" q="4.80" rsrp="-119" sinr="3" rsrq="-12"/>
      </extensions>
    </trkpt>
    <trkpt lat="45.6026005" lon="10.4536478">
      <ele>261.6000061035156</ele>
      <time>2026-09-17T12:38:35.942+02:00</time>
      <extensions>
        <activity type="UNKNOWN" conf="40" state="unknown" tsMs="1789641500840"/>
        <radio op="vodafone IT" rat="LTE" q="4.20" rsrp="-119" sinr="2" rsrq="-12"/>
        <radio op="I TIM" rat="LTE" q="2.00" rsrp="-123" sinr="5" rsrq="-13"/>
      </extensions>
    </trkpt>
    <trkpt lat="45.6026007" lon="10.4536484">
      <ele>261.6000061035156</ele>
      <time>2026-09-17T12:38:40.425+02:00</time>
      <extensions>
        <activity type="UNKNOWN" conf="40" state="unknown" tsMs="1789641513561"/>
        <radio op="vodafone IT" rat="LTE" q="4.20" rsrp="-118" sinr="1" rsrq="-12"/>
        <radio op="I TIM" rat="LTE" q="12.10" rsrp="-114" sinr="6" rsrq="-11"/>
      </extensions>
    </trkpt>
    <trkpt lat="45.6026044" lon="10.4536446">
      <ele>261.6000061035156</ele>
      <time>2026-09-17T12:38:54.872+02:00</time>
      <extensions>
        <activity type="UNKNOWN" conf="40" state="unknown" tsMs="1789641526149"/>
        <radio op="vodafone IT" rat="LTE" q="4.20" rsrp="-118" sinr="1" rsrq="-14"/>
        <radio op="I TIM" rat="LTE" rsrp="-113" rsrq="-13"/>
      </extensions>
    </trkpt>
    <trkpt lat="45.6026038" lon="10.4536489">
      <ele>261.6000061035156</ele>
      <time>2026-09-17T12:39:02.039+02:00</time>
      <extensions>
        <activity type="UNKNOWN" conf="40" state="unknown" tsMs="1789641538812"/>
        <radio op="vodafone IT" rat="LTE" q="3.00" rsrp="-120" sinr="1" rsrq="-14"/>
        <radio op="I TIM" rat="LTE" q="13.20" rsrp="-114" sinr="7" rsrq="-9"/>
      </extensions>
    </trkpt>
    <trkpt lat="45.6025972" lon="10.4536585">
      <ele>261.6000061035156</ele>
      <time>2026-09-17T12:39:13.338+02:00</time>
      <extensions>
        <activity type="UNKNOWN" conf="40" state="unknown" tsMs="1789641549922"/>
        <radio op="vodafone IT" rat="LTE" q="4.00" rsrp="-121" sinr="5" rsrq="-13"/>
        <radio op="I TIM" rat="LTE" q="8.40" rsrp="-111" sinr="1" rsrq="-10"/>
      </extensions>
    </trkpt>
    <trkpt lat="45.6025537" lon="10.4536821">
      <ele>261.6000061035156</ele>
      <time>2026-09-17T12:40:00.696+02:00</time>
      <extensions>
        <activity type="STILL" conf="66" state="still" tsMs="1789641600091"/>
        <radio op="vodafone IT" rat="LTE" q="11.70" rsrp="-112" sinr="4" rsrq="-10"/>
        <radio op="I TIM" rat="LTE" q="13.20" rsrp="-113" sinr="6" rsrq="-10"/>
      </extensions>
    </trkpt>
    <trkpt lat="45.6025592" lon="10.4536787">
      <ele>261.6000061035156</ele>
      <time>2026-09-17T12:40:42.019+02:00</time>
      <extensions>
        <activity type="UNKNOWN" conf="40" state="unknown" tsMs="1789641634961"/>
        <radio op="vodafone IT" rat="LTE" q="6.60" rsrp="-114" sinr="1" rsrq="-10"/>
        <radio op="I TIM" rat="LTE" q="4.20" rsrp="-118" sinr="1" rsrq="-14"/>
      </extensions>
    </trkpt>
    <trkpt lat="45.602604" lon="10.4540386">
      <ele>262.0</ele>
      <time>2026-09-17T14:41:25.097+02:00</time>
      <extensions>
        <activity type="UNKNOWN" conf="40" state="unknown" tsMs="1789648877890"/>
        <radio op="vodafone IT" rat="LTE" q="8.80" rsrp="-117" sinr="6" rsrq="-12"/>
        <radio op="I TIM" rat="LTE" q="9.90" rsrp="-116" sinr="6" rsrq="-12"/>
      </extensions>
    </trkpt>
    <trkpt lat="45.6025326" lon="10.4538304">
      <ele>262.0</ele>
      <time>2026-09-17T14:42:01.42+02:00</time>
      <extensions>
        <activity type="STILL" conf="100" state="still" tsMs="1789648922471"/>
        <radio op="vodafone IT" rat="LTE" rsrp="-118" rsrq="-11"/>
        <radio op="I TIM" rat="LTE" rsrp="-113" rsrq="-13"/>
      </extensions>
    </trkpt>
    <trkpt lat="45.6025556" lon="10.4536753">
      <ele>261.6000061035156</ele>
      <time>2026-09-17T14:42:39.833+02:00</time>
      <extensions>
        <activity type="STILL" conf="69" state="still" tsMs="1789648945063"/>
        <radio op="vodafone IT" rat="LTE" q="16.50" rsrp="-114" sinr="10" rsrq="-11"/>
        <radio op="I TIM" rat="LTE" q="24.00" rsrp="-109" sinr="10" rsrq="-10"/>
      </extensions>
    </trkpt>
    <trkpt lat="45.6033871" lon="10.4573454">
      <ele>261.6000061035156</ele>
      <time>2026-09-17T14:43:55.187+02:00</time>
      <extensions>
        <activity type="STILL" conf="100" state="still" tsMs="1789649041015"/>
        <radio op="vodafone IT" rat="LTE" q="24.00" rsrp="-109" sinr="10" rsrq="-9"/>
        <radio op="I TIM" rat="LTE" rsrp="-114" rsrq="-10"/>
      </extensions>
    </trkpt>
    <trkpt lat="45.6029134" lon="10.4534618">
      <ele>261.20001220703125</ele>
      <time>2026-09-17T14:47:04.714+02:00</time>
      <extensions>
        <activity type="IN_VEHICLE" conf="93" state="moving" tsMs="1789649224154"/>
        <radio op="vodafone IT" rat="LTE" q="22.40" rsrp="-109" sinr="9" rsrq="-10"/>
        <radio op="I TIM" rat="LTE" q="30.60" rsrp="-107" sinr="12" rsrq="-11"/>
      </extensions>
    </trkpt>
    <trkpt lat="45.60229" lon="10.4550817">
      <ele>261.8000183105469</ele>
      <time>2026-09-17T14:48:07.834+02:00</time>
      <extensions>
        <activity type="IN_VEHICLE" conf="84" state="moving" tsMs="1789649287147"/>
        <radio op="vodafone IT" rat="LTE" q="7.20" rsrp="-116" sinr="3" rsrq="-12"/>
        <radio op="I TIM" rat="LTE" q="15.40" rsrp="-114" sinr="9" rsrq="-13"/>
      </extensions>
    </trkpt>
    <trkpt lat="45.6075415" lon="10.4725134">
      <ele>266.20001220703125</ele>
      <time>2026-09-17T14:50:41.415+02:00</time>
      <extensions>
        <activity type="UNKNOWN" conf="40" state="unknown" tsMs="1789649439147"/>
        <radio op="vodafone IT" rat="LTE" q="34.50" rsrp="-102" sinr="10" rsrq="-6"/>
        <radio op="I TIM" rat="LTE" q="48.00" rsrp="-101" sinr="15" rsrq="-9"/>
      </extensions>
    </trkpt>
    <trkpt lat="45.6079944" lon="10.4743419">
      <ele>266.20001220703125</ele>
      <time>2026-09-17T14:50:52.415+02:00</time>
      <extensions>
        <activity type="IN_VEHICLE" conf="92" state="moving" tsMs="1789649452405"/>
        <radio op="vodafone IT" rat="LTE" q="32.00" rsrp="-105" sinr="11" rsrq="-7"/>
        <radio op="I TIM" rat="LTE" q="60.00" rsrp="-100" sinr="19" rsrq="-8"/>
      </extensions>
    </trkpt>
    <trkpt lat="45.6110027" lon="10.4794091">
      <ele>273.892493039777</ele>
      <time>2026-09-17T14:51:35.416+02:00</time>
      <extensions>
        <activity type="IN_VEHICLE" conf="96" state="moving" tsMs="1789649491609"/>
        <radio op="vodafone IT" rat="LTE" q="21.00" rsrp="-104" sinr="5" rsrq="-11"/>
        <radio op="I TIM" rat="LTE" q="5.40" rsrp="-116" sinr="1" rsrq="-13"/>
      </extensions>
    </trkpt>
    <trkpt lat="45.6131854" lon="10.4816928">
      <ele>274.32668985414784</ele>
      <time>2026-09-17T14:52:13.984+02:00</time>
      <extensions>
        <activity type="IN_VEHICLE" conf="94" state="moving" tsMs="1789649517733"/>
        <radio op="vodafone IT" rat="LTE" q="9.10" rsrp="-112" sinr="2" rsrq="-11"/>
        <radio op="I TIM" rat="LTE" rsrp="-119" rsrq="-14"/>
      </extensions>
    </trkpt>
    <trkpt lat="45.6140242" lon="10.482353">
      <ele>274.33093550071317</ele>
      <time>2026-09-17T14:52:23.416+02:00</time>
      <extensions>
        <activity type="IN_VEHICLE" conf="87" state="moving" tsMs="1789649530714"/>
        <radio op="vodafone IT" rat="LTE" q="25.50" rsrp="-108" sinr="10" rsrq="-10"/>
        <radio op="I TIM" rat="LTE" q="5.20" rsrp="-121" sinr="8" rsrq="-15"/>
      </extensions>
    </trkpt>
    <trkpt lat="45.6191994" lon="10.4836504">
      <ele>278.33551341807174</ele>
      <time>2026-09-17T14:53:12.416+02:00</time>
      <extensions>
        <activity type="UNKNOWN" conf="40" state="unknown" tsMs="1789649569730"/>
        <radio op="vodafone IT" rat="LTE" rsrp="-116" rsrq="-14"/>
        <radio op="I TIM" rat="LTE" rsrp="-120" rsrq="-17"/>
      </extensions>
    </trkpt>
    <trkpt lat="45.6221399" lon="10.4895097">
      <ele>279.62476425484255</ele>
      <time>2026-09-17T14:53:59.416+02:00</time>
      <extensions>
        <activity type="IN_VEHICLE" conf="94" state="moving" tsMs="1789649635833"/>
        <radio op="vodafone IT" rat="LTE" q="16.80" rsrp="-111" sinr="7" rsrq="-11"/>
        <radio op="I TIM" rat="LTE" q="8.00" rsrp="-117" sinr="5" rsrq="-15"/>
      </extensions>
    </trkpt>
    <trkpt lat="45.6237564" lon="10.4938078">
      <ele>279.8000183105469</ele>
      <time>2026-09-17T14:54:35.675+02:00</time>
      <extensions>
        <activity type="UNKNOWN" conf="40" state="unknown" tsMs="1789649661886"/>
        <radio op="vodafone IT" rat="LTE" q="11.00" rsrp="-115" sinr="6" rsrq="-8"/>
        <radio op="I TIM" rat="LTE" q="1.40" rsrp="-123" sinr="2" rsrq="-14"/>
      </extensions>
    </trkpt>
    <trkpt lat="45.6237106" lon="10.493418">
      <ele>279.8000183105469</ele>
      <time>2026-09-17T14:55:06.961+02:00</time>
      <extensions>
        <activity type="STILL" conf="97" state="still" tsMs="1789649700819"/>
        <radio op="vodafone IT" rat="LTE" q="4.80" rsrp="-119" sinr="3" rsrq="-12"/>
        <radio op="I TIM" rat="LTE" q="6.00" rsrp="-119" sinr="5" rsrq="-14"/>
      </extensions>
    </trkpt>
    <trkpt lat="45.6236049" lon="10.4930488">
      <ele>279.8000183105469</ele>
      <time>2026-09-17T14:55:38.029+02:00</time>
      <extensions>
        <activity type="ON_FOOT" conf="96" state="moving" tsMs="1789649733485"/>
        <radio op="vodafone IT" rat="LTE" q="14.40" rsrp="-107" sinr="3" rsrq="-10"/>
        <radio op="I TIM" rat="LTE" q="24.00" rsrp="-109" sinr="10" rsrq="-11"/>
      </extensions>
    </trkpt>
    <trkpt lat="45.6238013" lon="10.492742">
      <ele>277.8000183105469</ele>
      <time>2026-09-17T14:56:09.216+02:00</time>
      <extensions>
        <activity type="ON_FOOT" conf="94" state="moving" tsMs="1789649754025"/>
        <radio op="vodafone IT" rat="LTE" rsrp="-121" rsrq="-12"/>
        <radio op="I TIM" rat="LTE" q="3.60" rsrp="-121" sinr="4" rsrq="-13"/>
      </extensions>
    </trkpt>
    <trkpt lat="45.6237987" lon="10.4926596">
      <ele>277.8000183105469</ele>
      <time>2026-09-17T14:56:29.066+02:00</time>
      <extensions>
        <activity type="ON_FOOT" conf="90" state="moving" tsMs="1789649780038"/>
        <radio op="vodafone IT" rat="LTE" q="6.30" rsrp="-118" sinr="4" rsrq="-12"/>
        <radio op="I TIM" rat="LTE" q="2.80" rsrp="-121" sinr="2" rsrq="-13"/>
      </extensions>
    </trkpt>
    <trkpt lat="45.6238095" lon="10.4927164">
      <ele>277.8000183105469</ele>
      <time>2026-09-17T14:56:57.1+02:00</time>
      <extensions>
        <activity type="STILL" conf="97" state="still" tsMs="1789649815343"/>
        <radio op="vodafone IT" rat="LTE" q="9.90" rsrp="-116" sinr="6" rsrq="-12"/>
        <radio op="I TIM" rat="LTE" q="9.00" rsrp="-116" sinr="5" rsrq="-12"/>
      </extensions>
    </trkpt>
    <trkpt lat="45.6238085" lon="10.4926889">
      <ele>279.8373971910318</ele>
      <time>2026-09-17T14:57:30.947+02:00</time>
      <extensions>
        <activity type="STILL" conf="27" state="still" tsMs="1789649836378"/>
        <radio op="vodafone IT" rat="LTE" q="6.30" rsrp="-116" sinr="2" rsrq="-14"/>
        <radio op="I TIM" rat="LTE" q="4.50" rsrp="-116" sinr="0" rsrq="-12"/>
      </extensions>
    </trkpt>
    <trkpt lat="45.6237862" lon="10.4926316">
      <ele>282.99209793336166</ele>
      <time>2026-09-17T14:58:12.139+02:00</time>
      <extensions>
        <activity type="STILL" conf="36" state="still" tsMs="1789649881220"/>
        <radio op="vodafone IT" rat="LTE" rsrq="-20"/>
        <radio op="I TIM" rat="LTE" rsrq="-25"/>
      </extensions>
    </trkpt>
    <trkpt lat="45.6238269" lon="10.4926897">
      <ele>287.6519304599981</ele>
      <time>2026-09-17T14:58:30.416+02:00</time>
      <extensions>
        <activity type="UNKNOWN" conf="40" state="unknown" tsMs="1789649904309"/>
        <radio op="vodafone IT" rat="LTE" q="16.20" rsrp="-107" sinr="4" rsrq="-8"/>
        <radio op="I TIM" rat="LTE" q="38.00" rsrp="-106" sinr="15" rsrq="-11"/>
      </extensions>
    </trkpt>
    <trkpt lat="45.6237856" lon="10.4927525">
      <ele>290.1997494572877</ele>
      <time>2026-09-17T14:59:13.112+02:00</time>
      <extensions>
        <activity type="UNKNOWN" conf="40" state="unknown" tsMs="1789649934246"/>
        <radio op="vodafone IT" rat="LTE" q="4.80" rsrp="-117" sinr="1" rsrq="-11"/>
        <radio op="I TIM" rat="LTE" q="7.20" rsrp="-117" sinr="4" rsrq="-13"/>
      </extensions>
    </trkpt>
    <trkpt lat="45.6237123" lon="10.4928408">
      <ele>277.8000183105469</ele>
      <time>2026-09-17T16:28:27.111+02:00</time>
      <extensions>
        <activity type="UNKNOWN" conf="40" state="unknown" tsMs="1789655302095"/>
        <radio op="vodafone IT" rat="LTE" q="8.10" rsrp="-116" sinr="4" rsrq="-13"/>
        <radio op="I TIM" rat="LTE" q="16.80" rsrp="-111" sinr="7" rsrq="-11"/>
      </extensions>
    </trkpt>
    <trkpt lat="45.6236957" lon="10.4928303">
      <ele>277.8000183105469</ele>
      <time>2026-09-17T16:28:58.482+02:00</time>
      <extensions>
        <activity type="STILL" conf="100" state="still" tsMs="1789655327408"/>
        <radio op="vodafone IT" rat="LTE" q="10.00" rsrp="-115" sinr="5" rsrq="-12"/>
        <radio op="I TIM" rat="LTE" q="18.20" rsrp="-111" sinr="8" rsrq="-13"/>
      </extensions>
    </trkpt>
    <trkpt lat="45.6236999" lon="10.4928359">
      <ele>277.8000183105469</ele>
      <time>2026-09-17T16:29:54.565+02:00</time>
      <extensions>
        <activity type="STILL" conf="50" state="still" tsMs="1789655393607"/>
        <radio op="vodafone IT" rat="LTE" q="9.90" rsrp="-114" sinr="4" rsrq="-12"/>
        <radio op="I TIM" rat="LTE" q="19.50" rsrp="-110" sinr="8" rsrq="-12"/>
      </extensions>
    </trkpt>
    <trkpt lat="45.6237808" lon="10.4927757">
      <ele>277.8000183105469</ele>
      <time>2026-09-17T16:30:30.055+02:00</time>
      <extensions>
        <activity type="STILL" conf="60" state="still" tsMs="1789655423879"/>
        <radio op="vodafone IT" rat="LTE" q="35.20" rsrp="-109" sinr="17" rsrq="-11"/>
        <radio op="I TIM" rat="LTE" q="32.40" rsrp="-107" sinr="13" rsrq="-12"/>
      </extensions>
    </trkpt>
    <trkpt lat="45.6238224" lon="10.4927326">
      <ele>277.8000183105469</ele>
      <time>2026-09-17T16:31:29.067+02:00</time>
      <extensions>
        <activity type="UNKNOWN" conf="40" state="unknown" tsMs="1789655485946"/>
        <radio op="vodafone IT" rat="LTE" q="5.60" rsrp="-118" sinr="3" rsrq="-12"/>
        <radio op="I TIM" rat="LTE" q="9.60" rsrp="-113" sinr="3" rsrq="-13"/>
      </extensions>
    </trkpt>
    <trkpt lat="45.6237925" lon="10.4927634">
      <ele>277.8000183105469</ele>
      <time>2026-09-17T16:31:59.84+02:00</time>
      <extensions>
        <activity type="STILL" conf="58" state="still" tsMs="1789655519316"/>
        <radio op="vodafone IT" rat="LTE" q="10.40" rsrp="-117" sinr="8" rsrq="-11"/>
        <radio op="I TIM" rat="LTE" q="15.60" rsrp="-112" sinr="7" rsrq="-12"/>
      </extensions>
    </trkpt>
    <trkpt lat="45.6237633" lon="10.4927951">
      <ele>280.20238161823033</ele>
      <time>2026-09-17T16:33:00.861+02:00</time>
      <extensions>
        <activity type="UNKNOWN" conf="40" state="unknown" tsMs="1789655574310"/>
        <radio op="vodafone IT" rat="LTE" rsrp="-120" rsrq="-13"/>
        <radio op="I TIM" rat="LTE" q="4.50" rsrp="-120" sinr="4" rsrq="-12"/>
      </extensions>
    </trkpt>
    <trkpt lat="45.6237645" lon="10.4927901">
      <ele>280.14280638183754</ele>
      <time>2026-09-17T16:33:33.045+02:00</time>
      <extensions>
        <activity type="STILL" conf="99" state="still" tsMs="1789655611333"/>
        <radio op="vodafone IT" rat="LTE" q="2.00" rsrp="-121" sinr="0" rsrq="-14"/>
        <radio op="I TIM" rat="LTE" q="4.00" rsrp="-120" sinr="3" rsrq="-13"/>
      </extensions>
    </trkpt>
    <trkpt lat="45.6237658" lon="10.4927869">
      <ele>280.1832323900968</ele>
      <time>2026-09-17T16:34:24.781+02:00</time>
      <extensions>
        <activity type="STILL" conf="99" state="still" tsMs="1789655661324"/>
        <radio op="vodafone IT" rat="LTE" q="2.80" rsrp="-121" sinr="2" rsrq="-14"/>
        <radio op="I TIM" rat="LTE" q="4.50" rsrp="-120" sinr="4" rsrq="-14"/>
      </extensions>
    </trkpt>
    <trkpt lat="45.6237496" lon="10.4927965">
      <ele>279.84502896400556</ele>
      <time>2026-09-17T16:34:56.366+02:00</time>
      <extensions>
        <activity type="STILL" conf="100" state="still" tsMs="1789655686783"/>
        <radio op="vodafone IT" rat="LTE" q="2.00" rsrp="-121" sinr="0" rsrq="-13"/>
        <radio op="I TIM" rat="LTE" q="4.50" rsrp="-120" sinr="4" rsrq="-12"/>
      </extensions>
    </trkpt>
    <trkpt lat="45.6237654" lon="10.4926987">
      <ele>277.8000183105469</ele>
      <time>2026-09-17T17:59:12.478+02:00</time>
      <extensions>
        <activity type="ON_FOOT" conf="72" state="moving" tsMs="1789660752385"/>
        <radio op="vodafone IT" rat="LTE" q="4.40" rsrp="-121" sinr="6" rsrq="-12"/>
        <radio op="I TIM" rat="LTE" q="9.80" rsrp="-118" sinr="9" rsrq="-12"/>
      </extensions>
    </trkpt>
    <trkpt lat="45.6236942" lon="10.4928076">
      <ele>270.03292211589485</ele>
      <time>2026-09-17T17:59:48.79+02:00</time>
      <extensions>
        <activity type="ON_FOOT" conf="96" state="moving" tsMs="1789660765297"/>
        <radio op="vodafone IT" rat="LTE" rsrp="-123" rsrq="-11"/>
        <radio op="I TIM" rat="LTE" q="0.00" rsrp="-125" sinr="0" rsrq="-14"/>
      </extensions>
    </trkpt>
    <trkpt lat="45.6236794" lon="10.4933025">
      <ele>277.8000183105469</ele>
      <time>2026-09-17T18:00:21.317+02:00</time>
      <extensions>
        <activity type="ON_FOOT" conf="93" state="moving" tsMs="1789660811021"/>
        <radio op="vodafone IT" rat="LTE" rsrp="-107" rsrq="-14"/>
        <radio op="I TIM" rat="LTE" q="28.00" rsrp="-105" sinr="9" rsrq="-11"/>
      </extensions>
    </trkpt>
    <trkpt lat="45.6237002" lon="10.4932782">
      <ele>277.8000183105469</ele>
      <time>2026-09-17T18:01:10.311+02:00</time>
      <extensions>
        <activity type="UNKNOWN" conf="40" state="unknown" tsMs="1789660867513"/>
        <radio op="vodafone IT" rat="LTE" q="13.20" rsrp="-114" sinr="7" rsrq="-10"/>
        <radio op="I TIM" rat="LTE" q="7.20" rsrp="-117" sinr="4" rsrq="-13"/>
      </extensions>
    </trkpt>
    <trkpt lat="45.6237501" lon="10.4938207">
      <ele>277.3399109375762</ele>
      <time>2026-09-17T18:01:46.249+02:00</time>
      <extensions>
        <activity type="UNKNOWN" conf="40" state="unknown" tsMs="1789660892497"/>
        <radio op="vodafone IT" rat="LTE" q="22.40" rsrp="-109" sinr="9" rsrq="-12"/>
        <radio op="I TIM" rat="LTE" q="4.00" rsrp="-120" sinr="3" rsrq="-13"/>
      </extensions>
    </trkpt>
    <trkpt lat="45.6180936" lon="10.4834269">
      <ele>278.2006399276685</ele>
      <time>2026-09-17T18:02:53.527+02:00</time>
      <extensions>
        <activity type="IN_VEHICLE" conf="96" state="moving" tsMs="1789660971478"/>
        <radio op="vodafone IT" rat="LTE" q="28.00" rsrp="-105" sinr="9" rsrq="-11"/>
        <radio op="I TIM" rat="LTE" q="8.10" rsrp="-116" sinr="4" rsrq="-14"/>
      </extensions>
    </trkpt>
    <trkpt lat="45.6120009" lon="10.4810513">
      <ele>270.20001220703125</ele>
      <time>2026-09-17T18:03:42.732+02:00</time>
      <extensions>
        <activity type="IN_VEHICLE" conf="86" state="moving" tsMs="1789661021460"/>
        <radio op="vodafone IT" rat="LTE" q="7.20" rsrp="-116" sinr="3" rsrq="-11"/>
        <radio op="I TIM" rat="LTE" q="6.00" rsrp="-113" sinr="0" rsrq="-12"/>
      </extensions>
    </trkpt>
    <trkpt lat="45.6119239" lon="10.4807351">
      <ele>270.20001220703125</ele>
      <time>2026-09-17T18:03:48.527+02:00</time>
      <extensions>
        <activity type="UNKNOWN" conf="40" state="unknown" tsMs="1789661025806"/>
        <radio op="vodafone IT" rat="LTE" q="16.90" rsrp="-112" sinr="8" rsrq="-10"/>
        <radio op="I TIM" rat="LTE" q="14.00" rsrp="-111" sinr="5" rsrq="-11"/>
      </extensions>
    </trkpt>
    <trkpt lat="45.6089398" lon="10.4766292">
      <ele>270.20001220703125</ele>
      <time>2026-09-17T18:04:25.527+02:00</time>
      <extensions>
        <activity type="IN_VEHICLE" conf="89" state="moving" tsMs="1789661065133"/>
        <radio op="vodafone IT" rat="LTE" q="40.00" rsrp="-100" sinr="11" rsrq="-7"/>
        <radio op="I TIM" rat="LTE" q="60.80" rsrp="-87" sinr="11" rsrq="-7"/>
      </extensions>
    </trkpt>
    <trkpt lat="45.6063962" lon="10.4686211">
      <ele>268.0</ele>
      <time>2026-09-17T18:05:23.286+02:00</time>
      <extensions>
        <activity type="IN_VEHICLE" conf="92" state="moving" tsMs="1789661117459"/>
        <radio op="vodafone IT" rat="LTE" q="77.50" rsrp="-94" sinr="23" rsrq="-5"/>
        <radio op="I TIM" rat="LTE" q="100.00" rsrp="-84" sinr="22" rsrq="-10"/>
      </extensions>
    </trkpt>
    <trkpt lat="45.6061253" lon="10.4675664">
      <ele>268.0</ele>
      <time>2026-09-17T18:05:29.527+02:00</time>
      <extensions>
        <activity type="IN_VEHICLE" conf="88" state="moving" tsMs="1789661122951"/>
        <radio op="vodafone IT" rat="LTE" q="90.00" rsrp="-89" sinr="27" rsrq="-6"/>
        <radio op="I TIM" rat="LTE" q="100.00" rsrp="-84" sinr="22" rsrq="-11"/>
      </extensions>
    </trkpt>
    <trkpt lat="45.6044942" lon="10.4627411">
      <ele>267.4000244140625</ele>
      <time>2026-09-17T18:06:09.8+02:00</time>
      <extensions>
        <activity type="UNKNOWN" conf="40" state="unknown" tsMs="1789661147741"/>
        <radio op="vodafone IT" rat="LTE" q="52.70" rsrp="-94" sinr="12" rsrq="-8"/>
        <radio op="I TIM" rat="LTE" q="40.30" rsrp="-94" sinr="8" rsrq="-9"/>
      </extensions>
    </trkpt>
    <trkpt lat="45.6036954" lon="10.4586973">
      <ele>264.20001220703125</ele>
      <time>2026-09-17T18:06:49.433+02:00</time>
      <extensions>
        <activity type="IN_VEHICLE" conf="92" state="moving" tsMs="1789661197216"/>
        <radio op="vodafone IT" rat="LTE" q="95.00" rsrp="-87" sinr="26" rsrq="-7"/>
        <radio op="I TIM" rat="LTE" q="90.00" rsrp="-89" sinr="23" rsrq="-12"/>
      </extensions>
    </trkpt>
    <trkpt lat="45.6033049" lon="10.4581299">
      <ele>264.20001220703125</ele>
      <time>2026-09-17T18:06:55.529+02:00</time>
      <extensions>
        <activity type="IN_VEHICLE" conf="89" state="moving" tsMs="1789661210324"/>
        <radio op="vodafone IT" rat="LTE" q="80.00" rsrp="-93" sinr="22" rsrq="-6"/>
        <radio op="I TIM" rat="LTE" q="90.00" rsrp="-89" sinr="26" rsrq="-9"/>
      </extensions>
    </trkpt>
    <trkpt lat="45.6028737" lon="10.4567869">
      <ele>262.9000244140625</ele>
      <time>2026-09-17T18:07:30.887+02:00</time>
      <extensions>
        <activity type="UNKNOWN" conf="40" state="unknown" tsMs="1789661236462"/>
        <radio op="vodafone IT" rat="LTE" q="67.20" rsrp="-97" sinr="19" rsrq="-7"/>
        <radio op="I TIM" rat="LTE" q="62.40" rsrp="-99" sinr="19" rsrq="-11"/>
      </extensions>
    </trkpt>
    <trkpt lat="45.6026348" lon="10.4542399">
      <ele>262.0</ele>
      <time>2026-09-17T18:08:14.262+02:00</time>
      <extensions>
        <activity type="IN_VEHICLE" conf="90" state="moving" tsMs="1789661291473"/>
        <radio op="vodafone IT" rat="LTE" rsrp="-116" rsrq="-12"/>
        <radio op="I TIM" rat="LTE" rsrp="-113" rsrq="-13"/>
      </extensions>
    </trkpt>
    <trkpt lat="45.603121" lon="10.453918">
      <ele>262.0</ele>
      <time>2026-09-17T18:08:22.529+02:00</time>
      <extensions>
        <activity type="IN_VEHICLE" conf="91" state="moving" tsMs="1789661297296"/>
        <radio op="vodafone IT" rat="LTE" q="43.20" rsrp="-101" sinr="13" rsrq="-12"/>
        <radio op="I TIM" rat="LTE" q="22.40" rsrp="-111" sinr="11" rsrq="-11"/>
      </extensions>
    </trkpt>
    <trkpt lat="45.6029698" lon="10.4535609">
      <ele>261.3000183105469</ele>
      <time>2026-09-17T18:08:53.961+02:00</time>
      <extensions>
        <activity type="UNKNOWN" conf="40" state="unknown" tsMs="1789661327482"/>
        <radio op="vodafone IT" rat="LTE" q="16.00" rsrp="-109" sinr="5" rsrq="-12"/>
        <radio op="I TIM" rat="LTE" q="14.30" rsrp="-112" sinr="6" rsrq="-12"/>
      </extensions>
    </trkpt>
    <trkpt lat="45.6026428" lon="10.4539189">
      <ele>261.6000061035156</ele>
      <time>2026-09-17T18:09:33.529+02:00</time>
      <extensions>
        <activity type="TILTING" conf="100" state="moving" tsMs="1789661371913"/>
        <radio op="vodafone IT" rat="LTE" q="15.20" rsrp="-106" sinr="3" rsrq="-15"/>
        <radio op="I TIM" rat="LTE" q="32.20" rsrp="-102" sinr="9" rsrq="-12"/>
      </extensions>
    </trkpt>
    <trkpt lat="45.602558" lon="10.4536762">
      <ele>261.6000061035156</ele>
      <time>2026-09-17T18:10:10.583+02:00</time>
      <extensions>
        <activity type="UNKNOWN" conf="40" state="unknown" tsMs="1789661409193"/>
        <radio op="vodafone IT" rat="LTE" q="3.50" rsrp="-118" sinr="0" rsrq="-14"/>
        <radio op="I TIM" rat="LTE" rsrp="-117" rsrq="-14"/>
      </extensions>
    </trkpt>
    <trkpt lat="45.6025564" lon="10.4536647">
      <ele>261.6000061035156</ele>
      <time>2026-09-17T18:10:50.214+02:00</time>
      <extensions>
        <activity type="UNKNOWN" conf="40" state="unknown" tsMs="1789661449123"/>
        <radio op="vodafone IT" rat="LTE" q="13.60" rsrp="-108" sinr="3" rsrq="-13"/>
        <radio op="I TIM" rat="LTE" rsrp="-116" rsrq="-14"/>
      </extensions>
    </trkpt>
    <trkpt lat="45.6025615" lon="10.4536904">
      <ele>261.6000061035156</ele>
      <time>2026-09-17T18:11:44.624+02:00</time>
      <extensions>
        <activity type="STILL" conf="44" state="still" tsMs="1789661501748"/>
        <radio op="vodafone IT" rat="LTE" rsrp="-118" rsrq="-16"/>
        <radio op="I TIM" rat="LTE" rsrp="-114" rsrq="-14"/>
      </extensions>
    </trkpt>
    <trkpt lat="45.6025581" lon="10.4536746">
      <ele>261.6000061035156</ele>
      <time>2026-09-17T18:13:31.287+02:00</time>
      <extensions>
        <activity type="STILL" conf="65" state="still" tsMs="1789661610477"/>
        <radio op="vodafone IT" rat="LTE" q="8.00" rsrp="-115" sinr="3" rsrq="-12"/>
        <radio op="I TIM" rat="LTE" rsrp="-115" rsrq="-16"/>
      </extensions>
    </trkpt>
    <trkpt lat="45.6025592" lon="10.4536862">
      <ele>261.6000061035156</ele>
      <time>2026-09-17T21:54:42.823+02:00</time>
      <extensions>
        <activity type="STILL" conf="100" state="still" tsMs="1789674862044"/>
        <radio op="vodafone IT" rat="LTE" q="16.00" rsrp="-105" sinr="3" rsrq="-12"/>
        <radio op="I TIM" rat="LTE" q="14.70" rsrp="-104" sinr="2" rsrq="-14"/>
      </extensions>
    </trkpt>
    <trkpt lat="45.6025778" lon="10.4537123">
      <ele>261.6000061035156</ele>
      <time>2026-09-17T21:55:34.799+02:00</time>
      <extensions>
        <activity type="STILL" conf="100" state="still" tsMs="1789674924090"/>
        <radio op="vodafone IT" rat="LTE" q="18.90" rsrp="-104" sinr="4" rsrq="-10"/>
        <radio op="I TIM" rat="LTE" rsrp="-103" rsrq="-15"/>
      </extensions>
    </trkpt>
    <trkpt lat="45.6025717" lon="10.4536993">
      <ele>261.6000061035156</ele>
      <time>2026-09-17T21:56:37.032+02:00</time>
      <extensions>
        <activity type="STILL" conf="100" state="still" tsMs="1789674986312"/>
        <radio op="vodafone IT" rat="LTE" q="18.00" rsrp="-105" sinr="4" rsrq="-11"/>
        <radio op="I TIM" rat="LTE" q="14.70" rsrp="-104" sinr="2" rsrq="-13"/>
      </extensions>
    </trkpt>
    <trkpt lat="45.6025467" lon="10.4536724">
      <ele>261.6000061035156</ele>
      <time>2026-09-17T21:57:39.221+02:00</time>
      <extensions>
        <activity type="STILL" conf="100" state="still" tsMs="1789675048579"/>
        <radio op="vodafone IT" rat="LTE" q="22.00" rsrp="-105" sinr="6" rsrq="-13"/>
        <radio op="I TIM" rat="LTE" q="14.70" rsrp="-104" sinr="2" rsrq="-13"/>
      </extensions>
    </trkpt>
    <trkpt lat="45.6025801" lon="10.4537041">
      <ele>261.6000061035156</ele>
      <time>2026-09-17T21:58:32.982+02:00</time>
      <extensions>
        <activity type="STILL" conf="100" state="still" tsMs="1789675106730"/>
        <radio op="vodafone IT" rat="LTE" q="22.00" rsrp="-105" sinr="6" rsrq="-13"/>
        <radio op="I TIM" rat="LTE" q="16.80" rsrp="-104" sinr="3" rsrq="-13"/>
      </extensions>
    </trkpt>
  </trkseg></trk>
</gpx>
