<?xml version="1.0" encoding="UTF-8"?>
<gpx version="1.1" creator="CellGPX" xmlns="http://www.topografix.com/GPX/1/1">
  <trk><name>CellGPX</name><trkseg>
    <trkpt lat="45.6019959" lon="10.4540272">
      <ele>261.5</ele>
      <time>2026-07-30T11:27:09.357+02:00</time>
      <extensions>
        <activity type="ON_FOOT" conf="93" state="moving" tsMs="1785403607851"/>
        <radio op="vodafone IT" rat="LTE" q="46.00" rsrp="-102" sinr="15" rsrq="-7"/>
        <radio op="I TIM" rat="LTE" q="59.80" rsrp="-99" sinr="18" rsrq="-11"/>
      </extensions>
    </trkpt>
    <trkpt lat="45.6019894" lon="10.4540119">
      <ele>261.5</ele>
      <time>2026-07-30T11:27:11.358+02:00</time>
      <extensions>
        <activity type="ON_FOOT" conf="97" state="moving" tsMs="1785403635670"/>
        <radio op="vodafone IT" rat="LTE" q="16.80" rsrp="-111" sinr="7" rsrq="-8"/>
        <radio op="I TIM" rat="LTE" q="16.10" rsrp="-102" sinr="2" rsrq="-11"/>
      </extensions>
    </trkpt>
    <trkpt lat="45.6023238" lon="10.4551664">
      <ele>261.6000061035156</ele>
      <time>2026-07-30T11:27:50.975+02:00</time>
      <extensions>
        <activity type="ON_FOOT" conf="97" state="moving" tsMs="1785403651865"/>
        <radio op="vodafone IT" rat="LTE" q="18.70" rsrp="-108" sinr="6" rsrq="-11"/>
        <radio op="I TIM" rat="LTE" q="39.60" rsrp="-103" sinr="13" rsrq="-12"/>
      </extensions>
    </trkpt>
    <trkpt lat="45.602518" lon="10.4557349">
      <ele>262.1000061035156</ele>
      <time>2026-07-30T11:28:37.581+02:00</time>
      <extensions>
        <activity type="ON_FOOT" conf="96" state="moving" tsMs="1785403711481"/>
        <radio op="vodafone IT" rat="LTE" q="8.80" rsrp="-117" sinr="6" rsrq="-9"/>
        <radio op="I TIM" rat="LTE" q="7.50" rsrp="-110" sinr="0" rsrq="-14"/>
      </extensions>
    </trkpt>
    <trkpt lat="45.6025025" lon="10.4556723">
      <ele>262.0</ele>
      <time>2026-07-30T11:29:16.176+02:00</time>
      <extensions>
        <activity type="UNKNOWN" conf="40" state="unknown" tsMs="1785403755648"/>
        <radio op="vodafone IT" rat="LTE" q="8.80" rsrp="-117" sinr="6" rsrq="-11"/>
        <radio op="I TIM" rat="LTE" rsrp="-117" rsrq="-14"/>
      </extensions>
    </trkpt>
    <trkpt lat="45.6025022" lon="10.4556755">
      <ele>262.0</ele>
      <time>2026-07-30T11:30:01.684+02:00</time>
      <extensions>
        <activity type="STILL" conf="99" state="still" tsMs="1785403800666"/>
        <radio op="vodafone IT" rat="LTE" q="7.20" rsrp="-116" sinr="3" rsrq="-13"/>
        <radio op="I TIM" rat="LTE" rsrp="-117" rsrq="-14"/>
      </extensions>
    </trkpt>
    <trkpt lat="45.602504" lon="10.4556748">
      <ele>262.0</ele>
      <time>2026-07-30T11:30:59.04+02:00</time>
      <extensions>
        <activity type="STILL" conf="99" state="still" tsMs="1785403858639"/>
        <radio op="vodafone IT" rat="LTE" q="2.40" rsrp="-122" sinr="3" rsrq="-11"/>
        <radio op="I TIM" rat="LTE" q="2.10" rsrp="-122" sinr="2" rsrq="-13"/>
      </extensions>
    </trkpt>
    <trkpt lat="45.602506" lon="10.4556707">
      <ele>262.0</ele>
      <time>2026-07-30T11:31:33.936+02:00</time>
      <extensions>
        <activity type="STILL" conf="99" state="still" tsMs="1785403892701"/>
        <radio op="vodafone IT" rat="LTE" q="8.00" rsrp="-117" sinr="5" rsrq="-13"/>
        <radio op="I TIM" rat="LTE" rsrp="-119" rsrq="-13"/>
      </extensions>
    </trkpt>
    <trkpt lat="45.6022999" lon="10.4549752">
      <ele>261.70001220703125</ele>
      <time>2026-07-30T11:39:07.844+02:00</time>
      <extensions>
        <activity type="ON_FOOT" conf="97" state="moving" tsMs="1785404344352"/>
        <radio op="vodafone IT" rat="LTE" rsrp="-94" rsrq="-11"/>
        <radio op="I TIM" rat="LTE" q="13.30" rsrp="-106" sinr="2" rsrq="-13"/>
      </extensions>
    </trkpt>
    <trkpt lat="45.6016981" lon="10.454451">
      <ele>261.70001220703125</ele>
      <time>2026-07-30T11:39:47.462+02:00</time>
      <extensions>
        <activity type="ON_FOOT" conf="96" state="moving" tsMs="1785404386836"/>
        <radio op="vodafone IT" rat="LTE" q="52.80" rsrp="-92" sinr="11" rsrq="-9"/>
        <radio op="I TIM" rat="LTE" q="27.60" rsrp="-102" sinr="7" rsrq="-13"/>
      </extensions>
    </trkpt>
    <trkpt lat="45.6022229" lon="10.4534032">
      <ele>261.6000061035156</ele>
      <time>2026-07-30T11:40:18.791+02:00</time>
      <extensions>
        <activity type="ON_FOOT" conf="96" state="moving" tsMs="1785404415288"/>
        <radio op="vodafone IT" rat="LTE" rsrp="-94" rsrq="-8"/>
        <radio op="I TIM" rat="LTE" q="72.50" rsrp="-96" sinr="23" rsrq="-10"/>
      </extensions>
    </trkpt>
    <trkpt lat="45.6025689" lon="10.4535256">
      <ele>261.5</ele>
      <time>2026-07-30T11:40:50.03+02:00</time>
      <extensions>
        <activity type="ON_FOOT" conf="97" state="moving" tsMs="1785404446445"/>
        <radio op="vodafone IT" rat="LTE" q="21.60" rsrp="-98" sinr="3" rsrq="-8"/>
        <radio op="I TIM" rat="LTE" q="22.10" rsrp="-108" sinr="8" rsrq="-10"/>
      </extensions>
    </trkpt>
    <trkpt lat="45.602547" lon="10.4536717">
      <ele>261.6000061035156</ele>
      <time>2026-07-30T11:41:21.358+02:00</time>
      <extensions>
        <activity type="ON_FOOT" conf="88" state="moving" tsMs="1785404477641"/>
        <radio op="vodafone IT" rat="LTE" rsrp="-116" rsrq="-14"/>
        <radio op="I TIM" rat="LTE" q="5.00" rsrp="-120" sinr="5" rsrq="-12"/>
      </extensions>
    </trkpt>
    <trkpt lat="45.6025769" lon="10.4537272">
      <ele>261.6000061035156</ele>
      <time>2026-07-30T11:41:52.715+02:00</time>
      <extensions>
        <activity type="UNKNOWN" conf="40" state="unknown" tsMs="1785404508932"/>
        <radio op="vodafone IT" rat="LTE" q="10.80" rsrp="-116" sinr="7" rsrq="-9"/>
        <radio op="I TIM" rat="LTE" q="7.20" rsrp="-117" sinr="4" rsrq="-11"/>
      </extensions>
    </trkpt>
    <trkpt lat="45.6025588" lon="10.4536987">
      <ele>261.6000061035156</ele>
      <time>2026-07-30T11:42:24.184+02:00</time>
      <extensions>
        <activity type="UNKNOWN" conf="40" state="unknown" tsMs="1785404540529"/>
        <radio op="vodafone IT" rat="LTE" q="9.60" rsrp="-113" sinr="3" rsrq="-9"/>
        <radio op="I TIM" rat="LTE" q="7.00" rsrp="-115" sinr="2" rsrq="-12"/>
      </extensions>
    </trkpt>
    <trkpt lat="45.6025454" lon="10.4536778">
      <ele>261.6000061035156</ele>
      <time>2026-07-30T11:42:55.826+02:00</time>
      <extensions>
        <activity type="UNKNOWN" conf="40" state="unknown" tsMs="1785404572104"/>
        <radio op="vodafone IT" rat="LTE" q="9.90" rsrp="-116" sinr="6" rsrq="-9"/>
        <radio op="I TIM" rat="LTE" q="10.80" rsrp="-113" sinr="4" rsrq="-11"/>
      </extensions>
    </trkpt>
    <trkpt lat="45.602569" lon="10.4537134">
      <ele>261.6000061035156</ele>
      <time>2026-07-30T11:43:30.425+02:00</time>
      <extensions>
        <activity type="STILL" conf="61" state="still" tsMs="1785404609062"/>
        <radio op="vodafone IT" rat="LTE" q="3.50" rsrp="-120" sinr="2" rsrq="-10"/>
        <radio op="I TIM" rat="LTE" q="11.70" rsrp="-116" sinr="8" rsrq="-10"/>
      </extensions>
    </trkpt>
    <trkpt lat="45.6025565" lon="10.453695">
      <ele>261.6000061035156</ele>
      <time>2026-07-30T11:44:02.129+02:00</time>
      <extensions>
        <activity type="UNKNOWN" conf="40" state="unknown" tsMs="1785404636386"/>
        <radio op="vodafone IT" rat="LTE" q="7.00" rsrp="-115" sinr="2" rsrq="-11"/>
        <radio op="I TIM" rat="LTE" q="15.60" rsrp="-113" sinr="8" rsrq="-12"/>
      </extensions>
    </trkpt>
    <trkpt lat="45.6026226" lon="10.4535366">
      <ele>261.5</ele>
      <time>2026-07-30T11:47:58.934+02:00</time>
      <extensions>
        <activity type="UNKNOWN" conf="40" state="unknown" tsMs="1785404878186"/>
        <radio op="vodafone IT" rat="LTE" q="19.00" rsrp="-106" sinr="5" rsrq="-10"/>
        <radio op="I TIM" rat="LTE" q="34.20" rsrp="-106" sinr="13" rsrq="-12"/>
      </extensions>
    </trkpt>
    <trkpt lat="45.6022434" lon="10.4536002">
      <ele>261.6000061035156</ele>
      <time>2026-07-30T11:48:30.583+02:00</time>
      <extensions>
        <activity type="ON_FOOT" conf="96" state="moving" tsMs="1785404909848"/>
        <radio op="vodafone IT" rat="LTE" q="27.00" rsrp="-98" sinr="5" rsrq="-9"/>
        <radio op="I TIM" rat="LTE" q="26.60" rsrp="-106" sinr="9" rsrq="-13"/>
      </extensions>
    </trkpt>
    <trkpt lat="45.6021592" lon="10.4530646">
      <ele>261.6000061035156</ele>
      <time>2026-07-30T11:49:11.476+02:00</time>
      <extensions>
        <activity type="ON_FOOT" conf="92" state="moving" tsMs="1785404946980"/>
        <radio op="vodafone IT" rat="LTE" q="23.20" rsrp="-96" sinr="3" rsrq="-9"/>
        <radio op="I TIM" rat="LTE" rsrp="-97" rsrq="-10"/>
      </extensions>
    </trkpt>
    <trkpt lat="45.6022866" lon="10.4535563">
      <ele>261.6000061035156</ele>
      <time>2026-07-30T11:50:09.747+02:00</time>
      <extensions>
        <activity type="UNKNOWN" conf="40" state="unknown" tsMs="1785405004587"/>
        <radio op="vodafone IT" rat="LTE" rsrp="-116" rsrq="-11"/>
        <radio op="I TIM" rat="LTE" q="43.70" rsrp="-102" sinr="14" rsrq="-10"/>
      </extensions>
    </trkpt>
    <trkpt lat="45.6025737" lon="10.4559384">
      <ele>266.2339916659174</ele>
      <time>2026-07-30T11:50:58.323+02:00</time>
      <extensions>
        <activity type="IN_VEHICLE" conf="87" state="moving" tsMs="1785405054174"/>
        <radio op="vodafone IT" rat="LTE" q="21.00" rsrp="-110" sinr="9" rsrq="-8"/>
        <radio op="I TIM" rat="LTE" q="20.00" rsrp="-100" sinr="3" rsrq="-11"/>
      </extensions>
    </trkpt>
    <trkpt lat="45.6037637" lon="10.461485">
      <ele>273.22592167439416</ele>
      <time>2026-07-30T11:51:32.675+02:00</time>
      <extensions>
        <activity type="IN_VEHICLE" conf="93" state="moving" tsMs="1785405091303"/>
        <radio op="vodafone IT" rat="LTE" q="100.00" rsrp="-84" sinr="27" rsrq="-8"/>
        <radio op="I TIM" rat="LTE" q="92.00" rsrp="-78" sinr="18" rsrq="-11"/>
      </extensions>
    </trkpt>
    <trkpt lat="45.6125834" lon="10.4869891">
      <ele>247.55139213050776</ele>
      <time>2026-07-30T11:53:42.708+02:00</time>
      <extensions>
        <activity type="UNKNOWN" conf="40" state="unknown" tsMs="1785405228041"/>
        <radio op="vodafone IT" rat="LTE" rsrp="-139" rsrq="-22"/>
        <radio op="I TIM" rat="LTE" rsrp="-123" rsrq="-13"/>
      </extensions>
    </trkpt>
    <trkpt lat="45.6127176" lon="10.4855386">
      <ele>250.01369910205884</ele>
      <time>2026-07-30T11:53:53.462+02:00</time>
      <extensions>
        <activity type="IN_VEHICLE" conf="96" state="moving" tsMs="1785405245970"/>
        <radio op="vodafone IT" rat="LTE" q="7.70" rsrp="-114" sinr="2" rsrq="-11"/>
        <radio op="I TIM" rat="LTE" rsrp="-114" rsrq="-14"/>
      </extensions>
    </trkpt>
    <trkpt lat="45.610055" lon="10.4958334">
      <ele>224.21842907403783</ele>
      <time>2026-07-30T11:54:37.351+02:00</time>
      <extensions>
        <activity type="IN_VEHICLE" conf="89" state="moving" tsMs="1785405268347"/>
        <radio op="vodafone IT" rat="LTE" rsrp="-104" rsrq="-12"/>
        <radio op="I TIM" rat="LTE" q="6.30" rsrp="-116" sinr="2" rsrq="-14"/>
      </extensions>
    </trkpt>
    <trkpt lat="45.610137" lon="10.4995783">
      <ele>266.8000183105469</ele>
      <time>2026-07-30T11:54:56.36+02:00</time>
      <extensions>
        <activity type="UNKNOWN" conf="40" state="unknown" tsMs="1785405294236"/>
        <radio op="vodafone IT" rat="LTE" q="43.40" rsrp="-94" sinr="9" rsrq="-8"/>
        <radio op="I TIM" rat="LTE" q="21.00" rsrp="-104" sinr="5" rsrq="-12"/>
      </extensions>
    </trkpt>
    <trkpt lat="45.6099758" lon="10.4996928">
      <ele>195.43783197940238</ele>
      <time>2026-07-30T11:55:34.036+02:00</time>
      <extensions>
        <activity type="UNKNOWN" conf="40" state="unknown" tsMs="1785405333322"/>
        <radio op="vodafone IT" rat="LTE" q="30.00" rsrp="-100" sinr="7" rsrq="-9"/>
        <radio op="I TIM" rat="LTE" q="29.70" rsrp="-98" sinr="6" rsrq="-13"/>
      </extensions>
    </trkpt>
    <trkpt lat="45.6099586" lon="10.4995018">
      <ele>197.20001220703125</ele>
      <time>2026-07-30T11:56:05.396+02:00</time>
      <extensions>
        <activity type="ON_FOOT" conf="96" state="moving" tsMs="1785405359704"/>
        <radio op="vodafone IT" rat="LTE" q="49.00" rsrp="-90" sinr="9" rsrq="-10"/>
        <radio op="I TIM" rat="LTE" q="42.00" rsrp="-90" sinr="7" rsrq="-12"/>
      </extensions>
    </trkpt>
    <trkpt lat="45.6098674" lon="10.4996058">
      <ele>197.20001220703125</ele>
      <time>2026-07-30T11:56:38.119+02:00</time>
      <extensions>
        <activity type="UNKNOWN" conf="40" state="unknown" tsMs="1785405393354"/>
        <radio op="vodafone IT" rat="LTE" q="51.00" rsrp="-95" sinr="12" rsrq="-9"/>
        <radio op="I TIM" rat="LTE" q="28.80" rsrp="-93" sinr="4" rsrq="-12"/>
      </extensions>
    </trkpt>
    <trkpt lat="45.6098326" lon="10.4995804">
      <ele>197.20001220703125</ele>
      <time>2026-07-30T11:56:47.36+02:00</time>
      <extensions>
        <activity type="UNKNOWN" conf="40" state="unknown" tsMs="1785405398775"/>
        <radio op="vodafone IT" rat="LTE" q="56.10" rsrp="-92" sinr="12" rsrq="-9"/>
        <radio op="I TIM" rat="LTE" q="39.60" rsrp="-89" sinr="6" rsrq="-12"/>
      </extensions>
    </trkpt>
    <trkpt lat="45.6098535" lon="10.4996295">
      <ele>197.16388315717097</ele>
      <time>2026-07-30T11:57:22.177+02:00</time>
      <extensions>
        <activity type="STILL" conf="99" state="still" tsMs="1785405440656"/>
        <radio op="vodafone IT" rat="LTE" q="24.20" rsrp="-103" sinr="6" rsrq="-11"/>
        <radio op="I TIM" rat="LTE" q="35.10" rsrp="-86" sinr="4" rsrq="-13"/>
      </extensions>
    </trkpt>
    <trkpt lat="45.6096686" lon="10.4997711">
      <ele>197.36087034629128</ele>
      <time>2026-07-30T11:57:48.536+02:00</time>
      <extensions>
        <activity type="STILL" conf="97" state="still" tsMs="1785405469840"/>
        <radio op="vodafone IT" rat="LTE" q="38.40" rsrp="-101" sinr="11" rsrq="-12"/>
        <radio op="I TIM" rat="LTE" q="38.00" rsrp="-87" sinr="5" rsrq="-13"/>
      </extensions>
    </trkpt>
    <trkpt lat="45.6098684" lon="10.4995972">
      <ele>197.29600316329203</ele>
      <time>2026-07-30T11:58:24.088+02:00</time>
      <extensions>
        <activity type="STILL" conf="99" state="still" tsMs="1785405500245"/>
        <radio op="vodafone IT" rat="LTE" q="36.80" rsrp="-102" sinr="11" rsrq="-7"/>
        <radio op="I TIM" rat="LTE" rsrp="-96" rsrq="-18"/>
      </extensions>
    </trkpt>
    <trkpt lat="45.6098462" lon="10.49962">
      <ele>197.80316263981163</ele>
      <time>2026-07-30T11:58:55.308+02:00</time>
      <extensions>
        <activity type="STILL" conf="99" state="still" tsMs="1785405531348"/>
        <radio op="vodafone IT" rat="LTE" q="40.80" rsrp="-101" sinr="12" rsrq="-10"/>
        <radio op="I TIM" rat="LTE" rsrp="-96" rsrq="-13"/>
      </extensions>
    </trkpt>
    <trkpt lat="45.6098608" lon="10.4996077">
      <ele>197.57645505946007</ele>
      <time>2026-07-30T11:59:26.682+02:00</time>
      <extensions>
        <activity type="STILL" conf="85" state="still" tsMs="1785405562745"/>
        <radio op="vodafone IT" rat="LTE" q="18.00" rsrp="-95" sinr="1" rsrq="-11"/>
        <radio op="I TIM" rat="LTE" rsrp="-90" rsrq="-14"/>
      </extensions>
    </trkpt>
    <trkpt lat="45.6098689" lon="10.4996163">
      <ele>193.8000030517578</ele>
      <time>2026-07-30T11:59:57.833+02:00</time>
      <extensions>
        <activity type="STILL" conf="95" state="still" tsMs="1785405593963"/>
        <radio op="vodafone IT" rat="LTE" q="52.50" rsrp="-90" sinr="10" rsrq="-7"/>
        <radio op="I TIM" rat="LTE" q="20.40" rsrp="-91" sinr="1" rsrq="-13"/>
      </extensions>
    </trkpt>
    <trkpt lat="45.6098438" lon="10.4996369">
      <ele>193.8000030517578</ele>
      <time>2026-07-30T12:00:29.201+02:00</time>
      <extensions>
        <activity type="STILL" conf="99" state="still" tsMs="1785405625128"/>
        <radio op="vodafone IT" rat="LTE" q="20.90" rsrp="-106" sinr="6" rsrq="-12"/>
        <radio op="I TIM" rat="LTE" rsrp="-97" rsrq="-14"/>
      </extensions>
    </trkpt>
    <trkpt lat="45.6098543" lon="10.4996427">
      <ele>193.8000030517578</ele>
      <time>2026-07-30T12:01:00.46+02:00</time>
      <extensions>
        <activity type="STILL" conf="97" state="still" tsMs="1785405656522"/>
        <radio op="vodafone IT" rat="LTE" q="44.20" rsrp="-99" sinr="12" rsrq="-7"/>
        <radio op="I TIM" rat="LTE" q="15.00" rsrp="-100" sinr="1" rsrq="-15"/>
      </extensions>
    </trkpt>
    <trkpt lat="45.6098651" lon="10.4996172">
      <ele>193.8000030517578</ele>
      <time>2026-07-30T12:01:31.755+02:00</time>
      <extensions>
        <activity type="STILL" conf="99" state="still" tsMs="1785405687762"/>
        <radio op="vodafone IT" rat="LTE" q="43.20" rsrp="-101" sinr="13" rsrq="-9"/>
        <radio op="I TIM" rat="LTE" rsrp="-99" rsrq="-15"/>
      </extensions>
    </trkpt>
    <trkpt lat="45.6099632" lon="10.4999593">
      <ele>194.20001220703125</ele>
      <time>2026-07-30T12:42:50.497+02:00</time>
      <extensions>
        <activity type="ON_FOOT" conf="98" state="moving" tsMs="1785408159425"/>
        <radio op="vodafone IT" rat="LTE" q="39.20" rsrp="-97" sinr="9" rsrq="-11"/>
        <radio op="I TIM" rat="LTE" q="21.70" rsrp="-94" sinr="2" rsrq="-14"/>
      </extensions>
    </trkpt>
    <trkpt lat="45.609948" lon="10.4999792">
      <ele>194.20001220703125</ele>
      <time>2026-07-30T12:42:53.369+02:00</time>
      <extensions>
        <activity type="ON_FOOT" conf="98" state="moving" tsMs="1785408159425"/>
        <radio op="vodafone IT" rat="LTE" q="66.00" rsrp="-92" sinr="15" rsrq="-11"/>
        <radio op="I TIM" rat="LTE" q="18.60" rsrp="-94" sinr="1" rsrq="-14"/>
      </extensions>
    </trkpt>
    <trkpt lat="45.6099764" lon="10.4996718">
      <ele>197.20001220703125</ele>
      <time>2026-07-30T12:43:38.083+02:00</time>
      <extensions>
        <activity type="IN_VEHICLE" conf="97" state="moving" tsMs="1785408212427"/>
        <radio op="vodafone IT" rat="LTE" q="37.70" rsrp="-96" sinr="8" rsrq="-8"/>
        <radio op="I TIM" rat="LTE" rsrp="-97" rsrq="-13"/>
      </extensions>
    </trkpt>
    <trkpt lat="45.60998" lon="10.4996843">
      <ele>197.20001220703125</ele>
      <time>2026-07-30T12:44:09.431+02:00</time>
      <extensions>
        <activity type="IN_VEHICLE" conf="97" state="moving" tsMs="1785408245406"/>
        <radio op="vodafone IT" rat="LTE" q="42.50" rsrp="-100" sinr="12" rsrq="-13"/>
        <radio op="I TIM" rat="LTE" rsrp="-100" rsrq="-14"/>
      </extensions>
    </trkpt>
    <trkpt lat="45.6103881" lon="10.4943583">
      <ele>219.314899251101</ele>
      <time>2026-07-30T12:44:49.658+02:00</time>
      <extensions>
        <activity type="IN_VEHICLE" conf="97" state="moving" tsMs="1785408281591"/>
        <radio op="vodafone IT" rat="LTE" q="37.80" rsrp="-104" sinr="13" rsrq="-10"/>
        <radio op="I TIM" rat="LTE" rsrp="-115" rsrq="-16"/>
      </extensions>
    </trkpt>
    <trkpt lat="45.6121299" lon="10.4897899">
      <ele>234.00001525878906</ele>
      <time>2026-07-30T12:45:27.545+02:00</time>
      <extensions>
        <activity type="IN_VEHICLE" conf="97" state="moving" tsMs="1785408326779"/>
        <radio op="vodafone IT" rat="LTE" rsrp="-116" rsrq="-17"/>
        <radio op="I TIM" rat="LTE" rsrp="-106" rsrq="-14"/>
      </extensions>
    </trkpt>
    <trkpt lat="45.6121487" lon="10.4900946">
      <ele>234.00001525878906</ele>
      <time>2026-07-30T12:45:31.355+02:00</time>
      <extensions>
        <activity type="IN_VEHICLE" conf="97" state="moving" tsMs="1785408326779"/>
        <radio op="vodafone IT" rat="LTE" rsrp="-106" rsrq="-13"/>
        <radio op="I TIM" rat="LTE" q="38.40" rsrp="-93" sinr="7" rsrq="-12"/>
      </extensions>
    </trkpt>
    <trkpt lat="45.6121044" lon="10.4900823">
      <ele>234.00001525878906</ele>
      <time>2026-07-30T12:46:14.442+02:00</time>
      <extensions>
        <activity type="ON_FOOT" conf="93" state="moving" tsMs="1785408371698"/>
        <radio op="vodafone IT" rat="LTE" q="20.80" rsrp="-109" sinr="8" rsrq="-8"/>
        <radio op="I TIM" rat="LTE" q="33.60" rsrp="-104" sinr="11" rsrq="-12"/>
      </extensions>
    </trkpt>
    <trkpt lat="45.6121223" lon="10.4899634">
      <ele>234.00001525878906</ele>
      <time>2026-07-30T12:46:49.704+02:00</time>
      <extensions>
        <activity type="UNKNOWN" conf="40" state="unknown" tsMs="1785408405455"/>
        <radio op="vodafone IT" rat="LTE" rsrp="-100" rsrq="-9"/>
        <radio op="I TIM" rat="LTE" q="40.00" rsrp="-100" sinr="11" rsrq="-10"/>
      </extensions>
    </trkpt>
    <trkpt lat="45.6121184" lon="10.4899946">
      <ele>234.00001525878906</ele>
      <time>2026-07-30T12:47:20.999+02:00</time>
      <extensions>
        <activity type="STILL" conf="43" state="still" tsMs="1785408437066"/>
        <radio op="vodafone IT" rat="LTE" q="20.80" rsrp="-99" sinr="3" rsrq="-10"/>
        <radio op="I TIM" rat="LTE" q="40.00" rsrp="-100" sinr="11" rsrq="-11"/>
      </extensions>
    </trkpt>
    <trkpt lat="45.6121434" lon="10.4900551">
      <ele>234.00001525878906</ele>
      <time>2026-07-30T12:47:51.723+02:00</time>
      <extensions>
        <activity type="UNKNOWN" conf="40" state="unknown" tsMs="1785408468366"/>
        <radio op="vodafone IT" rat="LTE" q="11.20" rsrp="-111" sinr="3" rsrq="-10"/>
        <radio op="I TIM" rat="LTE" q="47.60" rsrp="-97" sinr="12" rsrq="-10"/>
      </extensions>
    </trkpt>
    <trkpt lat="45.6121103" lon="10.4899785">
      <ele>234.00001525878906</ele>
      <time>2026-07-30T12:48:25.106+02:00</time>
      <extensions>
        <activity type="UNKNOWN" conf="40" state="unknown" tsMs="1785408501189"/>
        <radio op="vodafone IT" rat="LTE" q="14.30" rsrp="-112" sinr="6" rsrq="-10"/>
        <radio op="I TIM" rat="LTE" q="41.60" rsrp="-99" sinr="11" rsrq="-10"/>
      </extensions>
    </trkpt>
    <trkpt lat="45.6121114" lon="10.4899783">
      <ele>234.00001525878906</ele>
      <time>2026-07-30T12:48:56.378+02:00</time>
      <extensions>
        <activity type="STILL" conf="97" state="still" tsMs="1785408532521"/>
        <radio op="vodafone IT" rat="LTE" rsrp="-111" rsrq="-12"/>
        <radio op="I TIM" rat="LTE" q="37.40" rsrp="-91" sinr="6" rsrq="-12"/>
      </extensions>
    </trkpt>
    <trkpt lat="45.6121156" lon="10.4899985">
      <ele>234.00001525878906</ele>
      <time>2026-07-30T12:49:27.714+02:00</time>
      <extensions>
        <activity type="STILL" conf="98" state="still" tsMs="1785408563859"/>
        <radio op="vodafone IT" rat="LTE" q="14.30" rsrp="-112" sinr="6" rsrq="-9"/>
        <radio op="I TIM" rat="LTE" q="40.50" rsrp="-98" sinr="10" rsrq="-12"/>
      </extensions>
    </trkpt>
    <trkpt lat="45.612111" lon="10.489985">
      <ele>234.00001525878906</ele>
      <time>2026-07-30T12:49:59.016+02:00</time>
      <extensions>
        <activity type="STILL" conf="75" state="still" tsMs="1785408595142"/>
        <radio op="vodafone IT" rat="LTE" q="29.70" rsrp="-98" sinr="6" rsrq="-10"/>
        <radio op="I TIM" rat="LTE" q="45.90" rsrp="-98" sinr="12" rsrq="-12"/>
      </extensions>
    </trkpt>
    <trkpt lat="45.6120616" lon="10.4899268">
      <ele>234.00001525878906</ele>
      <time>2026-07-30T13:39:58.945+02:00</time>
      <extensions>
        <activity type="ON_FOOT" conf="94" state="moving" tsMs="1785411598501"/>
        <radio op="vodafone IT" rat="LTE" q="6.50" rsrp="-112" sinr="0" rsrq="-10"/>
        <radio op="I TIM" rat="LTE" q="38.40" rsrp="-101" sinr="11" rsrq="-12"/>
      </extensions>
    </trkpt>
    <trkpt lat="45.6120734" lon="10.4901627">
      <ele>234.00001525878906</ele>
      <time>2026-07-30T13:40:40.415+02:00</time>
      <extensions>
        <activity type="ON_FOOT" conf="96" state="moving" tsMs="1785411636835"/>
        <radio op="vodafone IT" rat="LTE" rsrp="-114" rsrq="-20"/>
        <radio op="I TIM" rat="LTE" q="35.70" rsrp="-104" sinr="12" rsrq="-13"/>
      </extensions>
    </trkpt>
    <trkpt lat="45.6120403" lon="10.4900509">
      <ele>234.00001525878906</ele>
      <time>2026-07-30T13:41:22.695+02:00</time>
      <extensions>
        <activity type="UNKNOWN" conf="40" state="unknown" tsMs="1785411681453"/>
        <radio op="vodafone IT" rat="LTE" rsrp="-111" rsrq="-14"/>
        <radio op="I TIM" rat="LTE" rsrp="-117" rsrq="-16"/>
      </extensions>
    </trkpt>
    <trkpt lat="45.6149355" lon="10.4967984">
      <ele>227.27642786608445</ele>
      <time>2026-07-30T13:43:18.352+02:00</time>
      <extensions>
        <activity type="IN_VEHICLE" conf="96" state="moving" tsMs="1785411814007"/>
        <radio op="vodafone IT" rat="LTE" q="82.50" rsrp="-92" sinr="25" rsrq="-9"/>
        <radio op="I TIM" rat="LTE" q="32.00" rsrp="-105" sinr="11" rsrq="-13"/>
      </extensions>
    </trkpt>
    <trkpt lat="45.6178538" lon="10.4936391">
      <ele>224.60000610351562</ele>
      <time>2026-07-30T13:45:04.76+02:00</time>
      <extensions>
        <activity type="STILL" conf="61" state="still" tsMs="1785411894872"/>
        <radio op="vodafone IT" rat="LTE" q="57.50" rsrp="-100" sinr="18" rsrq="-8"/>
        <radio op="I TIM" rat="LTE" q="50.60" rsrp="-102" sinr="17" rsrq="-12"/>
      </extensions>
    </trkpt>
    <trkpt lat="45.6175324" lon="10.493564">
      <ele>224.60000610351562</ele>
      <time>2026-07-30T13:45:13.353+02:00</time>
      <extensions>
        <activity type="STILL" conf="61" state="still" tsMs="1785411894872"/>
        <radio op="vodafone IT" rat="LTE" q="70.00" rsrp="-97" sinr="22" rsrq="-11"/>
        <radio op="I TIM" rat="LTE" q="59.40" rsrp="-98" sinr="17" rsrq="-13"/>
      </extensions>
    </trkpt>
    <trkpt lat="45.6177194" lon="10.4938907">
      <ele>224.40000915527344</ele>
      <time>2026-07-30T13:45:46.665+02:00</time>
      <extensions>
        <activity type="UNKNOWN" conf="40" state="unknown" tsMs="1785411943466"/>
        <radio op="vodafone IT" rat="LTE" q="48.40" rsrp="-103" sinr="17" rsrq="-9"/>
        <radio op="I TIM" rat="LTE" q="46.00" rsrp="-105" sinr="18" rsrq="-11"/>
      </extensions>
    </trkpt>
    <trkpt lat="45.6178291" lon="10.4936479">
      <ele>224.40000915527344</ele>
      <time>2026-07-30T13:46:26.502+02:00</time>
      <extensions>
        <activity type="UNKNOWN" conf="40" state="unknown" tsMs="1785411980836"/>
        <radio op="vodafone IT" rat="LTE" q="55.00" rsrp="-103" sinr="20" rsrq="-12"/>
        <radio op="I TIM" rat="LTE" q="55.20" rsrp="-102" sinr="19" rsrq="-11"/>
      </extensions>
    </trkpt>
    <trkpt lat="45.6176709" lon="10.4941207">
      <ele>224.40000915527344</ele>
      <time>2026-07-30T13:47:05.29+02:00</time>
      <extensions>
        <activity type="UNKNOWN" conf="40" state="unknown" tsMs="1785412024213"/>
        <radio op="vodafone IT" rat="LTE" rsrp="-108" rsrq="-13"/>
        <radio op="I TIM" rat="LTE" rsrp="-111" rsrq="-13"/>
      </extensions>
    </trkpt>
    <trkpt lat="45.6178444" lon="10.4935995">
      <ele>224.60000610351562</ele>
      <time>2026-07-30T13:47:42.541+02:00</time>
      <extensions>
        <activity type="UNKNOWN" conf="40" state="unknown" tsMs="1785412061867"/>
        <radio op="vodafone IT" rat="LTE" rsrp="-112" rsrq="-13"/>
        <radio op="I TIM" rat="LTE" rsrp="-111" rsrq="-12"/>
      </extensions>
    </trkpt>
    <trkpt lat="45.6177098" lon="10.4939886">
      <ele>224.40000915527344</ele>
      <time>2026-07-30T13:48:24.979+02:00</time>
      <extensions>
        <activity type="UNKNOWN" conf="40" state="unknown" tsMs="1785412104423"/>
        <radio op="vodafone IT" rat="LTE" rsrp="-111" rsrq="-12"/>
        <radio op="I TIM" rat="LTE" rsrp="-111" rsrq="-14"/>
      </extensions>
    </trkpt>
    <trkpt lat="45.617821" lon="10.4935808">
      <ele>224.60000610351562</ele>
      <time>2026-07-30T13:49:15.651+02:00</time>
      <extensions>
        <activity type="IN_VEHICLE" conf="84" state="moving" tsMs="1785412154460"/>
        <radio op="vodafone IT" rat="LTE" rsrp="-108" rsrq="-9"/>
        <radio op="I TIM" rat="LTE" rsrp="-110" rsrq="-13"/>
      </extensions>
    </trkpt>
    <trkpt lat="45.6178143" lon="10.4936051">
      <ele>224.60000610351562</ele>
      <time>2026-07-30T13:49:49.207+02:00</time>
      <extensions>
        <activity type="UNKNOWN" conf="40" state="unknown" tsMs="1785412187064"/>
        <radio op="vodafone IT" rat="LTE" rsrp="-109" rsrq="-8"/>
        <radio op="I TIM" rat="LTE" rsrp="-109" rsrq="-12"/>
      </extensions>
    </trkpt>
    <trkpt lat="45.6178039" lon="10.4936685">
      <ele>224.40000915527344</ele>
      <time>2026-07-30T13:50:34.288+02:00</time>
      <extensions>
        <activity type="TILTING" conf="100" state="moving" tsMs="1785412222045"/>
        <radio op="vodafone IT" rat="LTE" q="28.80" rsrp="-107" sinr="11" rsrq="-8"/>
        <radio op="I TIM" rat="LTE" q="27.00" rsrp="-107" sinr="10" rsrq="-12"/>
      </extensions>
    </trkpt>
    <trkpt lat="45.6177646" lon="10.4937239">
      <ele>224.40000915527344</ele>
      <time>2026-07-30T13:51:26.645+02:00</time>
      <extensions>
        <activity type="UNKNOWN" conf="40" state="unknown" tsMs="1785412282791"/>
        <radio op="vodafone IT" rat="LTE" q="60.00" rsrp="-101" sinr="21" rsrq="-13"/>
        <radio op="I TIM" rat="LTE" q="61.60" rsrp="-97" sinr="17" rsrq="-12"/>
      </extensions>
    </trkpt>
    <trkpt lat="45.6178017" lon="10.4936033">
      <ele>224.60000610351562</ele>
      <time>2026-07-30T13:51:58.43+02:00</time>
      <extensions>
        <activity type="UNKNOWN" conf="40" state="unknown" tsMs="1785412313672"/>
        <radio op="vodafone IT" rat="LTE" q="75.00" rsrp="-95" sinr="24" rsrq="-9"/>
        <radio op="I TIM" rat="LTE" q="46.80" rsrp="-89" sinr="8" rsrq="-10"/>
      </extensions>
    </trkpt>
    <trkpt lat="45.617611" lon="10.494217">
      <ele>224.40000915527344</ele>
      <time>2026-07-30T13:53:14.956+02:00</time>
      <extensions>
        <activity type="UNKNOWN" conf="40" state="unknown" tsMs="1785412394463"/>
        <radio op="vodafone IT" rat="LTE" q="70.00" rsrp="-97" sinr="22" rsrq="-12"/>
        <radio op="I TIM" rat="LTE" q="42.50" rsrp="-100" sinr="12" rsrq="-11"/>
      </extensions>
    </trkpt>
    <trkpt lat="45.6176351" lon="10.4942883">
      <ele>224.40000915527344</ele>
      <time>2026-07-30T13:53:58.433+02:00</time>
      <extensions>
        <activity type="ON_FOOT" conf="93" state="moving" tsMs="1785412436918"/>
        <radio op="vodafone IT" rat="LTE" q="77.50" rsrp="-94" sinr="23" rsrq="-10"/>
        <radio op="I TIM" rat="LTE" q="81.60" rsrp="-91" sinr="19" rsrq="-11"/>
      </extensions>
    </trkpt>
    <trkpt lat="45.6176982" lon="10.4942064">
      <ele>224.40000915527344</ele>
      <time>2026-07-30T13:54:31.042+02:00</time>
      <extensions>
        <activity type="UNKNOWN" conf="40" state="unknown" tsMs="1785412469354"/>
        <radio op="vodafone IT" rat="LTE" q="48.30" rsrp="-104" sinr="18" rsrq="-7"/>
        <radio op="I TIM" rat="LTE" q="77.50" rsrp="-94" sinr="20" rsrq="-11"/>
      </extensions>
    </trkpt>
    <trkpt lat="45.6176961" lon="10.4942317">
      <ele>224.40000915527344</ele>
      <time>2026-07-30T13:55:04.811+02:00</time>
      <extensions>
        <activity type="STILL" conf="62" state="still" tsMs="1785412500316"/>
        <radio op="vodafone IT" rat="LTE" q="56.00" rsrp="-97" sinr="15" rsrq="-10"/>
        <radio op="I TIM" rat="LTE" q="82.50" rsrp="-92" sinr="22" rsrq="-12"/>
      </extensions>
    </trkpt>
    <trkpt lat="45.6176893" lon="10.4942124">
      <ele>224.40000915527344</ele>
      <time>2026-07-30T13:55:31.067+02:00</time>
      <extensions>
        <activity type="UNKNOWN" conf="40" state="unknown" tsMs="1785412532010"/>
        <radio op="vodafone IT" rat="LTE" q="30.00" rsrp="-100" sinr="7" rsrq="-14"/>
        <radio op="I TIM" rat="LTE" q="39.00" rsrp="-95" sinr="8" rsrq="-12"/>
      </extensions>
    </trkpt>
    <trkpt lat="45.6177467" lon="10.4941829">
      <ele>224.40000915527344</ele>
      <time>2026-07-30T13:56:06.712+02:00</time>
      <extensions>
        <activity type="UNKNOWN" conf="40" state="unknown" tsMs="1785412562447"/>
        <radio op="vodafone IT" rat="LTE" q="57.60" rsrp="-101" sinr="19" rsrq="-7"/>
        <radio op="I TIM" rat="LTE" q="79.20" rsrp="-92" sinr="19" rsrq="-11"/>
      </extensions>
    </trkpt>
    <trkpt lat="45.6177068" lon="10.4942249">
      <ele>224.40000915527344</ele>
      <time>2026-07-30T13:56:37.913+02:00</time>
      <extensions>
        <activity type="UNKNOWN" conf="40" state="unknown" tsMs="1785412594019"/>
        <radio op="vodafone IT" rat="LTE" q="49.40" rsrp="-99" sinr="14" rsrq="-11"/>
        <radio op="I TIM" rat="LTE" q="65.00" rsrp="-99" sinr="20" rsrq="-11"/>
      </extensions>
    </trkpt>
    <trkpt lat="45.6176546" lon="10.4943088">
      <ele>224.40000915527344</ele>
      <time>2026-07-30T13:57:09.119+02:00</time>
      <extensions>
        <activity type="UNKNOWN" conf="40" state="unknown" tsMs="1785412625385"/>
        <radio op="vodafone IT" rat="LTE" q="43.40" rsrp="-94" sinr="9" rsrq="-12"/>
        <radio op="I TIM" rat="LTE" q="30.00" rsrp="-95" sinr="5" rsrq="-12"/>
      </extensions>
    </trkpt>
    <trkpt lat="45.6176763" lon="10.4942243">
      <ele>224.40000915527344</ele>
      <time>2026-07-30T13:57:40.558+02:00</time>
      <extensions>
        <activity type="ON_FOOT" conf="90" state="moving" tsMs="1785412656814"/>
        <radio op="vodafone IT" rat="LTE" q="54.40" rsrp="-93" sinr="12" rsrq="-7"/>
        <radio op="I TIM" rat="LTE" q="69.30" rsrp="-92" sinr="16" rsrq="-12"/>
      </extensions>
    </trkpt>
    <trkpt lat="45.6176319" lon="10.4942733">
      <ele>224.40000915527344</ele>
      <time>2026-07-30T13:58:12.037+02:00</time>
      <extensions>
        <activity type="STILL" conf="99" state="still" tsMs="1785412688406"/>
        <radio op="vodafone IT" rat="LTE" q="35.10" rsrp="-98" sinr="8" rsrq="-10"/>
        <radio op="I TIM" rat="LTE" q="28.80" rsrp="-93" sinr="4" rsrq="-12"/>
      </extensions>
    </trkpt>
    <trkpt lat="45.6176759" lon="10.4942175">
      <ele>224.40000915527344</ele>
      <time>2026-07-30T13:58:43.534+02:00</time>
      <extensions>
        <activity type="STILL" conf="99" state="still" tsMs="1785412719857"/>
        <radio op="vodafone IT" rat="LTE" q="37.20" rsrp="-94" sinr="7" rsrq="-9"/>
        <radio op="I TIM" rat="LTE" q="33.00" rsrp="-95" sinr="6" rsrq="-11"/>
      </extensions>
    </trkpt>
    <trkpt lat="45.617676" lon="10.4942257">
      <ele>224.40000915527344</ele>
      <time>2026-07-30T13:59:15.024+02:00</time>
      <extensions>
        <activity type="STILL" conf="99" state="still" tsMs="1785412751311"/>
        <radio op="vodafone IT" rat="LTE" q="77.50" rsrp="-94" sinr="23" rsrq="-10"/>
        <radio op="I TIM" rat="LTE" q="90.00" rsrp="-89" sinr="22" rsrq="-11"/>
      </extensions>
    </trkpt>
    <trkpt lat="45.6176218" lon="10.4942527">
      <ele>224.40000915527344</ele>
      <time>2026-07-30T13:59:46.512+02:00</time>
      <extensions>
        <activity type="STILL" conf="99" state="still" tsMs="1785412782782"/>
        <radio op="vodafone IT" rat="LTE" q="90.00" rsrp="-89" sinr="26" rsrq="-13"/>
        <radio op="I TIM" rat="LTE" q="79.20" rsrp="-92" sinr="19" rsrq="-12"/>
      </extensions>
    </trkpt>
    <trkpt lat="45.6176299" lon="10.4943095">
      <ele>224.40000915527344</ele>
      <time>2026-07-30T14:00:17.932+02:00</time>
      <extensions>
        <activity type="STILL" conf="99" state="still" tsMs="1785412814276"/>
        <radio op="vodafone IT" rat="LTE" q="87.50" rsrp="-90" sinr="25" rsrq="-10"/>
        <radio op="I TIM" rat="LTE" q="56.10" rsrp="-92" sinr="12" rsrq="-11"/>
      </extensions>
    </trkpt>
    <trkpt lat="45.6177029" lon="10.4941555">
      <ele>224.40000915527344</ele>
      <time>2026-07-30T15:27:52.507+02:00</time>
      <extensions>
        <activity type="UNKNOWN" conf="40" state="unknown" tsMs="1785418089297"/>
        <radio op="vodafone IT" rat="LTE" q="31.20" rsrp="-99" sinr="7" rsrq="-8"/>
        <radio op="I TIM" rat="LTE" q="20.30" rsrp="-96" sinr="2" rsrq="-9"/>
      </extensions>
    </trkpt>
    <trkpt lat="45.6179481" lon="10.4937191">
      <ele>224.40000915527344</ele>
      <time>2026-07-30T15:28:23.879+02:00</time>
      <extensions>
        <activity type="STILL" conf="96" state="still" tsMs="1785418100001"/>
        <radio op="vodafone IT" rat="LTE" q="30.80" rsrp="-103" sinr="9" rsrq="-8"/>
        <radio op="I TIM" rat="LTE" q="36.00" rsrp="-101" sinr="10" rsrq="-11"/>
      </extensions>
    </trkpt>
    <trkpt lat="45.6176767" lon="10.4942101">
      <ele>224.40000915527344</ele>
      <time>2026-07-30T15:28:55.304+02:00</time>
      <extensions>
        <activity type="UNKNOWN" conf="40" state="unknown" tsMs="1785418131247"/>
        <radio op="vodafone IT" rat="LTE" q="85.00" rsrp="-91" sinr="28" rsrq="-9"/>
        <radio op="I TIM" rat="LTE" q="76.80" rsrp="-93" sinr="19" rsrq="-12"/>
      </extensions>
    </trkpt>
    <trkpt lat="45.6176609" lon="10.4941912">
      <ele>224.40000915527344</ele>
      <time>2026-07-30T15:29:28.811+02:00</time>
      <extensions>
        <activity type="STILL" conf="99" state="still" tsMs="1785418162941"/>
        <radio op="vodafone IT" rat="LTE" q="87.50" rsrp="-90" sinr="27" rsrq="-10"/>
        <radio op="I TIM" rat="LTE" q="42.00" rsrp="-95" sinr="9" rsrq="-11"/>
      </extensions>
    </trkpt>
    <trkpt lat="45.6176278" lon="10.4942603">
      <ele>224.40000915527344</ele>
      <time>2026-07-30T15:30:00.219+02:00</time>
      <extensions>
        <activity type="STILL" conf="33" state="still" tsMs="1785418201806"/>
        <radio op="vodafone IT" rat="LTE" q="73.60" rsrp="-93" sinr="18" rsrq="-8"/>
        <radio op="I TIM" rat="LTE" q="58.90" rsrp="-94" sinr="14" rsrq="-13"/>
      </extensions>
    </trkpt>
    <trkpt lat="45.6176744" lon="10.49413">
      <ele>224.40000915527344</ele>
      <time>2026-07-30T15:30:35.018+02:00</time>
      <extensions>
        <activity type="UNKNOWN" conf="40" state="unknown" tsMs="1785418230006"/>
        <radio op="vodafone IT" rat="LTE" q="82.50" rsrp="-92" sinr="22" rsrq="-8"/>
        <radio op="I TIM" rat="LTE" q="64.00" rsrp="-93" sinr="15" rsrq="-12"/>
      </extensions>
    </trkpt>
    <trkpt lat="45.6176442" lon="10.4942492">
      <ele>224.40000915527344</ele>
      <time>2026-07-30T15:31:06.169+02:00</time>
      <extensions>
        <activity type="UNKNOWN" conf="40" state="unknown" tsMs="1785418262337"/>
        <radio op="vodafone IT" rat="LTE" q="90.00" rsrp="-89" sinr="22" rsrq="-11"/>
        <radio op="I TIM" rat="LTE" q="73.60" rsrp="-93" sinr="18" rsrq="-11"/>
      </extensions>
    </trkpt>
    <trkpt lat="45.6176343" lon="10.4942379">
      <ele>224.40000915527344</ele>
      <time>2026-07-30T15:31:37.539+02:00</time>
      <extensions>
        <activity type="STILL" conf="97" state="still" tsMs="1785418293776"/>
        <radio op="vodafone IT" rat="LTE" q="45.00" rsrp="-100" sinr="13" rsrq="-9"/>
        <radio op="I TIM" rat="LTE" q="64.80" rsrp="-98" sinr="19" rsrq="-11"/>
      </extensions>
    </trkpt>
    <trkpt lat="45.6176833" lon="10.4941972">
      <ele>224.40000915527344</ele>
      <time>2026-07-30T15:32:09.105+02:00</time>
      <extensions>
        <activity type="ON_FOOT" conf="86" state="moving" tsMs="1785418335208"/>
        <radio op="vodafone IT" rat="LTE" q="63.80" rsrp="-96" sinr="17" rsrq="-8"/>
        <radio op="I TIM" rat="LTE" q="50.60" rsrp="-102" sinr="17" rsrq="-12"/>
      </extensions>
    </trkpt>
    <trkpt lat="45.6176349" lon="10.4942297">
      <ele>224.40000915527344</ele>
      <time>2026-07-30T15:32:40.624+02:00</time>
      <extensions>
        <activity type="ON_FOOT" conf="94" state="moving" tsMs="1785418356811"/>
        <radio op="vodafone IT" rat="LTE" q="37.80" rsrp="-104" sinr="13" rsrq="-10"/>
        <radio op="I TIM" rat="LTE" q="35.70" rsrp="-104" sinr="12" rsrq="-11"/>
      </extensions>
    </trkpt>
    <trkpt lat="45.617696" lon="10.4940564">
      <ele>224.40000915527344</ele>
      <time>2026-07-30T15:33:12.2+02:00</time>
      <extensions>
        <activity type="ON_FOOT" conf="86" state="moving" tsMs="1785418388433"/>
        <radio op="vodafone IT" rat="LTE" q="60.00" rsrp="-101" sinr="20" rsrq="-8"/>
        <radio op="I TIM" rat="LTE" q="17.60" rsrp="-103" sinr="3" rsrq="-12"/>
      </extensions>
    </trkpt>
    <trkpt lat="45.6177271" lon="10.4936249">
      <ele>224.40000915527344</ele>
      <time>2026-07-30T15:33:43.617+02:00</time>
      <extensions>
        <activity type="UNKNOWN" conf="40" state="unknown" tsMs="1785418409171"/>
        <radio op="vodafone IT" rat="LTE" q="75.00" rsrp="-95" sinr="23" rsrq="-7"/>
        <radio op="I TIM" rat="LTE" q="90.00" rsrp="-89" sinr="23" rsrq="-12"/>
      </extensions>
    </trkpt>
    <trkpt lat="45.6179109" lon="10.4934963">
      <ele>224.60000610351562</ele>
      <time>2026-07-30T15:34:15.107+02:00</time>
      <extensions>
        <activity type="IN_VEHICLE" conf="97" state="moving" tsMs="1785418451197"/>
        <radio op="vodafone IT" rat="LTE" q="42.00" rsrp="-104" sinr="15" rsrq="-12"/>
        <radio op="I TIM" rat="LTE" rsrp="-87" rsrq="-9"/>
      </extensions>
    </trkpt>
    <trkpt lat="45.6161856" lon="10.4938636">
      <ele>224.60000610351562</ele>
      <time>2026-07-30T15:34:49.338+02:00</time>
      <extensions>
        <activity type="IN_VEHICLE" conf="96" state="moving" tsMs="1785418487002"/>
        <radio op="vodafone IT" rat="LTE" q="69.60" rsrp="-96" sinr="19" rsrq="-13"/>
        <radio op="I TIM" rat="LTE" q="70.20" rsrp="-86" sinr="13" rsrq="-12"/>
      </extensions>
    </trkpt>
    <trkpt lat="45.611057" lon="10.4960246">
      <ele>224.60000610351562</ele>
      <time>2026-07-30T15:35:29.936+02:00</time>
      <extensions>
        <activity type="IN_VEHICLE" conf="97" state="moving" tsMs="1785418527701"/>
        <radio op="vodafone IT" rat="LTE" q="71.30" rsrp="-94" sinr="18" rsrq="-6"/>
        <radio op="I TIM" rat="LTE" rsrp="-110" rsrq="-16"/>
      </extensions>
    </trkpt>
    <trkpt lat="45.6120559" lon="10.4958654">
      <ele>224.60000610351562</ele>
      <time>2026-07-30T15:35:37.336+02:00</time>
      <extensions>
        <activity type="IN_VEHICLE" conf="97" state="moving" tsMs="1785418527701"/>
        <radio op="vodafone IT" rat="LTE" q="75.00" rsrp="-95" sinr="21" rsrq="-9"/>
        <radio op="I TIM" rat="LTE" rsrp="-114" rsrq="-18"/>
      </extensions>
    </trkpt>
    <trkpt lat="45.6117582" lon="10.4921689">
      <ele>224.60000610351562</ele>
      <time>2026-07-30T15:36:11.135+02:00</time>
      <extensions>
        <activity type="IN_VEHICLE" conf="97" state="moving" tsMs="1785418568394"/>
        <radio op="vodafone IT" rat="LTE" q="44.00" rsrp="-105" sinr="17" rsrq="-8"/>
        <radio op="I TIM" rat="LTE" q="6.00" rsrp="-115" sinr="1" rsrq="-16"/>
      </extensions>
    </trkpt>
    <trkpt lat="45.6068656" lon="10.4713744">
      <ele>251.2442235466927</ele>
      <time>2026-07-30T15:37:36.664+02:00</time>
      <extensions>
        <activity type="IN_VEHICLE" conf="97" state="moving" tsMs="1785418650030"/>
        <radio op="vodafone IT" rat="LTE" q="34.50" rsrp="-110" sinr="18" rsrq="-6"/>
        <radio op="I TIM" rat="LTE" q="47.50" rsrp="-106" sinr="24" rsrq="-10"/>
      </extensions>
    </trkpt>
    <trkpt lat="45.6051689" lon="10.4669168">
      <ele>273.3000183105469</ele>
      <time>2026-07-30T15:38:27.339+02:00</time>
      <extensions>
        <activity type="IN_VEHICLE" conf="97" state="moving" tsMs="1785418721115"/>
        <radio op="vodafone IT" rat="LTE" q="60.90" rsrp="-96" sinr="16" rsrq="-8"/>
        <radio op="I TIM" rat="LTE" q="88.00" rsrp="-78" sinr="17" rsrq="-11"/>
      </extensions>
    </trkpt>
    <trkpt lat="45.6046124" lon="10.4648021">
      <ele>265.411355792441</ele>
      <time>2026-07-30T15:39:02.672+02:00</time>
      <extensions>
        <activity type="IN_VEHICLE" conf="97" state="moving" tsMs="1785418737238"/>
        <radio op="vodafone IT" rat="LTE" rsrp="-72" rsrq="-4"/>
        <radio op="I TIM" rat="LTE" q="100.00" rsrp="-67" sinr="26" rsrq="-11"/>
      </extensions>
    </trkpt>
    <trkpt lat="45.6052292" lon="10.4647319">
      <ele>265.411355792441</ele>
      <time>2026-07-30T15:39:09.34+02:00</time>
      <extensions>
        <activity type="IN_VEHICLE" conf="97" state="moving" tsMs="1785418753135"/>
        <radio op="vodafone IT" rat="LTE" q="100.00" rsrp="-68" sinr="25" rsrq="-6"/>
        <radio op="I TIM" rat="LTE" rsrp="-108" rsrq="-15"/>
      </extensions>
    </trkpt>
    <trkpt lat="45.6035002" lon="10.4588233">
      <ele>264.0</ele>
      <time>2026-07-30T15:39:44.26+02:00</time>
      <extensions>
        <activity type="IN_VEHICLE" conf="97" state="moving" tsMs="1785418780008"/>
        <radio op="vodafone IT" rat="LTE" q="84.00" rsrp="-77" sinr="16" rsrq="-8"/>
        <radio op="I TIM" rat="LTE" q="10.50" rsrp="-104" sinr="0" rsrq="-15"/>
      </extensions>
    </trkpt>
    <trkpt lat="45.6023723" lon="10.4554917">
      <ele>261.9000244140625</ele>
      <time>2026-07-30T15:40:15.798+02:00</time>
      <extensions>
        <activity type="IN_VEHICLE" conf="97" state="moving" tsMs="1785418810897"/>
        <radio op="vodafone IT" rat="LTE" q="16.80" rsrp="-97" sinr="1" rsrq="-10"/>
        <radio op="I TIM" rat="LTE" q="39.20" rsrp="-97" sinr="9" rsrq="-12"/>
      </extensions>
    </trkpt>
    <trkpt lat="45.6021734" lon="10.4533383">
      <ele>261.5</ele>
      <time>2026-07-30T15:40:47.235+02:00</time>
      <extensions>
        <activity type="IN_VEHICLE" conf="97" state="moving" tsMs="1785418842569"/>
        <radio op="vodafone IT" rat="LTE" q="40.30" rsrp="-94" sinr="8" rsrq="-11"/>
        <radio op="I TIM" rat="LTE" q="97.50" rsrp="-86" sinr="21" rsrq="-10"/>
      </extensions>
    </trkpt>
    <trkpt lat="45.6019626" lon="10.4534755">
      <ele>261.5</ele>
      <time>2026-07-30T15:40:53.339+02:00</time>
      <extensions>
        <activity type="IN_VEHICLE" conf="96" state="moving" tsMs="1785418857775"/>
        <radio op="vodafone IT" rat="LTE" q="29.70" rsrp="-98" sinr="6" rsrq="-13"/>
        <radio op="I TIM" rat="LTE" q="86.40" rsrp="-89" sinr="19" rsrq="-11"/>
      </extensions>
    </trkpt>
    <trkpt lat="45.60209" lon="10.4534425">
      <ele>261.5</ele>
      <time>2026-07-30T15:41:28.835+02:00</time>
      <extensions>
        <activity type="IN_VEHICLE" conf="90" state="moving" tsMs="1785418884745"/>
        <radio op="vodafone IT" rat="LTE" q="51.30" rsrp="-98" sinr="14" rsrq="-11"/>
        <radio op="I TIM" rat="LTE" q="79.20" rsrp="-92" sinr="19" rsrq="-11"/>
      </extensions>
    </trkpt>
    <trkpt lat="45.6022383" lon="10.4534288">
      <ele>261.5</ele>
      <time>2026-07-30T15:42:00.309+02:00</time>
      <extensions>
        <activity type="ON_FOOT" conf="96" state="moving" tsMs="1785418919916"/>
        <radio op="vodafone IT" rat="LTE" q="18.40" rsrp="-102" sinr="3" rsrq="-10"/>
        <radio op="I TIM" rat="LTE" q="37.70" rsrp="-96" sinr="8" rsrq="-12"/>
      </extensions>
    </trkpt>
    <trkpt lat="45.6026293" lon="10.4535588">
      <ele>261.5</ele>
      <time>2026-07-30T15:42:31.837+02:00</time>
      <extensions>
        <activity type="ON_FOOT" conf="96" state="moving" tsMs="1785418948022"/>
        <radio op="vodafone IT" rat="LTE" q="14.00" rsrp="-111" sinr="5" rsrq="-13"/>
        <radio op="I TIM" rat="LTE" q="45.00" rsrp="-100" sinr="13" rsrq="-10"/>
      </extensions>
    </trkpt>
    <trkpt lat="45.6025463" lon="10.4536817">
      <ele>261.6000061035156</ele>
      <time>2026-07-30T15:43:03.443+02:00</time>
      <extensions>
        <activity type="ON_FOOT" conf="91" state="moving" tsMs="1785418979415"/>
        <radio op="vodafone IT" rat="LTE" q="8.00" rsrp="-109" sinr="0" rsrq="-11"/>
        <radio op="I TIM" rat="LTE" q="9.90" rsrp="-116" sinr="6" rsrq="-12"/>
      </extensions>
    </trkpt>
    <trkpt lat="45.6025466" lon="10.453687">
      <ele>261.6000061035156</ele>
      <time>2026-07-30T15:43:35.426+02:00</time>
      <extensions>
        <activity type="STILL" conf="99" state="still" tsMs="1785419011485"/>
        <radio op="vodafone IT" rat="LTE" q="13.50" rsrp="-110" sinr="4" rsrq="-9"/>
        <radio op="I TIM" rat="LTE" q="3.50" rsrp="-118" sinr="0" rsrq="-13"/>
      </extensions>
    </trkpt>
    <trkpt lat="45.6025461" lon="10.4536865">
      <ele>261.6000061035156</ele>
      <time>2026-07-30T15:44:07.03+02:00</time>
      <extensions>
        <activity type="STILL" conf="100" state="still" tsMs="1785419035902"/>
        <radio op="vodafone IT" rat="LTE" q="16.50" rsrp="-110" sinr="6" rsrq="-9"/>
        <radio op="I TIM" rat="LTE" q="7.20" rsrp="-116" sinr="3" rsrq="-13"/>
      </extensions>
    </trkpt>
    <trkpt lat="45.6025508" lon="10.4536794">
      <ele>261.6000061035156</ele>
      <time>2026-07-30T15:44:38.709+02:00</time>
      <extensions>
        <activity type="STILL" conf="99" state="still" tsMs="1785419074702"/>
        <radio op="vodafone IT" rat="LTE" q="13.50" rsrp="-110" sinr="4" rsrq="-10"/>
        <radio op="I TIM" rat="LTE" q="5.60" rsrp="-117" sinr="2" rsrq="-13"/>
      </extensions>
    </trkpt>
    <trkpt lat="45.6025508" lon="10.4536794">
      <ele>261.6000061035156</ele>
      <time>2026-07-30T15:45:10.315+02:00</time>
      <extensions>
        <activity type="STILL" conf="99" state="still" tsMs="1785419106420"/>
        <radio op="vodafone IT" rat="LTE" q="15.00" rsrp="-110" sinr="5" rsrq="-9"/>
        <radio op="I TIM" rat="LTE" q="6.40" rsrp="-117" sinr="3" rsrq="-13"/>
      </extensions>
    </trkpt>
    <trkpt lat="45.6025506" lon="10.4536904">
      <ele>261.6000061035156</ele>
      <time>2026-07-30T15:45:41.837+02:00</time>
      <extensions>
        <activity type="STILL" conf="99" state="still" tsMs="1785419137907"/>
        <radio op="vodafone IT" rat="LTE" q="16.80" rsrp="-111" sinr="7" rsrq="-10"/>
        <radio op="I TIM" rat="LTE" q="8.80" rsrp="-117" sinr="6" rsrq="-13"/>
      </extensions>
    </trkpt>
    <trkpt lat="45.6025484" lon="10.4536878">
      <ele>261.6000061035156</ele>
      <time>2026-07-30T15:46:13.512+02:00</time>
      <extensions>
        <activity type="STILL" conf="99" state="still" tsMs="1785419169589"/>
        <radio op="vodafone IT" rat="LTE" q="12.00" rsrp="-110" sinr="3" rsrq="-10"/>
        <radio op="I TIM" rat="LTE" q="7.20" rsrp="-117" sinr="4" rsrq="-11"/>
      </extensions>
    </trkpt>
    <trkpt lat="45.6026543" lon="10.4536551">
      <ele>261.4000244140625</ele>
      <time>2026-07-30T17:54:50.277+02:00</time>
      <extensions>
        <activity type="UNKNOWN" conf="40" state="unknown" tsMs="1785426889117"/>
        <radio op="vodafone IT" rat="LTE" q="11.20" rsrp="-111" sinr="3" rsrq="-10"/>
        <radio op="I TIM" rat="LTE" q="12.10" rsrp="-114" sinr="6" rsrq="-11"/>
      </extensions>
    </trkpt>
    <trkpt lat="45.6026665" lon="10.4533936">
      <ele>261.4000244140625</ele>
      <time>2026-07-30T17:55:27.416+02:00</time>
      <extensions>
        <activity type="UNKNOWN" conf="40" state="unknown" tsMs="1785426923857"/>
        <radio op="vodafone IT" rat="LTE" q="8.80" rsrp="-114" sinr="3" rsrq="-12"/>
        <radio op="I TIM" rat="LTE" q="3.20" rsrp="-121" sinr="3" rsrq="-12"/>
      </extensions>
    </trkpt>
    <trkpt lat="45.6026945" lon="10.4535265">
      <ele>261.4000244140625</ele>
      <time>2026-07-30T17:56:00.122+02:00</time>
      <extensions>
        <activity type="UNKNOWN" conf="40" state="unknown" tsMs="1785426955067"/>
        <radio op="vodafone IT" rat="LTE" q="10.80" rsrp="-113" sinr="4" rsrq="-13"/>
        <radio op="I TIM" rat="LTE" q="11.00" rsrp="-114" sinr="5" rsrq="-13"/>
      </extensions>
    </trkpt>
    <trkpt lat="45.6027009" lon="10.4535268">
      <ele>261.4000244140625</ele>
      <time>2026-07-30T17:56:31.892+02:00</time>
      <extensions>
        <activity type="STILL" conf="29" state="still" tsMs="1785426987520"/>
        <radio op="vodafone IT" rat="LTE" q="11.90" rsrp="-108" sinr="2" rsrq="-10"/>
        <radio op="I TIM" rat="LTE" q="11.70" rsrp="-112" sinr="4" rsrq="-11"/>
      </extensions>
    </trkpt>
    <trkpt lat="45.6026835" lon="10.4535147">
      <ele>261.4000244140625</ele>
      <time>2026-07-30T17:57:03.629+02:00</time>
      <extensions>
        <activity type="STILL" conf="99" state="still" tsMs="1785427019470"/>
        <radio op="vodafone IT" rat="LTE" q="15.00" rsrp="-110" sinr="5" rsrq="-11"/>
        <radio op="I TIM" rat="LTE" q="13.20" rsrp="-114" sinr="7" rsrq="-10"/>
      </extensions>
    </trkpt>
    <trkpt lat="45.6026913" lon="10.4535353">
      <ele>261.4000244140625</ele>
      <time>2026-07-30T17:57:35.327+02:00</time>
      <extensions>
        <activity type="STILL" conf="60" state="still" tsMs="1785427051099"/>
        <radio op="vodafone IT" rat="LTE" q="14.30" rsrp="-112" sinr="6" rsrq="-11"/>
        <radio op="I TIM" rat="LTE" q="22.10" rsrp="-112" sinr="12" rsrq="-11"/>
      </extensions>
    </trkpt>
    <trkpt lat="45.6026773" lon="10.4534985">
      <ele>261.4000244140625</ele>
      <time>2026-07-30T17:58:07.132+02:00</time>
      <extensions>
        <activity type="STILL" conf="96" state="still" tsMs="1785427083057"/>
        <radio op="vodafone IT" rat="LTE" rsrp="-109" rsrq="-13"/>
        <radio op="I TIM" rat="LTE" q="20.40" rsrp="-113" sinr="12" rsrq="-11"/>
      </extensions>
    </trkpt>
    <trkpt lat="45.6026681" lon="10.4535298">
      <ele>261.4000244140625</ele>
      <time>2026-07-30T17:58:38.895+02:00</time>
      <extensions>
        <activity type="STILL" conf="99" state="still" tsMs="1785427114763"/>
        <radio op="vodafone IT" rat="LTE" q="16.00" rsrp="-105" sinr="3" rsrq="-11"/>
        <radio op="I TIM" rat="LTE" q="6.40" rsrp="-117" sinr="3" rsrq="-11"/>
      </extensions>
    </trkpt>
    <trkpt lat="45.6026914" lon="10.4535427">
      <ele>261.4000244140625</ele>
      <time>2026-07-30T17:59:10.592+02:00</time>
      <extensions>
        <activity type="STILL" conf="96" state="still" tsMs="1785427146438"/>
        <radio op="vodafone IT" rat="LTE" q="16.20" rsrp="-107" sinr="4" rsrq="-11"/>
        <radio op="I TIM" rat="LTE" q="7.00" rsrp="-118" sinr="5" rsrq="-12"/>
      </extensions>
    </trkpt>
    <trkpt lat="45.6025852" lon="10.4537814">
      <ele>271.5</ele>
      <time>2026-07-30T19:07:42.412+02:00</time>
      <extensions>
        <activity type="UNKNOWN" conf="40" state="unknown" tsMs="1785431250777"/>
        <radio op="vodafone IT" rat="LTE" q="35.10" rsrp="-98" sinr="8" rsrq="-11"/>
        <radio op="I TIM" rat="LTE" q="28.50" rsrp="-106" sinr="10" rsrq="-13"/>
      </extensions>
    </trkpt>
    <trkpt lat="45.6026198" lon="10.4537033">
      <ele>271.5</ele>
      <time>2026-07-30T19:07:53.154+02:00</time>
      <extensions>
        <activity type="UNKNOWN" conf="40" state="unknown" tsMs="1785431250777"/>
        <radio op="vodafone IT" rat="LTE" q="46.80" rsrp="-89" sinr="8" rsrq="-10"/>
        <radio op="I TIM" rat="LTE" q="18.00" rsrp="-105" sinr="4" rsrq="-13"/>
      </extensions>
    </trkpt>
    <trkpt lat="45.6026179" lon="10.4536849">
      <ele>265.544522784483</ele>
      <time>2026-07-30T19:08:03.401+02:00</time>
      <extensions>
        <activity type="UNKNOWN" conf="40" state="unknown" tsMs="1785431266794"/>
        <radio op="vodafone IT" rat="LTE" q="29.00" rsrp="-96" sinr="5" rsrq="-10"/>
        <radio op="I TIM" rat="LTE" q="13.30" rsrp="-106" sinr="2" rsrq="-11"/>
      </extensions>
    </trkpt>
    <trkpt lat="45.6025984" lon="10.453662">
      <ele>265.555116957088</ele>
      <time>2026-07-30T19:08:13.388+02:00</time>
      <extensions>
        <activity type="UNKNOWN" conf="40" state="unknown" tsMs="1785431282624"/>
        <radio op="vodafone IT" rat="LTE" rsrp="-93" rsrq="-11"/>
        <radio op="I TIM" rat="LTE" rsrp="-110" rsrq="-16"/>
      </extensions>
    </trkpt>
    <trkpt lat="45.6026071" lon="10.4537052">
      <ele>265.6483462387587</ele>
      <time>2026-07-30T19:08:23.373+02:00</time>
      <extensions>
        <activity type="UNKNOWN" conf="40" state="unknown" tsMs="1785431282624"/>
        <radio op="vodafone IT" rat="LTE" q="37.40" rsrp="-91" sinr="6" rsrq="-11"/>
        <radio op="I TIM" rat="LTE" q="20.40" rsrp="-108" sinr="7" rsrq="-14"/>
      </extensions>
    </trkpt>
    <trkpt lat="45.6025945" lon="10.4537281">
      <ele>265.90465218815496</ele>
      <time>2026-07-30T19:08:33.371+02:00</time>
      <extensions>
        <activity type="STILL" conf="100" state="still" tsMs="1785431298153"/>
        <radio op="vodafone IT" rat="LTE" q="68.40" rsrp="-87" sinr="13" rsrq="-10"/>
        <radio op="I TIM" rat="LTE" q="23.10" rsrp="-104" sinr="6" rsrq="-13"/>
      </extensions>
    </trkpt>
    <trkpt lat="45.6025779" lon="10.4536707">
      <ele>264.0762967038625</ele>
      <time>2026-07-30T19:08:43.794+02:00</time>
      <extensions>
        <activity type="STILL" conf="100" state="still" tsMs="1785431298153"/>
        <radio op="vodafone IT" rat="LTE" rsrp="-105" rsrq="-11"/>
        <radio op="I TIM" rat="LTE" rsrp="-109" rsrq="-15"/>
      </extensions>
    </trkpt>
    <trkpt lat="45.6025653" lon="10.453691">
      <ele>261.5</ele>
      <time>2026-07-30T19:08:53.753+02:00</time>
      <extensions>
        <activity type="ON_FOOT" conf="61" state="moving" tsMs="1785431330371"/>
        <radio op="vodafone IT" rat="LTE" rsrp="-107" rsrq="-16"/>
        <radio op="I TIM" rat="LTE" rsrp="-112" rsrq="-17"/>
      </extensions>
    </trkpt>
    <trkpt lat="45.6025872" lon="10.4537221">
      <ele>261.5</ele>
      <time>2026-07-30T19:09:03.832+02:00</time>
      <extensions>
        <activity type="UNKNOWN" conf="40" state="unknown" tsMs="1785431340387"/>
        <radio op="vodafone IT" rat="LTE" rsrp="-107" rsrq="-12"/>
        <radio op="I TIM" rat="LTE" rsrp="-119" rsrq="-14"/>
      </extensions>
    </trkpt>
    <trkpt lat="45.6025593" lon="10.4537258">
      <ele>259.08281800941086</ele>
      <time>2026-07-30T19:09:14.31+02:00</time>
      <extensions>
        <activity type="UNKNOWN" conf="40" state="unknown" tsMs="1785431345777"/>
        <radio op="vodafone IT" rat="LTE" q="8.00" rsrp="-117" sinr="5" rsrq="-13"/>
        <radio op="I TIM" rat="LTE" rsrp="-114" rsrq="-14"/>
      </extensions>
    </trkpt>
    <trkpt lat="45.6025733" lon="10.4537253">
      <ele>258.9239410623804</ele>
      <time>2026-07-30T19:09:24.186+02:00</time>
      <extensions>
        <activity type="UNKNOWN" conf="40" state="unknown" tsMs="1785431345777"/>
        <radio op="vodafone IT" rat="LTE" q="1.00" rsrp="-123" sinr="0" rsrq="-15"/>
        <radio op="I TIM" rat="LTE" rsrp="-128" rsrq="-15"/>
      </extensions>
    </trkpt>
    <trkpt lat="45.6025697" lon="10.4537394">
      <ele>258.8350438031041</ele>
      <time>2026-07-30T19:09:33.126+02:00</time>
      <extensions>
        <activity type="UNKNOWN" conf="40" state="unknown" tsMs="1785431373987"/>
        <radio op="vodafone IT" rat="LTE" q="0.00" rsrp="-125" sinr="2" rsrq="-14"/>
        <radio op="I TIM" rat="LTE" rsrp="-125" rsrq="-13"/>
      </extensions>
    </trkpt>
    <trkpt lat="45.602568" lon="10.4537543">
      <ele>258.83927698508876</ele>
      <time>2026-07-30T19:09:44.372+02:00</time>
      <extensions>
        <activity type="UNKNOWN" conf="40" state="unknown" tsMs="1785431383249"/>
        <radio op="vodafone IT" rat="LTE" q="2.80" rsrp="-121" sinr="2" rsrq="-13"/>
        <radio op="I TIM" rat="LTE" q="0.80" rsrp="-124" sinr="3" rsrq="-14"/>
      </extensions>
    </trkpt>
    <trkpt lat="45.6025705" lon="10.4537515">
      <ele>259.0064893402416</ele>
      <time>2026-07-30T19:09:47.956+02:00</time>
      <extensions>
        <activity type="UNKNOWN" conf="40" state="unknown" tsMs="1785431383249"/>
        <radio op="vodafone IT" rat="LTE" q="12.00" rsrp="-115" sinr="7" rsrq="-8"/>
        <radio op="I TIM" rat="LTE" q="10.80" rsrp="-116" sinr="7" rsrq="-12"/>
      </extensions>
    </trkpt>
    <trkpt lat="45.6025765" lon="10.4537448">
      <ele>261.6000061035156</ele>
      <time>2026-07-30T19:09:58.405+02:00</time>
      <extensions>
        <activity type="UNKNOWN" conf="40" state="unknown" tsMs="1785431388772"/>
        <radio op="vodafone IT" rat="LTE" q="9.60" rsrp="-117" sinr="7" rsrq="-10"/>
        <radio op="I TIM" rat="LTE" q="5.60" rsrp="-117" sinr="2" rsrq="-13"/>
      </extensions>
    </trkpt>
    <trkpt lat="45.6025738" lon="10.4537333">
      <ele>261.6000061035156</ele>
      <time>2026-07-30T19:10:05.39+02:00</time>
      <extensions>
        <activity type="UNKNOWN" conf="40" state="unknown" tsMs="1785431388772"/>
        <radio op="vodafone IT" rat="LTE" q="1.80" rsrp="-123" sinr="4" rsrq="-12"/>
        <radio op="I TIM" rat="LTE" q="4.20" rsrp="-118" sinr="1" rsrq="-13"/>
      </extensions>
    </trkpt>
    <trkpt lat="45.6025473" lon="10.4536769">
      <ele>257.78075339696824</ele>
      <time>2026-07-30T19:10:19.672+02:00</time>
      <extensions>
        <activity type="UNKNOWN" conf="40" state="unknown" tsMs="1785431409238"/>
        <radio op="vodafone IT" rat="LTE" rsrp="-129" rsrq="-15"/>
        <radio op="I TIM" rat="LTE" rsrp="-124" rsrq="-15"/>
      </extensions>
    </trkpt>
    <trkpt lat="45.6025369" lon="10.4536624">
      <ele>259.5979458137512</ele>
      <time>2026-07-30T19:10:31.651+02:00</time>
      <extensions>
        <activity type="UNKNOWN" conf="40" state="unknown" tsMs="1785431433996"/>
        <radio op="vodafone IT" rat="LTE" q="13.50" rsrp="-110" sinr="4" rsrq="-11"/>
        <radio op="I TIM" rat="LTE" q="9.60" rsrp="-113" sinr="3" rsrq="-13"/>
      </extensions>
    </trkpt>
    <trkpt lat="45.6025399" lon="10.4536418">
      <ele>261.6000061035156</ele>
      <time>2026-07-30T19:10:40.213+02:00</time>
      <extensions>
        <activity type="UNKNOWN" conf="40" state="unknown" tsMs="1785431433996"/>
        <radio op="vodafone IT" rat="LTE" q="2.50" rsrp="-120" sinr="0" rsrq="-11"/>
        <radio op="I TIM" rat="LTE" q="5.60" rsrp="-117" sinr="2" rsrq="-16"/>
      </extensions>
    </trkpt>
    <trkpt lat="45.6025427" lon="10.4536319">
      <ele>261.6000061035156</ele>
      <time>2026-07-30T19:10:52.748+02:00</time>
      <extensions>
        <activity type="UNKNOWN" conf="40" state="unknown" tsMs="1785431439147"/>
        <radio op="vodafone IT" rat="LTE" rsrp="-117" rsrq="-12"/>
        <radio op="I TIM" rat="LTE" q="8.10" rsrp="-116" sinr="4" rsrq="-14"/>
      </extensions>
    </trkpt>
    <trkpt lat="45.602545" lon="10.4536161">
      <ele>261.6000061035156</ele>
      <time>2026-07-30T19:11:05.431+02:00</time>
      <extensions>
        <activity type="UNKNOWN" conf="40" state="unknown" tsMs="1785431462979"/>
        <radio op="vodafone IT" rat="LTE" q="5.00" rsrp="-120" sinr="5" rsrq="-14"/>
        <radio op="I TIM" rat="LTE" q="4.80" rsrp="-119" sinr="3" rsrq="-16"/>
      </extensions>
    </trkpt>
    <trkpt lat="45.6025511" lon="10.453641">
      <ele>261.6000061035156</ele>
      <time>2026-07-30T19:11:15.772+02:00</time>
      <extensions>
        <activity type="UNKNOWN" conf="40" state="unknown" tsMs="1785431462979"/>
        <radio op="vodafone IT" rat="LTE" q="2.70" rsrp="-122" sinr="4" rsrq="-10"/>
        <radio op="I TIM" rat="LTE" q="10.00" rsrp="-115" sinr="5" rsrq="-15"/>
      </extensions>
    </trkpt>
    <trkpt lat="45.6025511" lon="10.4536531">
      <ele>261.6000061035156</ele>
      <time>2026-07-30T19:11:24.632+02:00</time>
      <extensions>
        <activity type="UNKNOWN" conf="40" state="unknown" tsMs="1785431468127"/>
        <radio op="vodafone IT" rat="LTE" q="2.80" rsrp="-121" sinr="2" rsrq="-11"/>
        <radio op="I TIM" rat="LTE" rsrp="-120" rsrq="-15"/>
      </extensions>
    </trkpt>
    <trkpt lat="45.6025514" lon="10.4536561">
      <ele>261.6000061035156</ele>
      <time>2026-07-30T19:11:29.257+02:00</time>
      <extensions>
        <activity type="UNKNOWN" conf="40" state="unknown" tsMs="1785431492161"/>
        <radio op="vodafone IT" rat="LTE" rsrp="-122" rsrq="-11"/>
        <radio op="I TIM" rat="LTE" rsrp="-117" rsrq="-16"/>
      </extensions>
    </trkpt>
    <trkpt lat="45.6025453" lon="10.4536725">
      <ele>261.6000061035156</ele>
      <time>2026-07-30T19:11:39.629+02:00</time>
      <extensions>
        <activity type="STILL" conf="96" state="still" tsMs="1785431497319"/>
        <radio op="vodafone IT" rat="LTE" rsrp="-115" rsrq="-11"/>
        <radio op="I TIM" rat="LTE" rsrp="-117" rsrq="-15"/>
      </extensions>
    </trkpt>
    <trkpt lat="45.6025525" lon="10.4536818">
      <ele>261.6000061035156</ele>
      <time>2026-07-30T20:43:36.266+02:00</time>
      <extensions>
        <activity type="ON_FOOT" conf="83" state="moving" tsMs="1785437010297"/>
        <radio op="vodafone IT" rat="LTE" q="16.00" rsrp="-109" sinr="5" rsrq="-11"/>
        <radio op="I TIM" rat="LTE" rsrp="-118" rsrq="-16"/>
      </extensions>
    </trkpt>
    <trkpt lat="45.6025446" lon="10.453669">
      <ele>261.6000061035156</ele>
      <time>2026-07-30T20:44:28.83+02:00</time>
      <extensions>
        <activity type="UNKNOWN" conf="40" state="unknown" tsMs="1785437066879"/>
        <radio op="vodafone IT" rat="LTE" q="4.80" rsrp="-119" sinr="3" rsrq="-10"/>
        <radio op="I TIM" rat="LTE" q="6.40" rsrp="-117" sinr="3" rsrq="-12"/>
      </extensions>
    </trkpt>
    <trkpt lat="45.602545" lon="10.4536673">
      <ele>261.6000061035156</ele>
      <time>2026-07-30T20:45:00.795+02:00</time>
      <extensions>
        <activity type="STILL" conf="35" state="still" tsMs="1785437100304"/>
        <radio op="vodafone IT" rat="LTE" q="4.80" rsrp="-119" sinr="3" rsrq="-10"/>
        <radio op="I TIM" rat="LTE" q="4.80" rsrp="-119" sinr="3" rsrq="-10"/>
      </extensions>
    </trkpt>
    <trkpt lat="45.6025446" lon="10.453669">
      <ele>261.6000061035156</ele>
      <time>2026-07-30T20:45:32.439+02:00</time>
      <extensions>
        <activity type="UNKNOWN" conf="40" state="unknown" tsMs="1785437131743"/>
        <radio op="vodafone IT" rat="LTE" q="6.30" rsrp="-118" sinr="4" rsrq="-12"/>
        <radio op="I TIM" rat="LTE" q="4.80" rsrp="-119" sinr="3" rsrq="-13"/>
      </extensions>
    </trkpt>
    <trkpt lat="45.602545" lon="10.4536673">
      <ele>261.6000061035156</ele>
      <time>2026-07-30T20:46:05.441+02:00</time>
      <extensions>
        <activity type="UNKNOWN" conf="40" state="unknown" tsMs="1785437135519"/>
        <radio op="vodafone IT" rat="LTE" q="5.40" rsrp="-119" sinr="4" rsrq="-9"/>
        <radio op="I TIM" rat="LTE" q="2.40" rsrp="-121" sinr="1" rsrq="-13"/>
      </extensions>
    </trkpt>
    <trkpt lat="45.6025456" lon="10.4536785">
      <ele>261.6000061035156</ele>
      <time>2026-07-30T21:56:25.811+02:00</time>
      <extensions>
        <activity type="ON_FOOT" conf="84" state="moving" tsMs="1785441385211"/>
        <radio op="vodafone IT" rat="LTE" q="1.80" rsrp="-122" sinr="1" rsrq="-12"/>
        <radio op="I TIM" rat="LTE" q="1.20" rsrp="-123" sinr="1" rsrq="-15"/>
      </extensions>
    </trkpt>
    <trkpt lat="45.6025446" lon="10.453669">
      <ele>261.6000061035156</ele>
      <time>2026-07-30T21:56:57.423+02:00</time>
      <extensions>
        <activity type="UNKNOWN" conf="40" state="unknown" tsMs="1785441416833"/>
        <radio op="vodafone IT" rat="LTE" q="0.70" rsrp="-124" sinr="2" rsrq="-12"/>
        <radio op="I TIM" rat="LTE" q="0.50" rsrp="-124" sinr="0" rsrq="-15"/>
      </extensions>
    </trkpt>
    <trkpt lat="45.602547" lon="10.4536683">
      <ele>261.6000061035156</ele>
      <time>2026-07-30T21:57:27.919+02:00</time>
      <extensions>
        <activity type="UNKNOWN" conf="40" state="unknown" tsMs="1785441448472"/>
        <radio op="vodafone IT" rat="LTE" q="2.70" rsrp="-122" sinr="4" rsrq="-13"/>
        <radio op="I TIM" rat="LTE" rsrp="-123" rsrq="-14"/>
      </extensions>
    </trkpt>
    <trkpt lat="45.6025401" lon="10.4536706">
      <ele>261.6000061035156</ele>
      <time>2026-07-30T21:57:59.711+02:00</time>
      <extensions>
        <activity type="UNKNOWN" conf="40" state="unknown" tsMs="1785441474696"/>
        <radio op="vodafone IT" rat="LTE" q="2.70" rsrp="-122" sinr="4" rsrq="-13"/>
        <radio op="I TIM" rat="LTE" rsrp="-123" rsrq="-14"/>
      </extensions>
    </trkpt>
    <trkpt lat="45.6025442" lon="10.4536722">
      <ele>261.6000061035156</ele>
      <time>2026-07-30T21:58:45.076+02:00</time>
      <extensions>
        <activity type="STILL" conf="99" state="still" tsMs="1785441507939"/>
        <radio op="vodafone IT" rat="LTE" q="2.70" rsrp="-122" sinr="4" rsrq="-13"/>
        <radio op="I TIM" rat="LTE" rsrp="-123" rsrq="-14"/>
      </extensions>
    </trkpt>
    <trkpt lat="45.602545" lon="10.4536673">
      <ele>261.6000061035156</ele>
      <time>2026-07-30T21:59:30.953+02:00</time>
      <extensions>
        <activity type="STILL" conf="44" state="still" tsMs="1785441552976"/>
        <radio op="vodafone IT" rat="LTE" q="2.70" rsrp="-122" sinr="4" rsrq="-13"/>
        <radio op="I TIM" rat="LTE" rsrp="-123" rsrq="-14"/>
      </extensions>
    </trkpt>
  </trkseg></trk>
</gpx>
