<?xml version="1.0" encoding="UTF-8"?>
<gpx version="1.1" creator="CellGPX" xmlns="http://www.topografix.com/GPX/1/1">
  <trk><name>CellGPX</name><trkseg>
    <trkpt lat="45.6027929" lon="10.453495">
      <ele>260.8000183105469</ele>
      <time>2026-10-06T11:54:40.381+02:00</time>
      <extensions>
        <activity type="IN_VEHICLE" conf="90" state="moving" tsMs="1791280476949"/>
        <radio op="vodafone IT" rat="LTE" q="19.20" rsrp="-101" sinr="3" rsrq="-11"/>
        <radio op="I TIM" rat="LTE" q="19.20" rsrp="-109" sinr="7" rsrq="-11"/>
      </extensions>
    </trkpt>
    <trkpt lat="45.6015368" lon="10.4535561">
      <ele>260.5</ele>
      <time>2026-10-06T11:55:11.667+02:00</time>
      <extensions>
        <activity type="UNKNOWN" conf="40" state="unknown" tsMs="1791280502837"/>
        <radio op="vodafone IT" rat="LTE" q="19.20" rsrp="-109" sinr="7" rsrq="-10"/>
        <radio op="I TIM" rat="LTE" rsrp="-106" rsrq="-10"/>
      </extensions>
    </trkpt>
    <trkpt lat="45.6021115" lon="10.4534388">
      <ele>260.6000061035156</ele>
      <time>2026-10-06T11:55:42.843+02:00</time>
      <extensions>
        <activity type="STILL" conf="44" state="still" tsMs="1791280527944"/>
        <radio op="vodafone IT" rat="LTE" q="18.00" rsrp="-110" sinr="7" rsrq="-10"/>
        <radio op="I TIM" rat="LTE" rsrp="-107" rsrq="-13"/>
      </extensions>
    </trkpt>
    <trkpt lat="45.6022595" lon="10.4552417">
      <ele>264.6149246561787</ele>
      <time>2026-10-06T11:56:14.067+02:00</time>
      <extensions>
        <activity type="UNKNOWN" conf="40" state="unknown" tsMs="1791280553896"/>
        <radio op="vodafone IT" rat="LTE" q="15.40" rsrp="-111" sinr="6" rsrq="-11"/>
        <radio op="I TIM" rat="LTE" rsrp="-108" rsrq="-14"/>
      </extensions>
    </trkpt>
    <trkpt lat="45.6038405" lon="10.4596373">
      <ele>272.4376327118211</ele>
      <time>2026-10-06T11:56:48.54+02:00</time>
      <extensions>
        <activity type="IN_VEHICLE" conf="89" state="moving" tsMs="1791280602480"/>
        <radio op="vodafone IT" rat="LTE" rsrp="-77" rsrq="-7"/>
        <radio op="I TIM" rat="LTE" q="60.80" rsrp="-87" sinr="11" rsrq="-10"/>
      </extensions>
    </trkpt>
    <trkpt lat="45.604259" lon="10.4614606">
      <ele>272.3722225355301</ele>
      <time>2026-10-06T11:56:58.606+02:00</time>
      <extensions>
        <activity type="UNKNOWN" conf="40" state="unknown" tsMs="1791280608498"/>
        <radio op="vodafone IT" rat="LTE" q="100.00" rsrp="-80" sinr="30" rsrq="-7"/>
        <radio op="I TIM" rat="LTE" q="52.50" rsrp="-100" sinr="16" rsrq="-10"/>
      </extensions>
    </trkpt>
    <trkpt lat="45.6129055" lon="10.4867334">
      <ele>246.46674758321655</ele>
      <time>2026-10-06T11:59:13.799+02:00</time>
      <extensions>
        <activity type="UNKNOWN" conf="40" state="unknown" tsMs="1791280746078"/>
        <radio op="vodafone IT" rat="LTE" rsrp="-137" rsrq="-21"/>
        <radio op="I TIM" rat="LTE" rsrp="-135" rsrq="-19"/>
      </extensions>
    </trkpt>
    <trkpt lat="45.6129055" lon="10.4867334">
      <ele>248.80632608979363</ele>
      <time>2026-10-06T11:59:21.029+02:00</time>
      <extensions>
        <activity type="IN_VEHICLE" conf="84" state="moving" tsMs="1791280757211"/>
        <radio op="vodafone IT" rat="LTE" q="14.40" rsrp="-101" sinr="1" rsrq="-10"/>
        <radio op="I TIM" rat="LTE" rsrp="-114" rsrq="-15"/>
      </extensions>
    </trkpt>
    <trkpt lat="45.6115586" lon="10.4932802">
      <ele>226.3100602984337</ele>
      <time>2026-10-06T12:00:01.929+02:00</time>
      <extensions>
        <activity type="IN_VEHICLE" conf="91" state="moving" tsMs="1791280796491"/>
        <radio op="vodafone IT" rat="LTE" q="20.40" rsrp="-108" sinr="7" rsrq="-12"/>
        <radio op="I TIM" rat="LTE" rsrp="-122" rsrq="-13"/>
      </extensions>
    </trkpt>
    <trkpt lat="45.6129687" lon="10.4970269">
      <ele>226.23660518184187</ele>
      <time>2026-10-06T12:00:38.606+02:00</time>
      <extensions>
        <activity type="UNKNOWN" conf="40" state="unknown" tsMs="1791280828405"/>
        <radio op="vodafone IT" rat="LTE" q="64.60" rsrp="-87" sinr="12" rsrq="-10"/>
        <radio op="I TIM" rat="LTE" rsrp="-115" rsrq="-17"/>
      </extensions>
    </trkpt>
    <trkpt lat="45.6177283" lon="10.4932698">
      <ele>224.3000030517578</ele>
      <time>2026-10-06T12:02:28.853+02:00</time>
      <extensions>
        <activity type="UNKNOWN" conf="40" state="unknown" tsMs="1791280950184"/>
        <radio op="vodafone IT" rat="LTE" q="39.90" rsrp="-106" sinr="16" rsrq="-8"/>
        <radio op="I TIM" rat="LTE" q="55.00" rsrp="-103" sinr="21" rsrq="-8"/>
      </extensions>
    </trkpt>
    <trkpt lat="45.6177293" lon="10.4932669">
      <ele>223.20001220703125</ele>
      <time>2026-10-06T12:03:00.2+02:00</time>
      <extensions>
        <activity type="UNKNOWN" conf="40" state="unknown" tsMs="1791280971376"/>
        <radio op="vodafone IT" rat="LTE" q="46.00" rsrp="-105" sinr="18" rsrq="-10"/>
        <radio op="I TIM" rat="LTE" q="65.00" rsrp="-99" sinr="22" rsrq="-6"/>
      </extensions>
    </trkpt>
    <trkpt lat="45.617737" lon="10.4932738">
      <ele>224.00001525878906</ele>
      <time>2026-10-06T12:03:31.483+02:00</time>
      <extensions>
        <activity type="UNKNOWN" conf="40" state="unknown" tsMs="1791281003104"/>
        <radio op="vodafone IT" rat="LTE" q="55.20" rsrp="-102" sinr="19" rsrq="-11"/>
        <radio op="I TIM" rat="LTE" q="60.00" rsrp="-101" sinr="26" rsrq="-7"/>
      </extensions>
    </trkpt>
    <trkpt lat="45.6177102" lon="10.4932258">
      <ele>223.20001220703125</ele>
      <time>2026-10-06T12:04:04.837+02:00</time>
      <extensions>
        <activity type="ON_FOOT" conf="98" state="moving" tsMs="1791281024039"/>
        <radio op="vodafone IT" rat="LTE" q="47.50" rsrp="-106" sinr="20" rsrq="-9"/>
        <radio op="I TIM" rat="LTE" q="48.00" rsrp="-105" sinr="19" rsrq="-7"/>
      </extensions>
    </trkpt>
    <trkpt lat="45.617686" lon="10.4932326">
      <ele>223.20001220703125</ele>
      <time>2026-10-06T12:04:40.757+02:00</time>
      <extensions>
        <activity type="ON_FOOT" conf="89" state="moving" tsMs="1791281075102"/>
        <radio op="vodafone IT" rat="LTE" q="67.50" rsrp="-98" sinr="23" rsrq="-8"/>
        <radio op="I TIM" rat="LTE" q="67.50" rsrp="-98" sinr="22" rsrq="-7"/>
      </extensions>
    </trkpt>
    <trkpt lat="45.6176815" lon="10.4931935">
      <ele>223.20001220703125</ele>
      <time>2026-10-06T12:05:11.77+02:00</time>
      <extensions>
        <activity type="UNKNOWN" conf="40" state="unknown" tsMs="1791281097126"/>
        <radio op="vodafone IT" rat="LTE" q="58.90" rsrp="-94" sinr="14" rsrq="-8"/>
        <radio op="I TIM" rat="LTE" q="77.50" rsrp="-94" sinr="21" rsrq="-6"/>
      </extensions>
    </trkpt>
    <trkpt lat="45.6177123" lon="10.4932326">
      <ele>223.20001220703125</ele>
      <time>2026-10-06T12:05:42.829+02:00</time>
      <extensions>
        <activity type="STILL" conf="99" state="still" tsMs="1791281135911"/>
        <radio op="vodafone IT" rat="LTE" q="40.80" rsrp="-101" sinr="12" rsrq="-7"/>
        <radio op="I TIM" rat="LTE" q="82.50" rsrp="-92" sinr="24" rsrq="-5"/>
      </extensions>
    </trkpt>
    <trkpt lat="45.6177022" lon="10.4932267">
      <ele>223.20001220703125</ele>
      <time>2026-10-06T12:06:14.083+02:00</time>
      <extensions>
        <activity type="STILL" conf="96" state="still" tsMs="1791281167870"/>
        <radio op="vodafone IT" rat="LTE" q="85.10" rsrp="-88" sinr="18" rsrq="-8"/>
        <radio op="I TIM" rat="LTE" q="92.50" rsrp="-88" sinr="21" rsrq="-5"/>
      </extensions>
    </trkpt>
    <trkpt lat="45.6177045" lon="10.4932277">
      <ele>223.20001220703125</ele>
      <time>2026-10-06T12:06:45.29+02:00</time>
      <extensions>
        <activity type="STILL" conf="100" state="still" tsMs="1791281196229"/>
        <radio op="vodafone IT" rat="LTE" q="95.00" rsrp="-87" sinr="22" rsrq="-8"/>
        <radio op="I TIM" rat="LTE" q="95.00" rsrp="-87" sinr="25" rsrq="-5"/>
      </extensions>
    </trkpt>
    <trkpt lat="45.6177157" lon="10.4932313">
      <ele>223.20001220703125</ele>
      <time>2026-10-06T12:10:23.587+02:00</time>
      <extensions>
        <activity type="ON_FOOT" conf="86" state="moving" tsMs="1791281427186"/>
        <radio op="vodafone IT" rat="LTE" q="73.60" rsrp="-93" sinr="18" rsrq="-11"/>
        <radio op="I TIM" rat="LTE" q="62.70" rsrp="-92" sinr="14" rsrq="-7"/>
      </extensions>
    </trkpt>
    <trkpt lat="45.6177108" lon="10.4932408">
      <ele>223.20001220703125</ele>
      <time>2026-10-06T12:10:54.778+02:00</time>
      <extensions>
        <activity type="ON_FOOT" conf="93" state="moving" tsMs="1791281440099"/>
        <radio op="vodafone IT" rat="LTE" q="59.20" rsrp="-88" sinr="11" rsrq="-8"/>
        <radio op="I TIM" rat="LTE" q="85.00" rsrp="-91" sinr="21" rsrq="-8"/>
      </extensions>
    </trkpt>
    <trkpt lat="45.6177076" lon="10.493234">
      <ele>223.20001220703125</ele>
      <time>2026-10-06T12:11:26.02+02:00</time>
      <extensions>
        <activity type="UNKNOWN" conf="40" state="unknown" tsMs="1791281478271"/>
        <radio op="vodafone IT" rat="LTE" q="66.00" rsrp="-92" sinr="15" rsrq="-11"/>
        <radio op="I TIM" rat="LTE" q="90.00" rsrp="-89" sinr="20" rsrq="-6"/>
      </extensions>
    </trkpt>
    <trkpt lat="45.6177115" lon="10.4932355">
      <ele>223.20001220703125</ele>
      <time>2026-10-06T12:11:57.152+02:00</time>
      <extensions>
        <activity type="UNKNOWN" conf="40" state="unknown" tsMs="1791281501464"/>
        <radio op="vodafone IT" rat="LTE" q="70.30" rsrp="-88" sinr="14" rsrq="-11"/>
        <radio op="I TIM" rat="LTE" q="85.00" rsrp="-91" sinr="20" rsrq="-11"/>
      </extensions>
    </trkpt>
    <trkpt lat="45.6177078" lon="10.4932236">
      <ele>223.20001220703125</ele>
      <time>2026-10-06T12:12:28.715+02:00</time>
      <extensions>
        <activity type="UNKNOWN" conf="40" state="unknown" tsMs="1791281538614"/>
        <radio op="vodafone IT" rat="LTE" q="66.50" rsrp="-90" sinr="14" rsrq="-7"/>
        <radio op="I TIM" rat="LTE" q="63.80" rsrp="-96" sinr="17" rsrq="-9"/>
      </extensions>
    </trkpt>
    <trkpt lat="45.6177037" lon="10.4932078">
      <ele>223.20001220703125</ele>
      <time>2026-10-06T12:12:59.709+02:00</time>
      <extensions>
        <activity type="ON_FOOT" conf="92" state="moving" tsMs="1791281563452"/>
        <radio op="vodafone IT" rat="LTE" q="34.10" rsrp="-94" sinr="6" rsrq="-10"/>
        <radio op="I TIM" rat="LTE" q="66.70" rsrp="-96" sinr="18" rsrq="-10"/>
      </extensions>
    </trkpt>
    <trkpt lat="45.6176806" lon="10.4931808">
      <ele>223.20001220703125</ele>
      <time>2026-10-06T12:13:30.927+02:00</time>
      <extensions>
        <activity type="STILL" conf="32" state="still" tsMs="1791281601157"/>
        <radio op="vodafone IT" rat="LTE" q="77.50" rsrp="-94" sinr="21" rsrq="-9"/>
        <radio op="I TIM" rat="LTE" q="68.00" rsrp="-91" sinr="15" rsrq="-6"/>
      </extensions>
    </trkpt>
    <trkpt lat="45.617706" lon="10.4932497">
      <ele>223.20001220703125</ele>
      <time>2026-10-06T12:14:02.064+02:00</time>
      <extensions>
        <activity type="UNKNOWN" conf="40" state="unknown" tsMs="1791281626921"/>
        <radio op="vodafone IT" rat="LTE" q="61.20" rsrp="-89" sinr="12" rsrq="-6"/>
        <radio op="I TIM" rat="LTE" q="78.20" rsrp="-91" sinr="18" rsrq="-8"/>
      </extensions>
    </trkpt>
    <trkpt lat="45.6176287" lon="10.4931322">
      <ele>223.20001220703125</ele>
      <time>2026-10-06T12:30:17.93+02:00</time>
      <extensions>
        <activity type="STILL" conf="100" state="still" tsMs="1791282597369"/>
        <radio op="vodafone IT" rat="LTE" q="17.60" rsrp="-103" sinr="3" rsrq="-10"/>
        <radio op="I TIM" rat="LTE" q="62.50" rsrp="-100" sinr="23" rsrq="-11"/>
      </extensions>
    </trkpt>
    <trkpt lat="45.6176301" lon="10.4931314">
      <ele>223.20001220703125</ele>
      <time>2026-10-06T12:31:09.726+02:00</time>
      <extensions>
        <activity type="STILL" conf="100" state="still" tsMs="1791282659375"/>
        <radio op="vodafone IT" rat="LTE" q="23.00" rsrp="-102" sinr="5" rsrq="-11"/>
        <radio op="I TIM" rat="LTE" q="41.60" rsrp="-99" sinr="11" rsrq="-11"/>
      </extensions>
    </trkpt>
    <trkpt lat="45.6176274" lon="10.4931355">
      <ele>223.20001220703125</ele>
      <time>2026-10-06T12:32:11.642+02:00</time>
      <extensions>
        <activity type="STILL" conf="100" state="still" tsMs="1791282721304"/>
        <radio op="vodafone IT" rat="LTE" q="20.00" rsrp="-100" sinr="3" rsrq="-9"/>
        <radio op="I TIM" rat="LTE" q="57.20" rsrp="-99" sinr="17" rsrq="-6"/>
      </extensions>
    </trkpt>
    <trkpt lat="45.6176293" lon="10.4931337">
      <ele>223.20001220703125</ele>
      <time>2026-10-06T12:33:13.675+02:00</time>
      <extensions>
        <activity type="STILL" conf="100" state="still" tsMs="1791282783304"/>
        <radio op="vodafone IT" rat="LTE" q="20.70" rsrp="-102" sinr="4" rsrq="-11"/>
        <radio op="I TIM" rat="LTE" q="70.00" rsrp="-97" sinr="24" rsrq="-10"/>
      </extensions>
    </trkpt>
    <trkpt lat="45.6177059" lon="10.4932244">
      <ele>223.20001220703125</ele>
      <time>2026-10-06T12:40:00.498+02:00</time>
      <extensions>
        <activity type="UNKNOWN" conf="40" state="unknown" tsMs="1791283203657"/>
        <radio op="vodafone IT" rat="LTE" q="34.10" rsrp="-94" sinr="6" rsrq="-9"/>
        <radio op="I TIM" rat="LTE" q="70.20" rsrp="-86" sinr="13" rsrq="-8"/>
      </extensions>
    </trkpt>
    <trkpt lat="45.6177209" lon="10.4932276">
      <ele>223.20001220703125</ele>
      <time>2026-10-06T12:40:31.66+02:00</time>
      <extensions>
        <activity type="UNKNOWN" conf="40" state="unknown" tsMs="1791283216553"/>
        <radio op="vodafone IT" rat="LTE" q="37.70" rsrp="-96" sinr="8" rsrq="-9"/>
        <radio op="I TIM" rat="LTE" q="62.90" rsrp="-88" sinr="12" rsrq="-11"/>
      </extensions>
    </trkpt>
    <trkpt lat="45.6177182" lon="10.4932288">
      <ele>221.4582828204536</ele>
      <time>2026-10-06T12:41:02.79+02:00</time>
      <extensions>
        <activity type="UNKNOWN" conf="40" state="unknown" tsMs="1791283251934"/>
        <radio op="vodafone IT" rat="LTE" rsrp="-94" rsrq="-11"/>
        <radio op="I TIM" rat="LTE" q="87.50" rsrp="-90" sinr="25" rsrq="-12"/>
      </extensions>
    </trkpt>
    <trkpt lat="45.6177031" lon="10.4932285">
      <ele>223.20001220703125</ele>
      <time>2026-10-06T12:41:34.09+02:00</time>
      <extensions>
        <activity type="UNKNOWN" conf="40" state="unknown" tsMs="1791283274302"/>
        <radio op="vodafone IT" rat="LTE" rsrp="-97" rsrq="-10"/>
        <radio op="I TIM" rat="LTE" q="87.50" rsrp="-90" sinr="23" rsrq="-10"/>
      </extensions>
    </trkpt>
    <trkpt lat="45.617632" lon="10.4931353">
      <ele>223.20001220703125</ele>
      <time>2026-10-06T12:42:05.572+02:00</time>
      <extensions>
        <activity type="STILL" conf="27" state="still" tsMs="1791283310392"/>
        <radio op="vodafone IT" rat="LTE" q="24.00" rsrp="-101" sinr="5" rsrq="-13"/>
        <radio op="I TIM" rat="LTE" q="64.40" rsrp="-97" sinr="18" rsrq="-11"/>
      </extensions>
    </trkpt>
    <trkpt lat="45.617632" lon="10.4931353">
      <ele>223.20001220703125</ele>
      <time>2026-10-06T12:42:36.876+02:00</time>
      <extensions>
        <activity type="STILL" conf="100" state="still" tsMs="1791283351842"/>
        <radio op="vodafone IT" rat="LTE" q="27.50" rsrp="-100" sinr="6" rsrq="-8"/>
        <radio op="I TIM" rat="LTE" q="63.80" rsrp="-96" sinr="17" rsrq="-9"/>
      </extensions>
    </trkpt>
    <trkpt lat="45.617632" lon="10.4931353">
      <ele>223.20001220703125</ele>
      <time>2026-10-06T12:43:08.306+02:00</time>
      <extensions>
        <activity type="STILL" conf="100" state="still" tsMs="1791283379147"/>
        <radio op="vodafone IT" rat="LTE" q="18.40" rsrp="-102" sinr="3" rsrq="-14"/>
        <radio op="I TIM" rat="LTE" q="56.70" rsrp="-98" sinr="16" rsrq="-6"/>
      </extensions>
    </trkpt>
    <trkpt lat="45.617636" lon="10.4931297">
      <ele>223.20001220703125</ele>
      <time>2026-10-06T12:43:39.771+02:00</time>
      <extensions>
        <activity type="STILL" conf="100" state="still" tsMs="1791283407619"/>
        <radio op="vodafone IT" rat="LTE" q="13.80" rsrp="-102" sinr="1" rsrq="-13"/>
        <radio op="I TIM" rat="LTE" q="43.20" rsrp="-98" sinr="11" rsrq="-7"/>
      </extensions>
    </trkpt>
    <trkpt lat="45.6176335" lon="10.4931408">
      <ele>223.20001220703125</ele>
      <time>2026-10-06T12:44:11.192+02:00</time>
      <extensions>
        <activity type="STILL" conf="100" state="still" tsMs="1791283445680"/>
        <radio op="vodafone IT" rat="LTE" q="11.50" rsrp="-102" sinr="0" rsrq="-13"/>
        <radio op="I TIM" rat="LTE" q="67.50" rsrp="-98" sinr="23" rsrq="-7"/>
      </extensions>
    </trkpt>
    <trkpt lat="45.6176203" lon="10.4931786">
      <ele>223.20001220703125</ele>
      <time>2026-10-06T12:44:42.715+02:00</time>
      <extensions>
        <activity type="STILL" conf="100" state="still" tsMs="1791283473483"/>
        <radio op="vodafone IT" rat="LTE" q="19.20" rsrp="-101" sinr="3" rsrq="-13"/>
        <radio op="I TIM" rat="LTE" q="70.00" rsrp="-97" sinr="22" rsrq="-8"/>
      </extensions>
    </trkpt>
    <trkpt lat="45.6176317" lon="10.4931316">
      <ele>223.20001220703125</ele>
      <time>2026-10-06T12:45:14.234+02:00</time>
      <extensions>
        <activity type="STILL" conf="100" state="still" tsMs="1791283501934"/>
        <radio op="vodafone IT" rat="LTE" q="21.60" rsrp="-101" sinr="4" rsrq="-11"/>
        <radio op="I TIM" rat="LTE" q="67.50" rsrp="-98" sinr="26" rsrq="-8"/>
      </extensions>
    </trkpt>
    <trkpt lat="45.6176795" lon="10.4931969">
      <ele>223.20001220703125</ele>
      <time>2026-10-06T12:55:53.635+02:00</time>
      <extensions>
        <activity type="ON_FOOT" conf="95" state="moving" tsMs="1791284141976"/>
        <radio op="vodafone IT" rat="LTE" rsrp="-95" rsrq="-12"/>
        <radio op="I TIM" rat="LTE" q="61.20" rsrp="-91" sinr="13" rsrq="-8"/>
      </extensions>
    </trkpt>
    <trkpt lat="45.6177235" lon="10.4932328">
      <ele>223.20001220703125</ele>
      <time>2026-10-06T12:56:25.021+02:00</time>
      <extensions>
        <activity type="ON_FOOT" conf="95" state="moving" tsMs="1791284167840"/>
        <radio op="vodafone IT" rat="LTE" q="30.80" rsrp="-97" sinr="6" rsrq="-11"/>
        <radio op="I TIM" rat="LTE" q="63.80" rsrp="-96" sinr="17" rsrq="-11"/>
      </extensions>
    </trkpt>
    <trkpt lat="45.6177127" lon="10.4932606">
      <ele>223.20001220703125</ele>
      <time>2026-10-06T12:56:56.449+02:00</time>
      <extensions>
        <activity type="ON_FOOT" conf="96" state="moving" tsMs="1791284206809"/>
        <radio op="vodafone IT" rat="LTE" q="20.80" rsrp="-99" sinr="3" rsrq="-12"/>
        <radio op="I TIM" rat="LTE" q="64.80" rsrp="-98" sinr="19" rsrq="-10"/>
      </extensions>
    </trkpt>
    <trkpt lat="45.6177086" lon="10.4932114">
      <ele>223.20001220703125</ele>
      <time>2026-10-06T12:57:27.744+02:00</time>
      <extensions>
        <activity type="UNKNOWN" conf="40" state="unknown" tsMs="1791284229083"/>
        <radio op="vodafone IT" rat="LTE" q="22.40" rsrp="-97" sinr="3" rsrq="-12"/>
        <radio op="I TIM" rat="LTE" q="58.00" rsrp="-96" sinr="15" rsrq="-10"/>
      </extensions>
    </trkpt>
    <trkpt lat="45.6177137" lon="10.4932321">
      <ele>223.20001220703125</ele>
      <time>2026-10-06T12:57:59.002+02:00</time>
      <extensions>
        <activity type="UNKNOWN" conf="40" state="unknown" tsMs="1791284267890"/>
        <radio op="vodafone IT" rat="LTE" q="40.30" rsrp="-94" sinr="8" rsrq="-10"/>
        <radio op="I TIM" rat="LTE" q="84.00" rsrp="-90" sinr="19" rsrq="-12"/>
      </extensions>
    </trkpt>
    <trkpt lat="45.6176794" lon="10.4932349">
      <ele>223.20001220703125</ele>
      <time>2026-10-06T12:58:30.153+02:00</time>
      <extensions>
        <activity type="STILL" conf="97" state="still" tsMs="1791284293808"/>
        <radio op="vodafone IT" rat="LTE" q="36.00" rsrp="-95" sinr="7" rsrq="-11"/>
        <radio op="I TIM" rat="LTE" q="69.60" rsrp="-96" sinr="19" rsrq="-5"/>
      </extensions>
    </trkpt>
    <trkpt lat="45.6177096" lon="10.4932156">
      <ele>223.20001220703125</ele>
      <time>2026-10-06T12:59:01.325+02:00</time>
      <extensions>
        <activity type="ON_FOOT" conf="97" state="moving" tsMs="1791284326572"/>
        <radio op="vodafone IT" rat="LTE" q="17.40" rsrp="-96" sinr="1" rsrq="-9"/>
        <radio op="I TIM" rat="LTE" q="72.50" rsrp="-96" sinr="23" rsrq="-6"/>
      </extensions>
    </trkpt>
    <trkpt lat="45.6177329" lon="10.4932398">
      <ele>223.20001220703125</ele>
      <time>2026-10-06T12:59:32.527+02:00</time>
      <extensions>
        <activity type="ON_FOOT" conf="97" state="moving" tsMs="1791284352490"/>
        <radio op="vodafone IT" rat="LTE" q="21.60" rsrp="-98" sinr="3" rsrq="-11"/>
        <radio op="I TIM" rat="LTE" q="70.00" rsrp="-97" sinr="20" rsrq="-5"/>
      </extensions>
    </trkpt>
    <trkpt lat="45.6177088" lon="10.4932312">
      <ele>223.20001220703125</ele>
      <time>2026-10-06T13:00:03.852+02:00</time>
      <extensions>
        <activity type="UNKNOWN" conf="40" state="unknown" tsMs="1791284388682"/>
        <radio op="vodafone IT" rat="LTE" q="32.40" rsrp="-98" sinr="7" rsrq="-10"/>
        <radio op="I TIM" rat="LTE" q="57.60" rsrp="-101" sinr="19" rsrq="-10"/>
      </extensions>
    </trkpt>
    <trkpt lat="45.6177107" lon="10.4932113">
      <ele>223.20001220703125</ele>
      <time>2026-10-06T13:00:35.144+02:00</time>
      <extensions>
        <activity type="ON_FOOT" conf="98" state="moving" tsMs="1791284424040"/>
        <radio op="vodafone IT" rat="LTE" q="23.40" rsrp="-99" sinr="4" rsrq="-14"/>
        <radio op="I TIM" rat="LTE" q="58.00" rsrp="-96" sinr="15" rsrq="-8"/>
      </extensions>
    </trkpt>
    <trkpt lat="45.6177101" lon="10.4932357">
      <ele>223.20001220703125</ele>
      <time>2026-10-06T13:01:06.336+02:00</time>
      <extensions>
        <activity type="UNKNOWN" conf="40" state="unknown" tsMs="1791284446485"/>
        <radio op="vodafone IT" rat="LTE" q="35.20" rsrp="-93" sinr="6" rsrq="-11"/>
        <radio op="I TIM" rat="LTE" q="60.00" rsrp="-101" sinr="20" rsrq="-5"/>
      </extensions>
    </trkpt>
    <trkpt lat="45.6177086" lon="10.4932213">
      <ele>223.20001220703125</ele>
      <time>2026-10-06T13:01:37.56+02:00</time>
      <extensions>
        <activity type="UNKNOWN" conf="40" state="unknown" tsMs="1791284482703"/>
        <radio op="vodafone IT" rat="LTE" q="33.60" rsrp="-97" sinr="7" rsrq="-11"/>
        <radio op="I TIM" rat="LTE" q="66.00" rsrp="-95" sinr="17" rsrq="-7"/>
      </extensions>
    </trkpt>
    <trkpt lat="45.6177087" lon="10.4932253">
      <ele>223.20001220703125</ele>
      <time>2026-10-06T13:02:08.748+02:00</time>
      <extensions>
        <activity type="UNKNOWN" conf="40" state="unknown" tsMs="1791284518139"/>
        <radio op="vodafone IT" rat="LTE" q="31.50" rsrp="-90" sinr="4" rsrq="-11"/>
        <radio op="I TIM" rat="LTE" q="81.40" rsrp="-88" sinr="17" rsrq="-7"/>
      </extensions>
    </trkpt>
    <trkpt lat="45.6177058" lon="10.4932208">
      <ele>223.20001220703125</ele>
      <time>2026-10-06T13:02:39.973+02:00</time>
      <extensions>
        <activity type="UNKNOWN" conf="40" state="unknown" tsMs="1791284544001"/>
        <radio op="vodafone IT" rat="LTE" rsrp="-98" rsrq="-11"/>
        <radio op="I TIM" rat="LTE" q="62.10" rsrp="-98" sinr="18" rsrq="-7"/>
      </extensions>
    </trkpt>
    <trkpt lat="45.6177265" lon="10.4932181">
      <ele>223.20001220703125</ele>
      <time>2026-10-06T13:03:11.101+02:00</time>
      <extensions>
        <activity type="ON_FOOT" conf="87" state="moving" tsMs="1791284582672"/>
        <radio op="vodafone IT" rat="LTE" q="16.20" rsrp="-98" sinr="1" rsrq="-10"/>
        <radio op="I TIM" rat="LTE" q="77.50" rsrp="-94" sinr="24" rsrq="-10"/>
      </extensions>
    </trkpt>
    <trkpt lat="45.6177176" lon="10.4932161">
      <ele>223.20001220703125</ele>
      <time>2026-10-06T13:03:42.266+02:00</time>
      <extensions>
        <activity type="UNKNOWN" conf="40" state="unknown" tsMs="1791284607219"/>
        <radio op="vodafone IT" rat="LTE" q="26.40" rsrp="-101" sinr="6" rsrq="-12"/>
        <radio op="I TIM" rat="LTE" q="72.00" rsrp="-95" sinr="19" rsrq="-6"/>
      </extensions>
    </trkpt>
    <trkpt lat="45.6176584" lon="10.4933491">
      <ele>223.20001220703125</ele>
      <time>2026-10-06T13:04:13.463+02:00</time>
      <extensions>
        <activity type="STILL" conf="100" state="still" tsMs="1791284646057"/>
        <radio op="vodafone IT" rat="LTE" q="15.00" rsrp="-95" sinr="0" rsrq="-9"/>
        <radio op="I TIM" rat="LTE" q="62.40" rsrp="-99" sinr="19" rsrq="-8"/>
      </extensions>
    </trkpt>
    <trkpt lat="45.6177066" lon="10.4932146">
      <ele>223.20001220703125</ele>
      <time>2026-10-06T13:04:44.763+02:00</time>
      <extensions>
        <activity type="UNKNOWN" conf="40" state="unknown" tsMs="1791284668463"/>
        <radio op="vodafone IT" rat="LTE" q="36.40" rsrp="-97" sinr="8" rsrq="-13"/>
        <radio op="I TIM" rat="LTE" q="77.50" rsrp="-94" sinr="20" rsrq="-6"/>
      </extensions>
    </trkpt>
    <trkpt lat="45.6177011" lon="10.4932656">
      <ele>223.20001220703125</ele>
      <time>2026-10-06T13:05:16.036+02:00</time>
      <extensions>
        <activity type="UNKNOWN" conf="40" state="unknown" tsMs="1791284707210"/>
        <radio op="vodafone IT" rat="LTE" q="27.00" rsrp="-98" sinr="5" rsrq="-11"/>
        <radio op="I TIM" rat="LTE" q="70.00" rsrp="-97" sinr="20" rsrq="-7"/>
      </extensions>
    </trkpt>
    <trkpt lat="45.6176914" lon="10.4931913">
      <ele>223.20001220703125</ele>
      <time>2026-10-06T13:05:47.202+02:00</time>
      <extensions>
        <activity type="UNKNOWN" conf="40" state="unknown" tsMs="1791284732169"/>
        <radio op="vodafone IT" rat="LTE" q="14.50" rsrp="-96" sinr="0" rsrq="-9"/>
        <radio op="I TIM" rat="LTE" q="80.00" rsrp="-93" sinr="21" rsrq="-7"/>
      </extensions>
    </trkpt>
    <trkpt lat="45.6177038" lon="10.4932201">
      <ele>223.20001220703125</ele>
      <time>2026-10-06T13:06:18.261+02:00</time>
      <extensions>
        <activity type="UNKNOWN" conf="40" state="unknown" tsMs="1791284771069"/>
        <radio op="vodafone IT" rat="LTE" q="20.30" rsrp="-96" sinr="2" rsrq="-8"/>
        <radio op="I TIM" rat="LTE" q="62.10" rsrp="-98" sinr="18" rsrq="-6"/>
      </extensions>
    </trkpt>
    <trkpt lat="45.6177121" lon="10.493231">
      <ele>223.20001220703125</ele>
      <time>2026-10-06T13:06:49.535+02:00</time>
      <extensions>
        <activity type="ON_FOOT" conf="97" state="moving" tsMs="1791284794370"/>
        <radio op="vodafone IT" rat="LTE" rsrp="-91" rsrq="-11"/>
        <radio op="I TIM" rat="LTE" q="87.50" rsrp="-90" sinr="28" rsrq="-6"/>
      </extensions>
    </trkpt>
    <trkpt lat="45.6177119" lon="10.493229">
      <ele>223.20001220703125</ele>
      <time>2026-10-06T13:07:17.871+02:00</time>
      <extensions>
        <activity type="ON_FOOT" conf="95" state="moving" tsMs="1791284833322"/>
        <radio op="vodafone IT" rat="LTE" rsrp="-95" rsrq="-12"/>
        <radio op="I TIM" rat="LTE" q="90.00" rsrp="-89" sinr="23" rsrq="-11"/>
      </extensions>
    </trkpt>
    <trkpt lat="45.6177081" lon="10.4932374">
      <ele>223.20001220703125</ele>
      <time>2026-10-06T13:07:51.157+02:00</time>
      <extensions>
        <activity type="ON_FOOT" conf="97" state="moving" tsMs="1791284856872"/>
        <radio op="vodafone IT" rat="LTE" q="24.80" rsrp="-94" sinr="3" rsrq="-9"/>
        <radio op="I TIM" rat="LTE" q="68.40" rsrp="-89" sinr="14" rsrq="-10"/>
      </extensions>
    </trkpt>
    <trkpt lat="45.6176919" lon="10.4931965">
      <ele>223.20001220703125</ele>
      <time>2026-10-06T13:08:22.33+02:00</time>
      <extensions>
        <activity type="ON_FOOT" conf="95" state="moving" tsMs="1791284882804"/>
        <radio op="vodafone IT" rat="LTE" q="27.00" rsrp="-95" sinr="4" rsrq="-10"/>
        <radio op="I TIM" rat="LTE" q="68.00" rsrp="-91" sinr="15" rsrq="-11"/>
      </extensions>
    </trkpt>
    <trkpt lat="45.617708" lon="10.4932429">
      <ele>223.20001220703125</ele>
      <time>2026-10-06T13:08:53.46+02:00</time>
      <extensions>
        <activity type="UNKNOWN" conf="40" state="unknown" tsMs="1791284918972"/>
        <radio op="vodafone IT" rat="LTE" rsrp="-99" rsrq="-11"/>
        <radio op="I TIM" rat="LTE" q="70.00" rsrp="-90" sinr="15" rsrq="-8"/>
      </extensions>
    </trkpt>
    <trkpt lat="45.6177114" lon="10.4932273">
      <ele>223.20001220703125</ele>
      <time>2026-10-06T13:09:24.831+02:00</time>
      <extensions>
        <activity type="ON_FOOT" conf="98" state="moving" tsMs="1791284954453"/>
        <radio op="vodafone IT" rat="LTE" rsrp="-97" rsrq="-15"/>
        <radio op="I TIM" rat="LTE" q="80.00" rsrp="-93" sinr="20" rsrq="-7"/>
      </extensions>
    </trkpt>
    <trkpt lat="45.617706" lon="10.4932136">
      <ele>223.20001220703125</ele>
      <time>2026-10-06T13:09:56.214+02:00</time>
      <extensions>
        <activity type="ON_FOOT" conf="98" state="moving" tsMs="1791284986443"/>
        <radio op="vodafone IT" rat="LTE" q="22.40" rsrp="-97" sinr="3" rsrq="-10"/>
        <radio op="I TIM" rat="LTE" q="72.50" rsrp="-96" sinr="21" rsrq="-8"/>
      </extensions>
    </trkpt>
    <trkpt lat="45.6177527" lon="10.493124">
      <ele>223.20001220703125</ele>
      <time>2026-10-06T13:10:27.564+02:00</time>
      <extensions>
        <activity type="ON_FOOT" conf="97" state="moving" tsMs="1791285021730"/>
        <radio op="vodafone IT" rat="LTE" q="16.20" rsrp="-98" sinr="1" rsrq="-11"/>
        <radio op="I TIM" rat="LTE" q="67.50" rsrp="-98" sinr="24" rsrq="-8"/>
      </extensions>
    </trkpt>
    <trkpt lat="45.6177039" lon="10.4932075">
      <ele>223.20001220703125</ele>
      <time>2026-10-06T13:10:59.474+02:00</time>
      <extensions>
        <activity type="STILL" conf="99" state="still" tsMs="1791285043758"/>
        <radio op="vodafone IT" rat="LTE" rsrp="-95" rsrq="-11"/>
        <radio op="I TIM" rat="LTE" q="70.00" rsrp="-97" sinr="25" rsrq="-8"/>
      </extensions>
    </trkpt>
    <trkpt lat="45.6176309" lon="10.4931339">
      <ele>223.20001220703125</ele>
      <time>2026-10-06T13:11:30.596+02:00</time>
      <extensions>
        <activity type="STILL" conf="100" state="still" tsMs="1791285079108"/>
        <radio op="vodafone IT" rat="LTE" rsrp="-104" rsrq="-11"/>
        <radio op="I TIM" rat="LTE" q="70.00" rsrp="-97" sinr="24" rsrq="-8"/>
      </extensions>
    </trkpt>
    <trkpt lat="45.6176309" lon="10.4931339">
      <ele>223.20001220703125</ele>
      <time>2026-10-06T13:12:01.952+02:00</time>
      <extensions>
        <activity type="STILL" conf="100" state="still" tsMs="1791285116953"/>
        <radio op="vodafone IT" rat="LTE" rsrp="-103" rsrq="-12"/>
        <radio op="I TIM" rat="LTE" q="66.70" rsrp="-96" sinr="18" rsrq="-7"/>
      </extensions>
    </trkpt>
    <trkpt lat="45.6176313" lon="10.4931328">
      <ele>223.20001220703125</ele>
      <time>2026-10-06T13:12:33.325+02:00</time>
      <extensions>
        <activity type="STILL" conf="100" state="still" tsMs="1791285144083"/>
        <radio op="vodafone IT" rat="LTE" q="11.50" rsrp="-102" sinr="0" rsrq="-13"/>
        <radio op="I TIM" rat="LTE" q="72.50" rsrp="-96" sinr="22" rsrq="-9"/>
      </extensions>
    </trkpt>
    <trkpt lat="45.6176313" lon="10.4931328">
      <ele>223.20001220703125</ele>
      <time>2026-10-06T13:13:04.698+02:00</time>
      <extensions>
        <activity type="STILL" conf="100" state="still" tsMs="1791285172386"/>
        <radio op="vodafone IT" rat="LTE" q="11.50" rsrp="-102" sinr="0" rsrq="-9"/>
        <radio op="I TIM" rat="LTE" q="70.00" rsrp="-97" sinr="23" rsrq="-6"/>
      </extensions>
    </trkpt>
    <trkpt lat="45.6176295" lon="10.4931374">
      <ele>223.20001220703125</ele>
      <time>2026-10-06T13:13:36.067+02:00</time>
      <extensions>
        <activity type="STILL" conf="100" state="still" tsMs="1791285207584"/>
        <radio op="vodafone IT" rat="LTE" rsrp="-103" rsrq="-14"/>
        <radio op="I TIM" rat="LTE" q="65.00" rsrp="-99" sinr="24" rsrq="-6"/>
      </extensions>
    </trkpt>
    <trkpt lat="45.617632" lon="10.4931353">
      <ele>223.20001220703125</ele>
      <time>2026-10-06T13:14:07.441+02:00</time>
      <extensions>
        <activity type="STILL" conf="100" state="still" tsMs="1791285236056"/>
        <radio op="vodafone IT" rat="LTE" rsrp="-102" rsrq="-12"/>
        <radio op="I TIM" rat="LTE" q="51.30" rsrp="-98" sinr="14" rsrq="-7"/>
      </extensions>
    </trkpt>
    <trkpt lat="45.6176307" lon="10.4931388">
      <ele>223.20001220703125</ele>
      <time>2026-10-06T13:14:38.86+02:00</time>
      <extensions>
        <activity type="STILL" conf="100" state="still" tsMs="1791285273845"/>
        <radio op="vodafone IT" rat="LTE" q="13.80" rsrp="-102" sinr="1" rsrq="-12"/>
        <radio op="I TIM" rat="LTE" q="70.00" rsrp="-97" sinr="24" rsrq="-8"/>
      </extensions>
    </trkpt>
    <trkpt lat="45.6176903" lon="10.4931678">
      <ele>225.3611124292869</ele>
      <time>2026-10-06T13:18:52.271+02:00</time>
      <extensions>
        <activity type="ON_FOOT" conf="98" state="moving" tsMs="1791285544318"/>
        <radio op="vodafone IT" rat="LTE" q="28.60" rsrp="-99" sinr="6" rsrq="-11"/>
        <radio op="I TIM" rat="LTE" q="62.40" rsrp="-99" sinr="19" rsrq="-5"/>
      </extensions>
    </trkpt>
    <trkpt lat="45.6176147" lon="10.4931354">
      <ele>225.50384076187026</ele>
      <time>2026-10-06T13:19:23.443+02:00</time>
      <extensions>
        <activity type="ON_FOOT" conf="97" state="moving" tsMs="1791285553805"/>
        <radio op="vodafone IT" rat="LTE" q="43.40" rsrp="-94" sinr="9" rsrq="-11"/>
        <radio op="I TIM" rat="LTE" q="70.00" rsrp="-97" sinr="26" rsrq="-5"/>
      </extensions>
    </trkpt>
    <trkpt lat="45.617715" lon="10.4932131">
      <ele>225.34851886660687</ele>
      <time>2026-10-06T13:19:54.595+02:00</time>
      <extensions>
        <activity type="UNKNOWN" conf="40" state="unknown" tsMs="1791285585563"/>
        <radio op="vodafone IT" rat="LTE" q="31.90" rsrp="-96" sinr="6" rsrq="-9"/>
        <radio op="I TIM" rat="LTE" q="67.50" rsrp="-98" sinr="26" rsrq="-5"/>
      </extensions>
    </trkpt>
    <trkpt lat="45.6176584" lon="10.4931764">
      <ele>225.63607647805856</ele>
      <time>2026-10-06T13:20:25.826+02:00</time>
      <extensions>
        <activity type="UNKNOWN" conf="40" state="unknown" tsMs="1791285610692"/>
        <radio op="vodafone IT" rat="LTE" q="24.80" rsrp="-94" sinr="3" rsrq="-12"/>
        <radio op="I TIM" rat="LTE" q="70.00" rsrp="-97" sinr="26" rsrq="-5"/>
      </extensions>
    </trkpt>
    <trkpt lat="45.617716" lon="10.4932206">
      <ele>225.3396231082108</ele>
      <time>2026-10-06T13:20:56.892+02:00</time>
      <extensions>
        <activity type="UNKNOWN" conf="40" state="unknown" tsMs="1791285649458"/>
        <radio op="vodafone IT" rat="LTE" q="23.40" rsrp="-99" sinr="4" rsrq="-11"/>
        <radio op="I TIM" rat="LTE" q="70.00" rsrp="-97" sinr="20" rsrq="-7"/>
      </extensions>
    </trkpt>
    <trkpt lat="45.6176573" lon="10.493172">
      <ele>226.00658631843808</ele>
      <time>2026-10-06T13:21:28.154+02:00</time>
      <extensions>
        <activity type="ON_FOOT" conf="86" state="moving" tsMs="1791285673041"/>
        <radio op="vodafone IT" rat="LTE" q="28.00" rsrp="-97" sinr="5" rsrq="-10"/>
        <radio op="I TIM" rat="LTE" q="65.00" rsrp="-99" sinr="24" rsrq="-7"/>
      </extensions>
    </trkpt>
    <trkpt lat="45.617707" lon="10.4932274">
      <ele>226.0952774432264</ele>
      <time>2026-10-06T13:21:59.355+02:00</time>
      <extensions>
        <activity type="STILL" conf="40" state="still" tsMs="1791285711924"/>
        <radio op="vodafone IT" rat="LTE" q="49.40" rsrp="-87" sinr="8" rsrq="-12"/>
        <radio op="I TIM" rat="LTE" q="70.00" rsrp="-97" sinr="22" rsrq="-6"/>
      </extensions>
    </trkpt>
    <trkpt lat="45.6176221" lon="10.4931461">
      <ele>225.89376773003494</ele>
      <time>2026-10-06T13:22:30.544+02:00</time>
      <extensions>
        <activity type="UNKNOWN" conf="40" state="unknown" tsMs="1791285735472"/>
        <radio op="vodafone IT" rat="LTE" q="33.00" rsrp="-95" sinr="6" rsrq="-9"/>
        <radio op="I TIM" rat="LTE" q="66.70" rsrp="-96" sinr="18" rsrq="-7"/>
      </extensions>
    </trkpt>
    <trkpt lat="45.6176611" lon="10.4932114">
      <ele>225.86393592603224</ele>
      <time>2026-10-06T13:23:01.722+02:00</time>
      <extensions>
        <activity type="UNKNOWN" conf="40" state="unknown" tsMs="1791285774328"/>
        <radio op="vodafone IT" rat="LTE" rsrp="-96" rsrq="-13"/>
        <radio op="I TIM" rat="LTE" q="70.00" rsrp="-97" sinr="24" rsrq="-8"/>
      </extensions>
    </trkpt>
    <trkpt lat="45.6176235" lon="10.493142">
      <ele>226.0843486907309</ele>
      <time>2026-10-06T13:23:32.896+02:00</time>
      <extensions>
        <activity type="UNKNOWN" conf="40" state="unknown" tsMs="1791285797880"/>
        <radio op="vodafone IT" rat="LTE" q="22.40" rsrp="-93" sinr="2" rsrq="-10"/>
        <radio op="I TIM" rat="LTE" q="65.00" rsrp="-99" sinr="21" rsrq="-5"/>
      </extensions>
    </trkpt>
    <trkpt lat="45.6176206" lon="10.4931421">
      <ele>226.25018678064856</ele>
      <time>2026-10-06T13:24:04.107+02:00</time>
      <extensions>
        <activity type="UNKNOWN" conf="40" state="unknown" tsMs="1791285836633"/>
        <radio op="vodafone IT" rat="LTE" q="17.40" rsrp="-96" sinr="1" rsrq="-12"/>
        <radio op="I TIM" rat="LTE" q="71.30" rsrp="-94" sinr="18" rsrq="-5"/>
      </extensions>
    </trkpt>
    <trkpt lat="45.6177039" lon="10.4932325">
      <ele>226.17883266224595</ele>
      <time>2026-10-06T13:24:35.276+02:00</time>
      <extensions>
        <activity type="UNKNOWN" conf="40" state="unknown" tsMs="1791285860163"/>
        <radio op="vodafone IT" rat="LTE" q="51.20" rsrp="-93" sinr="11" rsrq="-10"/>
        <radio op="I TIM" rat="LTE" q="70.00" rsrp="-97" sinr="21" rsrq="-9"/>
      </extensions>
    </trkpt>
    <trkpt lat="45.6176868" lon="10.4932013">
      <ele>226.10955825286874</ele>
      <time>2026-10-06T13:25:06.336+02:00</time>
      <extensions>
        <activity type="UNKNOWN" conf="40" state="unknown" tsMs="1791285899053"/>
        <radio op="vodafone IT" rat="LTE" q="25.20" rsrp="-97" sinr="4" rsrq="-10"/>
        <radio op="I TIM" rat="LTE" q="75.00" rsrp="-95" sinr="25" rsrq="-8"/>
      </extensions>
    </trkpt>
    <trkpt lat="45.6177083" lon="10.4932352">
      <ele>226.13321580704468</ele>
      <time>2026-10-06T13:25:37.448+02:00</time>
      <extensions>
        <activity type="ON_BICYCLE" conf="69" state="moving" tsMs="1791285918964"/>
        <radio op="vodafone IT" rat="LTE" q="24.80" rsrp="-94" sinr="3" rsrq="-12"/>
        <radio op="I TIM" rat="LTE" q="70.40" rsrp="-93" sinr="17" rsrq="-7"/>
      </extensions>
    </trkpt>
    <trkpt lat="45.6174404" lon="10.4943742">
      <ele>223.20001220703125</ele>
      <time>2026-10-06T13:25:51.586+02:00</time>
      <extensions>
        <activity type="UNKNOWN" conf="40" state="unknown" tsMs="1791285944864"/>
        <radio op="vodafone IT" rat="LTE" q="18.90" rsrp="-98" sinr="2" rsrq="-12"/>
        <radio op="I TIM" rat="LTE" q="90.00" rsrp="-89" sinr="23" rsrq="-8"/>
      </extensions>
    </trkpt>
    <trkpt lat="45.6176323" lon="10.4931392">
      <ele>224.8737571775037</ele>
      <time>2026-10-06T13:26:28.762+02:00</time>
      <extensions>
        <activity type="STILL" conf="100" state="still" tsMs="1791285980088"/>
        <radio op="vodafone IT" rat="LTE" q="13.20" rsrp="-103" sinr="1" rsrq="-12"/>
        <radio op="I TIM" rat="LTE" q="73.60" rsrp="-93" sinr="18" rsrq="-10"/>
      </extensions>
    </trkpt>
    <trkpt lat="45.6176328" lon="10.493138">
      <ele>225.0017937157145</ele>
      <time>2026-10-06T13:27:00.135+02:00</time>
      <extensions>
        <activity type="STILL" conf="100" state="still" tsMs="1791286008562"/>
        <radio op="vodafone IT" rat="LTE" q="15.40" rsrp="-103" sinr="2" rsrq="-12"/>
        <radio op="I TIM" rat="LTE" q="76.80" rsrp="-93" sinr="19" rsrq="-9"/>
      </extensions>
    </trkpt>
    <trkpt lat="45.6176339" lon="10.4931396">
      <ele>225.01648655513765</ele>
      <time>2026-10-06T13:27:31.473+02:00</time>
      <extensions>
        <activity type="STILL" conf="100" state="still" tsMs="1791286046369"/>
        <radio op="vodafone IT" rat="LTE" q="15.40" rsrp="-103" sinr="2" rsrq="-13"/>
        <radio op="I TIM" rat="LTE" q="62.00" rsrp="-94" sinr="15" rsrq="-10"/>
      </extensions>
    </trkpt>
    <trkpt lat="45.6176335" lon="10.4931408">
      <ele>224.97240811217426</ele>
      <time>2026-10-06T13:28:02.87+02:00</time>
      <extensions>
        <activity type="STILL" conf="100" state="still" tsMs="1791286073553"/>
        <radio op="vodafone IT" rat="LTE" q="17.60" rsrp="-103" sinr="3" rsrq="-14"/>
        <radio op="I TIM" rat="LTE" q="66.00" rsrp="-95" sinr="17" rsrq="-12"/>
      </extensions>
    </trkpt>
    <trkpt lat="45.6176339" lon="10.4931396">
      <ele>223.20001220703125</ele>
      <time>2026-10-06T13:28:34.188+02:00</time>
      <extensions>
        <activity type="STILL" conf="100" state="still" tsMs="1791286101712"/>
        <radio op="vodafone IT" rat="LTE" q="15.40" rsrp="-103" sinr="2" rsrq="-11"/>
        <radio op="I TIM" rat="LTE" q="75.00" rsrp="-95" sinr="24" rsrq="-11"/>
      </extensions>
    </trkpt>
    <trkpt lat="45.6176446" lon="10.4931261">
      <ele>223.20001220703125</ele>
      <time>2026-10-06T13:29:05.561+02:00</time>
      <extensions>
        <activity type="STILL" conf="100" state="still" tsMs="1791286136883"/>
        <radio op="vodafone IT" rat="LTE" q="17.60" rsrp="-103" sinr="3" rsrq="-12"/>
        <radio op="I TIM" rat="LTE" q="77.50" rsrp="-94" sinr="22" rsrq="-9"/>
      </extensions>
    </trkpt>
    <trkpt lat="45.6176317" lon="10.4931361">
      <ele>223.20001220703125</ele>
      <time>2026-10-06T13:29:36.928+02:00</time>
      <extensions>
        <activity type="STILL" conf="100" state="still" tsMs="1791286165180"/>
        <radio op="vodafone IT" rat="LTE" q="16.80" rsrp="-104" sinr="3" rsrq="-14"/>
        <radio op="I TIM" rat="LTE" q="77.50" rsrp="-94" sinr="23" rsrq="-8"/>
      </extensions>
    </trkpt>
    <trkpt lat="45.6177036" lon="10.493221">
      <ele>224.85787250571346</ele>
      <time>2026-10-06T13:47:08.872+02:00</time>
      <extensions>
        <activity type="ON_BICYCLE" conf="82" state="moving" tsMs="1791287232702"/>
        <radio op="vodafone IT" rat="LTE" q="67.20" rsrp="-97" sinr="19" rsrq="-13"/>
        <radio op="I TIM" rat="LTE" q="64.80" rsrp="-98" sinr="19" rsrq="-6"/>
      </extensions>
    </trkpt>
    <trkpt lat="45.6176528" lon="10.4939769">
      <ele>223.20001220703125</ele>
      <time>2026-10-06T13:47:40.014+02:00</time>
      <extensions>
        <activity type="ON_FOOT" conf="88" state="moving" tsMs="1791287245763"/>
        <radio op="vodafone IT" rat="LTE" q="57.60" rsrp="-101" sinr="19" rsrq="-6"/>
        <radio op="I TIM" rat="LTE" q="30.60" rsrp="-107" sinr="12" rsrq="-9"/>
      </extensions>
    </trkpt>
    <trkpt lat="45.6176571" lon="10.4938906">
      <ele>223.20001220703125</ele>
      <time>2026-10-06T13:47:50.012+02:00</time>
      <extensions>
        <activity type="ON_FOOT" conf="95" state="moving" tsMs="1791287256193"/>
        <radio op="vodafone IT" rat="LTE" q="67.50" rsrp="-98" sinr="21" rsrq="-12"/>
        <radio op="I TIM" rat="LTE" q="39.60" rsrp="-107" sinr="17" rsrq="-7"/>
      </extensions>
    </trkpt>
    <trkpt lat="45.6176546" lon="10.4936956">
      <ele>223.20001220703125</ele>
      <time>2026-10-06T13:48:00.084+02:00</time>
      <extensions>
        <activity type="ON_FOOT" conf="92" state="moving" tsMs="1791287266985"/>
        <radio op="vodafone IT" rat="LTE" q="75.00" rsrp="-95" sinr="26" rsrq="-8"/>
        <radio op="I TIM" rat="LTE" q="26.60" rsrp="-106" sinr="9" rsrq="-10"/>
      </extensions>
    </trkpt>
    <trkpt lat="45.6176491" lon="10.4935002">
      <ele>223.20001220703125</ele>
      <time>2026-10-06T13:48:10.211+02:00</time>
      <extensions>
        <activity type="ON_FOOT" conf="97" state="moving" tsMs="1791287277663"/>
        <radio op="vodafone IT" rat="LTE" q="60.00" rsrp="-101" sinr="21" rsrq="-7"/>
        <radio op="I TIM" rat="LTE" q="52.80" rsrp="-101" sinr="17" rsrq="-8"/>
      </extensions>
    </trkpt>
    <trkpt lat="45.6176265" lon="10.4933873">
      <ele>223.20001220703125</ele>
      <time>2026-10-06T13:48:20.036+02:00</time>
      <extensions>
        <activity type="ON_FOOT" conf="94" state="moving" tsMs="1791287288315"/>
        <radio op="vodafone IT" rat="LTE" q="45.00" rsrp="-107" sinr="21" rsrq="-8"/>
        <radio op="I TIM" rat="LTE" q="65.00" rsrp="-99" sinr="23" rsrq="-9"/>
      </extensions>
    </trkpt>
    <trkpt lat="45.6176217" lon="10.4933881">
      <ele>223.90000915527344</ele>
      <time>2026-10-06T13:48:30.124+02:00</time>
      <extensions>
        <activity type="UNKNOWN" conf="40" state="unknown" tsMs="1791287299968"/>
        <radio op="vodafone IT" rat="LTE" q="65.00" rsrp="-99" sinr="20" rsrq="-9"/>
        <radio op="I TIM" rat="LTE" q="62.50" rsrp="-100" sinr="20" rsrq="-7"/>
      </extensions>
    </trkpt>
    <trkpt lat="45.6176101" lon="10.4933891">
      <ele>224.00001525878906</ele>
      <time>2026-10-06T13:48:40.097+02:00</time>
      <extensions>
        <activity type="UNKNOWN" conf="40" state="unknown" tsMs="1791287310611"/>
        <radio op="vodafone IT" rat="LTE" q="62.50" rsrp="-100" sinr="23" rsrq="-7"/>
        <radio op="I TIM" rat="LTE" q="65.00" rsrp="-99" sinr="23" rsrq="-6"/>
      </extensions>
    </trkpt>
    <trkpt lat="45.617605" lon="10.4933913">
      <ele>224.00001525878906</ele>
      <time>2026-10-06T13:48:50.87+02:00</time>
      <extensions>
        <activity type="UNKNOWN" conf="40" state="unknown" tsMs="1791287321264"/>
        <radio op="vodafone IT" rat="LTE" q="50.00" rsrp="-105" sinr="21" rsrq="-9"/>
        <radio op="I TIM" rat="LTE" q="64.80" rsrp="-98" sinr="19" rsrq="-8"/>
      </extensions>
    </trkpt>
    <trkpt lat="45.6175748" lon="10.4934035">
      <ele>223.20001220703125</ele>
      <time>2026-10-06T13:49:00.053+02:00</time>
      <extensions>
        <activity type="UNKNOWN" conf="40" state="unknown" tsMs="1791287331916"/>
        <radio op="vodafone IT" rat="LTE" q="45.00" rsrp="-107" sinr="21" rsrq="-12"/>
        <radio op="I TIM" rat="LTE" q="62.50" rsrp="-100" sinr="22" rsrq="-8"/>
      </extensions>
    </trkpt>
    <trkpt lat="45.61755" lon="10.4934281">
      <ele>223.20001220703125</ele>
      <time>2026-10-06T13:49:11.012+02:00</time>
      <extensions>
        <activity type="IN_VEHICLE" conf="80" state="moving" tsMs="1791287344506"/>
        <radio op="vodafone IT" rat="LTE" q="35.70" rsrp="-108" sinr="16" rsrq="-7"/>
        <radio op="I TIM" rat="LTE" q="48.60" rsrp="-98" sinr="13" rsrq="-7"/>
      </extensions>
    </trkpt>
    <trkpt lat="45.617566" lon="10.4934233">
      <ele>223.20001220703125</ele>
      <time>2026-10-06T13:49:19.012+02:00</time>
      <extensions>
        <activity type="IN_VEHICLE" conf="80" state="moving" tsMs="1791287344506"/>
        <radio op="vodafone IT" rat="LTE" q="66.70" rsrp="-96" sinr="18" rsrq="-11"/>
        <radio op="I TIM" rat="LTE" q="39.60" rsrp="-103" sinr="13" rsrq="-8"/>
      </extensions>
    </trkpt>
    <trkpt lat="45.6177116" lon="10.4932203">
      <ele>223.20001220703125</ele>
      <time>2026-10-06T13:49:53.308+02:00</time>
      <extensions>
        <activity type="UNKNOWN" conf="40" state="unknown" tsMs="1791287382971"/>
        <radio op="vodafone IT" rat="LTE" q="44.00" rsrp="-105" sinr="17" rsrq="-11"/>
        <radio op="I TIM" rat="LTE" q="72.60" rsrp="-92" sinr="17" rsrq="-7"/>
      </extensions>
    </trkpt>
    <trkpt lat="45.6177043" lon="10.4932218">
      <ele>223.20001220703125</ele>
      <time>2026-10-06T13:50:21.543+02:00</time>
      <extensions>
        <activity type="STILL" conf="61" state="still" tsMs="1791287408848"/>
        <radio op="vodafone IT" rat="LTE" q="52.90" rsrp="-102" sinr="18" rsrq="-8"/>
        <radio op="I TIM" rat="LTE" q="62.00" rsrp="-94" sinr="15" rsrq="-9"/>
      </extensions>
    </trkpt>
    <trkpt lat="45.6177061" lon="10.4932109">
      <ele>223.20001220703125</ele>
      <time>2026-10-06T13:50:54.778+02:00</time>
      <extensions>
        <activity type="STILL" conf="100" state="still" tsMs="1791287440817"/>
        <radio op="vodafone IT" rat="LTE" q="46.20" rsrp="-104" sinr="17" rsrq="-9"/>
        <radio op="I TIM" rat="LTE" rsrp="-93" rsrq="-9"/>
      </extensions>
    </trkpt>
    <trkpt lat="45.6177034" lon="10.4932109">
      <ele>223.20001220703125</ele>
      <time>2026-10-06T13:51:25.928+02:00</time>
      <extensions>
        <activity type="IN_VEHICLE" conf="96" state="moving" tsMs="1791287472699"/>
        <radio op="vodafone IT" rat="LTE" q="77.50" rsrp="-94" sinr="20" rsrq="-11"/>
        <radio op="I TIM" rat="LTE" q="75.00" rsrp="-95" sinr="20" rsrq="-12"/>
      </extensions>
    </trkpt>
    <trkpt lat="45.6177246" lon="10.4932454">
      <ele>224.00001525878906</ele>
      <time>2026-10-06T13:51:57.444+02:00</time>
      <extensions>
        <activity type="IN_VEHICLE" conf="96" state="moving" tsMs="1791287508147"/>
        <radio op="vodafone IT" rat="LTE" q="48.30" rsrp="-102" sinr="16" rsrq="-6"/>
        <radio op="I TIM" rat="LTE" q="77.50" rsrp="-94" sinr="21" rsrq="-11"/>
      </extensions>
    </trkpt>
    <trkpt lat="45.6149395" lon="10.4958543">
      <ele>229.30779897537707</ele>
      <time>2026-10-06T13:53:00.667+02:00</time>
      <extensions>
        <activity type="IN_VEHICLE" conf="96" state="moving" tsMs="1791287591759"/>
        <radio op="vodafone IT" rat="LTE" q="92.50" rsrp="-88" sinr="23" rsrq="-8"/>
        <radio op="I TIM" rat="LTE" rsrp="-106" rsrq="-14"/>
      </extensions>
    </trkpt>
    <trkpt lat="45.6122515" lon="10.4959011">
      <ele>224.00001525878906</ele>
      <time>2026-10-06T13:53:31.708+02:00</time>
      <extensions>
        <activity type="IN_VEHICLE" conf="96" state="moving" tsMs="1791287601295"/>
        <radio op="vodafone IT" rat="LTE" q="57.20" rsrp="-99" sinr="17" rsrq="-12"/>
        <radio op="I TIM" rat="LTE" q="13.60" rsrp="-108" sinr="3" rsrq="-13"/>
      </extensions>
    </trkpt>
    <trkpt lat="45.6112879" lon="10.4953475">
      <ele>217.3000030517578</ele>
      <time>2026-10-06T13:54:03.116+02:00</time>
      <extensions>
        <activity type="UNKNOWN" conf="40" state="unknown" tsMs="1791287629844"/>
        <radio op="vodafone IT" rat="LTE" q="65.00" rsrp="-99" sinr="20" rsrq="-11"/>
        <radio op="I TIM" rat="LTE" rsrp="-111" rsrq="-14"/>
      </extensions>
    </trkpt>
    <trkpt lat="45.6113648" lon="10.4945601">
      <ele>220.20001220703125</ele>
      <time>2026-10-06T13:54:34.603+02:00</time>
      <extensions>
        <activity type="IN_VEHICLE" conf="90" state="moving" tsMs="1791287665362"/>
        <radio op="vodafone IT" rat="LTE" q="48.00" rsrp="-101" sinr="15" rsrq="-8"/>
        <radio op="I TIM" rat="LTE" rsrp="-116" rsrq="-17"/>
      </extensions>
    </trkpt>
    <trkpt lat="45.6120452" lon="10.490933">
      <ele>232.10000610351562</ele>
      <time>2026-10-06T13:55:06.159+02:00</time>
      <extensions>
        <activity type="IN_VEHICLE" conf="96" state="moving" tsMs="1791287697398"/>
        <radio op="vodafone IT" rat="LTE" q="17.50" rsrp="-100" sinr="2" rsrq="-11"/>
        <radio op="I TIM" rat="LTE" q="13.60" rsrp="-108" sinr="3" rsrq="-12"/>
      </extensions>
    </trkpt>
    <trkpt lat="45.6120669" lon="10.4905346">
      <ele>232.10000610351562</ele>
      <time>2026-10-06T13:55:12.012+02:00</time>
      <extensions>
        <activity type="IN_VEHICLE" conf="93" state="moving" tsMs="1791287706903"/>
        <radio op="vodafone IT" rat="LTE" q="21.60" rsrp="-101" sinr="4" rsrq="-12"/>
        <radio op="I TIM" rat="LTE" rsrp="-108" rsrq="-13"/>
      </extensions>
    </trkpt>
    <trkpt lat="45.606711" lon="10.4698177">
      <ele>271.7060955077967</ele>
      <time>2026-10-06T13:56:46.491+02:00</time>
      <extensions>
        <activity type="IN_VEHICLE" conf="96" state="moving" tsMs="1791287804636"/>
        <radio op="vodafone IT" rat="LTE" q="100.00" rsrp="-73" sinr="28" rsrq="-7"/>
        <radio op="I TIM" rat="LTE" q="70.00" rsrp="-97" sinr="22" rsrq="-8"/>
      </extensions>
    </trkpt>
    <trkpt lat="45.6071876" lon="10.4711185">
      <ele>277.12907582868553</ele>
      <time>2026-10-06T13:56:57.255+02:00</time>
      <extensions>
        <activity type="IN_VEHICLE" conf="96" state="moving" tsMs="1791287818186"/>
        <radio op="vodafone IT" rat="LTE" q="88.00" rsrp="-73" sinr="17" rsrq="-6"/>
        <radio op="I TIM" rat="LTE" q="95.00" rsrp="-87" sinr="23" rsrq="-8"/>
      </extensions>
    </trkpt>
    <trkpt lat="45.6054234" lon="10.4679297">
      <ele>267.5187189137423</ele>
      <time>2026-10-06T13:57:37.011+02:00</time>
      <extensions>
        <activity type="IN_VEHICLE" conf="96" state="moving" tsMs="1791287856303"/>
        <radio op="vodafone IT" rat="LTE" q="100.00" rsrp="-65" sinr="28" rsrq="-6"/>
        <radio op="I TIM" rat="LTE" q="61.60" rsrp="-97" sinr="17" rsrq="-10"/>
      </extensions>
    </trkpt>
    <trkpt lat="45.6047801" lon="10.4638309">
      <ele>270.6595016334672</ele>
      <time>2026-10-06T13:58:17.116+02:00</time>
      <extensions>
        <activity type="IN_VEHICLE" conf="89" state="moving" tsMs="1791287888228"/>
        <radio op="vodafone IT" rat="LTE" q="100.00" rsrp="-66" sinr="22" rsrq="-6"/>
        <radio op="I TIM" rat="LTE" q="57.00" rsrp="-87" sinr="10" rsrq="-7"/>
      </extensions>
    </trkpt>
    <trkpt lat="45.6048048" lon="10.4630467">
      <ele>270.6595016334672</ele>
      <time>2026-10-06T13:58:24.02+02:00</time>
      <extensions>
        <activity type="UNKNOWN" conf="40" state="unknown" tsMs="1791287900985"/>
        <radio op="vodafone IT" rat="LTE" q="28.00" rsrp="-72" sinr="2" rsrq="-13"/>
        <radio op="I TIM" rat="LTE" q="34.20" rsrp="-87" sinr="4" rsrq="-10"/>
      </extensions>
    </trkpt>
    <trkpt lat="45.6033324" lon="10.4583655">
      <ele>263.4000244140625</ele>
      <time>2026-10-06T13:58:58.7+02:00</time>
      <extensions>
        <activity type="IN_VEHICLE" conf="96" state="moving" tsMs="1791287926892"/>
        <radio op="vodafone IT" rat="LTE" q="100.00" rsrp="-66" sinr="27" rsrq="-10"/>
        <radio op="I TIM" rat="LTE" q="100.00" rsrp="-73" sinr="27" rsrq="-9"/>
      </extensions>
    </trkpt>
    <trkpt lat="45.602306" lon="10.4552043">
      <ele>264.15855884601945</ele>
      <time>2026-10-06T13:59:30.235+02:00</time>
      <extensions>
        <activity type="IN_VEHICLE" conf="96" state="moving" tsMs="1791287965000"/>
        <radio op="vodafone IT" rat="LTE" rsrp="-94" rsrq="-14"/>
        <radio op="I TIM" rat="LTE" rsrp="-100" rsrq="-13"/>
      </extensions>
    </trkpt>
    <trkpt lat="45.6020758" lon="10.4546576">
      <ele>264.295534872173</ele>
      <time>2026-10-06T13:59:37.012+02:00</time>
      <extensions>
        <activity type="IN_VEHICLE" conf="96" state="moving" tsMs="1791287974125"/>
        <radio op="vodafone IT" rat="LTE" q="38.50" rsrp="-90" sinr="6" rsrq="-12"/>
        <radio op="I TIM" rat="LTE" rsrp="-98" rsrq="-15"/>
      </extensions>
    </trkpt>
    <trkpt lat="45.6029283" lon="10.4533211">
      <ele>260.70001220703125</ele>
      <time>2026-10-06T14:00:11.731+02:00</time>
      <extensions>
        <activity type="IN_VEHICLE" conf="96" state="moving" tsMs="1791288002733"/>
        <radio op="vodafone IT" rat="LTE" q="74.10" rsrp="-86" sinr="14" rsrq="-8"/>
        <radio op="I TIM" rat="LTE" q="65.10" rsrp="-94" sinr="16" rsrq="-11"/>
      </extensions>
    </trkpt>
    <trkpt lat="45.6026071" lon="10.4541482">
      <ele>261.0</ele>
      <time>2026-10-06T14:00:43.193+02:00</time>
      <extensions>
        <activity type="IN_VEHICLE" conf="96" state="moving" tsMs="1791288031443"/>
        <radio op="vodafone IT" rat="LTE" q="36.00" rsrp="-95" sinr="7" rsrq="-10"/>
        <radio op="I TIM" rat="LTE" q="10.80" rsrp="-107" sinr="1" rsrq="-12"/>
      </extensions>
    </trkpt>
    <trkpt lat="45.6025912" lon="10.4538453">
      <ele>261.0</ele>
      <time>2026-10-06T14:01:13.442+02:00</time>
      <extensions>
        <activity type="IN_VEHICLE" conf="96" state="moving" tsMs="1791288069436"/>
        <radio op="vodafone IT" rat="LTE" q="20.80" rsrp="-99" sinr="3" rsrq="-10"/>
        <radio op="I TIM" rat="LTE" q="22.10" rsrp="-108" sinr="8" rsrq="-12"/>
      </extensions>
    </trkpt>
    <trkpt lat="45.6025837" lon="10.4536707">
      <ele>261.0</ele>
      <time>2026-10-06T14:01:46.61+02:00</time>
      <extensions>
        <activity type="ON_FOOT" conf="96" state="moving" tsMs="1791288098440"/>
        <radio op="vodafone IT" rat="LTE" q="23.10" rsrp="-104" sinr="6" rsrq="-10"/>
        <radio op="I TIM" rat="LTE" rsrp="-119" rsrq="-15"/>
      </extensions>
    </trkpt>
    <trkpt lat="45.6025726" lon="10.4536899">
      <ele>261.0</ele>
      <time>2026-10-06T14:02:18.591+02:00</time>
      <extensions>
        <activity type="STILL" conf="100" state="still" tsMs="1791288133820"/>
        <radio op="vodafone IT" rat="LTE" q="9.50" rsrp="-106" sinr="0" rsrq="-11"/>
        <radio op="I TIM" rat="LTE" q="32.40" rsrp="-107" sinr="13" rsrq="-10"/>
      </extensions>
    </trkpt>
    <trkpt lat="45.6025786" lon="10.4536961">
      <ele>261.0</ele>
      <time>2026-10-06T14:02:50.119+02:00</time>
      <extensions>
        <activity type="STILL" conf="100" state="still" tsMs="1791288161483"/>
        <radio op="vodafone IT" rat="LTE" q="10.20" rsrp="-108" sinr="1" rsrq="-11"/>
        <radio op="I TIM" rat="LTE" q="34.20" rsrp="-106" sinr="13" rsrq="-12"/>
      </extensions>
    </trkpt>
    <trkpt lat="45.6025749" lon="10.4536958">
      <ele>261.0</ele>
      <time>2026-10-06T14:03:21.685+02:00</time>
      <extensions>
        <activity type="STILL" conf="100" state="still" tsMs="1791288189935"/>
        <radio op="vodafone IT" rat="LTE" q="10.80" rsrp="-107" sinr="1" rsrq="-12"/>
        <radio op="I TIM" rat="LTE" q="36.10" rsrp="-106" sinr="14" rsrq="-12"/>
      </extensions>
    </trkpt>
    <trkpt lat="45.6026018" lon="10.4537444">
      <ele>261.0</ele>
      <time>2026-10-06T14:03:53.202+02:00</time>
      <extensions>
        <activity type="STILL" conf="100" state="still" tsMs="1791288225468"/>
        <radio op="vodafone IT" rat="LTE" rsrp="-107" rsrq="-11"/>
        <radio op="I TIM" rat="LTE" q="34.20" rsrp="-106" sinr="13" rsrq="-11"/>
      </extensions>
    </trkpt>
    <trkpt lat="45.6025722" lon="10.4536914">
      <ele>261.0</ele>
      <time>2026-10-06T14:04:24.712+02:00</time>
      <extensions>
        <activity type="STILL" conf="100" state="still" tsMs="1791288254093"/>
        <radio op="vodafone IT" rat="LTE" q="11.40" rsrp="-106" sinr="1" rsrq="-10"/>
        <radio op="I TIM" rat="LTE" q="34.20" rsrp="-107" sinr="14" rsrq="-12"/>
      </extensions>
    </trkpt>
    <trkpt lat="45.6025733" lon="10.4537289">
      <ele>261.0</ele>
      <time>2026-10-06T14:04:56.287+02:00</time>
      <extensions>
        <activity type="STILL" conf="100" state="still" tsMs="1791288292132"/>
        <radio op="vodafone IT" rat="LTE" rsrp="-108" rsrq="-12"/>
        <radio op="I TIM" rat="LTE" q="38.00" rsrp="-106" sinr="15" rsrq="-11"/>
      </extensions>
    </trkpt>
    <trkpt lat="45.6025815" lon="10.4538038">
      <ele>261.0</ele>
      <time>2026-10-06T14:53:25.024+02:00</time>
      <extensions>
        <activity type="UNKNOWN" conf="40" state="unknown" tsMs="1791291203569"/>
        <radio op="vodafone IT" rat="LTE" q="10.40" rsrp="-117" sinr="8" rsrq="-12"/>
        <radio op="I TIM" rat="LTE" q="16.80" rsrp="-113" sinr="9" rsrq="-13"/>
      </extensions>
    </trkpt>
    <trkpt lat="45.6029315" lon="10.4534181">
      <ele>260.70001220703125</ele>
      <time>2026-10-06T14:54:03.023+02:00</time>
      <extensions>
        <activity type="UNKNOWN" conf="40" state="unknown" tsMs="1791291229520"/>
        <radio op="vodafone IT" rat="LTE" q="16.10" rsrp="-102" sinr="2" rsrq="-13"/>
        <radio op="I TIM" rat="LTE" q="32.20" rsrp="-102" sinr="9" rsrq="-14"/>
      </extensions>
    </trkpt>
    <trkpt lat="45.6034285" lon="10.457891">
      <ele>265.0646405661595</ele>
      <time>2026-10-06T14:55:15.789+02:00</time>
      <extensions>
        <activity type="UNKNOWN" conf="40" state="unknown" tsMs="1791291314821"/>
        <radio op="vodafone IT" rat="LTE" q="100.00" rsrp="-83" sinr="25" rsrq="-11"/>
        <radio op="I TIM" rat="LTE" q="100.00" rsrp="-71" sinr="29" rsrq="-12"/>
      </extensions>
    </trkpt>
    <trkpt lat="45.6032447" lon="10.4583808">
      <ele>265.0646405661595</ele>
      <time>2026-10-06T14:55:19.024+02:00</time>
      <extensions>
        <activity type="UNKNOWN" conf="40" state="unknown" tsMs="1791291319685"/>
        <radio op="vodafone IT" rat="LTE" q="100.00" rsrp="-84" sinr="28" rsrq="-6"/>
        <radio op="I TIM" rat="LTE" q="100.00" rsrp="-71" sinr="26" rsrq="-10"/>
      </extensions>
    </trkpt>
    <trkpt lat="45.6038644" lon="10.4601968">
      <ele>262.70001220703125</ele>
      <time>2026-10-06T14:55:32.024+02:00</time>
      <extensions>
        <activity type="UNKNOWN" conf="40" state="unknown" tsMs="1791291319685"/>
        <radio op="vodafone IT" rat="LTE" q="100.00" rsrp="-77" sinr="29" rsrq="-9"/>
        <radio op="I TIM" rat="LTE" q="100.00" rsrp="-74" sinr="24" rsrq="-10"/>
      </extensions>
    </trkpt>
    <trkpt lat="45.6074512" lon="10.4723445">
      <ele>278.15247182141866</ele>
      <time>2026-10-06T14:56:48.024+02:00</time>
      <extensions>
        <activity type="UNKNOWN" conf="40" state="unknown" tsMs="1791291407198"/>
        <radio op="vodafone IT" rat="LTE" q="48.40" rsrp="-103" sinr="17" rsrq="-7"/>
        <radio op="I TIM" rat="LTE" q="35.00" rsrp="-100" sinr="9" rsrq="-6"/>
      </extensions>
    </trkpt>
    <trkpt lat="45.6105221" lon="10.4788067">
      <ele>279.85829221377463</ele>
      <time>2026-10-06T14:57:27.024+02:00</time>
      <extensions>
        <activity type="UNKNOWN" conf="40" state="unknown" tsMs="1791291444663"/>
        <radio op="vodafone IT" rat="LTE" q="37.40" rsrp="-108" sinr="17" rsrq="-12"/>
        <radio op="I TIM" rat="LTE" q="8.40" rsrp="-118" sinr="7" rsrq="-11"/>
      </extensions>
    </trkpt>
    <trkpt lat="45.6130836" lon="10.4806177">
      <ele>275.89907153994784</ele>
      <time>2026-10-06T14:58:03.902+02:00</time>
      <extensions>
        <activity type="UNKNOWN" conf="40" state="unknown" tsMs="1791291470761"/>
        <radio op="vodafone IT" rat="LTE" rsrp="-113" rsrq="-11"/>
        <radio op="I TIM" rat="LTE" q="7.80" rsrp="-112" sinr="1" rsrq="-14"/>
      </extensions>
    </trkpt>
    <trkpt lat="45.6164314" lon="10.4833794">
      <ele>283.48078407310504</ele>
      <time>2026-10-06T14:58:34.986+02:00</time>
      <extensions>
        <activity type="IN_VEHICLE" conf="92" state="moving" tsMs="1791291496796"/>
        <radio op="vodafone IT" rat="LTE" q="28.80" rsrp="-109" sinr="13" rsrq="-9"/>
        <radio op="I TIM" rat="LTE" q="4.80" rsrp="-117" sinr="1" rsrq="-15"/>
      </extensions>
    </trkpt>
    <trkpt lat="45.6208142" lon="10.4866013">
      <ele>285.6748079337441</ele>
      <time>2026-10-06T14:59:12.024+02:00</time>
      <extensions>
        <activity type="IN_VEHICLE" conf="79" state="moving" tsMs="1791291545233"/>
        <radio op="vodafone IT" rat="LTE" q="16.00" rsrp="-109" sinr="5" rsrq="-13"/>
        <radio op="I TIM" rat="LTE" q="5.40" rsrp="-116" sinr="1" rsrq="-13"/>
      </extensions>
    </trkpt>
    <trkpt lat="45.6236629" lon="10.4934223">
      <ele>282.70001220703125</ele>
      <time>2026-10-06T14:59:49.228+02:00</time>
      <extensions>
        <activity type="UNKNOWN" conf="40" state="unknown" tsMs="1791291571187"/>
        <radio op="vodafone IT" rat="LTE" q="19.50" rsrp="-112" sinr="10" rsrq="-13"/>
        <radio op="I TIM" rat="LTE" q="6.30" rsrp="-118" sinr="4" rsrq="-13"/>
      </extensions>
    </trkpt>
    <trkpt lat="45.623668" lon="10.4930736">
      <ele>278.82511062564026</ele>
      <time>2026-10-06T15:00:26.938+02:00</time>
      <extensions>
        <activity type="TILTING" conf="100" state="moving" tsMs="1791291623433"/>
        <radio op="vodafone IT" rat="LTE" q="17.00" rsrp="-108" sinr="5" rsrq="-12"/>
        <radio op="I TIM" rat="LTE" q="16.90" rsrp="-112" sinr="8" rsrq="-11"/>
      </extensions>
    </trkpt>
    <trkpt lat="45.6237743" lon="10.4926192">
      <ele>278.4953663088838</ele>
      <time>2026-10-06T15:01:14.734+02:00</time>
      <extensions>
        <activity type="ON_FOOT" conf="94" state="moving" tsMs="1791291670159"/>
        <radio op="vodafone IT" rat="LTE" q="2.80" rsrp="-121" sinr="2" rsrq="-12"/>
        <radio op="I TIM" rat="LTE" q="3.60" rsrp="-119" sinr="1" rsrq="-11"/>
      </extensions>
    </trkpt>
    <trkpt lat="45.6237599" lon="10.4927081">
      <ele>297.6000061035156</ele>
      <time>2026-10-06T15:01:53.301+02:00</time>
      <extensions>
        <activity type="STILL" conf="34" state="still" tsMs="1791291699626"/>
        <radio op="vodafone IT" rat="LTE" q="0.50" rsrp="-124" sinr="0" rsrq="-12"/>
        <radio op="I TIM" rat="LTE" rsrp="-122" rsrq="-11"/>
      </extensions>
    </trkpt>
    <trkpt lat="45.6238414" lon="10.4927126">
      <ele>288.2178976240756</ele>
      <time>2026-10-06T15:02:30.397+02:00</time>
      <extensions>
        <activity type="UNKNOWN" conf="40" state="unknown" tsMs="1791291748657"/>
        <radio op="vodafone IT" rat="LTE" rsrp="-109" rsrq="-10"/>
        <radio op="I TIM" rat="LTE" q="19.20" rsrp="-113" sinr="11" rsrq="-8"/>
      </extensions>
    </trkpt>
    <trkpt lat="45.6236262" lon="10.4928527">
      <ele>288.3956472799349</ele>
      <time>2026-10-06T15:03:29.718+02:00</time>
      <extensions>
        <activity type="UNKNOWN" conf="40" state="unknown" tsMs="1791291807548"/>
        <radio op="vodafone IT" rat="LTE" q="16.90" rsrp="-112" sinr="8" rsrq="-6"/>
        <radio op="I TIM" rat="LTE" q="5.40" rsrp="-119" sinr="4" rsrq="-11"/>
      </extensions>
    </trkpt>
    <trkpt lat="45.6236809" lon="10.4928531">
      <ele>288.31735233594236</ele>
      <time>2026-10-06T15:04:14.777+02:00</time>
      <extensions>
        <activity type="STILL" conf="97" state="still" tsMs="1791291847149"/>
        <radio op="vodafone IT" rat="LTE" q="15.60" rsrp="-113" sinr="8" rsrq="-8"/>
        <radio op="I TIM" rat="LTE" q="7.00" rsrp="-118" sinr="5" rsrq="-10"/>
      </extensions>
    </trkpt>
    <trkpt lat="45.6236857" lon="10.4928499">
      <ele>301.8000183105469</ele>
      <time>2026-10-06T15:04:56.961+02:00</time>
      <extensions>
        <activity type="STILL" conf="100" state="still" tsMs="1791291897555"/>
        <radio op="vodafone IT" rat="LTE" q="13.20" rsrp="-113" sinr="6" rsrq="-7"/>
        <radio op="I TIM" rat="LTE" q="5.40" rsrp="-119" sinr="4" rsrq="-10"/>
      </extensions>
    </trkpt>
    <trkpt lat="45.623676" lon="10.4928591">
      <ele>301.8000183105469</ele>
      <time>2026-10-06T15:05:42.242+02:00</time>
      <extensions>
        <activity type="STILL" conf="96" state="still" tsMs="1791291942291"/>
        <radio op="vodafone IT" rat="LTE" q="13.20" rsrp="-113" sinr="6" rsrq="-7"/>
        <radio op="I TIM" rat="LTE" q="4.80" rsrp="-119" sinr="3" rsrq="-10"/>
      </extensions>
    </trkpt>
    <trkpt lat="45.6236866" lon="10.4928569">
      <ele>301.8000183105469</ele>
      <time>2026-10-06T15:06:35.886+02:00</time>
      <extensions>
        <activity type="UNKNOWN" conf="40" state="unknown" tsMs="1791291995151"/>
        <radio op="vodafone IT" rat="LTE" q="22.50" rsrp="-110" sinr="10" rsrq="-7"/>
        <radio op="I TIM" rat="LTE" q="8.80" rsrp="-117" sinr="6" rsrq="-12"/>
      </extensions>
    </trkpt>
    <trkpt lat="45.6238154" lon="10.4927558">
      <ele>304.44938652843825</ele>
      <time>2026-10-06T15:28:25.659+02:00</time>
      <extensions>
        <activity type="UNKNOWN" conf="40" state="unknown" tsMs="1791293308654"/>
        <radio op="vodafone IT" rat="LTE" q="4.90" rsrp="-118" sinr="2" rsrq="-11"/>
        <radio op="I TIM" rat="LTE" q="7.70" rsrp="-118" sinr="6" rsrq="-10"/>
      </extensions>
    </trkpt>
    <trkpt lat="45.6238172" lon="10.4927477">
      <ele>301.8000183105469</ele>
      <time>2026-10-06T15:29:23.85+02:00</time>
      <extensions>
        <activity type="ON_FOOT" conf="86" state="moving" tsMs="1791293357602"/>
        <radio op="vodafone IT" rat="LTE" q="13.50" rsrp="-116" sinr="10" rsrq="-11"/>
        <radio op="I TIM" rat="LTE" q="3.60" rsrp="-119" sinr="1" rsrq="-11"/>
      </extensions>
    </trkpt>
    <trkpt lat="45.6238114" lon="10.4927404">
      <ele>304.3477779696603</ele>
      <time>2026-10-06T15:30:10.39+02:00</time>
      <extensions>
        <activity type="UNKNOWN" conf="40" state="unknown" tsMs="1791293409603"/>
        <radio op="vodafone IT" rat="LTE" q="4.20" rsrp="-118" sinr="1" rsrq="-10"/>
        <radio op="I TIM" rat="LTE" q="4.00" rsrp="-120" sinr="3" rsrq="-13"/>
      </extensions>
    </trkpt>
    <trkpt lat="45.6238058" lon="10.4927745">
      <ele>304.5425645352193</ele>
      <time>2026-10-06T15:30:47.637+02:00</time>
      <extensions>
        <activity type="UNKNOWN" conf="40" state="unknown" tsMs="1791293432703"/>
        <radio op="vodafone IT" rat="LTE" q="4.20" rsrp="-119" sinr="2" rsrq="-12"/>
        <radio op="I TIM" rat="LTE" q="0.00" rsrp="-125" sinr="1" rsrq="-14"/>
      </extensions>
    </trkpt>
    <trkpt lat="45.6238109" lon="10.4927671">
      <ele>304.5065771741147</ele>
      <time>2026-10-06T15:31:19.187+02:00</time>
      <extensions>
        <activity type="STILL" conf="100" state="still" tsMs="1791293468268"/>
        <radio op="vodafone IT" rat="LTE" q="2.80" rsrp="-121" sinr="2" rsrq="-12"/>
        <radio op="I TIM" rat="LTE" rsrp="-127" rsrq="-14"/>
      </extensions>
    </trkpt>
    <trkpt lat="45.6237194" lon="10.4928273">
      <ele>298.9961300695247</ele>
      <time>2026-10-06T17:39:57.468+02:00</time>
      <extensions>
        <activity type="UNKNOWN" conf="40" state="unknown" tsMs="1791301200772"/>
        <radio op="vodafone IT" rat="LTE" q="9.00" rsrp="-115" sinr="4" rsrq="-9"/>
        <radio op="I TIM" rat="LTE" q="7.00" rsrp="-115" sinr="2" rsrq="-11"/>
      </extensions>
    </trkpt>
    <trkpt lat="45.6236847" lon="10.4928523">
      <ele>299.10258828025064</ele>
      <time>2026-10-06T17:40:44.763+02:00</time>
      <extensions>
        <activity type="STILL" conf="69" state="still" tsMs="1791301243173"/>
        <radio op="vodafone IT" rat="LTE" q="21.00" rsrp="-111" sinr="10" rsrq="-11"/>
        <radio op="I TIM" rat="LTE" q="5.40" rsrp="-119" sinr="4" rsrq="-10"/>
      </extensions>
    </trkpt>
    <trkpt lat="45.6236949" lon="10.4928478">
      <ele>299.0475474963135</ele>
      <time>2026-10-06T17:41:51.263+02:00</time>
      <extensions>
        <activity type="STILL" conf="96" state="still" tsMs="1791301334784"/>
        <radio op="vodafone IT" rat="LTE" q="15.60" rsrp="-113" sinr="8" rsrq="-12"/>
        <radio op="I TIM" rat="LTE" q="2.10" rsrp="-122" sinr="2" rsrq="-12"/>
      </extensions>
    </trkpt>
    <trkpt lat="45.6237267" lon="10.4928328">
      <ele>299.35455596798255</ele>
      <time>2026-10-06T17:42:53.386+02:00</time>
      <extensions>
        <activity type="STILL" conf="96" state="still" tsMs="1791301368883"/>
        <radio op="vodafone IT" rat="LTE" q="13.20" rsrp="-113" sinr="6" rsrq="-11"/>
        <radio op="I TIM" rat="LTE" q="3.20" rsrp="-121" sinr="3" rsrq="-13"/>
      </extensions>
    </trkpt>
    <trkpt lat="45.6238235" lon="10.4926809">
      <ele>301.8000183105469</ele>
      <time>2026-10-06T17:44:05.066+02:00</time>
      <extensions>
        <activity type="UNKNOWN" conf="40" state="unknown" tsMs="1791301448368"/>
        <radio op="vodafone IT" rat="LTE" q="4.20" rsrp="-119" sinr="2" rsrq="-12"/>
        <radio op="I TIM" rat="LTE" q="32.00" rsrp="-109" sinr="15" rsrq="-9"/>
      </extensions>
    </trkpt>
    <trkpt lat="45.6237498" lon="10.4927299">
      <ele>293.7305607409646</ele>
      <time>2026-10-06T17:44:40.507+02:00</time>
      <extensions>
        <activity type="ON_FOOT" conf="92" state="moving" tsMs="1791301473776"/>
        <radio op="vodafone IT" rat="LTE" rsrp="-127" rsrq="-14"/>
        <radio op="I TIM" rat="LTE" q="8.10" rsrp="-116" sinr="4" rsrq="-12"/>
      </extensions>
    </trkpt>
    <trkpt lat="45.6236548" lon="10.4933333">
      <ele>291.5079497852474</ele>
      <time>2026-10-06T17:45:19.924+02:00</time>
      <extensions>
        <activity type="ON_FOOT" conf="92" state="moving" tsMs="1791301510780"/>
        <radio op="vodafone IT" rat="LTE" q="20.00" rsrp="-105" sinr="5" rsrq="-10"/>
        <radio op="I TIM" rat="LTE" q="14.40" rsrp="-113" sinr="7" rsrq="-9"/>
      </extensions>
    </trkpt>
    <trkpt lat="45.6237773" lon="10.4933212">
      <ele>292.2078728129307</ele>
      <time>2026-10-06T17:45:56.328+02:00</time>
      <extensions>
        <activity type="UNKNOWN" conf="40" state="unknown" tsMs="1791301554781"/>
        <radio op="vodafone IT" rat="LTE" q="7.70" rsrp="-114" sinr="2" rsrq="-14"/>
        <radio op="I TIM" rat="LTE" q="9.60" rsrp="-119" sinr="11" rsrq="-12"/>
      </extensions>
    </trkpt>
    <trkpt lat="45.6233406" lon="10.4925433">
      <ele>282.4000244140625</ele>
      <time>2026-10-06T17:46:17.084+02:00</time>
      <extensions>
        <activity type="IN_VEHICLE" conf="90" state="moving" tsMs="1791301559489"/>
        <radio op="vodafone IT" rat="LTE" q="9.90" rsrp="-114" sinr="4" rsrq="-13"/>
        <radio op="I TIM" rat="LTE" q="9.00" rsrp="-119" sinr="10" rsrq="-12"/>
      </extensions>
    </trkpt>
    <trkpt lat="45.6230012" lon="10.491144">
      <ele>277.70001220703125</ele>
      <time>2026-10-06T17:46:27.084+02:00</time>
      <extensions>
        <activity type="UNKNOWN" conf="40" state="unknown" tsMs="1791301572539"/>
        <radio op="vodafone IT" rat="LTE" rsrp="-110" rsrq="-13"/>
        <radio op="I TIM" rat="LTE" q="7.70" rsrp="-118" sinr="6" rsrq="-11"/>
      </extensions>
    </trkpt>
    <trkpt lat="45.6222595" lon="10.4896374">
      <ele>277.70001220703125</ele>
      <time>2026-10-06T17:46:37.084+02:00</time>
      <extensions>
        <activity type="UNKNOWN" conf="40" state="unknown" tsMs="1791301585603"/>
        <radio op="vodafone IT" rat="LTE" q="12.80" rsrp="-109" sinr="3" rsrq="-13"/>
        <radio op="I TIM" rat="LTE" rsrp="-118" rsrq="-12"/>
      </extensions>
    </trkpt>
    <trkpt lat="45.6213649" lon="10.4879116">
      <ele>277.70001220703125</ele>
      <time>2026-10-06T17:46:47.084+02:00</time>
      <extensions>
        <activity type="UNKNOWN" conf="40" state="unknown" tsMs="1791301598552"/>
        <radio op="vodafone IT" rat="LTE" q="6.50" rsrp="-112" sinr="0" rsrq="-13"/>
        <radio op="I TIM" rat="LTE" q="4.50" rsrp="-116" sinr="0" rsrq="-13"/>
      </extensions>
    </trkpt>
    <trkpt lat="45.6206063" lon="10.4861705">
      <ele>277.70001220703125</ele>
      <time>2026-10-06T17:46:57.084+02:00</time>
      <extensions>
        <activity type="UNKNOWN" conf="40" state="unknown" tsMs="1791301598552"/>
        <radio op="vodafone IT" rat="LTE" rsrp="-118" rsrq="-18"/>
        <radio op="I TIM" rat="LTE" rsrp="-118" rsrq="-13"/>
      </extensions>
    </trkpt>
    <trkpt lat="45.6198256" lon="10.4845525">
      <ele>277.70001220703125</ele>
      <time>2026-10-06T17:47:06.084+02:00</time>
      <extensions>
        <activity type="UNKNOWN" conf="40" state="unknown" tsMs="1791301611569"/>
        <radio op="vodafone IT" rat="LTE" rsrp="-118" rsrq="-15"/>
        <radio op="I TIM" rat="LTE" rsrp="-122" rsrq="-19"/>
      </extensions>
    </trkpt>
    <trkpt lat="45.61419" lon="10.4824138">
      <ele>287.2729597385107</ele>
      <time>2026-10-06T17:47:49.083+02:00</time>
      <extensions>
        <activity type="UNKNOWN" conf="40" state="unknown" tsMs="1791301665530"/>
        <radio op="vodafone IT" rat="LTE" q="34.00" rsrp="-108" sinr="15" rsrq="-8"/>
        <radio op="I TIM" rat="LTE" rsrp="-121" rsrq="-19"/>
      </extensions>
    </trkpt>
    <trkpt lat="45.6125177" lon="10.4813111">
      <ele>277.9000244140625</ele>
      <time>2026-10-06T17:48:04.083+02:00</time>
      <extensions>
        <activity type="UNKNOWN" conf="40" state="unknown" tsMs="1791301665530"/>
        <radio op="vodafone IT" rat="LTE" q="18.00" rsrp="-110" sinr="7" rsrq="-10"/>
        <radio op="I TIM" rat="LTE" q="8.00" rsrp="-115" sinr="3" rsrq="-12"/>
      </extensions>
    </trkpt>
    <trkpt lat="45.6120849" lon="10.4810398">
      <ele>270.6000061035156</ele>
      <time>2026-10-06T17:48:14.083+02:00</time>
      <extensions>
        <activity type="UNKNOWN" conf="40" state="unknown" tsMs="1791301678621"/>
        <radio op="vodafone IT" rat="LTE" q="19.20" rsrp="-109" sinr="7" rsrq="-13"/>
        <radio op="I TIM" rat="LTE" q="14.00" rsrp="-111" sinr="5" rsrq="-10"/>
      </extensions>
    </trkpt>
    <trkpt lat="45.6120928" lon="10.4810229">
      <ele>270.6000061035156</ele>
      <time>2026-10-06T17:48:15.083+02:00</time>
      <extensions>
        <activity type="UNKNOWN" conf="40" state="unknown" tsMs="1791301691523"/>
        <radio op="vodafone IT" rat="LTE" q="22.40" rsrp="-109" sinr="9" rsrq="-10"/>
        <radio op="I TIM" rat="LTE" q="9.10" rsrp="-112" sinr="2" rsrq="-11"/>
      </extensions>
    </trkpt>
    <trkpt lat="45.6095388" lon="10.4775271">
      <ele>285.0810102327721</ele>
      <time>2026-10-06T17:48:53.083+02:00</time>
      <extensions>
        <activity type="IN_VEHICLE" conf="96" state="moving" tsMs="1791301753775"/>
        <radio op="vodafone IT" rat="LTE" q="35.20" rsrp="-103" sinr="11" rsrq="-7"/>
        <radio op="I TIM" rat="LTE" q="100.00" rsrp="-84" sinr="26" rsrq="-8"/>
      </extensions>
    </trkpt>
    <trkpt lat="45.6057754" lon="10.4663946">
      <ele>282.4000244140625</ele>
      <time>2026-10-06T17:50:01.083+02:00</time>
      <extensions>
        <activity type="UNKNOWN" conf="40" state="unknown" tsMs="1791301789554"/>
        <radio op="vodafone IT" rat="LTE" q="90.00" rsrp="-89" sinr="22" rsrq="-5"/>
        <radio op="I TIM" rat="LTE" q="100.00" rsrp="-80" sinr="26" rsrq="-8"/>
      </extensions>
    </trkpt>
    <trkpt lat="45.6054812" lon="10.4655114">
      <ele>280.7208004084871</ele>
      <time>2026-10-06T17:50:39.083+02:00</time>
      <extensions>
        <activity type="UNKNOWN" conf="40" state="unknown" tsMs="1791301825179"/>
        <radio op="vodafone IT" rat="LTE" q="87.50" rsrp="-90" sinr="22" rsrq="-8"/>
        <radio op="I TIM" rat="LTE" q="100.00" rsrp="-79" sinr="27" rsrq="-7"/>
      </extensions>
    </trkpt>
    <trkpt lat="45.605344" lon="10.4650856">
      <ele>280.45682515303577</ele>
      <time>2026-10-06T17:51:23.085+02:00</time>
      <extensions>
        <activity type="UNKNOWN" conf="40" state="unknown" tsMs="1791301894793"/>
        <radio op="vodafone IT" rat="LTE" q="100.00" rsrp="-81" sinr="30" rsrq="-4"/>
        <radio op="I TIM" rat="LTE" q="16.10" rsrp="-102" sinr="2" rsrq="-10"/>
      </extensions>
    </trkpt>
    <trkpt lat="45.6044613" lon="10.4624178">
      <ele>284.11518816553945</ele>
      <time>2026-10-06T17:52:22.672+02:00</time>
      <extensions>
        <activity type="IN_VEHICLE" conf="92" state="moving" tsMs="1791301936789"/>
        <radio op="vodafone IT" rat="LTE" q="28.00" rsrp="-97" sinr="5" rsrq="-12"/>
        <radio op="I TIM" rat="LTE" q="26.10" rsrp="-96" sinr="4" rsrq="-8"/>
      </extensions>
    </trkpt>
    <trkpt lat="45.6040489" lon="10.4607121">
      <ele>266.1000061035156</ele>
      <time>2026-10-06T17:53:05.084+02:00</time>
      <extensions>
        <activity type="UNKNOWN" conf="40" state="unknown" tsMs="1791302003790"/>
        <radio op="vodafone IT" rat="LTE" q="92.50" rsrp="-88" sinr="28" rsrq="-7"/>
        <radio op="I TIM" rat="LTE" q="85.00" rsrp="-91" sinr="26" rsrq="-12"/>
      </extensions>
    </trkpt>
    <trkpt lat="45.6030727" lon="10.4575038">
      <ele>277.5246050108425</ele>
      <time>2026-10-06T17:54:00.971+02:00</time>
      <extensions>
        <activity type="UNKNOWN" conf="40" state="unknown" tsMs="1791302038438"/>
        <radio op="vodafone IT" rat="LTE" q="80.00" rsrp="-93" sinr="26" rsrq="-9"/>
        <radio op="I TIM" rat="LTE" q="68.40" rsrp="-87" sinr="13" rsrq="-11"/>
      </extensions>
    </trkpt>
    <trkpt lat="45.6023076" lon="10.4552844">
      <ele>276.5894608227179</ele>
      <time>2026-10-06T17:54:32.217+02:00</time>
      <extensions>
        <activity type="IN_VEHICLE" conf="87" state="moving" tsMs="1791302057237"/>
        <radio op="vodafone IT" rat="LTE" rsrp="-112" rsrq="-14"/>
        <radio op="I TIM" rat="LTE" rsrp="-108" rsrq="-13"/>
      </extensions>
    </trkpt>
    <trkpt lat="45.6027706" lon="10.454197">
      <ele>276.6654506855281</ele>
      <time>2026-10-06T17:55:03.472+02:00</time>
      <extensions>
        <activity type="IN_VEHICLE" conf="90" state="moving" tsMs="1791302096262"/>
        <radio op="vodafone IT" rat="LTE" q="7.00" rsrp="-115" sinr="2" rsrq="-13"/>
        <radio op="I TIM" rat="LTE" q="22.40" rsrp="-109" sinr="9" rsrq="-11"/>
      </extensions>
    </trkpt>
    <trkpt lat="45.6030907" lon="10.4538948">
      <ele>276.65700733428</ele>
      <time>2026-10-06T17:55:11.084+02:00</time>
      <extensions>
        <activity type="UNKNOWN" conf="40" state="unknown" tsMs="1791302106740"/>
        <radio op="vodafone IT" rat="LTE" q="37.40" rsrp="-103" sinr="12" rsrq="-7"/>
        <radio op="I TIM" rat="LTE" q="45.00" rsrp="-100" sinr="13" rsrq="-8"/>
      </extensions>
    </trkpt>
    <trkpt lat="45.6026542" lon="10.4536125">
      <ele>275.0845776971752</ele>
      <time>2026-10-06T17:56:50.946+02:00</time>
      <extensions>
        <activity type="STILL" conf="100" state="still" tsMs="1791302209306"/>
        <radio op="vodafone IT" rat="LTE" q="13.00" rsrp="-112" sinr="5" rsrq="-11"/>
        <radio op="I TIM" rat="LTE" rsrp="-116" rsrq="-15"/>
      </extensions>
    </trkpt>
    <trkpt lat="45.6025732" lon="10.4536215">
      <ele>263.4365139803182</ele>
      <time>2026-10-06T17:57:05.634+02:00</time>
      <extensions>
        <activity type="UNKNOWN" conf="40" state="unknown" tsMs="1791302218562"/>
        <radio op="vodafone IT" rat="LTE" rsrp="-102" rsrq="-9"/>
        <radio op="I TIM" rat="LTE" q="8.40" rsrp="-113" sinr="2" rsrq="-17"/>
      </extensions>
    </trkpt>
    <trkpt lat="45.6025818" lon="10.4536383">
      <ele>261.0</ele>
      <time>2026-10-06T17:57:15.24+02:00</time>
      <extensions>
        <activity type="UNKNOWN" conf="40" state="unknown" tsMs="1791302218562"/>
        <radio op="vodafone IT" rat="LTE" rsrp="-117" rsrq="-12"/>
        <radio op="I TIM" rat="LTE" rsrp="-121" rsrq="-17"/>
      </extensions>
    </trkpt>
    <trkpt lat="45.6025746" lon="10.453645">
      <ele>261.0</ele>
      <time>2026-10-06T17:57:25.976+02:00</time>
      <extensions>
        <activity type="UNKNOWN" conf="40" state="unknown" tsMs="1791302231133"/>
        <radio op="vodafone IT" rat="LTE" rsrp="-114" rsrq="-12"/>
        <radio op="I TIM" rat="LTE" rsrp="-120" rsrq="-14"/>
      </extensions>
    </trkpt>
    <trkpt lat="45.6025605" lon="10.4536627">
      <ele>261.0</ele>
      <time>2026-10-06T17:57:33.815+02:00</time>
      <extensions>
        <activity type="UNKNOWN" conf="40" state="unknown" tsMs="1791302241214"/>
        <radio op="vodafone IT" rat="LTE" rsrp="-114" rsrq="-12"/>
        <radio op="I TIM" rat="LTE" rsrp="-123" rsrq="-15"/>
      </extensions>
    </trkpt>
    <trkpt lat="45.6025654" lon="10.4536676">
      <ele>261.0</ele>
      <time>2026-10-06T17:57:46.094+02:00</time>
      <extensions>
        <activity type="UNKNOWN" conf="40" state="unknown" tsMs="1791302253801"/>
        <radio op="vodafone IT" rat="LTE" rsrp="-114" rsrq="-13"/>
        <radio op="I TIM" rat="LTE" q="31.20" rsrp="-112" sinr="19" rsrq="-12"/>
      </extensions>
    </trkpt>
    <trkpt lat="45.6025636" lon="10.4536476">
      <ele>261.0</ele>
      <time>2026-10-06T17:57:56.086+02:00</time>
      <extensions>
        <activity type="UNKNOWN" conf="40" state="unknown" tsMs="1791302264802"/>
        <radio op="vodafone IT" rat="LTE" q="13.20" rsrp="-114" sinr="7" rsrq="-10"/>
        <radio op="I TIM" rat="LTE" q="30.40" rsrp="-109" sinr="14" rsrq="-11"/>
      </extensions>
    </trkpt>
    <trkpt lat="45.6025634" lon="10.4536478">
      <ele>261.0</ele>
      <time>2026-10-06T17:58:06.086+02:00</time>
      <extensions>
        <activity type="UNKNOWN" conf="40" state="unknown" tsMs="1791302276354"/>
        <radio op="vodafone IT" rat="LTE" q="22.10" rsrp="-112" sinr="12" rsrq="-11"/>
        <radio op="I TIM" rat="LTE" q="43.70" rsrp="-106" sinr="18" rsrq="-9"/>
      </extensions>
    </trkpt>
    <trkpt lat="45.6025609" lon="10.4536575">
      <ele>261.0</ele>
      <time>2026-10-06T17:58:16.086+02:00</time>
      <extensions>
        <activity type="STILL" conf="96" state="still" tsMs="1791302288975"/>
        <radio op="vodafone IT" rat="LTE" q="9.10" rsrp="-112" sinr="2" rsrq="-10"/>
        <radio op="I TIM" rat="LTE" q="22.40" rsrp="-109" sinr="9" rsrq="-9"/>
      </extensions>
    </trkpt>
    <trkpt lat="45.6025646" lon="10.4536589">
      <ele>261.0</ele>
      <time>2026-10-06T17:58:24.56+02:00</time>
      <extensions>
        <activity type="UNKNOWN" conf="40" state="unknown" tsMs="1791302298083"/>
        <radio op="vodafone IT" rat="LTE" rsrp="-109" rsrq="-12"/>
        <radio op="I TIM" rat="LTE" q="28.00" rsrp="-111" sinr="15" rsrq="-11"/>
      </extensions>
    </trkpt>
    <trkpt lat="45.6025728" lon="10.4536515">
      <ele>261.0</ele>
      <time>2026-10-06T17:58:31.76+02:00</time>
      <extensions>
        <activity type="UNKNOWN" conf="40" state="unknown" tsMs="1791302298083"/>
        <radio op="vodafone IT" rat="LTE" rsrp="-108" rsrq="-13"/>
        <radio op="I TIM" rat="LTE" q="10.00" rsrp="-115" sinr="5" rsrq="-9"/>
      </extensions>
    </trkpt>
    <trkpt lat="45.6025632" lon="10.4536772">
      <ele>261.0</ele>
      <time>2026-10-06T17:59:07.688+02:00</time>
      <extensions>
        <activity type="STILL" conf="49" state="still" tsMs="1791302333005"/>
        <radio op="vodafone IT" rat="LTE" q="13.60" rsrp="-108" sinr="3" rsrq="-12"/>
        <radio op="I TIM" rat="LTE" q="11.00" rsrp="-114" sinr="5" rsrq="-11"/>
      </extensions>
    </trkpt>
    <trkpt lat="45.6025742" lon="10.4536948">
      <ele>261.0</ele>
      <time>2026-10-06T17:59:39.332+02:00</time>
      <extensions>
        <activity type="STILL" conf="44" state="still" tsMs="1791302364855"/>
        <radio op="vodafone IT" rat="LTE" q="25.20" rsrp="-107" sinr="9" rsrq="-8"/>
        <radio op="I TIM" rat="LTE" q="28.50" rsrp="-110" sinr="14" rsrq="-12"/>
      </extensions>
    </trkpt>
    <trkpt lat="45.6025777" lon="10.4537095">
      <ele>261.0</ele>
      <time>2026-10-06T18:00:10.969+02:00</time>
      <extensions>
        <activity type="STILL" conf="100" state="still" tsMs="1791302406383"/>
        <radio op="vodafone IT" rat="LTE" q="30.60" rsrp="-107" sinr="12" rsrq="-10"/>
        <radio op="I TIM" rat="LTE" q="33.00" rsrp="-110" sinr="17" rsrq="-13"/>
      </extensions>
    </trkpt>
    <trkpt lat="45.6025725" lon="10.4536918">
      <ele>261.0</ele>
      <time>2026-10-06T18:00:42.791+02:00</time>
      <extensions>
        <activity type="STILL" conf="100" state="still" tsMs="1791302432952"/>
        <radio op="vodafone IT" rat="LTE" q="19.80" rsrp="-107" sinr="6" rsrq="-11"/>
        <radio op="I TIM" rat="LTE" q="33.00" rsrp="-110" sinr="17" rsrq="-13"/>
      </extensions>
    </trkpt>
  </trkseg></trk>
</gpx>
