<?xml version="1.0" encoding="UTF-8"?>
<gpx version="1.1" creator="CellGPX" xmlns="http://www.topografix.com/GPX/1/1">
  <trk><name>CellGPX</name><trkseg>
    <trkpt lat="45.6341548" lon="10.6166036">
      <ele>115.4000015258789</ele>
      <time>2026-08-12T00:00:23.674+02:00</time>
      <extensions>
        <activity type="ON_FOOT" conf="96" state="moving" tsMs="1786485620724"/>
        <radio op="vodafone IT" rat="LTE" q="25.20" rsrp="-89" sinr="2" rsrq="-11"/>
        <radio op="I TIM" rat="LTE" q="64.00" rsrp="-67" sinr="11" rsrq="-11"/>
      </extensions>
    </trkpt>
    <trkpt lat="45.6342728" lon="10.6169148">
      <ele>115.30000305175781</ele>
      <time>2026-08-12T00:00:55.203+02:00</time>
      <extensions>
        <activity type="ON_FOOT" conf="96" state="moving" tsMs="1786485651816"/>
        <radio op="vodafone IT" rat="LTE" q="68.00" rsrp="-76" sinr="12" rsrq="-10"/>
        <radio op="I TIM" rat="LTE" q="60.00" rsrp="-85" sinr="10" rsrq="-13"/>
      </extensions>
    </trkpt>
    <trkpt lat="45.6350948" lon="10.6168784">
      <ele>115.5999984741211</ele>
      <time>2026-08-12T00:01:26.758+02:00</time>
      <extensions>
        <activity type="ON_FOOT" conf="96" state="moving" tsMs="1786485683350"/>
        <radio op="vodafone IT" rat="LTE" q="17.50" rsrp="-100" sinr="2" rsrq="-16"/>
        <radio op="I TIM" rat="LTE" q="66.60" rsrp="-88" sinr="13" rsrq="-13"/>
      </extensions>
    </trkpt>
    <trkpt lat="45.6360566" lon="10.617639">
      <ele>116.0999984741211</ele>
      <time>2026-08-12T00:01:58.574+02:00</time>
      <extensions>
        <activity type="ON_FOOT" conf="96" state="moving" tsMs="1786485715040"/>
        <radio op="vodafone IT" rat="LTE" q="15.00" rsrp="-100" sinr="1" rsrq="-14"/>
        <radio op="I TIM" rat="LTE" q="40.00" rsrp="-85" sinr="5" rsrq="-12"/>
      </extensions>
    </trkpt>
    <trkpt lat="45.6361047" lon="10.6177383">
      <ele>116.19999694824219</ele>
      <time>2026-08-12T00:02:29.843+02:00</time>
      <extensions>
        <activity type="ON_FOOT" conf="98" state="moving" tsMs="1786485746518"/>
        <radio op="vodafone IT" rat="LTE" rsrp="-93" rsrq="-16"/>
        <radio op="I TIM" rat="LTE" q="32.00" rsrp="-79" sinr="3" rsrq="-12"/>
      </extensions>
    </trkpt>
    <trkpt lat="45.6360579" lon="10.6176471">
      <ele>116.0999984741211</ele>
      <time>2026-08-12T00:03:01.327+02:00</time>
      <extensions>
        <activity type="ON_FOOT" conf="96" state="moving" tsMs="1786485778068"/>
        <radio op="vodafone IT" rat="LTE" q="24.50" rsrp="-90" sinr="2" rsrq="-13"/>
        <radio op="I TIM" rat="LTE" q="24.00" rsrp="-83" sinr="1" rsrq="-14"/>
      </extensions>
    </trkpt>
    <trkpt lat="45.636192" lon="10.6174219">
      <ele>116.30000305175781</ele>
      <time>2026-08-12T00:03:32.81+02:00</time>
      <extensions>
        <activity type="ON_FOOT" conf="96" state="moving" tsMs="1786485808469"/>
        <radio op="vodafone IT" rat="LTE" q="38.00" rsrp="-87" sinr="5" rsrq="-11"/>
        <radio op="I TIM" rat="LTE" rsrp="-73" rsrq="-16"/>
      </extensions>
    </trkpt>
    <trkpt lat="45.6379477" lon="10.618558">
      <ele>117.0999984741211</ele>
      <time>2026-08-12T00:04:35.904+02:00</time>
      <extensions>
        <activity type="ON_FOOT" conf="96" state="moving" tsMs="1786485882641"/>
        <radio op="vodafone IT" rat="LTE" q="100.00" rsrp="-73" sinr="20" rsrq="-10"/>
        <radio op="I TIM" rat="LTE" q="52.00" rsrp="-72" sinr="8" rsrq="-11"/>
      </extensions>
    </trkpt>
    <trkpt lat="45.6381739" lon="10.6192024">
      <ele>116.69999694824219</ele>
      <time>2026-08-12T00:05:07.483+02:00</time>
      <extensions>
        <activity type="ON_FOOT" conf="97" state="moving" tsMs="1786485904145"/>
        <radio op="vodafone IT" rat="LTE" q="100.00" rsrp="-74" sinr="21" rsrq="-6"/>
        <radio op="I TIM" rat="LTE" q="48.00" rsrp="-77" sinr="7" rsrq="-12"/>
      </extensions>
    </trkpt>
    <trkpt lat="45.6381299" lon="10.6191188">
      <ele>116.69999694824219</ele>
      <time>2026-08-12T00:05:14.007+02:00</time>
      <extensions>
        <activity type="ON_FOOT" conf="96" state="moving" tsMs="1786485914174"/>
        <radio op="vodafone IT" rat="LTE" q="92.00" rsrp="-76" sinr="18" rsrq="-11"/>
        <radio op="I TIM" rat="LTE" q="44.00" rsrp="-79" sinr="6" rsrq="-12"/>
      </extensions>
    </trkpt>
    <trkpt lat="45.6381222" lon="10.6191217">
      <ele>118.80000305175781</ele>
      <time>2026-08-12T00:05:49.143+02:00</time>
      <extensions>
        <activity type="ON_FOOT" conf="96" state="moving" tsMs="1786485946472"/>
        <radio op="vodafone IT" rat="LTE" q="96.00" rsrp="-80" sinr="19" rsrq="-10"/>
        <radio op="I TIM" rat="LTE" q="80.00" rsrp="-74" sinr="15" rsrq="-11"/>
      </extensions>
    </trkpt>
    <trkpt lat="45.6384559" lon="10.6192722">
      <ele>116.69999694824219</ele>
      <time>2026-08-12T00:06:28.006+02:00</time>
      <extensions>
        <activity type="STILL" conf="60" state="still" tsMs="1786485980571"/>
        <radio op="vodafone IT" rat="LTE" q="88.00" rsrp="-84" sinr="17" rsrq="-10"/>
        <radio op="I TIM" rat="LTE" q="68.00" rsrp="-76" sinr="12" rsrq="-10"/>
      </extensions>
    </trkpt>
    <trkpt lat="45.6392909" lon="10.6174601">
      <ele>120.19999694824219</ele>
      <time>2026-08-12T00:07:03.433+02:00</time>
      <extensions>
        <activity type="IN_VEHICLE" conf="98" state="moving" tsMs="1786486022635"/>
        <radio op="vodafone IT" rat="LTE" q="77.70" rsrp="-88" sinr="16" rsrq="-11"/>
        <radio op="I TIM" rat="LTE" q="36.00" rsrp="-75" sinr="4" rsrq="-12"/>
      </extensions>
    </trkpt>
    <trkpt lat="45.6394872" lon="10.6174485">
      <ele>120.19999694824219</ele>
      <time>2026-08-12T00:07:10.006+02:00</time>
      <extensions>
        <activity type="IN_VEHICLE" conf="98" state="moving" tsMs="1786486022635"/>
        <radio op="vodafone IT" rat="LTE" q="78.00" rsrp="-86" sinr="15" rsrq="-10"/>
        <radio op="I TIM" rat="LTE" q="36.00" rsrp="-82" sinr="4" rsrq="-13"/>
      </extensions>
    </trkpt>
    <trkpt lat="45.6419326" lon="10.6140443">
      <ele>128.90000915527344</ele>
      <time>2026-08-12T00:07:45.006+02:00</time>
      <extensions>
        <activity type="IN_VEHICLE" conf="97" state="moving" tsMs="1786486060360"/>
        <radio op="vodafone IT" rat="LTE" q="16.80" rsrp="-104" sinr="3" rsrq="-13"/>
        <radio op="I TIM" rat="LTE" rsrp="-99" rsrq="-15"/>
      </extensions>
    </trkpt>
    <trkpt lat="45.6396972" lon="10.6080679">
      <ele>130.20001220703125</ele>
      <time>2026-08-12T00:08:47.845+02:00</time>
      <extensions>
        <activity type="IN_VEHICLE" conf="88" state="moving" tsMs="1786486139039"/>
        <radio op="vodafone IT" rat="LTE" q="80.00" rsrp="-69" sinr="15" rsrq="-9"/>
        <radio op="I TIM" rat="LTE" rsrp="-102" rsrq="-19"/>
      </extensions>
    </trkpt>
    <trkpt lat="45.6380962" lon="10.6071297">
      <ele>128.40000915527344</ele>
      <time>2026-08-12T00:09:06.006+02:00</time>
      <extensions>
        <activity type="IN_VEHICLE" conf="88" state="moving" tsMs="1786486139039"/>
        <radio op="vodafone IT" rat="LTE" q="72.00" rsrp="-72" sinr="13" rsrq="-10"/>
        <radio op="I TIM" rat="LTE" rsrp="-102" rsrq="-22"/>
      </extensions>
    </trkpt>
    <trkpt lat="45.637374" lon="10.6065597">
      <ele>123.9619391378734</ele>
      <time>2026-08-12T00:09:40.024+02:00</time>
      <extensions>
        <activity type="IN_VEHICLE" conf="97" state="moving" tsMs="1786486175416"/>
        <radio op="vodafone IT" rat="LTE" rsrp="-75" rsrq="-10"/>
        <radio op="I TIM" rat="LTE" rsrp="-109" rsrq="-16"/>
      </extensions>
    </trkpt>
    <trkpt lat="45.6371764" lon="10.6058591">
      <ele>123.87451620617145</ele>
      <time>2026-08-12T00:09:46.006+02:00</time>
      <extensions>
        <activity type="IN_VEHICLE" conf="97" state="moving" tsMs="1786486190909"/>
        <radio op="vodafone IT" rat="LTE" q="52.00" rsrp="-74" sinr="8" rsrq="-12"/>
        <radio op="I TIM" rat="LTE" rsrp="-110" rsrq="-16"/>
      </extensions>
    </trkpt>
    <trkpt lat="45.6365164" lon="10.6042519">
      <ele>121.19999694824219</ele>
      <time>2026-08-12T00:10:21.441+02:00</time>
      <extensions>
        <activity type="IN_VEHICLE" conf="97" state="moving" tsMs="1786486217710"/>
        <radio op="vodafone IT" rat="LTE" q="48.00" rsrp="-83" sinr="7" rsrq="-9"/>
        <radio op="I TIM" rat="LTE" rsrp="-112" rsrq="-17"/>
      </extensions>
    </trkpt>
    <trkpt lat="45.635662" lon="10.6030612">
      <ele>119.19999694824219</ele>
      <time>2026-08-12T00:10:53.049+02:00</time>
      <extensions>
        <activity type="IN_VEHICLE" conf="96" state="moving" tsMs="1786486248771"/>
        <radio op="vodafone IT" rat="LTE" q="55.50" rsrp="-88" sinr="10" rsrq="-11"/>
        <radio op="I TIM" rat="LTE" rsrp="-114" rsrq="-17"/>
      </extensions>
    </trkpt>
    <trkpt lat="45.6355553" lon="10.6027234">
      <ele>119.0999984741211</ele>
      <time>2026-08-12T00:11:20.609+02:00</time>
      <extensions>
        <activity type="IN_VEHICLE" conf="96" state="moving" tsMs="1786486280323"/>
        <radio op="vodafone IT" rat="LTE" q="35.20" rsrp="-93" sinr="6" rsrq="-11"/>
        <radio op="I TIM" rat="LTE" rsrp="-116" rsrq="-18"/>
      </extensions>
    </trkpt>
    <trkpt lat="45.6355619" lon="10.6027111">
      <ele>119.0999984741211</ele>
      <time>2026-08-12T00:11:30.006+02:00</time>
      <extensions>
        <activity type="IN_VEHICLE" conf="97" state="moving" tsMs="1786486290362"/>
        <radio op="vodafone IT" rat="LTE" q="44.20" rsrp="-91" sinr="8" rsrq="-11"/>
        <radio op="I TIM" rat="LTE" rsrp="-115" rsrq="-17"/>
      </extensions>
    </trkpt>
    <trkpt lat="45.635133" lon="10.6017882">
      <ele>117.5</ele>
      <time>2026-08-12T00:12:05.342+02:00</time>
      <extensions>
        <activity type="IN_VEHICLE" conf="97" state="moving" tsMs="1786486322649"/>
        <radio op="vodafone IT" rat="LTE" q="37.20" rsrp="-94" sinr="7" rsrq="-9"/>
        <radio op="I TIM" rat="LTE" rsrp="-115" rsrq="-15"/>
      </extensions>
    </trkpt>
    <trkpt lat="45.6350605" lon="10.6018246">
      <ele>117.5</ele>
      <time>2026-08-12T00:12:36.728+02:00</time>
      <extensions>
        <activity type="IN_VEHICLE" conf="97" state="moving" tsMs="1786486353813"/>
        <radio op="vodafone IT" rat="LTE" q="33.00" rsrp="-95" sinr="6" rsrq="-11"/>
        <radio op="I TIM" rat="LTE" rsrp="-111" rsrq="-15"/>
      </extensions>
    </trkpt>
    <trkpt lat="45.634991" lon="10.6007584">
      <ele>117.5</ele>
      <time>2026-08-12T00:13:08.234+02:00</time>
      <extensions>
        <activity type="IN_VEHICLE" conf="97" state="moving" tsMs="1786486383983"/>
        <radio op="vodafone IT" rat="LTE" q="54.40" rsrp="-91" sinr="11" rsrq="-9"/>
        <radio op="I TIM" rat="LTE" rsrp="-113" rsrq="-17"/>
      </extensions>
    </trkpt>
    <trkpt lat="45.6351505" lon="10.6001372">
      <ele>115.80000305175781</ele>
      <time>2026-08-12T00:13:39.734+02:00</time>
      <extensions>
        <activity type="IN_VEHICLE" conf="97" state="moving" tsMs="1786486415403"/>
        <radio op="vodafone IT" rat="LTE" q="46.50" rsrp="-94" sinr="10" rsrq="-10"/>
        <radio op="I TIM" rat="LTE" rsrp="-114" rsrq="-17"/>
      </extensions>
    </trkpt>
    <trkpt lat="45.6356504" lon="10.5994658">
      <ele>115.4000015258789</ele>
      <time>2026-08-12T00:14:11.334+02:00</time>
      <extensions>
        <activity type="IN_VEHICLE" conf="97" state="moving" tsMs="1786486448044"/>
        <radio op="vodafone IT" rat="LTE" rsrp="-101" rsrq="-11"/>
        <radio op="I TIM" rat="LTE" rsrp="-112" rsrq="-20"/>
      </extensions>
    </trkpt>
    <trkpt lat="45.6347917" lon="10.5955868">
      <ele>115.80000305175781</ele>
      <time>2026-08-12T00:14:42.934+02:00</time>
      <extensions>
        <activity type="IN_VEHICLE" conf="97" state="moving" tsMs="1786486479665"/>
        <radio op="vodafone IT" rat="LTE" q="32.40" rsrp="-98" sinr="7" rsrq="-7"/>
        <radio op="I TIM" rat="LTE" rsrp="-108" rsrq="-19"/>
      </extensions>
    </trkpt>
    <trkpt lat="45.6343068" lon="10.5943197">
      <ele>115.4000015258789</ele>
      <time>2026-08-12T00:14:51.006+02:00</time>
      <extensions>
        <activity type="IN_VEHICLE" conf="97" state="moving" tsMs="1786486489689"/>
        <radio op="vodafone IT" rat="LTE" q="31.90" rsrp="-96" sinr="6" rsrq="-12"/>
        <radio op="I TIM" rat="LTE" rsrp="-109" rsrq="-19"/>
      </extensions>
    </trkpt>
    <trkpt lat="45.6312427" lon="10.5889774">
      <ele>118.06614077428671</ele>
      <time>2026-08-12T00:15:24.533+02:00</time>
      <extensions>
        <activity type="IN_VEHICLE" conf="97" state="moving" tsMs="1786486521889"/>
        <radio op="vodafone IT" rat="LTE" rsrp="-106" rsrq="-13"/>
        <radio op="I TIM" rat="LTE" rsrp="-109" rsrq="-20"/>
      </extensions>
    </trkpt>
    <trkpt lat="45.626143" lon="10.5805936">
      <ele>121.9000015258789</ele>
      <time>2026-08-12T00:16:36.006+02:00</time>
      <extensions>
        <activity type="IN_VEHICLE" conf="97" state="moving" tsMs="1786486605014"/>
        <radio op="vodafone IT" rat="LTE" rsrp="-107" rsrq="-14"/>
        <radio op="I TIM" rat="LTE" rsrp="-112" rsrq="-12"/>
      </extensions>
    </trkpt>
    <trkpt lat="45.6245933" lon="10.5737184">
      <ele>123.4000015258789</ele>
      <time>2026-08-12T00:17:09.631+02:00</time>
      <extensions>
        <activity type="IN_VEHICLE" conf="96" state="moving" tsMs="1786486626523"/>
        <radio op="vodafone IT" rat="LTE" rsrp="-102" rsrq="-16"/>
        <radio op="I TIM" rat="LTE" q="9.60" rsrp="-113" sinr="3" rsrq="-18"/>
      </extensions>
    </trkpt>
    <trkpt lat="45.6222655" lon="10.5692129">
      <ele>122.9000015258789</ele>
      <time>2026-08-12T00:17:41.185+02:00</time>
      <extensions>
        <activity type="IN_VEHICLE" conf="97" state="moving" tsMs="1786486656682"/>
        <radio op="vodafone IT" rat="LTE" rsrp="-109" rsrq="-14"/>
        <radio op="I TIM" rat="LTE" q="45.00" rsrp="-95" sinr="10" rsrq="-11"/>
      </extensions>
    </trkpt>
    <trkpt lat="45.6194974" lon="10.5648248">
      <ele>118.0</ele>
      <time>2026-08-12T00:18:12.725+02:00</time>
      <extensions>
        <activity type="IN_VEHICLE" conf="97" state="moving" tsMs="1786486689481"/>
        <radio op="vodafone IT" rat="LTE" q="61.20" rsrp="-89" sinr="12" rsrq="-7"/>
        <radio op="I TIM" rat="LTE" rsrp="-94" rsrq="-15"/>
      </extensions>
    </trkpt>
    <trkpt lat="45.6182918" lon="10.5593801">
      <ele>118.9000015258789</ele>
      <time>2026-08-12T00:18:44.398+02:00</time>
      <extensions>
        <activity type="IN_VEHICLE" conf="97" state="moving" tsMs="1786486721037"/>
        <radio op="vodafone IT" rat="LTE" q="57.00" rsrp="-95" sinr="14" rsrq="-12"/>
        <radio op="I TIM" rat="LTE" q="82.50" rsrp="-92" sinr="23" rsrq="-12"/>
      </extensions>
    </trkpt>
    <trkpt lat="45.614283" lon="10.5504578">
      <ele>122.80000305175781</ele>
      <time>2026-08-12T00:19:47.725+02:00</time>
      <extensions>
        <activity type="IN_VEHICLE" conf="97" state="moving" tsMs="1786486794508"/>
        <radio op="vodafone IT" rat="LTE" q="23.10" rsrp="-104" sinr="6" rsrq="-12"/>
        <radio op="I TIM" rat="LTE" rsrp="-112" rsrq="-19"/>
      </extensions>
    </trkpt>
    <trkpt lat="45.6128266" lon="10.5438629">
      <ele>122.80000305175781</ele>
      <time>2026-08-12T00:20:22.006+02:00</time>
      <extensions>
        <activity type="IN_VEHICLE" conf="97" state="moving" tsMs="1786486827931"/>
        <radio op="vodafone IT" rat="LTE" q="63.80" rsrp="-96" sinr="17" rsrq="-10"/>
        <radio op="I TIM" rat="LTE" q="27.50" rsrp="-100" sinr="6" rsrq="-12"/>
      </extensions>
    </trkpt>
    <trkpt lat="45.6103981" lon="10.5357323">
      <ele>148.2079899747837</ele>
      <time>2026-08-12T00:21:05.006+02:00</time>
      <extensions>
        <activity type="IN_VEHICLE" conf="96" state="moving" tsMs="1786486866166"/>
        <radio op="vodafone IT" rat="LTE" q="66.00" rsrp="-95" sinr="17" rsrq="-11"/>
        <radio op="I TIM" rat="LTE" q="36.30" rsrp="-92" sinr="6" rsrq="-11"/>
      </extensions>
    </trkpt>
    <trkpt lat="45.6088221" lon="10.5288712">
      <ele>162.36890820358593</ele>
      <time>2026-08-12T00:21:49.006+02:00</time>
      <extensions>
        <activity type="IN_VEHICLE" conf="96" state="moving" tsMs="1786486916690"/>
        <radio op="vodafone IT" rat="LTE" q="12.60" rsrp="-107" sinr="2" rsrq="-9"/>
        <radio op="I TIM" rat="LTE" rsrp="-102" rsrq="-18"/>
      </extensions>
    </trkpt>
    <trkpt lat="45.608894" lon="10.5217357">
      <ele>158.35886184535977</ele>
      <time>2026-08-12T00:22:28.523+02:00</time>
      <extensions>
        <activity type="IN_VEHICLE" conf="96" state="moving" tsMs="1786486943464"/>
        <radio op="vodafone IT" rat="LTE" q="17.60" rsrp="-103" sinr="3" rsrq="-14"/>
        <radio op="I TIM" rat="LTE" q="28.00" rsrp="-90" sinr="3" rsrq="-11"/>
      </extensions>
    </trkpt>
    <trkpt lat="45.6107568" lon="10.5164503">
      <ele>158.18130630722237</ele>
      <time>2026-08-12T00:23:03.006+02:00</time>
      <extensions>
        <activity type="IN_VEHICLE" conf="96" state="moving" tsMs="1786486984067"/>
        <radio op="vodafone IT" rat="LTE" rsrp="-111" rsrq="-13"/>
        <radio op="I TIM" rat="LTE" rsrp="-109" rsrq="-17"/>
      </extensions>
    </trkpt>
    <trkpt lat="45.6114789" lon="10.5109809">
      <ele>160.00001525878906</ele>
      <time>2026-08-12T00:23:43.162+02:00</time>
      <extensions>
        <activity type="IN_VEHICLE" conf="98" state="moving" tsMs="1786487019162"/>
        <radio op="vodafone IT" rat="LTE" q="35.00" rsrp="-100" sinr="9" rsrq="-12"/>
        <radio op="I TIM" rat="LTE" q="32.00" rsrp="-93" sinr="5" rsrq="-11"/>
      </extensions>
    </trkpt>
    <trkpt lat="45.6103926" lon="10.5057792">
      <ele>169.24032053672587</ele>
      <time>2026-08-12T00:24:18.006+02:00</time>
      <extensions>
        <activity type="IN_VEHICLE" conf="96" state="moving" tsMs="1786487065914"/>
        <radio op="vodafone IT" rat="LTE" q="30.00" rsrp="-100" sinr="7" rsrq="-13"/>
        <radio op="I TIM" rat="LTE" q="40.70" rsrp="-88" sinr="6" rsrq="-10"/>
      </extensions>
    </trkpt>
    <trkpt lat="45.6100029" lon="10.4997525">
      <ele>188.02136105971312</ele>
      <time>2026-08-12T00:24:57.814+02:00</time>
      <extensions>
        <activity type="IN_VEHICLE" conf="97" state="moving" tsMs="1786487092252"/>
        <radio op="vodafone IT" rat="LTE" q="39.00" rsrp="-95" sinr="8" rsrq="-13"/>
        <radio op="I TIM" rat="LTE" rsrp="-96" rsrq="-12"/>
      </extensions>
    </trkpt>
    <trkpt lat="45.6099068" lon="10.4990265">
      <ele>187.93536421912563</ele>
      <time>2026-08-12T00:25:05.006+02:00</time>
      <extensions>
        <activity type="IN_VEHICLE" conf="97" state="moving" tsMs="1786487097607"/>
        <radio op="vodafone IT" rat="LTE" q="25.00" rsrp="-100" sinr="5" rsrq="-12"/>
        <radio op="I TIM" rat="LTE" q="12.00" rsrp="-101" sinr="0" rsrq="-13"/>
      </extensions>
    </trkpt>
    <trkpt lat="45.6111147" lon="10.4927902">
      <ele>216.16169269127525</ele>
      <time>2026-08-12T00:25:39.48+02:00</time>
      <extensions>
        <activity type="IN_VEHICLE" conf="97" state="moving" tsMs="1786487134229"/>
        <radio op="vodafone IT" rat="LTE" q="19.80" rsrp="-107" sinr="6" rsrq="-12"/>
        <radio op="I TIM" rat="LTE" rsrp="-112" rsrq="-14"/>
      </extensions>
    </trkpt>
    <trkpt lat="45.6123007" lon="10.4873054">
      <ele>237.7191790580067</ele>
      <time>2026-08-12T00:26:10.981+02:00</time>
      <extensions>
        <activity type="IN_VEHICLE" conf="97" state="moving" tsMs="1786487166291"/>
        <radio op="vodafone IT" rat="LTE" q="15.60" rsrp="-99" sinr="1" rsrq="-10"/>
        <radio op="I TIM" rat="LTE" rsrp="-113" rsrq="-18"/>
      </extensions>
    </trkpt>
    <trkpt lat="45.606201" lon="10.4688794">
      <ele>255.83536782382492</ele>
      <time>2026-08-12T00:27:41.28+02:00</time>
      <extensions>
        <activity type="IN_VEHICLE" conf="96" state="moving" tsMs="1786487258912"/>
        <radio op="vodafone IT" rat="LTE" q="100.00" rsrp="-79" sinr="24" rsrq="-6"/>
        <radio op="I TIM" rat="LTE" q="56.70" rsrp="-98" sinr="16" rsrq="-9"/>
      </extensions>
    </trkpt>
    <trkpt lat="45.606201" lon="10.4688794">
      <ele>257.82614458105945</ele>
      <time>2026-08-12T00:27:48.61+02:00</time>
      <extensions>
        <activity type="IN_VEHICLE" conf="97" state="moving" tsMs="1786487274035"/>
        <radio op="vodafone IT" rat="LTE" q="100.00" rsrp="-70" sinr="30" rsrq="-6"/>
        <radio op="I TIM" rat="LTE" q="77.00" rsrp="-90" sinr="17" rsrq="-6"/>
      </extensions>
    </trkpt>
    <trkpt lat="45.605399" lon="10.4678469">
      <ele>256.2558842040222</ele>
      <time>2026-08-12T00:28:31.496+02:00</time>
      <extensions>
        <activity type="IN_VEHICLE" conf="96" state="moving" tsMs="1786487312038"/>
        <radio op="vodafone IT" rat="LTE" q="100.00" rsrp="-66" sinr="29" rsrq="-6"/>
        <radio op="I TIM" rat="LTE" q="45.00" rsrp="-100" sinr="13" rsrq="-7"/>
      </extensions>
    </trkpt>
    <trkpt lat="45.6045037" lon="10.4627494">
      <ele>258.75634685526256</ele>
      <time>2026-08-12T00:29:11.819+02:00</time>
      <extensions>
        <activity type="IN_VEHICLE" conf="96" state="moving" tsMs="1786487347224"/>
        <radio op="vodafone IT" rat="LTE" q="52.00" rsrp="-72" sinr="8" rsrq="-6"/>
        <radio op="I TIM" rat="LTE" rsrp="-87" rsrq="-8"/>
      </extensions>
    </trkpt>
    <trkpt lat="45.6033563" lon="10.4577123">
      <ele>254.6973810381836</ele>
      <time>2026-08-12T00:29:43.345+02:00</time>
      <extensions>
        <activity type="IN_VEHICLE" conf="97" state="moving" tsMs="1786487378440"/>
        <radio op="vodafone IT" rat="LTE" q="100.00" rsrp="-61" sinr="28" rsrq="-7"/>
        <radio op="I TIM" rat="LTE" q="100.00" rsrp="-77" sinr="25" rsrq="-10"/>
      </extensions>
    </trkpt>
    <trkpt lat="45.6013065" lon="10.4537902">
      <ele>251.77636481767775</ele>
      <time>2026-08-12T00:30:14.899+02:00</time>
      <extensions>
        <activity type="IN_VEHICLE" conf="96" state="moving" tsMs="1786487410083"/>
        <radio op="vodafone IT" rat="LTE" q="41.80" rsrp="-87" sinr="6" rsrq="-8"/>
        <radio op="I TIM" rat="LTE" q="56.00" rsrp="-97" sinr="15" rsrq="-13"/>
      </extensions>
    </trkpt>
    <trkpt lat="45.6021883" lon="10.4532105">
      <ele>251.9959873630077</ele>
      <time>2026-08-12T00:30:46.305+02:00</time>
      <extensions>
        <activity type="IN_VEHICLE" conf="97" state="moving" tsMs="1786487441548"/>
        <radio op="vodafone IT" rat="LTE" q="31.20" rsrp="-86" sinr="3" rsrq="-10"/>
        <radio op="I TIM" rat="LTE" q="51.00" rsrp="-91" sinr="10" rsrq="-8"/>
      </extensions>
    </trkpt>
    <trkpt lat="45.6021721" lon="10.4531961">
      <ele>251.6552582512669</ele>
      <time>2026-08-12T00:31:17.864+02:00</time>
      <extensions>
        <activity type="STILL" conf="98" state="still" tsMs="1786487476820"/>
        <radio op="vodafone IT" rat="LTE" q="23.40" rsrp="-107" sinr="8" rsrq="-9"/>
        <radio op="I TIM" rat="LTE" q="13.20" rsrp="-103" sinr="1" rsrq="-12"/>
      </extensions>
    </trkpt>
    <trkpt lat="45.6021274" lon="10.4531041">
      <ele>251.7045663558934</ele>
      <time>2026-08-12T00:31:49.417+02:00</time>
      <extensions>
        <activity type="STILL" conf="98" state="still" tsMs="1786487505017"/>
        <radio op="vodafone IT" rat="LTE" q="48.40" rsrp="-103" sinr="17" rsrq="-7"/>
        <radio op="I TIM" rat="LTE" q="55.10" rsrp="-96" sinr="14" rsrq="-11"/>
      </extensions>
    </trkpt>
    <trkpt lat="45.6021719" lon="10.4531397">
      <ele>252.21624042250153</ele>
      <time>2026-08-12T00:32:20.977+02:00</time>
      <extensions>
        <activity type="UNKNOWN" conf="40" state="unknown" tsMs="1786487540039"/>
        <radio op="vodafone IT" rat="LTE" q="21.00" rsrp="-104" sinr="5" rsrq="-10"/>
        <radio op="I TIM" rat="LTE" q="52.70" rsrp="-94" sinr="12" rsrq="-12"/>
      </extensions>
    </trkpt>
    <trkpt lat="45.6023951" lon="10.4536455">
      <ele>252.49497780968989</ele>
      <time>2026-08-12T00:32:52.597+02:00</time>
      <extensions>
        <activity type="ON_FOOT" conf="96" state="moving" tsMs="1786487568901"/>
        <radio op="vodafone IT" rat="LTE" rsrp="-104" rsrq="-9"/>
        <radio op="I TIM" rat="LTE" q="48.00" rsrp="-101" sinr="15" rsrq="-12"/>
      </extensions>
    </trkpt>
    <trkpt lat="45.6025639" lon="10.4537087">
      <ele>253.19819636406982</ele>
      <time>2026-08-12T00:33:24.054+02:00</time>
      <extensions>
        <activity type="ON_FOOT" conf="97" state="moving" tsMs="1786487600292"/>
        <radio op="vodafone IT" rat="LTE" rsrp="-128" rsrq="-16"/>
        <radio op="I TIM" rat="LTE" q="10.00" rsrp="-115" sinr="5" rsrq="-12"/>
      </extensions>
    </trkpt>
    <trkpt lat="45.6025524" lon="10.4537093">
      <ele>252.98256980448895</ele>
      <time>2026-08-12T00:33:55.617+02:00</time>
      <extensions>
        <activity type="UNKNOWN" conf="40" state="unknown" tsMs="1786487631830"/>
        <radio op="vodafone IT" rat="LTE" q="12.00" rsrp="-110" sinr="3" rsrq="-9"/>
        <radio op="I TIM" rat="LTE" q="30.60" rsrp="-108" sinr="13" rsrq="-12"/>
      </extensions>
    </trkpt>
    <trkpt lat="45.6025543" lon="10.4537037">
      <ele>261.6000061035156</ele>
      <time>2026-08-12T00:34:27.25+02:00</time>
      <extensions>
        <activity type="STILL" conf="99" state="still" tsMs="1786487663522"/>
        <radio op="vodafone IT" rat="LTE" q="20.80" rsrp="-109" sinr="8" rsrq="-10"/>
        <radio op="I TIM" rat="LTE" q="30.00" rsrp="-110" sinr="15" rsrq="-12"/>
      </extensions>
    </trkpt>
    <trkpt lat="45.6025521" lon="10.4537044">
      <ele>261.6000061035156</ele>
      <time>2026-08-12T00:34:58.889+02:00</time>
      <extensions>
        <activity type="STILL" conf="99" state="still" tsMs="1786487695000"/>
        <radio op="vodafone IT" rat="LTE" q="18.00" rsrp="-110" sinr="7" rsrq="-10"/>
        <radio op="I TIM" rat="LTE" q="42.50" rsrp="-108" sinr="20" rsrq="-11"/>
      </extensions>
    </trkpt>
    <trkpt lat="45.6025469" lon="10.4536969">
      <ele>261.6000061035156</ele>
      <time>2026-08-12T00:35:30.619+02:00</time>
      <extensions>
        <activity type="STILL" conf="99" state="still" tsMs="1786487726571"/>
        <radio op="vodafone IT" rat="LTE" q="10.50" rsrp="-110" sinr="2" rsrq="-9"/>
        <radio op="I TIM" rat="LTE" q="31.50" rsrp="-110" sinr="16" rsrq="-11"/>
      </extensions>
    </trkpt>
    <trkpt lat="45.6025459" lon="10.453688">
      <ele>261.6000061035156</ele>
      <time>2026-08-12T00:35:44.462+02:00</time>
      <extensions>
        <activity type="STILL" conf="99" state="still" tsMs="1786487742227"/>
        <radio op="vodafone IT" rat="LTE" q="14.40" rsrp="-107" sinr="3" rsrq="-9"/>
        <radio op="I TIM" rat="LTE" q="37.80" rsrp="-107" sinr="16" rsrq="-12"/>
      </extensions>
    </trkpt>
    <trkpt lat="45.6025492" lon="10.4537085">
      <ele>261.6000061035156</ele>
      <time>2026-08-12T00:36:22.5+02:00</time>
      <extensions>
        <activity type="STILL" conf="99" state="still" tsMs="1786487777665"/>
        <radio op="vodafone IT" rat="LTE" q="20.80" rsrp="-109" sinr="8" rsrq="-9"/>
        <radio op="I TIM" rat="LTE" q="34.00" rsrp="-108" sinr="15" rsrq="-11"/>
      </extensions>
    </trkpt>
    <trkpt lat="45.6023964" lon="10.4536608">
      <ele>261.5</ele>
      <time>2026-08-12T11:28:09.631+02:00</time>
      <extensions>
        <activity type="UNKNOWN" conf="40" state="unknown" tsMs="1786526886782"/>
        <radio op="vodafone IT" rat="LTE" q="8.40" rsrp="-113" sinr="2" rsrq="-10"/>
        <radio op="I TIM" rat="LTE" q="35.70" rsrp="-104" sinr="12" rsrq="-9"/>
      </extensions>
    </trkpt>
    <trkpt lat="45.6021884" lon="10.4533736">
      <ele>261.5</ele>
      <time>2026-08-12T11:28:41.118+02:00</time>
      <extensions>
        <activity type="ON_FOOT" conf="90" state="moving" tsMs="1786526892817"/>
        <radio op="vodafone IT" rat="LTE" q="37.80" rsrp="-104" sinr="13" rsrq="-8"/>
        <radio op="I TIM" rat="LTE" q="27.60" rsrp="-102" sinr="7" rsrq="-11"/>
      </extensions>
    </trkpt>
    <trkpt lat="45.6021722" lon="10.4531126">
      <ele>261.6000061035156</ele>
      <time>2026-08-12T11:29:26.303+02:00</time>
      <extensions>
        <activity type="UNKNOWN" conf="40" state="unknown" tsMs="1786526960945"/>
        <radio op="vodafone IT" rat="LTE" q="31.50" rsrp="-104" sinr="10" rsrq="-9"/>
        <radio op="I TIM" rat="LTE" q="52.50" rsrp="-100" sinr="16" rsrq="-8"/>
      </extensions>
    </trkpt>
    <trkpt lat="45.6012211" lon="10.453579">
      <ele>261.20001220703125</ele>
      <time>2026-08-12T11:30:04.147+02:00</time>
      <extensions>
        <activity type="IN_VEHICLE" conf="86" state="moving" tsMs="1786527000944"/>
        <radio op="vodafone IT" rat="LTE" q="13.60" rsrp="-108" sinr="3" rsrq="-8"/>
        <radio op="I TIM" rat="LTE" q="9.50" rsrp="-106" sinr="0" rsrq="-9"/>
      </extensions>
    </trkpt>
    <trkpt lat="45.6024014" lon="10.4553982">
      <ele>261.20001220703125</ele>
      <time>2026-08-12T11:31:10.572+02:00</time>
      <extensions>
        <activity type="UNKNOWN" conf="40" state="unknown" tsMs="1786527061299"/>
        <radio op="vodafone IT" rat="LTE" q="28.50" rsrp="-110" sinr="14" rsrq="-8"/>
        <radio op="I TIM" rat="LTE" rsrp="-109" rsrq="-10"/>
      </extensions>
    </trkpt>
    <trkpt lat="45.6037833" lon="10.459559">
      <ele>264.6000061035156</ele>
      <time>2026-08-12T11:31:56.33+02:00</time>
      <extensions>
        <activity type="IN_VEHICLE" conf="89" state="moving" tsMs="1786527115326"/>
        <radio op="vodafone IT" rat="LTE" q="100.00" rsrp="-83" sinr="28" rsrq="-6"/>
        <radio op="I TIM" rat="LTE" q="49.40" rsrp="-87" sinr="8" rsrq="-7"/>
      </extensions>
    </trkpt>
    <trkpt lat="45.6039562" lon="10.4605172">
      <ele>264.6000061035156</ele>
      <time>2026-08-12T11:32:02.422+02:00</time>
      <extensions>
        <activity type="IN_VEHICLE" conf="89" state="moving" tsMs="1786527115326"/>
        <radio op="vodafone IT" rat="LTE" q="100.00" rsrp="-84" sinr="29" rsrq="-6"/>
        <radio op="I TIM" rat="LTE" q="26.40" rsrp="-103" sinr="7" rsrq="-10"/>
      </extensions>
    </trkpt>
    <trkpt lat="45.60454" lon="10.4663925">
      <ele>268.6007163357906</ele>
      <time>2026-08-12T11:32:50.421+02:00</time>
      <extensions>
        <activity type="IN_VEHICLE" conf="96" state="moving" tsMs="1786527164301"/>
        <radio op="vodafone IT" rat="LTE" q="57.20" rsrp="-99" sinr="17" rsrq="-9"/>
        <radio op="I TIM" rat="LTE" q="26.40" rsrp="-101" sinr="6" rsrq="-13"/>
      </extensions>
    </trkpt>
    <trkpt lat="45.6121638" lon="10.4871116">
      <ele>244.46428268258907</ele>
      <time>2026-08-12T11:34:43.069+02:00</time>
      <extensions>
        <activity type="IN_VEHICLE" conf="74" state="moving" tsMs="1786527288302"/>
        <radio op="vodafone IT" rat="LTE" rsrp="-116" rsrq="-16"/>
        <radio op="I TIM" rat="LTE" q="4.20" rsrp="-118" sinr="1" rsrq="-17"/>
      </extensions>
    </trkpt>
    <trkpt lat="45.6100517" lon="10.4996661">
      <ele>200.10000610351562</ele>
      <time>2026-08-12T11:35:52.422+02:00</time>
      <extensions>
        <activity type="IN_VEHICLE" conf="74" state="moving" tsMs="1786527326164"/>
        <radio op="vodafone IT" rat="LTE" q="49.50" rsrp="-92" sinr="10" rsrq="-10"/>
        <radio op="I TIM" rat="LTE" rsrp="-108" rsrq="-14"/>
      </extensions>
    </trkpt>
    <trkpt lat="45.6099292" lon="10.4996443">
      <ele>194.3000030517578</ele>
      <time>2026-08-12T11:36:23.46+02:00</time>
      <extensions>
        <activity type="UNKNOWN" conf="40" state="unknown" tsMs="1786527386204"/>
        <radio op="vodafone IT" rat="LTE" q="43.20" rsrp="-89" sinr="7" rsrq="-11"/>
        <radio op="I TIM" rat="LTE" q="27.20" rsrp="-91" sinr="3" rsrq="-14"/>
      </extensions>
    </trkpt>
    <trkpt lat="45.609848" lon="10.4996538">
      <ele>197.37795579669282</ele>
      <time>2026-08-12T11:36:54.413+02:00</time>
      <extensions>
        <activity type="ON_FOOT" conf="95" state="moving" tsMs="1786527409915"/>
        <radio op="vodafone IT" rat="LTE" q="35.20" rsrp="-93" sinr="6" rsrq="-8"/>
        <radio op="I TIM" rat="LTE" rsrp="-87" rsrq="-14"/>
      </extensions>
    </trkpt>
    <trkpt lat="45.6098575" lon="10.4996536">
      <ele>197.79454978274532</ele>
      <time>2026-08-12T11:37:30.546+02:00</time>
      <extensions>
        <activity type="STILL" conf="97" state="still" tsMs="1786527453884"/>
        <radio op="vodafone IT" rat="LTE" q="55.80" rsrp="-94" sinr="13" rsrq="-7"/>
        <radio op="I TIM" rat="LTE" rsrp="-91" rsrq="-14"/>
      </extensions>
    </trkpt>
    <trkpt lat="45.6098697" lon="10.4996262">
      <ele>197.88297404482682</ele>
      <time>2026-08-12T11:38:03.554+02:00</time>
      <extensions>
        <activity type="STILL" conf="65" state="still" tsMs="1786527478406"/>
        <radio op="vodafone IT" rat="LTE" q="54.40" rsrp="-91" sinr="11" rsrq="-12"/>
        <radio op="I TIM" rat="LTE" q="38.00" rsrp="-87" sinr="5" rsrq="-13"/>
      </extensions>
    </trkpt>
    <trkpt lat="45.6098652" lon="10.4996062">
      <ele>197.72605232541665</ele>
      <time>2026-08-12T11:38:30.588+02:00</time>
      <extensions>
        <activity type="STILL" conf="97" state="still" tsMs="1786527510921"/>
        <radio op="vodafone IT" rat="LTE" q="46.80" rsrp="-89" sinr="8" rsrq="-8"/>
        <radio op="I TIM" rat="LTE" q="22.80" rsrp="-87" sinr="1" rsrq="-13"/>
      </extensions>
    </trkpt>
    <trkpt lat="45.6098693" lon="10.499599">
      <ele>193.8000030517578</ele>
      <time>2026-08-12T11:39:05.437+02:00</time>
      <extensions>
        <activity type="STILL" conf="97" state="still" tsMs="1786527541545"/>
        <radio op="vodafone IT" rat="LTE" q="70.30" rsrp="-88" sinr="14" rsrq="-12"/>
        <radio op="I TIM" rat="LTE" rsrp="-85" rsrq="-13"/>
      </extensions>
    </trkpt>
    <trkpt lat="45.6098512" lon="10.4996319">
      <ele>193.8000030517578</ele>
      <time>2026-08-12T11:39:36.666+02:00</time>
      <extensions>
        <activity type="STILL" conf="99" state="still" tsMs="1786527572880"/>
        <radio op="vodafone IT" rat="LTE" q="72.20" rsrp="-87" sinr="14" rsrq="-8"/>
        <radio op="I TIM" rat="LTE" rsrp="-85" rsrq="-14"/>
      </extensions>
    </trkpt>
    <trkpt lat="45.6098113" lon="10.4996325">
      <ele>193.90000915527344</ele>
      <time>2026-08-12T12:13:41.451+02:00</time>
      <extensions>
        <activity type="UNKNOWN" conf="40" state="unknown" tsMs="1786529599500"/>
        <radio op="vodafone IT" rat="LTE" q="54.40" rsrp="-91" sinr="11" rsrq="-6"/>
        <radio op="I TIM" rat="LTE" q="28.80" rsrp="-93" sinr="4" rsrq="-13"/>
      </extensions>
    </trkpt>
    <trkpt lat="45.609811" lon="10.499633">
      <ele>193.8000030517578</ele>
      <time>2026-08-12T12:13:50.432+02:00</time>
      <extensions>
        <activity type="UNKNOWN" conf="40" state="unknown" tsMs="1786529617648"/>
        <radio op="vodafone IT" rat="LTE" q="52.20" rsrp="-96" sinr="13" rsrq="-10"/>
        <radio op="I TIM" rat="LTE" rsrp="-92" rsrq="-14"/>
      </extensions>
    </trkpt>
    <trkpt lat="45.6098389" lon="10.4996455">
      <ele>193.90000915527344</ele>
      <time>2026-08-12T12:14:11.503+02:00</time>
      <extensions>
        <activity type="STILL" conf="99" state="still" tsMs="1786529641485"/>
        <radio op="vodafone IT" rat="LTE" q="46.50" rsrp="-94" sinr="10" rsrq="-10"/>
        <radio op="I TIM" rat="LTE" q="16.50" rsrp="-92" sinr="0" rsrq="-14"/>
      </extensions>
    </trkpt>
    <trkpt lat="45.6098107" lon="10.4996753">
      <ele>193.90000915527344</ele>
      <time>2026-08-12T12:14:21.474+02:00</time>
      <extensions>
        <activity type="STILL" conf="100" state="still" tsMs="1786529645943"/>
        <radio op="vodafone IT" rat="LTE" q="33.00" rsrp="-95" sinr="6" rsrq="-9"/>
        <radio op="I TIM" rat="LTE" q="17.50" rsrp="-90" sinr="0" rsrq="-14"/>
      </extensions>
    </trkpt>
    <trkpt lat="45.6098106" lon="10.4996755">
      <ele>193.90000915527344</ele>
      <time>2026-08-12T12:14:31.442+02:00</time>
      <extensions>
        <activity type="STILL" conf="97" state="still" tsMs="1786529664098"/>
        <radio op="vodafone IT" rat="LTE" q="44.80" rsrp="-97" sinr="11" rsrq="-9"/>
        <radio op="I TIM" rat="LTE" q="16.50" rsrp="-92" sinr="0" rsrq="-14"/>
      </extensions>
    </trkpt>
    <trkpt lat="45.6098099" lon="10.4996774">
      <ele>193.90000915527344</ele>
      <time>2026-08-12T12:14:41.417+02:00</time>
      <extensions>
        <activity type="STILL" conf="97" state="still" tsMs="1786529664098"/>
        <radio op="vodafone IT" rat="LTE" q="52.70" rsrp="-94" sinr="12" rsrq="-10"/>
        <radio op="I TIM" rat="LTE" q="19.80" rsrp="-92" sinr="1" rsrq="-14"/>
      </extensions>
    </trkpt>
    <trkpt lat="45.6098083" lon="10.4996794">
      <ele>193.90000915527344</ele>
      <time>2026-08-12T12:14:52.17+02:00</time>
      <extensions>
        <activity type="UNKNOWN" conf="40" state="unknown" tsMs="1786529676160"/>
        <radio op="vodafone IT" rat="LTE" q="52.70" rsrp="-94" sinr="12" rsrq="-8"/>
        <radio op="I TIM" rat="LTE" q="21.00" rsrp="-95" sinr="2" rsrq="-15"/>
      </extensions>
    </trkpt>
    <trkpt lat="45.6098089" lon="10.4996803">
      <ele>193.90000915527344</ele>
      <time>2026-08-12T12:15:02.476+02:00</time>
      <extensions>
        <activity type="UNKNOWN" conf="40" state="unknown" tsMs="1786529676160"/>
        <radio op="vodafone IT" rat="LTE" q="54.00" rsrp="-95" sinr="13" rsrq="-12"/>
        <radio op="I TIM" rat="LTE" rsrp="-92" rsrq="-16"/>
      </extensions>
    </trkpt>
    <trkpt lat="45.6098094" lon="10.4996814">
      <ele>193.8000030517578</ele>
      <time>2026-08-12T12:15:12.446+02:00</time>
      <extensions>
        <activity type="UNKNOWN" conf="40" state="unknown" tsMs="1786529693289"/>
        <radio op="vodafone IT" rat="LTE" q="61.20" rsrp="-91" sinr="13" rsrq="-8"/>
        <radio op="I TIM" rat="LTE" rsrp="-91" rsrq="-14"/>
      </extensions>
    </trkpt>
    <trkpt lat="45.6098087" lon="10.4996826">
      <ele>193.8000030517578</ele>
      <time>2026-08-12T12:15:22.525+02:00</time>
      <extensions>
        <activity type="UNKNOWN" conf="40" state="unknown" tsMs="1786529693289"/>
        <radio op="vodafone IT" rat="LTE" q="52.70" rsrp="-94" sinr="12" rsrq="-6"/>
        <radio op="I TIM" rat="LTE" rsrp="-91" rsrq="-15"/>
      </extensions>
    </trkpt>
    <trkpt lat="45.6098081" lon="10.4996826">
      <ele>193.90000915527344</ele>
      <time>2026-08-12T12:15:32.493+02:00</time>
      <extensions>
        <activity type="STILL" conf="100" state="still" tsMs="1786529711513"/>
        <radio op="vodafone IT" rat="LTE" q="57.00" rsrp="-95" sinr="14" rsrq="-10"/>
        <radio op="I TIM" rat="LTE" rsrp="-90" rsrq="-16"/>
      </extensions>
    </trkpt>
    <trkpt lat="45.609808" lon="10.499683">
      <ele>193.90000915527344</ele>
      <time>2026-08-12T12:15:42.46+02:00</time>
      <extensions>
        <activity type="STILL" conf="46" state="still" tsMs="1786529729643"/>
        <radio op="vodafone IT" rat="LTE" q="62.00" rsrp="-94" sinr="15" rsrq="-10"/>
        <radio op="I TIM" rat="LTE" rsrp="-91" rsrq="-16"/>
      </extensions>
    </trkpt>
    <trkpt lat="45.6098071" lon="10.4996836">
      <ele>193.90000915527344</ele>
      <time>2026-08-12T12:15:52.761+02:00</time>
      <extensions>
        <activity type="STILL" conf="46" state="still" tsMs="1786529729643"/>
        <radio op="vodafone IT" rat="LTE" q="65.10" rsrp="-94" sinr="16" rsrq="-10"/>
        <radio op="I TIM" rat="LTE" rsrp="-91" rsrq="-15"/>
      </extensions>
    </trkpt>
    <trkpt lat="45.6098071" lon="10.4996838">
      <ele>193.90000915527344</ele>
      <time>2026-08-12T12:16:02.506+02:00</time>
      <extensions>
        <activity type="STILL" conf="38" state="still" tsMs="1786529747801"/>
        <radio op="vodafone IT" rat="LTE" q="54.00" rsrp="-95" sinr="13" rsrq="-9"/>
        <radio op="I TIM" rat="LTE" rsrp="-91" rsrq="-15"/>
      </extensions>
    </trkpt>
    <trkpt lat="45.6098065" lon="10.4996845">
      <ele>193.8000030517578</ele>
      <time>2026-08-12T12:16:12.477+02:00</time>
      <extensions>
        <activity type="STILL" conf="38" state="still" tsMs="1786529747801"/>
        <radio op="vodafone IT" rat="LTE" q="60.00" rsrp="-95" sinr="15" rsrq="-9"/>
        <radio op="I TIM" rat="LTE" rsrp="-91" rsrq="-15"/>
      </extensions>
    </trkpt>
    <trkpt lat="45.6098061" lon="10.4996853">
      <ele>193.90000915527344</ele>
      <time>2026-08-12T12:16:23.452+02:00</time>
      <extensions>
        <activity type="STILL" conf="100" state="still" tsMs="1786529765979"/>
        <radio op="vodafone IT" rat="LTE" q="64.00" rsrp="-93" sinr="15" rsrq="-9"/>
        <radio op="I TIM" rat="LTE" rsrp="-91" rsrq="-15"/>
      </extensions>
    </trkpt>
    <trkpt lat="45.6098057" lon="10.4996853">
      <ele>193.90000915527344</ele>
      <time>2026-08-12T12:16:33.532+02:00</time>
      <extensions>
        <activity type="STILL" conf="100" state="still" tsMs="1786529765979"/>
        <radio op="vodafone IT" rat="LTE" q="45.00" rsrp="-95" sinr="10" rsrq="-7"/>
        <radio op="I TIM" rat="LTE" rsrp="-89" rsrq="-15"/>
      </extensions>
    </trkpt>
    <trkpt lat="45.6099167" lon="10.4994797">
      <ele>194.00001525878906</ele>
      <time>2026-08-12T12:19:52.085+02:00</time>
      <extensions>
        <activity type="UNKNOWN" conf="40" state="unknown" tsMs="1786530002405"/>
        <radio op="vodafone IT" rat="LTE" q="66.30" rsrp="-86" sinr="12" rsrq="-8"/>
        <radio op="I TIM" rat="LTE" q="19.00" rsrp="-87" sinr="0" rsrq="-13"/>
      </extensions>
    </trkpt>
    <trkpt lat="45.6098624" lon="10.4996131">
      <ele>193.8000030517578</ele>
      <time>2026-08-12T12:20:27.656+02:00</time>
      <extensions>
        <activity type="STILL" conf="97" state="still" tsMs="1786530023852"/>
        <radio op="vodafone IT" rat="LTE" q="48.10" rsrp="-88" sinr="8" rsrq="-9"/>
        <radio op="I TIM" rat="LTE" q="18.50" rsrp="-88" sinr="0" rsrq="-13"/>
      </extensions>
    </trkpt>
    <trkpt lat="45.6098701" lon="10.4995915">
      <ele>193.8000030517578</ele>
      <time>2026-08-12T12:20:59.008+02:00</time>
      <extensions>
        <activity type="UNKNOWN" conf="40" state="unknown" tsMs="1786530054189"/>
        <radio op="vodafone IT" rat="LTE" q="40.00" rsrp="-85" sinr="5" rsrq="-12"/>
        <radio op="I TIM" rat="LTE" rsrp="-88" rsrq="-14"/>
      </extensions>
    </trkpt>
    <trkpt lat="45.6098674" lon="10.4995954">
      <ele>193.8000030517578</ele>
      <time>2026-08-12T12:21:30.091+02:00</time>
      <extensions>
        <activity type="UNKNOWN" conf="40" state="unknown" tsMs="1786530085705"/>
        <radio op="vodafone IT" rat="LTE" q="20.00" rsrp="-85" sinr="0" rsrq="-7"/>
        <radio op="I TIM" rat="LTE" rsrp="-90" rsrq="-15"/>
      </extensions>
    </trkpt>
    <trkpt lat="45.6098634" lon="10.4996088">
      <ele>193.8000030517578</ele>
      <time>2026-08-12T12:22:01.313+02:00</time>
      <extensions>
        <activity type="UNKNOWN" conf="40" state="unknown" tsMs="1786530116873"/>
        <radio op="vodafone IT" rat="LTE" q="36.00" rsrp="-85" sinr="4" rsrq="-9"/>
        <radio op="I TIM" rat="LTE" rsrp="-85" rsrq="-13"/>
      </extensions>
    </trkpt>
    <trkpt lat="45.6098621" lon="10.4996126">
      <ele>193.8000030517578</ele>
      <time>2026-08-12T12:22:30.811+02:00</time>
      <extensions>
        <activity type="UNKNOWN" conf="40" state="unknown" tsMs="1786530148143"/>
        <radio op="vodafone IT" rat="LTE" q="28.00" rsrp="-85" sinr="2" rsrq="-8"/>
        <radio op="I TIM" rat="LTE" q="26.60" rsrp="-87" sinr="2" rsrq="-13"/>
      </extensions>
    </trkpt>
    <trkpt lat="45.6098677" lon="10.4996081">
      <ele>193.8000030517578</ele>
      <time>2026-08-12T12:23:04.139+02:00</time>
      <extensions>
        <activity type="STILL" conf="75" state="still" tsMs="1786530179203"/>
        <radio op="vodafone IT" rat="LTE" q="32.00" rsrp="-85" sinr="3" rsrq="-8"/>
        <radio op="I TIM" rat="LTE" q="18.00" rsrp="-89" sinr="0" rsrq="-14"/>
      </extensions>
    </trkpt>
    <trkpt lat="45.6098715" lon="10.4996098">
      <ele>193.8000030517578</ele>
      <time>2026-08-12T12:23:35.354+02:00</time>
      <extensions>
        <activity type="STILL" conf="97" state="still" tsMs="1786530210802"/>
        <radio op="vodafone IT" rat="LTE" q="49.40" rsrp="-87" sinr="8" rsrq="-9"/>
        <radio op="I TIM" rat="LTE" rsrp="-89" rsrq="-13"/>
      </extensions>
    </trkpt>
    <trkpt lat="45.6099232" lon="10.4995092">
      <ele>194.3000030517578</ele>
      <time>2026-08-12T12:34:51.928+02:00</time>
      <extensions>
        <activity type="UNKNOWN" conf="40" state="unknown" tsMs="1786530892069"/>
        <radio op="vodafone IT" rat="LTE" rsrp="-95" rsrq="-11"/>
        <radio op="I TIM" rat="LTE" q="18.20" rsrp="-99" sinr="2" rsrq="-13"/>
      </extensions>
    </trkpt>
    <trkpt lat="45.609941" lon="10.499548">
      <ele>194.3000030517578</ele>
      <time>2026-08-12T12:35:27.401+02:00</time>
      <extensions>
        <activity type="STILL" conf="98" state="still" tsMs="1786530924483"/>
        <radio op="vodafone IT" rat="LTE" q="20.00" rsrp="-100" sinr="3" rsrq="-10"/>
        <radio op="I TIM" rat="LTE" q="16.80" rsrp="-97" sinr="1" rsrq="-13"/>
      </extensions>
    </trkpt>
    <trkpt lat="45.6099374" lon="10.4995323">
      <ele>194.3000030517578</ele>
      <time>2026-08-12T12:35:56.987+02:00</time>
      <extensions>
        <activity type="STILL" conf="79" state="still" tsMs="1786530955144"/>
        <radio op="vodafone IT" rat="LTE" q="18.20" rsrp="-99" sinr="2" rsrq="-11"/>
        <radio op="I TIM" rat="LTE" q="24.80" rsrp="-94" sinr="3" rsrq="-13"/>
      </extensions>
    </trkpt>
    <trkpt lat="45.609907" lon="10.4995679">
      <ele>192.03007019313793</ele>
      <time>2026-08-12T12:36:35.645+02:00</time>
      <extensions>
        <activity type="ON_FOOT" conf="91" state="moving" tsMs="1786530992356"/>
        <radio op="vodafone IT" rat="LTE" q="42.00" rsrp="-95" sinr="9" rsrq="-10"/>
        <radio op="I TIM" rat="LTE" q="13.50" rsrp="-98" sinr="0" rsrq="-14"/>
      </extensions>
    </trkpt>
    <trkpt lat="45.6099049" lon="10.4995799">
      <ele>189.6924756440003</ele>
      <time>2026-08-12T12:37:06.828+02:00</time>
      <extensions>
        <activity type="UNKNOWN" conf="40" state="unknown" tsMs="1786531026561"/>
        <radio op="vodafone IT" rat="LTE" q="45.00" rsrp="-95" sinr="10" rsrq="-12"/>
        <radio op="I TIM" rat="LTE" rsrp="-97" rsrq="-13"/>
      </extensions>
    </trkpt>
    <trkpt lat="45.6099457" lon="10.4996796">
      <ele>190.00458588682568</ele>
      <time>2026-08-12T12:37:38.225+02:00</time>
      <extensions>
        <activity type="IN_VEHICLE" conf="82" state="moving" tsMs="1786531057629"/>
        <radio op="vodafone IT" rat="LTE" q="39.00" rsrp="-95" sinr="8" rsrq="-6"/>
        <radio op="I TIM" rat="LTE" rsrp="-98" rsrq="-12"/>
      </extensions>
    </trkpt>
    <trkpt lat="45.6099313" lon="10.499637">
      <ele>190.64524127606964</ele>
      <time>2026-08-12T12:38:10.125+02:00</time>
      <extensions>
        <activity type="IN_VEHICLE" conf="97" state="moving" tsMs="1786531089287"/>
        <radio op="vodafone IT" rat="LTE" q="37.70" rsrp="-96" sinr="8" rsrq="-11"/>
        <radio op="I TIM" rat="LTE" rsrp="-93" rsrq="-13"/>
      </extensions>
    </trkpt>
    <trkpt lat="45.6114136" lon="10.4992676">
      <ele>190.80192271601828</ele>
      <time>2026-08-12T12:38:47.413+02:00</time>
      <extensions>
        <activity type="IN_VEHICLE" conf="97" state="moving" tsMs="1786531132259"/>
        <radio op="vodafone IT" rat="LTE" q="27.20" rsrp="-109" sinr="12" rsrq="-9"/>
        <radio op="I TIM" rat="LTE" rsrp="-115" rsrq="-14"/>
      </extensions>
    </trkpt>
    <trkpt lat="45.6110285" lon="10.4956668">
      <ele>212.80683113356895</ele>
      <time>2026-08-12T12:39:24.747+02:00</time>
      <extensions>
        <activity type="IN_VEHICLE" conf="93" state="moving" tsMs="1786531159177"/>
        <radio op="vodafone IT" rat="LTE" q="60.80" rsrp="-93" sinr="14" rsrq="-12"/>
        <radio op="I TIM" rat="LTE" rsrp="-109" rsrq="-14"/>
      </extensions>
    </trkpt>
    <trkpt lat="45.6122124" lon="10.4958493">
      <ele>217.00001525878906</ele>
      <time>2026-08-12T12:39:56.245+02:00</time>
      <extensions>
        <activity type="IN_VEHICLE" conf="96" state="moving" tsMs="1786531195735"/>
        <radio op="vodafone IT" rat="LTE" q="50.40" rsrp="-101" sinr="16" rsrq="-9"/>
        <radio op="I TIM" rat="LTE" q="10.50" rsrp="-110" sinr="2" rsrq="-15"/>
      </extensions>
    </trkpt>
    <trkpt lat="45.6179965" lon="10.4929213">
      <ele>220.10000610351562</ele>
      <time>2026-08-12T12:41:05.413+02:00</time>
      <extensions>
        <activity type="IN_VEHICLE" conf="97" state="moving" tsMs="1786531269687"/>
        <radio op="vodafone IT" rat="LTE" q="44.00" rsrp="-105" sinr="17" rsrq="-6"/>
        <radio op="I TIM" rat="LTE" q="47.50" rsrp="-100" sinr="14" rsrq="-12"/>
      </extensions>
    </trkpt>
    <trkpt lat="45.6179226" lon="10.4937094">
      <ele>221.60000610351562</ele>
      <time>2026-08-12T12:41:41.348+02:00</time>
      <extensions>
        <activity type="IN_VEHICLE" conf="94" state="moving" tsMs="1786531296536"/>
        <radio op="vodafone IT" rat="LTE" q="72.50" rsrp="-96" sinr="20" rsrq="-12"/>
        <radio op="I TIM" rat="LTE" q="95.00" rsrp="-87" sinr="22" rsrq="-11"/>
      </extensions>
    </trkpt>
    <trkpt lat="45.617953" lon="10.4936044">
      <ele>221.47733304290773</ele>
      <time>2026-08-12T12:42:12.685+02:00</time>
      <extensions>
        <activity type="TILTING" conf="100" state="moving" tsMs="1786531323634"/>
        <radio op="vodafone IT" rat="LTE" q="67.50" rsrp="-98" sinr="21" rsrq="-6"/>
        <radio op="I TIM" rat="LTE" q="72.60" rsrp="-92" sinr="17" rsrq="-12"/>
      </extensions>
    </trkpt>
    <trkpt lat="45.617815" lon="10.4936056">
      <ele>221.39965891987225</ele>
      <time>2026-08-12T12:42:44.221+02:00</time>
      <extensions>
        <activity type="ON_FOOT" conf="91" state="moving" tsMs="1786531359998"/>
        <radio op="vodafone IT" rat="LTE" q="57.20" rsrp="-99" sinr="17" rsrq="-12"/>
        <radio op="I TIM" rat="LTE" q="65.00" rsrp="-99" sinr="20" rsrq="-12"/>
      </extensions>
    </trkpt>
    <trkpt lat="45.6177721" lon="10.4936735">
      <ele>221.5651120465412</ele>
      <time>2026-08-12T12:43:15.561+02:00</time>
      <extensions>
        <activity type="UNKNOWN" conf="40" state="unknown" tsMs="1786531391814"/>
        <radio op="vodafone IT" rat="LTE" q="55.00" rsrp="-103" sinr="20" rsrq="-8"/>
        <radio op="I TIM" rat="LTE" q="54.60" rsrp="-99" sinr="16" rsrq="-11"/>
      </extensions>
    </trkpt>
    <trkpt lat="45.6177431" lon="10.4940147">
      <ele>221.56721134870128</ele>
      <time>2026-08-12T12:43:48.158+02:00</time>
      <extensions>
        <activity type="UNKNOWN" conf="40" state="unknown" tsMs="1786531423969"/>
        <radio op="vodafone IT" rat="LTE" q="46.00" rsrp="-102" sinr="15" rsrq="-8"/>
        <radio op="I TIM" rat="LTE" q="62.50" rsrp="-100" sinr="20" rsrq="-12"/>
      </extensions>
    </trkpt>
    <trkpt lat="45.6176154" lon="10.4942285">
      <ele>220.86397379260148</ele>
      <time>2026-08-12T12:44:29.378+02:00</time>
      <extensions>
        <activity type="ON_FOOT" conf="88" state="moving" tsMs="1786531467824"/>
        <radio op="vodafone IT" rat="LTE" q="36.40" rsrp="-97" sinr="8" rsrq="-8"/>
        <radio op="I TIM" rat="LTE" q="45.90" rsrp="-98" sinr="12" rsrq="-13"/>
      </extensions>
    </trkpt>
    <trkpt lat="45.6176137" lon="10.4942526">
      <ele>221.79813771485982</ele>
      <time>2026-08-12T12:45:00.552+02:00</time>
      <extensions>
        <activity type="ON_FOOT" conf="96" state="moving" tsMs="1786531494935"/>
        <radio op="vodafone IT" rat="LTE" q="49.60" rsrp="-94" sinr="11" rsrq="-11"/>
        <radio op="I TIM" rat="LTE" q="52.50" rsrp="-100" sinr="16" rsrq="-11"/>
      </extensions>
    </trkpt>
    <trkpt lat="45.6176834" lon="10.4944633">
      <ele>221.20194048554646</ele>
      <time>2026-08-12T12:45:47.467+02:00</time>
      <extensions>
        <activity type="UNKNOWN" conf="40" state="unknown" tsMs="1786531555605"/>
        <radio op="vodafone IT" rat="LTE" q="80.00" rsrp="-93" sinr="26" rsrq="-9"/>
        <radio op="I TIM" rat="LTE" q="77.50" rsrp="-94" sinr="22" rsrq="-12"/>
      </extensions>
    </trkpt>
    <trkpt lat="45.6176152" lon="10.4942318">
      <ele>224.10000610351562</ele>
      <time>2026-08-12T12:46:17.396+02:00</time>
      <extensions>
        <activity type="STILL" conf="99" state="still" tsMs="1786531577282"/>
        <radio op="vodafone IT" rat="LTE" q="82.50" rsrp="-92" sinr="27" rsrq="-8"/>
        <radio op="I TIM" rat="LTE" q="69.30" rsrp="-92" sinr="16" rsrq="-12"/>
      </extensions>
    </trkpt>
    <trkpt lat="45.6176238" lon="10.4942443">
      <ele>220.49341038559174</ele>
      <time>2026-08-12T12:46:51.164+02:00</time>
      <extensions>
        <activity type="STILL" conf="99" state="still" tsMs="1786531608445"/>
        <radio op="vodafone IT" rat="LTE" q="67.50" rsrp="-98" sinr="24" rsrq="-7"/>
        <radio op="I TIM" rat="LTE" q="63.80" rsrp="-96" sinr="17" rsrq="-12"/>
      </extensions>
    </trkpt>
    <trkpt lat="45.6176277" lon="10.4942545">
      <ele>221.3309659102069</ele>
      <time>2026-08-12T12:47:23.009+02:00</time>
      <extensions>
        <activity type="ON_FOOT" conf="88" state="moving" tsMs="1786531639135"/>
        <radio op="vodafone IT" rat="LTE" q="92.50" rsrp="-88" sinr="20" rsrq="-7"/>
        <radio op="I TIM" rat="LTE" q="87.40" rsrp="-87" sinr="18" rsrq="-12"/>
      </extensions>
    </trkpt>
    <trkpt lat="45.6176576" lon="10.4942712">
      <ele>221.4296307032666</ele>
      <time>2026-08-12T12:47:54.55+02:00</time>
      <extensions>
        <activity type="STILL" conf="99" state="still" tsMs="1786531670826"/>
        <radio op="vodafone IT" rat="LTE" q="77.50" rsrp="-94" sinr="27" rsrq="-11"/>
        <radio op="I TIM" rat="LTE" q="64.80" rsrp="-89" sinr="13" rsrq="-13"/>
      </extensions>
    </trkpt>
    <trkpt lat="45.6177052" lon="10.4941946">
      <ele>221.56676472153873</ele>
      <time>2026-08-12T12:48:26.138+02:00</time>
      <extensions>
        <activity type="STILL" conf="99" state="still" tsMs="1786531702426"/>
        <radio op="vodafone IT" rat="LTE" q="82.50" rsrp="-92" sinr="26" rsrq="-11"/>
        <radio op="I TIM" rat="LTE" q="73.50" rsrp="-90" sinr="16" rsrq="-13"/>
      </extensions>
    </trkpt>
    <trkpt lat="45.6176251" lon="10.4942527">
      <ele>221.48489363603858</ele>
      <time>2026-08-12T12:48:57.639+02:00</time>
      <extensions>
        <activity type="STILL" conf="99" state="still" tsMs="1786531733949"/>
        <radio op="vodafone IT" rat="LTE" q="77.50" rsrp="-94" sinr="25" rsrq="-8"/>
        <radio op="I TIM" rat="LTE" q="45.50" rsrp="-90" sinr="8" rsrq="-13"/>
      </extensions>
    </trkpt>
    <trkpt lat="45.6176884" lon="10.4941972">
      <ele>221.6379094825305</ele>
      <time>2026-08-12T12:49:29.166+02:00</time>
      <extensions>
        <activity type="STILL" conf="99" state="still" tsMs="1786531765394"/>
        <radio op="vodafone IT" rat="LTE" q="80.00" rsrp="-93" sinr="27" rsrq="-8"/>
        <radio op="I TIM" rat="LTE" q="59.50" rsrp="-90" sinr="12" rsrq="-12"/>
      </extensions>
    </trkpt>
    <trkpt lat="45.6176958" lon="10.4945306">
      <ele>221.59802347171933</ele>
      <time>2026-08-12T12:50:00.626+02:00</time>
      <extensions>
        <activity type="STILL" conf="99" state="still" tsMs="1786531797024"/>
        <radio op="vodafone IT" rat="LTE" q="77.50" rsrp="-94" sinr="24" rsrq="-13"/>
        <radio op="I TIM" rat="LTE" q="70.00" rsrp="-90" sinr="15" rsrq="-12"/>
      </extensions>
    </trkpt>
    <trkpt lat="45.6180619" lon="10.4938429">
      <ele>221.6693985691037</ele>
      <time>2026-08-12T12:50:32.148+02:00</time>
      <extensions>
        <activity type="STILL" conf="99" state="still" tsMs="1786531828400"/>
        <radio op="vodafone IT" rat="LTE" q="95.00" rsrp="-87" sinr="25" rsrq="-9"/>
        <radio op="I TIM" rat="LTE" q="77.00" rsrp="-90" sinr="17" rsrq="-13"/>
      </extensions>
    </trkpt>
    <trkpt lat="45.6175657" lon="10.4943362">
      <ele>224.10000610351562</ele>
      <time>2026-08-12T12:51:06.404+02:00</time>
      <extensions>
        <activity type="STILL" conf="99" state="still" tsMs="1786531871849"/>
        <radio op="vodafone IT" rat="LTE" q="69.30" rsrp="-92" sinr="16" rsrq="-7"/>
        <radio op="I TIM" rat="LTE" q="90.00" rsrp="-89" sinr="20" rsrq="-12"/>
      </extensions>
    </trkpt>
    <trkpt lat="45.6176783" lon="10.494204">
      <ele>224.10000610351562</ele>
      <time>2026-08-12T12:51:46.757+02:00</time>
      <extensions>
        <activity type="STILL" conf="99" state="still" tsMs="1786531904257"/>
        <radio op="vodafone IT" rat="LTE" q="80.00" rsrp="-93" sinr="23" rsrq="-7"/>
        <radio op="I TIM" rat="LTE" q="66.50" rsrp="-90" sinr="14" rsrq="-12"/>
      </extensions>
    </trkpt>
    <trkpt lat="45.6180921" lon="10.4938136">
      <ele>224.10000610351562</ele>
      <time>2026-08-12T12:52:18.282+02:00</time>
      <extensions>
        <activity type="STILL" conf="99" state="still" tsMs="1786531934515"/>
        <radio op="vodafone IT" rat="LTE" q="82.50" rsrp="-92" sinr="24" rsrq="-12"/>
        <radio op="I TIM" rat="LTE" q="81.60" rsrp="-91" sinr="19" rsrq="-12"/>
      </extensions>
    </trkpt>
    <trkpt lat="45.6176759" lon="10.4941927">
      <ele>224.10000610351562</ele>
      <time>2026-08-12T12:52:49.845+02:00</time>
      <extensions>
        <activity type="STILL" conf="99" state="still" tsMs="1786531966082"/>
        <radio op="vodafone IT" rat="LTE" q="95.00" rsrp="-87" sinr="25" rsrq="-8"/>
        <radio op="I TIM" rat="LTE" q="71.40" rsrp="-91" sinr="16" rsrq="-10"/>
      </extensions>
    </trkpt>
    <trkpt lat="45.6176383" lon="10.494231">
      <ele>224.10000610351562</ele>
      <time>2026-08-12T12:53:21.296+02:00</time>
      <extensions>
        <activity type="STILL" conf="99" state="still" tsMs="1786531997726"/>
        <radio op="vodafone IT" rat="LTE" q="77.50" rsrp="-94" sinr="25" rsrq="-9"/>
        <radio op="I TIM" rat="LTE" q="52.50" rsrp="-90" sinr="10" rsrq="-11"/>
      </extensions>
    </trkpt>
    <trkpt lat="45.6176763" lon="10.4941953">
      <ele>224.10000610351562</ele>
      <time>2026-08-12T12:53:52.822+02:00</time>
      <extensions>
        <activity type="STILL" conf="99" state="still" tsMs="1786532029089"/>
        <radio op="vodafone IT" rat="LTE" q="77.50" rsrp="-94" sinr="27" rsrq="-10"/>
        <radio op="I TIM" rat="LTE" q="87.50" rsrp="-90" sinr="20" rsrq="-12"/>
      </extensions>
    </trkpt>
    <trkpt lat="45.6176938" lon="10.4941889">
      <ele>224.10000610351562</ele>
      <time>2026-08-12T12:54:24.36+02:00</time>
      <extensions>
        <activity type="STILL" conf="99" state="still" tsMs="1786532060595"/>
        <radio op="vodafone IT" rat="LTE" q="95.00" rsrp="-87" sinr="22" rsrq="-8"/>
        <radio op="I TIM" rat="LTE" q="66.50" rsrp="-90" sinr="14" rsrq="-13"/>
      </extensions>
    </trkpt>
    <trkpt lat="45.6176454" lon="10.4942288">
      <ele>224.10000610351562</ele>
      <time>2026-08-12T12:54:55.921+02:00</time>
      <extensions>
        <activity type="STILL" conf="99" state="still" tsMs="1786532092168"/>
        <radio op="vodafone IT" rat="LTE" q="95.00" rsrp="-87" sinr="25" rsrq="-6"/>
        <radio op="I TIM" rat="LTE" q="84.00" rsrp="-90" sinr="19" rsrq="-11"/>
      </extensions>
    </trkpt>
    <trkpt lat="45.6180071" lon="10.4937707">
      <ele>224.10000610351562</ele>
      <time>2026-08-12T12:55:27.381+02:00</time>
      <extensions>
        <activity type="STILL" conf="99" state="still" tsMs="1786532123641"/>
        <radio op="vodafone IT" rat="LTE" q="77.50" rsrp="-94" sinr="26" rsrq="-8"/>
        <radio op="I TIM" rat="LTE" q="68.00" rsrp="-91" sinr="15" rsrq="-12"/>
      </extensions>
    </trkpt>
    <trkpt lat="45.617652" lon="10.4942121">
      <ele>224.10000610351562</ele>
      <time>2026-08-12T12:55:58.828+02:00</time>
      <extensions>
        <activity type="STILL" conf="99" state="still" tsMs="1786532149841"/>
        <radio op="vodafone IT" rat="LTE" q="77.50" rsrp="-94" sinr="27" rsrq="-10"/>
        <radio op="I TIM" rat="LTE" q="72.00" rsrp="-89" sinr="15" rsrq="-13"/>
      </extensions>
    </trkpt>
    <trkpt lat="45.6176511" lon="10.4942176">
      <ele>224.10000610351562</ele>
      <time>2026-08-12T12:56:30.416+02:00</time>
      <extensions>
        <activity type="STILL" conf="100" state="still" tsMs="1786532180076"/>
        <radio op="vodafone IT" rat="LTE" q="77.50" rsrp="-94" sinr="25" rsrq="-10"/>
        <radio op="I TIM" rat="LTE" q="64.80" rsrp="-89" sinr="13" rsrq="-12"/>
      </extensions>
    </trkpt>
    <trkpt lat="45.6176751" lon="10.4942215">
      <ele>224.10000610351562</ele>
      <time>2026-08-12T12:57:32.456+02:00</time>
      <extensions>
        <activity type="STILL" conf="100" state="still" tsMs="1786532242139"/>
        <radio op="vodafone IT" rat="LTE" q="87.50" rsrp="-90" sinr="28" rsrq="-6"/>
        <radio op="I TIM" rat="LTE" q="74.80" rsrp="-91" sinr="17" rsrq="-12"/>
      </extensions>
    </trkpt>
    <trkpt lat="45.6176151" lon="10.4942561">
      <ele>224.10000610351562</ele>
      <time>2026-08-12T12:58:34.467+02:00</time>
      <extensions>
        <activity type="STILL" conf="100" state="still" tsMs="1786532304169"/>
        <radio op="vodafone IT" rat="LTE" q="85.00" rsrp="-91" sinr="25" rsrq="-8"/>
        <radio op="I TIM" rat="LTE" q="80.50" rsrp="-90" sinr="18" rsrq="-13"/>
      </extensions>
    </trkpt>
    <trkpt lat="45.6176989" lon="10.4939427">
      <ele>224.10000610351562</ele>
      <time>2026-08-12T14:06:34.435+02:00</time>
      <extensions>
        <activity type="ON_FOOT" conf="98" state="moving" tsMs="1786536397119"/>
        <radio op="vodafone IT" rat="LTE" q="54.00" rsrp="-95" sinr="13" rsrq="-13"/>
        <radio op="I TIM" rat="LTE" q="59.40" rsrp="-98" sinr="17" rsrq="-12"/>
      </extensions>
    </trkpt>
    <trkpt lat="45.6177007" lon="10.4939419">
      <ele>224.10000610351562</ele>
      <time>2026-08-12T14:07:06.731+02:00</time>
      <extensions>
        <activity type="ON_FOOT" conf="98" state="moving" tsMs="1786536414429"/>
        <radio op="vodafone IT" rat="LTE" q="72.50" rsrp="-96" sinr="24" rsrq="-13"/>
        <radio op="I TIM" rat="LTE" q="64.40" rsrp="-97" sinr="18" rsrq="-12"/>
      </extensions>
    </trkpt>
    <trkpt lat="45.6176433" lon="10.4942625">
      <ele>224.10000610351562</ele>
      <time>2026-08-12T14:07:38.231+02:00</time>
      <extensions>
        <activity type="UNKNOWN" conf="40" state="unknown" tsMs="1786536457644"/>
        <radio op="vodafone IT" rat="LTE" q="75.00" rsrp="-95" sinr="22" rsrq="-7"/>
        <radio op="I TIM" rat="LTE" q="90.00" rsrp="-89" sinr="23" rsrq="-12"/>
      </extensions>
    </trkpt>
    <trkpt lat="45.6177659" lon="10.4936655">
      <ele>224.10000610351562</ele>
      <time>2026-08-12T14:08:09.735+02:00</time>
      <extensions>
        <activity type="STILL" conf="97" state="still" tsMs="1786536485983"/>
        <radio op="vodafone IT" rat="LTE" q="70.00" rsrp="-97" sinr="21" rsrq="-8"/>
        <radio op="I TIM" rat="LTE" q="87.50" rsrp="-90" sinr="21" rsrq="-12"/>
      </extensions>
    </trkpt>
    <trkpt lat="45.6177631" lon="10.4935272">
      <ele>224.10000610351562</ele>
      <time>2026-08-12T14:08:41.181+02:00</time>
      <extensions>
        <activity type="UNKNOWN" conf="40" state="unknown" tsMs="1786536517528"/>
        <radio op="vodafone IT" rat="LTE" q="65.00" rsrp="-99" sinr="22" rsrq="-11"/>
        <radio op="I TIM" rat="LTE" q="79.20" rsrp="-89" sinr="17" rsrq="-11"/>
      </extensions>
    </trkpt>
    <trkpt lat="45.6178114" lon="10.4935893">
      <ele>222.36821069234242</ele>
      <time>2026-08-12T14:09:12.724+02:00</time>
      <extensions>
        <activity type="UNKNOWN" conf="40" state="unknown" tsMs="1786536549093"/>
        <radio op="vodafone IT" rat="LTE" q="44.80" rsrp="-93" sinr="9" rsrq="-7"/>
        <radio op="I TIM" rat="LTE" q="92.50" rsrp="-88" sinr="21" rsrq="-10"/>
      </extensions>
    </trkpt>
    <trkpt lat="45.6178101" lon="10.4931627">
      <ele>224.10000610351562</ele>
      <time>2026-08-12T14:09:44.243+02:00</time>
      <extensions>
        <activity type="IN_VEHICLE" conf="97" state="moving" tsMs="1786536580487"/>
        <radio op="vodafone IT" rat="LTE" q="50.60" rsrp="-103" sinr="18" rsrq="-12"/>
        <radio op="I TIM" rat="LTE" q="71.40" rsrp="-91" sinr="16" rsrq="-12"/>
      </extensions>
    </trkpt>
    <trkpt lat="45.6177293" lon="10.4940244">
      <ele>228.68866626215927</ele>
      <time>2026-08-12T14:10:15.652+02:00</time>
      <extensions>
        <activity type="IN_VEHICLE" conf="96" state="moving" tsMs="1786536612061"/>
        <radio op="vodafone IT" rat="LTE" q="72.50" rsrp="-96" sinr="20" rsrq="-9"/>
        <radio op="I TIM" rat="LTE" q="72.50" rsrp="-96" sinr="23" rsrq="-11"/>
      </extensions>
    </trkpt>
    <trkpt lat="45.6152445" lon="10.4955483">
      <ele>231.11152141828626</ele>
      <time>2026-08-12T14:10:47.095+02:00</time>
      <extensions>
        <activity type="IN_VEHICLE" conf="97" state="moving" tsMs="1786536643371"/>
        <radio op="vodafone IT" rat="LTE" q="87.50" rsrp="-90" sinr="28" rsrq="-12"/>
        <radio op="I TIM" rat="LTE" q="90.00" rsrp="-89" sinr="24" rsrq="-10"/>
      </extensions>
    </trkpt>
    <trkpt lat="45.6147275" lon="10.4971261">
      <ele>231.11152141828626</ele>
      <time>2026-08-12T14:10:53.433+02:00</time>
      <extensions>
        <activity type="IN_VEHICLE" conf="97" state="moving" tsMs="1786536653283"/>
        <radio op="vodafone IT" rat="LTE" q="95.00" rsrp="-87" sinr="23" rsrq="-12"/>
        <radio op="I TIM" rat="LTE" q="60.80" rsrp="-87" sinr="11" rsrq="-12"/>
      </extensions>
    </trkpt>
    <trkpt lat="45.6110137" lon="10.495481">
      <ele>217.8000030517578</ele>
      <time>2026-08-12T14:11:28.766+02:00</time>
      <extensions>
        <activity type="IN_VEHICLE" conf="96" state="moving" tsMs="1786536685398"/>
        <radio op="vodafone IT" rat="LTE" q="70.00" rsrp="-97" sinr="24" rsrq="-8"/>
        <radio op="I TIM" rat="LTE" rsrp="-114" rsrq="-19"/>
      </extensions>
    </trkpt>
    <trkpt lat="45.6114751" lon="10.4932895">
      <ele>227.00001525878906</ele>
      <time>2026-08-12T14:12:00.252+02:00</time>
      <extensions>
        <activity type="IN_VEHICLE" conf="97" state="moving" tsMs="1786536719698"/>
        <radio op="vodafone IT" rat="LTE" q="22.50" rsrp="-110" sinr="10" rsrq="-12"/>
        <radio op="I TIM" rat="LTE" rsrp="-116" rsrq="-18"/>
      </extensions>
    </trkpt>
    <trkpt lat="45.6121878" lon="10.4897652">
      <ele>238.26641006821507</ele>
      <time>2026-08-12T14:12:31.759+02:00</time>
      <extensions>
        <activity type="IN_VEHICLE" conf="97" state="moving" tsMs="1786536751212"/>
        <radio op="vodafone IT" rat="LTE" rsrp="-99" rsrq="-13"/>
        <radio op="I TIM" rat="LTE" rsrp="-108" rsrq="-14"/>
      </extensions>
    </trkpt>
    <trkpt lat="45.606201" lon="10.4688794">
      <ele>264.7003716953662</ele>
      <time>2026-08-12T14:14:02.669+02:00</time>
      <extensions>
        <activity type="IN_VEHICLE" conf="96" state="moving" tsMs="1786536840500"/>
        <radio op="vodafone IT" rat="LTE" q="100.00" rsrp="-83" sinr="21" rsrq="-6"/>
        <radio op="I TIM" rat="LTE" q="82.50" rsrp="-92" sinr="23" rsrq="-5"/>
      </extensions>
    </trkpt>
    <trkpt lat="45.606424" lon="10.4685952">
      <ele>272.17659992033435</ele>
      <time>2026-08-12T14:14:39.48+02:00</time>
      <extensions>
        <activity type="IN_VEHICLE" conf="97" state="moving" tsMs="1786536878311"/>
        <radio op="vodafone IT" rat="LTE" q="100.00" rsrp="-75" sinr="26" rsrq="-5"/>
        <radio op="I TIM" rat="LTE" q="56.10" rsrp="-92" sinr="12" rsrq="-8"/>
      </extensions>
    </trkpt>
    <trkpt lat="45.6045602" lon="10.4646041">
      <ele>267.20001220703125</ele>
      <time>2026-08-12T14:15:11.187+02:00</time>
      <extensions>
        <activity type="IN_VEHICLE" conf="97" state="moving" tsMs="1786536907407"/>
        <radio op="vodafone IT" rat="LTE" q="68.00" rsrp="-66" sinr="12" rsrq="-6"/>
        <radio op="I TIM" rat="LTE" q="30.00" rsrp="-95" sinr="5" rsrq="-9"/>
      </extensions>
    </trkpt>
    <trkpt lat="45.6052045" lon="10.4646272">
      <ele>267.20001220703125</ele>
      <time>2026-08-12T14:15:19.435+02:00</time>
      <extensions>
        <activity type="IN_VEHICLE" conf="97" state="moving" tsMs="1786536917426"/>
        <radio op="vodafone IT" rat="LTE" q="100.00" rsrp="-59" sinr="23" rsrq="-7"/>
        <radio op="I TIM" rat="LTE" q="35.00" rsrp="-90" sinr="5" rsrq="-9"/>
      </extensions>
    </trkpt>
    <trkpt lat="45.6035786" lon="10.4592041">
      <ele>268.89487461223325</ele>
      <time>2026-08-12T14:15:52.85+02:00</time>
      <extensions>
        <activity type="IN_VEHICLE" conf="97" state="moving" tsMs="1786536949755"/>
        <radio op="vodafone IT" rat="LTE" q="100.00" rsrp="-70" sinr="25" rsrq="-6"/>
        <radio op="I TIM" rat="LTE" rsrp="-107" rsrq="-17"/>
      </extensions>
    </trkpt>
    <trkpt lat="45.6035418" lon="10.4589016">
      <ele>260.22508747518924</ele>
      <time>2026-08-12T14:16:30.123+02:00</time>
      <extensions>
        <activity type="IN_VEHICLE" conf="96" state="moving" tsMs="1786536989272"/>
        <radio op="vodafone IT" rat="LTE" q="62.50" rsrp="-100" sinr="25" rsrq="-6"/>
        <radio op="I TIM" rat="LTE" q="12.00" rsrp="-115" sinr="7" rsrq="-13"/>
      </extensions>
    </trkpt>
    <trkpt lat="45.6030192" lon="10.4613319">
      <ele>258.8772859770404</ele>
      <time>2026-08-12T14:17:43.408+02:00</time>
      <extensions>
        <activity type="ON_FOOT" conf="98" state="moving" tsMs="1786537047757"/>
        <radio op="vodafone IT" rat="LTE" q="36.00" rsrp="-107" sinr="15" rsrq="-8"/>
        <radio op="I TIM" rat="LTE" q="39.10" rsrp="-108" sinr="18" rsrq="-13"/>
      </extensions>
    </trkpt>
    <trkpt lat="45.6030192" lon="10.4613319">
      <ele>258.7191071630572</ele>
      <time>2026-08-12T14:17:50.761+02:00</time>
      <extensions>
        <activity type="ON_FOOT" conf="97" state="moving" tsMs="1786537079588"/>
        <radio op="vodafone IT" rat="LTE" q="55.00" rsrp="-103" sinr="20" rsrq="-12"/>
        <radio op="I TIM" rat="LTE" q="48.00" rsrp="-105" sinr="19" rsrq="-12"/>
      </extensions>
    </trkpt>
    <trkpt lat="45.6045096" lon="10.4590282">
      <ele>260.64247355562327</ele>
      <time>2026-08-12T14:18:30.715+02:00</time>
      <extensions>
        <activity type="ON_FOOT" conf="97" state="moving" tsMs="1786537106378"/>
        <radio op="vodafone IT" rat="LTE" q="72.50" rsrp="-96" sinr="22" rsrq="-7"/>
        <radio op="I TIM" rat="LTE" q="75.00" rsrp="-95" sinr="24" rsrq="-11"/>
      </extensions>
    </trkpt>
    <trkpt lat="45.604269" lon="10.4592198">
      <ele>264.4000244140625</ele>
      <time>2026-08-12T14:19:01.827+02:00</time>
      <extensions>
        <activity type="ON_FOOT" conf="88" state="moving" tsMs="1786537138158"/>
        <radio op="vodafone IT" rat="LTE" q="28.80" rsrp="-109" sinr="13" rsrq="-8"/>
        <radio op="I TIM" rat="LTE" q="48.00" rsrp="-101" sinr="15" rsrq="-10"/>
      </extensions>
    </trkpt>
    <trkpt lat="45.6042145" lon="10.4594438">
      <ele>264.4000244140625</ele>
      <time>2026-08-12T14:19:33.179+02:00</time>
      <extensions>
        <activity type="UNKNOWN" conf="40" state="unknown" tsMs="1786537169448"/>
        <radio op="vodafone IT" rat="LTE" q="69.60" rsrp="-96" sinr="19" rsrq="-8"/>
        <radio op="I TIM" rat="LTE" q="65.00" rsrp="-99" sinr="24" rsrq="-11"/>
      </extensions>
    </trkpt>
    <trkpt lat="45.6042051" lon="10.4594689">
      <ele>264.4000244140625</ele>
      <time>2026-08-12T14:20:04.469+02:00</time>
      <extensions>
        <activity type="UNKNOWN" conf="40" state="unknown" tsMs="1786537200590"/>
        <radio op="vodafone IT" rat="LTE" q="32.30" rsrp="-106" sinr="12" rsrq="-11"/>
        <radio op="I TIM" rat="LTE" q="73.60" rsrp="-93" sinr="18" rsrq="-10"/>
      </extensions>
    </trkpt>
    <trkpt lat="45.6042301" lon="10.4594968">
      <ele>264.4000244140625</ele>
      <time>2026-08-12T14:20:38.092+02:00</time>
      <extensions>
        <activity type="UNKNOWN" conf="40" state="unknown" tsMs="1786537237459"/>
        <radio op="vodafone IT" rat="LTE" q="52.50" rsrp="-104" sinr="22" rsrq="-6"/>
        <radio op="I TIM" rat="LTE" q="50.00" rsrp="-105" sinr="22" rsrq="-8"/>
      </extensions>
    </trkpt>
    <trkpt lat="45.6041158" lon="10.4593363">
      <ele>262.75956743498807</ele>
      <time>2026-08-12T14:21:09.122+02:00</time>
      <extensions>
        <activity type="ON_FOOT" conf="83" state="moving" tsMs="1786537263536"/>
        <radio op="vodafone IT" rat="LTE" q="67.50" rsrp="-98" sinr="21" rsrq="-6"/>
        <radio op="I TIM" rat="LTE" q="43.70" rsrp="-102" sinr="14" rsrq="-13"/>
      </extensions>
    </trkpt>
    <trkpt lat="45.6041176" lon="10.4593031">
      <ele>264.4000244140625</ele>
      <time>2026-08-12T14:21:40.37+02:00</time>
      <extensions>
        <activity type="UNKNOWN" conf="40" state="unknown" tsMs="1786537294713"/>
        <radio op="vodafone IT" rat="LTE" q="60.00" rsrp="-101" sinr="22" rsrq="-8"/>
        <radio op="I TIM" rat="LTE" q="65.00" rsrp="-99" sinr="25" rsrq="-12"/>
      </extensions>
    </trkpt>
    <trkpt lat="45.6041307" lon="10.4593286">
      <ele>264.4000244140625</ele>
      <time>2026-08-12T14:22:11.497+02:00</time>
      <extensions>
        <activity type="STILL" conf="33" state="still" tsMs="1786537326053"/>
        <radio op="vodafone IT" rat="LTE" q="85.00" rsrp="-91" sinr="25" rsrq="-7"/>
        <radio op="I TIM" rat="LTE" q="77.50" rsrp="-94" sinr="26" rsrq="-12"/>
      </extensions>
    </trkpt>
    <trkpt lat="45.6041355" lon="10.4593157">
      <ele>264.4000244140625</ele>
      <time>2026-08-12T14:22:42.999+02:00</time>
      <extensions>
        <activity type="STILL" conf="99" state="still" tsMs="1786537359315"/>
        <radio op="vodafone IT" rat="LTE" q="77.50" rsrp="-94" sinr="25" rsrq="-8"/>
        <radio op="I TIM" rat="LTE" q="70.00" rsrp="-97" sinr="23" rsrq="-13"/>
      </extensions>
    </trkpt>
    <trkpt lat="45.60414" lon="10.4593105">
      <ele>264.4000244140625</ele>
      <time>2026-08-12T14:23:14.402+02:00</time>
      <extensions>
        <activity type="STILL" conf="99" state="still" tsMs="1786537390758"/>
        <radio op="vodafone IT" rat="LTE" q="75.00" rsrp="-95" sinr="23" rsrq="-10"/>
        <radio op="I TIM" rat="LTE" q="69.00" rsrp="-95" sinr="18" rsrq="-13"/>
      </extensions>
    </trkpt>
    <trkpt lat="45.6041191" lon="10.4593404">
      <ele>264.4000244140625</ele>
      <time>2026-08-12T14:23:45.776+02:00</time>
      <extensions>
        <activity type="STILL" conf="99" state="still" tsMs="1786537422056"/>
        <radio op="vodafone IT" rat="LTE" q="77.50" rsrp="-94" sinr="25" rsrq="-7"/>
        <radio op="I TIM" rat="LTE" q="70.00" rsrp="-97" sinr="21" rsrq="-13"/>
      </extensions>
    </trkpt>
    <trkpt lat="45.604127" lon="10.4593453">
      <ele>264.4000244140625</ele>
      <time>2026-08-12T14:24:17.262+02:00</time>
      <extensions>
        <activity type="STILL" conf="99" state="still" tsMs="1786537453558"/>
        <radio op="vodafone IT" rat="LTE" q="72.50" rsrp="-96" sinr="24" rsrq="-11"/>
        <radio op="I TIM" rat="LTE" q="72.50" rsrp="-96" sinr="24" rsrq="-13"/>
      </extensions>
    </trkpt>
    <trkpt lat="45.6042736" lon="10.4593438">
      <ele>264.4000244140625</ele>
      <time>2026-08-12T15:19:58.993+02:00</time>
      <extensions>
        <activity type="ON_FOOT" conf="92" state="moving" tsMs="1786540804725"/>
        <radio op="vodafone IT" rat="LTE" q="82.50" rsrp="-92" sinr="25" rsrq="-9"/>
        <radio op="I TIM" rat="LTE" q="30.00" rsrp="-110" sinr="15" rsrq="-12"/>
      </extensions>
    </trkpt>
    <trkpt lat="45.6044593" lon="10.4590605">
      <ele>262.7064530479515</ele>
      <time>2026-08-12T15:20:30.238+02:00</time>
      <extensions>
        <activity type="ON_FOOT" conf="96" state="moving" tsMs="1786540826358"/>
        <radio op="vodafone IT" rat="LTE" q="97.50" rsrp="-86" sinr="28" rsrq="-6"/>
        <radio op="I TIM" rat="LTE" q="50.60" rsrp="-103" sinr="18" rsrq="-12"/>
      </extensions>
    </trkpt>
    <trkpt lat="45.6044593" lon="10.4590605">
      <ele>258.4956017052503</ele>
      <time>2026-08-12T15:21:25.419+02:00</time>
      <extensions>
        <activity type="ON_FOOT" conf="88" state="moving" tsMs="1786540885255"/>
        <radio op="vodafone IT" rat="LTE" q="35.20" rsrp="-109" sinr="17" rsrq="-12"/>
        <radio op="I TIM" rat="LTE" q="30.80" rsrp="-111" sinr="17" rsrq="-11"/>
      </extensions>
    </trkpt>
    <trkpt lat="45.6044593" lon="10.4590605">
      <ele>258.69597125340874</ele>
      <time>2026-08-12T15:21:36.974+02:00</time>
      <extensions>
        <activity type="UNKNOWN" conf="40" state="unknown" tsMs="1786540889147"/>
        <radio op="vodafone IT" rat="LTE" q="30.00" rsrp="-113" sinr="23" rsrq="-9"/>
        <radio op="I TIM" rat="LTE" q="34.50" rsrp="-110" sinr="18" rsrq="-11"/>
      </extensions>
    </trkpt>
    <trkpt lat="45.6039009" lon="10.4577902">
      <ele>261.61556873135197</ele>
      <time>2026-08-12T15:22:35.958+02:00</time>
      <extensions>
        <activity type="IN_VEHICLE" conf="87" state="moving" tsMs="1786540950169"/>
        <radio op="vodafone IT" rat="LTE" q="34.20" rsrp="-107" sinr="14" rsrq="-8"/>
        <radio op="I TIM" rat="LTE" q="82.50" rsrp="-92" sinr="23" rsrq="-12"/>
      </extensions>
    </trkpt>
    <trkpt lat="45.6022646" lon="10.4549432">
      <ele>259.9067244825926</ele>
      <time>2026-08-12T15:23:13.896+02:00</time>
      <extensions>
        <activity type="UNKNOWN" conf="40" state="unknown" tsMs="1786540993627"/>
        <radio op="vodafone IT" rat="LTE" q="9.60" rsrp="-109" sinr="1" rsrq="-10"/>
        <radio op="I TIM" rat="LTE" q="16.80" rsrp="-101" sinr="2" rsrq="-13"/>
      </extensions>
    </trkpt>
    <trkpt lat="45.6021217" lon="10.4533274">
      <ele>259.4426525762209</ele>
      <time>2026-08-12T15:23:46.887+02:00</time>
      <extensions>
        <activity type="IN_VEHICLE" conf="84" state="moving" tsMs="1786541026182"/>
        <radio op="vodafone IT" rat="LTE" q="35.10" rsrp="-98" sinr="8" rsrq="-10"/>
        <radio op="I TIM" rat="LTE" q="57.20" rsrp="-99" sinr="17" rsrq="-11"/>
      </extensions>
    </trkpt>
    <trkpt lat="45.60238" lon="10.4535429">
      <ele>261.5</ele>
      <time>2026-08-12T15:25:00.05+02:00</time>
      <extensions>
        <activity type="ON_FOOT" conf="96" state="moving" tsMs="1786541100171"/>
        <radio op="vodafone IT" rat="LTE" q="19.60" rsrp="-111" sinr="9" rsrq="-11"/>
        <radio op="I TIM" rat="LTE" q="27.30" rsrp="-104" sinr="8" rsrq="-10"/>
      </extensions>
    </trkpt>
    <trkpt lat="45.6018579" lon="10.4535583">
      <ele>261.5</ele>
      <time>2026-08-12T15:25:37.009+02:00</time>
      <extensions>
        <activity type="ON_FOOT" conf="96" state="moving" tsMs="1786541131533"/>
        <radio op="vodafone IT" rat="LTE" q="67.20" rsrp="-97" sinr="19" rsrq="-11"/>
        <radio op="I TIM" rat="LTE" q="28.60" rsrp="-99" sinr="6" rsrq="-12"/>
      </extensions>
    </trkpt>
    <trkpt lat="45.6022637" lon="10.45346">
      <ele>261.6000061035156</ele>
      <time>2026-08-12T15:26:17.071+02:00</time>
      <extensions>
        <activity type="ON_FOOT" conf="96" state="moving" tsMs="1786541176036"/>
        <radio op="vodafone IT" rat="LTE" rsrp="-109" rsrq="-12"/>
        <radio op="I TIM" rat="LTE" rsrp="-106" rsrq="-13"/>
      </extensions>
    </trkpt>
    <trkpt lat="45.6025972" lon="10.4536188">
      <ele>261.5</ele>
      <time>2026-08-12T15:26:48.347+02:00</time>
      <extensions>
        <activity type="ON_FOOT" conf="96" state="moving" tsMs="1786541203070"/>
        <radio op="vodafone IT" rat="LTE" q="36.80" rsrp="-102" sinr="11" rsrq="-6"/>
        <radio op="I TIM" rat="LTE" q="48.40" rsrp="-103" sinr="17" rsrq="-11"/>
      </extensions>
    </trkpt>
    <trkpt lat="45.6025556" lon="10.4537018">
      <ele>261.6000061035156</ele>
      <time>2026-08-12T15:27:23.117+02:00</time>
      <extensions>
        <activity type="UNKNOWN" conf="40" state="unknown" tsMs="1786541240634"/>
        <radio op="vodafone IT" rat="LTE" q="14.40" rsrp="-107" sinr="3" rsrq="-9"/>
        <radio op="I TIM" rat="LTE" q="14.00" rsrp="-105" sinr="2" rsrq="-13"/>
      </extensions>
    </trkpt>
    <trkpt lat="45.6025683" lon="10.4537298">
      <ele>261.6000061035156</ele>
      <time>2026-08-12T15:27:30.01+02:00</time>
      <extensions>
        <activity type="UNKNOWN" conf="40" state="unknown" tsMs="1786541240634"/>
        <radio op="vodafone IT" rat="LTE" q="14.40" rsrp="-109" sinr="4" rsrq="-10"/>
        <radio op="I TIM" rat="LTE" q="12.80" rsrp="-109" sinr="3" rsrq="-13"/>
      </extensions>
    </trkpt>
    <trkpt lat="45.6025479" lon="10.4536892">
      <ele>261.6000061035156</ele>
      <time>2026-08-12T15:28:04.837+02:00</time>
      <extensions>
        <activity type="UNKNOWN" conf="40" state="unknown" tsMs="1786541279817"/>
        <radio op="vodafone IT" rat="LTE" q="9.10" rsrp="-112" sinr="2" rsrq="-13"/>
        <radio op="I TIM" rat="LTE" q="24.00" rsrp="-109" sinr="10" rsrq="-12"/>
      </extensions>
    </trkpt>
    <trkpt lat="45.6025486" lon="10.4536947">
      <ele>261.6000061035156</ele>
      <time>2026-08-12T15:28:36.488+02:00</time>
      <extensions>
        <activity type="STILL" conf="81" state="still" tsMs="1786541313085"/>
        <radio op="vodafone IT" rat="LTE" q="13.60" rsrp="-108" sinr="3" rsrq="-12"/>
        <radio op="I TIM" rat="LTE" q="18.00" rsrp="-105" sinr="4" rsrq="-12"/>
      </extensions>
    </trkpt>
    <trkpt lat="45.6025501" lon="10.4537038">
      <ele>261.6000061035156</ele>
      <time>2026-08-12T15:29:08.168+02:00</time>
      <extensions>
        <activity type="STILL" conf="99" state="still" tsMs="1786541344635"/>
        <radio op="vodafone IT" rat="LTE" rsrp="-108" rsrq="-10"/>
        <radio op="I TIM" rat="LTE" q="28.80" rsrp="-107" sinr="11" rsrq="-11"/>
      </extensions>
    </trkpt>
    <trkpt lat="45.6025451" lon="10.4536862">
      <ele>261.6000061035156</ele>
      <time>2026-08-12T15:29:39.796+02:00</time>
      <extensions>
        <activity type="STILL" conf="99" state="still" tsMs="1786541376372"/>
        <radio op="vodafone IT" rat="LTE" q="17.10" rsrp="-106" sinr="4" rsrq="-11"/>
        <radio op="I TIM" rat="LTE" q="28.80" rsrp="-107" sinr="11" rsrq="-11"/>
      </extensions>
    </trkpt>
    <trkpt lat="45.6025599" lon="10.4537388">
      <ele>261.6000061035156</ele>
      <time>2026-08-12T17:32:09.252+02:00</time>
      <extensions>
        <activity type="UNKNOWN" conf="40" state="unknown" tsMs="1786548729124"/>
        <radio op="vodafone IT" rat="LTE" q="8.00" rsrp="-109" sinr="0" rsrq="-11"/>
        <radio op="I TIM" rat="LTE" q="19.50" rsrp="-110" sinr="8" rsrq="-10"/>
      </extensions>
    </trkpt>
    <trkpt lat="45.6025679" lon="10.4537458">
      <ele>261.6000061035156</ele>
      <time>2026-08-12T17:32:40.957+02:00</time>
      <extensions>
        <activity type="STILL" conf="98" state="still" tsMs="1786548759865"/>
        <radio op="vodafone IT" rat="LTE" q="9.80" rsrp="-111" sinr="2" rsrq="-10"/>
        <radio op="I TIM" rat="LTE" q="10.40" rsrp="-112" sinr="3" rsrq="-10"/>
      </extensions>
    </trkpt>
    <trkpt lat="45.6025614" lon="10.4537282">
      <ele>261.6000061035156</ele>
      <time>2026-08-12T17:33:10.914+02:00</time>
      <extensions>
        <activity type="STILL" conf="99" state="still" tsMs="1786548788575"/>
        <radio op="vodafone IT" rat="LTE" q="19.50" rsrp="-112" sinr="10" rsrq="-10"/>
        <radio op="I TIM" rat="LTE" q="13.00" rsrp="-112" sinr="5" rsrq="-11"/>
      </extensions>
    </trkpt>
    <trkpt lat="45.6025624" lon="10.453727">
      <ele>261.6000061035156</ele>
      <time>2026-08-12T17:33:43.262+02:00</time>
      <extensions>
        <activity type="UNKNOWN" conf="40" state="unknown" tsMs="1786548821359"/>
        <radio op="vodafone IT" rat="LTE" rsrp="-105" rsrq="-11"/>
        <radio op="I TIM" rat="LTE" q="22.10" rsrp="-112" sinr="12" rsrq="-12"/>
      </extensions>
    </trkpt>
    <trkpt lat="45.6025595" lon="10.4537216">
      <ele>261.6000061035156</ele>
      <time>2026-08-12T17:34:15.221+02:00</time>
      <extensions>
        <activity type="UNKNOWN" conf="40" state="unknown" tsMs="1786548853901"/>
        <radio op="vodafone IT" rat="LTE" rsrp="-109" rsrq="-11"/>
        <radio op="I TIM" rat="LTE" q="25.20" rsrp="-111" sinr="13" rsrq="-10"/>
      </extensions>
    </trkpt>
    <trkpt lat="45.6025503" lon="10.4537053">
      <ele>261.6000061035156</ele>
      <time>2026-08-12T17:34:46.751+02:00</time>
      <extensions>
        <activity type="UNKNOWN" conf="40" state="unknown" tsMs="1786548885891"/>
        <radio op="vodafone IT" rat="LTE" q="12.00" rsrp="-110" sinr="3" rsrq="-9"/>
        <radio op="I TIM" rat="LTE" q="13.20" rsrp="-113" sinr="6" rsrq="-11"/>
      </extensions>
    </trkpt>
    <trkpt lat="45.6025572" lon="10.4537063">
      <ele>261.6000061035156</ele>
      <time>2026-08-12T17:35:18.291+02:00</time>
      <extensions>
        <activity type="STILL" conf="99" state="still" tsMs="1786548914519"/>
        <radio op="vodafone IT" rat="LTE" rsrp="-112" rsrq="-14"/>
        <radio op="I TIM" rat="LTE" q="8.40" rsrp="-111" sinr="1" rsrq="-9"/>
      </extensions>
    </trkpt>
  </trkseg></trk>
</gpx>
