<?xml version="1.0" encoding="UTF-8"?>
<gpx version="1.1" creator="CellGPX" xmlns="http://www.topografix.com/GPX/1/1">
  <trk><name>CellGPX</name><trkseg>
    <trkpt lat="45.6025741" lon="10.4536921">
      <ele>261.0</ele>
      <time>2026-10-07T11:56:23.796+02:00</time>
      <extensions>
        <activity type="ON_FOOT" conf="88" state="moving" tsMs="1791366969997"/>
        <radio op="vodafone IT" rat="LTE" q="15.60" rsrp="-112" sinr="7" rsrq="-11"/>
        <radio op="I TIM" rat="LTE" q="9.90" rsrp="-114" sinr="4" rsrq="-14"/>
      </extensions>
    </trkpt>
    <trkpt lat="45.6025719" lon="10.4536876">
      <ele>261.0</ele>
      <time>2026-10-07T11:56:38.473+02:00</time>
      <extensions>
        <activity type="STILL" conf="99" state="still" tsMs="1791366982622"/>
        <radio op="vodafone IT" rat="LTE" q="12.00" rsrp="-113" sinr="5" rsrq="-13"/>
        <radio op="I TIM" rat="LTE" q="8.00" rsrp="-115" sinr="3" rsrq="-12"/>
      </extensions>
    </trkpt>
    <trkpt lat="45.602571" lon="10.4536869">
      <ele>261.0</ele>
      <time>2026-10-07T11:56:45.755+02:00</time>
      <extensions>
        <activity type="STILL" conf="98" state="still" tsMs="1791367004461"/>
        <radio op="vodafone IT" rat="LTE" q="9.10" rsrp="-112" sinr="2" rsrq="-11"/>
        <radio op="I TIM" rat="LTE" q="6.60" rsrp="-114" sinr="1" rsrq="-12"/>
      </extensions>
    </trkpt>
    <trkpt lat="45.6025708" lon="10.453688">
      <ele>261.0</ele>
      <time>2026-10-07T11:56:53.977+02:00</time>
      <extensions>
        <activity type="STILL" conf="98" state="still" tsMs="1791367004461"/>
        <radio op="vodafone IT" rat="LTE" rsrp="-114" rsrq="-12"/>
        <radio op="I TIM" rat="LTE" q="7.80" rsrp="-112" sinr="1" rsrq="-12"/>
      </extensions>
    </trkpt>
    <trkpt lat="45.6025721" lon="10.453678">
      <ele>261.0</ele>
      <time>2026-10-07T11:57:08.74+02:00</time>
      <extensions>
        <activity type="UNKNOWN" conf="40" state="unknown" tsMs="1791367013801"/>
        <radio op="vodafone IT" rat="LTE" q="15.30" rsrp="-108" sinr="4" rsrq="-8"/>
        <radio op="I TIM" rat="LTE" q="18.00" rsrp="-110" sinr="7" rsrq="-11"/>
      </extensions>
    </trkpt>
    <trkpt lat="45.602574" lon="10.4536753">
      <ele>261.0</ele>
      <time>2026-10-07T11:57:14.772+02:00</time>
      <extensions>
        <activity type="ON_FOOT" conf="94" state="moving" tsMs="1791367026474"/>
        <radio op="vodafone IT" rat="LTE" q="15.60" rsrp="-113" sinr="8" rsrq="-6"/>
        <radio op="I TIM" rat="LTE" q="12.00" rsrp="-110" sinr="3" rsrq="-11"/>
      </extensions>
    </trkpt>
    <trkpt lat="45.6025767" lon="10.4536713">
      <ele>261.0</ele>
      <time>2026-10-07T11:57:22.169+02:00</time>
      <extensions>
        <activity type="STILL" conf="99" state="still" tsMs="1791367039055"/>
        <radio op="vodafone IT" rat="LTE" q="19.50" rsrp="-112" sinr="10" rsrq="-8"/>
        <radio op="I TIM" rat="LTE" q="9.60" rsrp="-109" sinr="1" rsrq="-12"/>
      </extensions>
    </trkpt>
    <trkpt lat="45.6025725" lon="10.4536627">
      <ele>261.0</ele>
      <time>2026-10-07T11:57:36.85+02:00</time>
      <extensions>
        <activity type="STILL" conf="100" state="still" tsMs="1791367048335"/>
        <radio op="vodafone IT" rat="LTE" q="16.90" rsrp="-112" sinr="8" rsrq="-7"/>
        <radio op="I TIM" rat="LTE" rsrp="-109" rsrq="-14"/>
      </extensions>
    </trkpt>
    <trkpt lat="45.602573" lon="10.4536625">
      <ele>261.0</ele>
      <time>2026-10-07T11:57:44.816+02:00</time>
      <extensions>
        <activity type="STILL" conf="48" state="still" tsMs="1791367060995"/>
        <radio op="vodafone IT" rat="LTE" rsrp="-113" rsrq="-13"/>
        <radio op="I TIM" rat="LTE" rsrp="-119" rsrq="-13"/>
      </extensions>
    </trkpt>
    <trkpt lat="45.6025819" lon="10.4536821">
      <ele>261.0</ele>
      <time>2026-10-07T11:57:59.741+02:00</time>
      <extensions>
        <activity type="ON_FOOT" conf="87" state="moving" tsMs="1791367072187"/>
        <radio op="vodafone IT" rat="LTE" rsrp="-117" rsrq="-16"/>
        <radio op="I TIM" rat="LTE" q="13.00" rsrp="-112" sinr="5" rsrq="-14"/>
      </extensions>
    </trkpt>
    <trkpt lat="45.602575" lon="10.4536909">
      <ele>261.0</ele>
      <time>2026-10-07T11:58:09.741+02:00</time>
      <extensions>
        <activity type="ON_FOOT" conf="87" state="moving" tsMs="1791367072187"/>
        <radio op="vodafone IT" rat="LTE" q="2.00" rsrp="-121" sinr="0" rsrq="-15"/>
        <radio op="I TIM" rat="LTE" rsrp="-116" rsrq="-16"/>
      </extensions>
    </trkpt>
    <trkpt lat="45.6025722" lon="10.4536865">
      <ele>261.0</ele>
      <time>2026-10-07T11:58:13.47+02:00</time>
      <extensions>
        <activity type="UNKNOWN" conf="40" state="unknown" tsMs="1791367084771"/>
        <radio op="vodafone IT" rat="LTE" q="19.50" rsrp="-110" sinr="8" rsrq="-10"/>
        <radio op="I TIM" rat="LTE" q="9.00" rsrp="-110" sinr="1" rsrq="-13"/>
      </extensions>
    </trkpt>
    <trkpt lat="45.6025761" lon="10.453679">
      <ele>261.0</ele>
      <time>2026-10-07T11:58:28.143+02:00</time>
      <extensions>
        <activity type="STILL" conf="100" state="still" tsMs="1791367106640"/>
        <radio op="vodafone IT" rat="LTE" q="16.90" rsrp="-112" sinr="8" rsrq="-12"/>
        <radio op="I TIM" rat="LTE" q="7.50" rsrp="-110" sinr="0" rsrq="-12"/>
      </extensions>
    </trkpt>
    <trkpt lat="45.6025681" lon="10.4536772">
      <ele>261.0</ele>
      <time>2026-10-07T11:58:31.263+02:00</time>
      <extensions>
        <activity type="STILL" conf="100" state="still" tsMs="1791367115912"/>
        <radio op="vodafone IT" rat="LTE" q="11.70" rsrp="-112" sinr="4" rsrq="-10"/>
        <radio op="I TIM" rat="LTE" q="9.00" rsrp="-110" sinr="1" rsrq="-11"/>
      </extensions>
    </trkpt>
    <trkpt lat="45.6025668" lon="10.4536714">
      <ele>261.0</ele>
      <time>2026-10-07T11:58:50.222+02:00</time>
      <extensions>
        <activity type="UNKNOWN" conf="40" state="unknown" tsMs="1791367123486"/>
        <radio op="vodafone IT" rat="LTE" rsrp="-115" rsrq="-11"/>
        <radio op="I TIM" rat="LTE" q="8.40" rsrp="-111" sinr="1" rsrq="-12"/>
      </extensions>
    </trkpt>
    <trkpt lat="45.6025704" lon="10.4536657">
      <ele>261.0</ele>
      <time>2026-10-07T11:59:00.161+02:00</time>
      <extensions>
        <activity type="UNKNOWN" conf="40" state="unknown" tsMs="1791367123486"/>
        <radio op="vodafone IT" rat="LTE" rsrp="-120" rsrq="-12"/>
        <radio op="I TIM" rat="LTE" rsrp="-117" rsrq="-15"/>
      </extensions>
    </trkpt>
    <trkpt lat="45.602581" lon="10.4536754">
      <ele>261.0</ele>
      <time>2026-10-07T11:59:10.14+02:00</time>
      <extensions>
        <activity type="UNKNOWN" conf="40" state="unknown" tsMs="1791367136007"/>
        <radio op="vodafone IT" rat="LTE" q="5.60" rsrp="-117" sinr="2" rsrq="-12"/>
        <radio op="I TIM" rat="LTE" q="13.00" rsrp="-112" sinr="5" rsrq="-12"/>
      </extensions>
    </trkpt>
    <trkpt lat="45.6026088" lon="10.4536761">
      <ele>261.0</ele>
      <time>2026-10-07T11:59:20.341+02:00</time>
      <extensions>
        <activity type="UNKNOWN" conf="40" state="unknown" tsMs="1791367148569"/>
        <radio op="vodafone IT" rat="LTE" q="4.90" rsrp="-118" sinr="2" rsrq="-14"/>
        <radio op="I TIM" rat="LTE" rsrp="-117" rsrq="-14"/>
      </extensions>
    </trkpt>
    <trkpt lat="45.6025972" lon="10.4536819">
      <ele>261.0</ele>
      <time>2026-10-07T11:59:30.438+02:00</time>
      <extensions>
        <activity type="UNKNOWN" conf="40" state="unknown" tsMs="1791367160352"/>
        <radio op="vodafone IT" rat="LTE" q="10.40" rsrp="-112" sinr="3" rsrq="-10"/>
        <radio op="I TIM" rat="LTE" rsrp="-107" rsrq="-12"/>
      </extensions>
    </trkpt>
    <trkpt lat="45.6025945" lon="10.4536807">
      <ele>261.0</ele>
      <time>2026-10-07T11:59:34.221+02:00</time>
      <extensions>
        <activity type="STILL" conf="44" state="still" tsMs="1791367172940"/>
        <radio op="vodafone IT" rat="LTE" q="8.40" rsrp="-118" sinr="7" rsrq="-10"/>
        <radio op="I TIM" rat="LTE" q="8.10" rsrp="-116" sinr="4" rsrq="-10"/>
      </extensions>
    </trkpt>
    <trkpt lat="45.6025911" lon="10.4536702">
      <ele>261.0</ele>
      <time>2026-10-07T11:59:41.505+02:00</time>
      <extensions>
        <activity type="STILL" conf="100" state="still" tsMs="1791367195176"/>
        <radio op="vodafone IT" rat="LTE" q="6.30" rsrp="-118" sinr="4" rsrq="-12"/>
        <radio op="I TIM" rat="LTE" q="9.00" rsrp="-116" sinr="5" rsrq="-9"/>
      </extensions>
    </trkpt>
    <trkpt lat="45.6025709" lon="10.4536925">
      <ele>261.0</ele>
      <time>2026-10-07T12:00:17.346+02:00</time>
      <extensions>
        <activity type="STILL" conf="100" state="still" tsMs="1791367205060"/>
        <radio op="vodafone IT" rat="LTE" q="7.00" rsrp="-118" sinr="5" rsrq="-11"/>
        <radio op="I TIM" rat="LTE" q="9.90" rsrp="-116" sinr="6" rsrq="-9"/>
      </extensions>
    </trkpt>
    <trkpt lat="45.6025813" lon="10.4537072">
      <ele>261.0</ele>
      <time>2026-10-07T12:01:04.748+02:00</time>
      <extensions>
        <activity type="STILL" conf="99" state="still" tsMs="1791367263816"/>
        <radio op="vodafone IT" rat="LTE" q="7.00" rsrp="-118" sinr="5" rsrq="-10"/>
        <radio op="I TIM" rat="LTE" q="9.00" rsrp="-116" sinr="5" rsrq="-11"/>
      </extensions>
    </trkpt>
    <trkpt lat="45.6025851" lon="10.4537133">
      <ele>261.0</ele>
      <time>2026-10-07T12:02:49.727+02:00</time>
      <extensions>
        <activity type="ON_FOOT" conf="81" state="moving" tsMs="1791367386172"/>
        <radio op="vodafone IT" rat="LTE" q="18.00" rsrp="-115" sinr="13" rsrq="-12"/>
        <radio op="I TIM" rat="LTE" q="8.40" rsrp="-113" sinr="2" rsrq="-9"/>
      </extensions>
    </trkpt>
    <trkpt lat="45.6025765" lon="10.4536983">
      <ele>261.0</ele>
      <time>2026-10-07T12:03:34.851+02:00</time>
      <extensions>
        <activity type="UNKNOWN" conf="40" state="unknown" tsMs="1791367410165"/>
        <radio op="vodafone IT" rat="LTE" rsrp="-115" rsrq="-11"/>
        <radio op="I TIM" rat="LTE" q="15.40" rsrp="-114" sinr="9" rsrq="-11"/>
      </extensions>
    </trkpt>
    <trkpt lat="45.6025658" lon="10.4536866">
      <ele>261.0</ele>
      <time>2026-10-07T12:04:21.368+02:00</time>
      <extensions>
        <activity type="STILL" conf="99" state="still" tsMs="1791367457711"/>
        <radio op="vodafone IT" rat="LTE" rsrp="-118" rsrq="-11"/>
        <radio op="I TIM" rat="LTE" q="14.00" rsrp="-115" sinr="9" rsrq="-10"/>
      </extensions>
    </trkpt>
    <trkpt lat="45.6025661" lon="10.4536826">
      <ele>261.0</ele>
      <time>2026-10-07T12:04:52.891+02:00</time>
      <extensions>
        <activity type="UNKNOWN" conf="40" state="unknown" tsMs="1791367473396"/>
        <radio op="vodafone IT" rat="LTE" q="8.40" rsrp="-111" sinr="1" rsrq="-10"/>
        <radio op="I TIM" rat="LTE" q="2.40" rsrp="-122" sinr="3" rsrq="-12"/>
      </extensions>
    </trkpt>
    <trkpt lat="45.602562" lon="10.4536788">
      <ele>261.0</ele>
      <time>2026-10-07T12:05:24.456+02:00</time>
      <extensions>
        <activity type="STILL" conf="99" state="still" tsMs="1791367518192"/>
        <radio op="vodafone IT" rat="LTE" rsrp="-117" rsrq="-11"/>
        <radio op="I TIM" rat="LTE" q="2.70" rsrp="-122" sinr="4" rsrq="-12"/>
      </extensions>
    </trkpt>
    <trkpt lat="45.601344" lon="10.4537074">
      <ele>256.7603025787339</ele>
      <time>2026-10-07T14:24:56.047+02:00</time>
      <extensions>
        <activity type="IN_VEHICLE" conf="90" state="moving" tsMs="1791375911382"/>
        <radio op="vodafone IT" rat="LTE" q="32.50" rsrp="-100" sinr="8" rsrq="-10"/>
        <radio op="I TIM" rat="LTE" q="34.20" rsrp="-106" sinr="13" rsrq="-11"/>
      </extensions>
    </trkpt>
    <trkpt lat="45.6030934" lon="10.4575761">
      <ele>262.70001220703125</ele>
      <time>2026-10-07T14:25:46.734+02:00</time>
      <extensions>
        <activity type="UNKNOWN" conf="40" state="unknown" tsMs="1791375945381"/>
        <radio op="vodafone IT" rat="LTE" q="100.00" rsrp="-85" sinr="25" rsrq="-7"/>
        <radio op="I TIM" rat="LTE" q="100.00" rsrp="-83" sinr="27" rsrq="-11"/>
      </extensions>
    </trkpt>
    <trkpt lat="45.6033063" lon="10.4584053">
      <ele>262.70001220703125</ele>
      <time>2026-10-07T14:25:57.19+02:00</time>
      <extensions>
        <activity type="IN_VEHICLE" conf="90" state="moving" tsMs="1791375950054"/>
        <radio op="vodafone IT" rat="LTE" rsrp="-80" rsrq="-7"/>
        <radio op="I TIM" rat="LTE" q="100.00" rsrp="-83" sinr="24" rsrq="-10"/>
      </extensions>
    </trkpt>
    <trkpt lat="45.604787" lon="10.4635249">
      <ele>267.0890313466613</ele>
      <time>2026-10-07T14:26:44.984+02:00</time>
      <extensions>
        <activity type="IN_VEHICLE" conf="96" state="moving" tsMs="1791376004407"/>
        <radio op="vodafone IT" rat="LTE" q="12.00" rsrp="-105" sinr="1" rsrq="-16"/>
        <radio op="I TIM" rat="LTE" q="43.20" rsrp="-98" sinr="11" rsrq="-11"/>
      </extensions>
    </trkpt>
    <trkpt lat="45.6072002" lon="10.4707349">
      <ele>270.20001220703125</ele>
      <time>2026-10-07T14:27:40.949+02:00</time>
      <extensions>
        <activity type="UNKNOWN" conf="40" state="unknown" tsMs="1791376060361"/>
        <radio op="vodafone IT" rat="LTE" q="62.40" rsrp="-99" sinr="19" rsrq="-7"/>
        <radio op="I TIM" rat="LTE" q="53.20" rsrp="-97" sinr="14" rsrq="-10"/>
      </extensions>
    </trkpt>
    <trkpt lat="45.61239" lon="10.4813475">
      <ele>274.5815733639256</ele>
      <time>2026-10-07T14:28:49.507+02:00</time>
      <extensions>
        <activity type="IN_VEHICLE" conf="90" state="moving" tsMs="1791376126395"/>
        <radio op="vodafone IT" rat="LTE" q="8.80" rsrp="-117" sinr="6" rsrq="-9"/>
        <radio op="I TIM" rat="LTE" rsrp="-115" rsrq="-13"/>
      </extensions>
    </trkpt>
    <trkpt lat="45.6167496" lon="10.4836184">
      <ele>276.65796804372553</ele>
      <time>2026-10-07T14:29:29.44+02:00</time>
      <extensions>
        <activity type="IN_VEHICLE" conf="83" state="moving" tsMs="1791376164395"/>
        <radio op="vodafone IT" rat="LTE" q="17.00" rsrp="-115" sinr="12" rsrq="-12"/>
        <radio op="I TIM" rat="LTE" rsrp="-117" rsrq="-17"/>
      </extensions>
    </trkpt>
    <trkpt lat="45.623791" lon="10.4933409">
      <ele>277.41528455715957</ele>
      <time>2026-10-07T14:31:02.193+02:00</time>
      <extensions>
        <activity type="IN_VEHICLE" conf="95" state="moving" tsMs="1791376248459"/>
        <radio op="vodafone IT" rat="LTE" q="6.60" rsrp="-114" sinr="1" rsrq="-13"/>
        <radio op="I TIM" rat="LTE" q="5.60" rsrp="-117" sinr="2" rsrq="-13"/>
      </extensions>
    </trkpt>
    <trkpt lat="45.6236595" lon="10.4928016">
      <ele>277.2944565714604</ele>
      <time>2026-10-07T14:31:49.655+02:00</time>
      <extensions>
        <activity type="ON_FOOT" conf="93" state="moving" tsMs="1791376304389"/>
        <radio op="vodafone IT" rat="LTE" q="19.80" rsrp="-107" sinr="6" rsrq="-11"/>
        <radio op="I TIM" rat="LTE" q="9.60" rsrp="-117" sinr="7" rsrq="-10"/>
      </extensions>
    </trkpt>
    <trkpt lat="45.6238108" lon="10.4927247">
      <ele>282.5721940012266</ele>
      <time>2026-10-07T14:32:29.255+02:00</time>
      <extensions>
        <activity type="UNKNOWN" conf="40" state="unknown" tsMs="1791376344047"/>
        <radio op="vodafone IT" rat="LTE" q="5.60" rsrp="-117" sinr="2" rsrq="-10"/>
        <radio op="I TIM" rat="LTE" q="8.00" rsrp="-117" sinr="5" rsrq="-11"/>
      </extensions>
    </trkpt>
    <trkpt lat="45.6238083" lon="10.492747">
      <ele>287.26953803596933</ele>
      <time>2026-10-07T14:33:27.628+02:00</time>
      <extensions>
        <activity type="ON_FOOT" conf="83" state="moving" tsMs="1791376401866"/>
        <radio op="vodafone IT" rat="LTE" q="9.00" rsrp="-119" sinr="10" rsrq="-12"/>
        <radio op="I TIM" rat="LTE" q="2.10" rsrp="-122" sinr="2" rsrq="-12"/>
      </extensions>
    </trkpt>
    <trkpt lat="45.623828" lon="10.4927286">
      <ele>291.1491662406297</ele>
      <time>2026-10-07T14:33:59.37+02:00</time>
      <extensions>
        <activity type="UNKNOWN" conf="40" state="unknown" tsMs="1791376424005"/>
        <radio op="vodafone IT" rat="LTE" q="4.90" rsrp="-118" sinr="2" rsrq="-12"/>
        <radio op="I TIM" rat="LTE" q="7.20" rsrp="-119" sinr="7" rsrq="-12"/>
      </extensions>
    </trkpt>
    <trkpt lat="45.6238254" lon="10.4927352">
      <ele>291.10162857452553</ele>
      <time>2026-10-07T14:34:37.083+02:00</time>
      <extensions>
        <activity type="ON_FOOT" conf="90" state="moving" tsMs="1791376474131"/>
        <radio op="vodafone IT" rat="LTE" q="12.00" rsrp="-110" sinr="3" rsrq="-11"/>
        <radio op="I TIM" rat="LTE" q="13.20" rsrp="-114" sinr="7" rsrq="-8"/>
      </extensions>
    </trkpt>
    <trkpt lat="45.6236956" lon="10.4928321">
      <ele>290.420342805524</ele>
      <time>2026-10-07T14:35:26.449+02:00</time>
      <extensions>
        <activity type="UNKNOWN" conf="40" state="unknown" tsMs="1791376520568"/>
        <radio op="vodafone IT" rat="LTE" q="9.00" rsrp="-116" sinr="5" rsrq="-8"/>
        <radio op="I TIM" rat="LTE" rsrp="-122" rsrq="-12"/>
      </extensions>
    </trkpt>
    <trkpt lat="45.6238026" lon="10.4927538">
      <ele>293.1993081766917</ele>
      <time>2026-10-07T14:35:57.687+02:00</time>
      <extensions>
        <activity type="UNKNOWN" conf="40" state="unknown" tsMs="1791376545107"/>
        <radio op="vodafone IT" rat="LTE" rsrp="-116" rsrq="-12"/>
        <radio op="I TIM" rat="LTE" q="1.60" rsrp="-123" sinr="3" rsrq="-11"/>
      </extensions>
    </trkpt>
    <trkpt lat="45.6237969" lon="10.4927782">
      <ele>301.8000183105469</ele>
      <time>2026-10-07T14:36:44.17+02:00</time>
      <extensions>
        <activity type="UNKNOWN" conf="40" state="unknown" tsMs="1791376603398"/>
        <radio op="vodafone IT" rat="LTE" rsrp="-119" rsrq="-11"/>
        <radio op="I TIM" rat="LTE" rsrp="-125" rsrq="-14"/>
      </extensions>
    </trkpt>
    <trkpt lat="45.6238013" lon="10.4927648">
      <ele>301.8000183105469</ele>
      <time>2026-10-07T14:37:24.226+02:00</time>
      <extensions>
        <activity type="STILL" conf="99" state="still" tsMs="1791376638745"/>
        <radio op="vodafone IT" rat="LTE" rsrp="-119" rsrq="-13"/>
        <radio op="I TIM" rat="LTE" rsrp="-126" rsrq="-14"/>
      </extensions>
    </trkpt>
    <trkpt lat="45.6238001" lon="10.4927874">
      <ele>301.8000183105469</ele>
      <time>2026-10-07T14:38:26.678+02:00</time>
      <extensions>
        <activity type="STILL" conf="99" state="still" tsMs="1791376702415"/>
        <radio op="vodafone IT" rat="LTE" q="4.00" rsrp="-120" sinr="3" rsrq="-11"/>
        <radio op="I TIM" rat="LTE" q="0.50" rsrp="-124" sinr="0" rsrq="-13"/>
      </extensions>
    </trkpt>
    <trkpt lat="45.6238164" lon="10.4927558">
      <ele>301.8000183105469</ele>
      <time>2026-10-07T14:38:58.713+02:00</time>
      <extensions>
        <activity type="STILL" conf="100" state="still" tsMs="1791376727511"/>
        <radio op="vodafone IT" rat="LTE" q="6.60" rsrp="-119" sinr="6" rsrq="-12"/>
        <radio op="I TIM" rat="LTE" q="0.00" rsrp="-126" sinr="1" rsrq="-12"/>
      </extensions>
    </trkpt>
    <trkpt lat="45.6238269" lon="10.492742">
      <ele>303.95515328699196</ele>
      <time>2026-10-07T15:01:00.381+02:00</time>
      <extensions>
        <activity type="IN_VEHICLE" conf="81" state="moving" tsMs="1791378071794"/>
        <radio op="vodafone IT" rat="LTE" rsrp="-122" rsrq="-14"/>
        <radio op="I TIM" rat="LTE" rsrp="-130" rsrq="-16"/>
      </extensions>
    </trkpt>
    <trkpt lat="45.6238167" lon="10.492748">
      <ele>301.8000183105469</ele>
      <time>2026-10-07T15:01:36.204+02:00</time>
      <extensions>
        <activity type="STILL" conf="100" state="still" tsMs="1791378083521"/>
        <radio op="vodafone IT" rat="LTE" rsrp="-121" rsrq="-14"/>
        <radio op="I TIM" rat="LTE" rsrq="-20"/>
      </extensions>
    </trkpt>
    <trkpt lat="45.6238086" lon="10.492759">
      <ele>301.8000183105469</ele>
      <time>2026-10-07T15:02:15.493+02:00</time>
      <extensions>
        <activity type="STILL" conf="99" state="still" tsMs="1791378129091"/>
        <radio op="vodafone IT" rat="LTE" rsrp="-123" rsrq="-15"/>
        <radio op="I TIM" rat="LTE" rsrp="-127" rsrq="-15"/>
      </extensions>
    </trkpt>
    <trkpt lat="45.6238084" lon="10.4927624">
      <ele>301.8000183105469</ele>
      <time>2026-10-07T15:02:58.116+02:00</time>
      <extensions>
        <activity type="STILL" conf="99" state="still" tsMs="1791378153809"/>
        <radio op="vodafone IT" rat="LTE" q="3.60" rsrp="-121" sinr="4" rsrq="-13"/>
        <radio op="I TIM" rat="LTE" rsrp="-125" rsrq="-15"/>
      </extensions>
    </trkpt>
    <trkpt lat="45.6237808" lon="10.4927885">
      <ele>301.8000183105469</ele>
      <time>2026-10-07T15:03:56.483+02:00</time>
      <extensions>
        <activity type="STILL" conf="99" state="still" tsMs="1791378233100"/>
        <radio op="vodafone IT" rat="LTE" q="2.80" rsrp="-121" sinr="2" rsrq="-11"/>
        <radio op="I TIM" rat="LTE" rsrp="-125" rsrq="-14"/>
      </extensions>
    </trkpt>
    <trkpt lat="45.6237067" lon="10.4930434">
      <ele>292.73730643609207</ele>
      <time>2026-10-07T17:43:06.088+02:00</time>
      <extensions>
        <activity type="ON_FOOT" conf="86" state="moving" tsMs="1791387781368"/>
        <radio op="vodafone IT" rat="LTE" q="19.00" rsrp="-106" sinr="5" rsrq="-8"/>
        <radio op="I TIM" rat="OTHER"/>
      </extensions>
    </trkpt>
    <trkpt lat="45.6237209" lon="10.4929977">
      <ele>294.46371128544695</ele>
      <time>2026-10-07T17:44:14.91+02:00</time>
      <extensions>
        <activity type="UNKNOWN" conf="40" state="unknown" tsMs="1791387848673"/>
        <radio op="vodafone IT" rat="LTE" rsrp="-116" rsrq="-14"/>
        <radio op="I TIM" rat="OTHER"/>
      </extensions>
    </trkpt>
    <trkpt lat="45.6212957" lon="10.4883978">
      <ele>278.6000061035156</ele>
      <time>2026-10-07T17:44:45.051+02:00</time>
      <extensions>
        <activity type="IN_VEHICLE" conf="91" state="moving" tsMs="1791387883681"/>
        <radio op="vodafone IT" rat="LTE" rsrp="-112" rsrq="-14"/>
        <radio op="I TIM" rat="OTHER"/>
      </extensions>
    </trkpt>
    <trkpt lat="45.6200586" lon="10.4849891">
      <ele>278.6000061035156</ele>
      <time>2026-10-07T17:45:00.268+02:00</time>
      <extensions>
        <activity type="UNKNOWN" conf="40" state="unknown" tsMs="1791387888310"/>
        <radio op="vodafone IT" rat="LTE" rsrp="-117" rsrq="-14"/>
        <radio op="I TIM" rat="OTHER"/>
      </extensions>
    </trkpt>
    <trkpt lat="45.6190916" lon="10.48346">
      <ele>278.6000061035156</ele>
      <time>2026-10-07T17:45:10.268+02:00</time>
      <extensions>
        <activity type="IN_VEHICLE" conf="94" state="moving" tsMs="1791387901339"/>
        <radio op="vodafone IT" rat="LTE" q="36.00" rsrp="-101" sinr="10" rsrq="-7"/>
        <radio op="I TIM" rat="OTHER"/>
      </extensions>
    </trkpt>
    <trkpt lat="45.6170335" lon="10.4832544">
      <ele>278.6000061035156</ele>
      <time>2026-10-07T17:45:21.267+02:00</time>
      <extensions>
        <activity type="IN_VEHICLE" conf="94" state="moving" tsMs="1791387901339"/>
        <radio op="vodafone IT" rat="LTE" rsrp="-118" rsrq="-17"/>
        <radio op="I TIM" rat="OTHER"/>
      </extensions>
    </trkpt>
    <trkpt lat="45.6151411" lon="10.4829046">
      <ele>278.6000061035156</ele>
      <time>2026-10-07T17:45:31.268+02:00</time>
      <extensions>
        <activity type="UNKNOWN" conf="40" state="unknown" tsMs="1791387914326"/>
        <radio op="vodafone IT" rat="LTE" q="30.80" rsrp="-103" sinr="9" rsrq="-11"/>
        <radio op="I TIM" rat="OTHER"/>
      </extensions>
    </trkpt>
    <trkpt lat="45.6135875" lon="10.4819642">
      <ele>278.6000061035156</ele>
      <time>2026-10-07T17:45:41.267+02:00</time>
      <extensions>
        <activity type="IN_VEHICLE" conf="91" state="moving" tsMs="1791387927380"/>
        <radio op="vodafone IT" rat="LTE" q="36.10" rsrp="-106" sinr="14" rsrq="-10"/>
        <radio op="I TIM" rat="OTHER"/>
      </extensions>
    </trkpt>
    <trkpt lat="45.6121072" lon="10.4811509">
      <ele>278.6000061035156</ele>
      <time>2026-10-07T17:45:52.267+02:00</time>
      <extensions>
        <activity type="IN_VEHICLE" conf="91" state="moving" tsMs="1791387940379"/>
        <radio op="vodafone IT" rat="LTE" q="9.10" rsrp="-118" sinr="8" rsrq="-9"/>
        <radio op="I TIM" rat="OTHER"/>
      </extensions>
    </trkpt>
    <trkpt lat="45.6119805" lon="10.4809481">
      <ele>278.6000061035156</ele>
      <time>2026-10-07T17:45:54.267+02:00</time>
      <extensions>
        <activity type="IN_VEHICLE" conf="89" state="moving" tsMs="1791387954049"/>
        <radio op="vodafone IT" rat="LTE" q="18.90" rsrp="-104" sinr="4" rsrq="-12"/>
        <radio op="I TIM" rat="OTHER"/>
      </extensions>
    </trkpt>
    <trkpt lat="45.6084014" lon="10.4756768">
      <ele>286.51408387153765</ele>
      <time>2026-10-07T17:46:33.268+02:00</time>
      <extensions>
        <activity type="IN_VEHICLE" conf="92" state="moving" tsMs="1791387979775"/>
        <radio op="vodafone IT" rat="LTE" q="51.00" rsrp="-95" sinr="12" rsrq="-11"/>
        <radio op="I TIM" rat="OTHER"/>
      </extensions>
    </trkpt>
    <trkpt lat="45.6081925" lon="10.4750765">
      <ele>275.4000244140625</ele>
      <time>2026-10-07T17:46:36.268+02:00</time>
      <extensions>
        <activity type="IN_VEHICLE" conf="93" state="moving" tsMs="1791388005626"/>
        <radio op="vodafone IT" rat="LTE" q="67.50" rsrp="-98" sinr="22" rsrq="-5"/>
        <radio op="I TIM" rat="OTHER"/>
      </extensions>
    </trkpt>
    <trkpt lat="45.6074929" lon="10.4724595">
      <ele>275.4000244140625</ele>
      <time>2026-10-07T17:46:49.268+02:00</time>
      <extensions>
        <activity type="IN_VEHICLE" conf="93" state="moving" tsMs="1791388005626"/>
        <radio op="vodafone IT" rat="LTE" q="72.50" rsrp="-96" sinr="24" rsrq="-6"/>
        <radio op="I TIM" rat="OTHER"/>
      </extensions>
    </trkpt>
    <trkpt lat="45.6063962" lon="10.4685768">
      <ele>271.0394577217677</ele>
      <time>2026-10-07T17:47:27.636+02:00</time>
      <extensions>
        <activity type="IN_VEHICLE" conf="87" state="moving" tsMs="1791388044672"/>
        <radio op="vodafone IT" rat="LTE" q="80.00" rsrp="-93" sinr="22" rsrq="-9"/>
        <radio op="I TIM" rat="OTHER"/>
      </extensions>
    </trkpt>
    <trkpt lat="45.6060229" lon="10.4673069">
      <ele>270.57720483584546</ele>
      <time>2026-10-07T17:48:02.267+02:00</time>
      <extensions>
        <activity type="UNKNOWN" conf="40" state="unknown" tsMs="1791388076680"/>
        <radio op="vodafone IT" rat="LTE" q="90.00" rsrp="-89" sinr="25" rsrq="-7"/>
        <radio op="I TIM" rat="OTHER"/>
      </extensions>
    </trkpt>
    <trkpt lat="45.6057708" lon="10.4664465">
      <ele>270.4393819489567</ele>
      <time>2026-10-07T17:48:46.267+02:00</time>
      <extensions>
        <activity type="IN_VEHICLE" conf="87" state="moving" tsMs="1791388115606"/>
        <radio op="vodafone IT" rat="LTE" q="90.00" rsrp="-89" sinr="24" rsrq="-6"/>
        <radio op="I TIM" rat="OTHER"/>
      </extensions>
    </trkpt>
    <trkpt lat="45.6054167" lon="10.4653125">
      <ele>270.26975681253833</ele>
      <time>2026-10-07T17:50:05.268+02:00</time>
      <extensions>
        <activity type="UNKNOWN" conf="40" state="unknown" tsMs="1791388198607"/>
        <radio op="vodafone IT" rat="LTE" rsrp="-85" rsrq="-5"/>
        <radio op="I TIM" rat="LTE" q="34.50" rsrp="-102" sinr="10" rsrq="-8"/>
      </extensions>
    </trkpt>
    <trkpt lat="45.6046498" lon="10.4639284">
      <ele>270.14890094392524</ele>
      <time>2026-10-07T17:50:43.642+02:00</time>
      <extensions>
        <activity type="UNKNOWN" conf="40" state="unknown" tsMs="1791388242127"/>
        <radio op="vodafone IT" rat="LTE" q="92.50" rsrp="-88" sinr="26" rsrq="-7"/>
        <radio op="I TIM" rat="LTE" q="37.50" rsrp="-100" sinr="10" rsrq="-8"/>
      </extensions>
    </trkpt>
    <trkpt lat="45.6049224" lon="10.4636077">
      <ele>270.14890094392524</ele>
      <time>2026-10-07T17:50:51.268+02:00</time>
      <extensions>
        <activity type="UNKNOWN" conf="40" state="unknown" tsMs="1791388246919"/>
        <radio op="vodafone IT" rat="LTE" q="48.60" rsrp="-98" sinr="13" rsrq="-8"/>
        <radio op="I TIM" rat="LTE" q="39.60" rsrp="-92" sinr="7" rsrq="-9"/>
      </extensions>
    </trkpt>
    <trkpt lat="45.6033064" lon="10.4581972">
      <ele>266.70001220703125</ele>
      <time>2026-10-07T17:51:48.599+02:00</time>
      <extensions>
        <activity type="IN_VEHICLE" conf="86" state="moving" tsMs="1791388307664"/>
        <radio op="vodafone IT" rat="LTE" q="100.00" rsrp="-82" sinr="27" rsrq="-11"/>
        <radio op="I TIM" rat="LTE" q="97.50" rsrp="-86" sinr="21" rsrq="-11"/>
      </extensions>
    </trkpt>
    <trkpt lat="45.6023884" lon="10.4553556">
      <ele>261.4000244140625</ele>
      <time>2026-10-07T17:52:49.468+02:00</time>
      <extensions>
        <activity type="UNKNOWN" conf="40" state="unknown" tsMs="1791388365664"/>
        <radio op="vodafone IT" rat="LTE" q="19.20" rsrp="-109" sinr="7" rsrq="-8"/>
        <radio op="I TIM" rat="LTE" rsrp="-110" rsrq="-15"/>
      </extensions>
    </trkpt>
    <trkpt lat="45.6025199" lon="10.4534968">
      <ele>263.70001220703125</ele>
      <time>2026-10-07T17:53:38.899+02:00</time>
      <extensions>
        <activity type="UNKNOWN" conf="40" state="unknown" tsMs="1791388413387"/>
        <radio op="vodafone IT" rat="LTE" rsrp="-116" rsrq="-13"/>
        <radio op="I TIM" rat="LTE" rsrp="-102" rsrq="-11"/>
      </extensions>
    </trkpt>
    <trkpt lat="45.602723" lon="10.4534371">
      <ele>260.6000061035156</ele>
      <time>2026-10-07T17:53:49.268+02:00</time>
      <extensions>
        <activity type="IN_VEHICLE" conf="91" state="moving" tsMs="1791388422227"/>
        <radio op="vodafone IT" rat="LTE" rsrp="-113" rsrq="-15"/>
        <radio op="I TIM" rat="LTE" rsrp="-110" rsrq="-12"/>
      </extensions>
    </trkpt>
    <trkpt lat="45.6027771" lon="10.4534587">
      <ele>260.6000061035156</ele>
      <time>2026-10-07T17:53:50.268+02:00</time>
      <extensions>
        <activity type="IN_VEHICLE" conf="91" state="moving" tsMs="1791388422227"/>
        <radio op="vodafone IT" rat="LTE" q="14.30" rsrp="-112" sinr="6" rsrq="-8"/>
        <radio op="I TIM" rat="LTE" q="25.50" rsrp="-108" sinr="10" rsrq="-10"/>
      </extensions>
    </trkpt>
    <trkpt lat="45.6033326" lon="10.4547021">
      <ele>263.70001220703125</ele>
      <time>2026-10-07T17:54:22.748+02:00</time>
      <extensions>
        <activity type="UNKNOWN" conf="40" state="unknown" tsMs="1791388457672"/>
        <radio op="vodafone IT" rat="LTE" q="13.50" rsrp="-110" sinr="4" rsrq="-10"/>
        <radio op="I TIM" rat="LTE" q="3.60" rsrp="-119" sinr="1" rsrq="-12"/>
      </extensions>
    </trkpt>
    <trkpt lat="45.6025967" lon="10.4536464">
      <ele>261.0</ele>
      <time>2026-10-07T17:55:11.59+02:00</time>
      <extensions>
        <activity type="TILTING" conf="100" state="moving" tsMs="1791388501303"/>
        <radio op="vodafone IT" rat="LTE" q="25.30" rsrp="-102" sinr="6" rsrq="-11"/>
        <radio op="I TIM" rat="LTE" q="9.10" rsrp="-112" sinr="2" rsrq="-13"/>
      </extensions>
    </trkpt>
    <trkpt lat="45.6025661" lon="10.4536802">
      <ele>261.0</ele>
      <time>2026-10-07T17:55:47.664+02:00</time>
      <extensions>
        <activity type="UNKNOWN" conf="40" state="unknown" tsMs="1791388530881"/>
        <radio op="vodafone IT" rat="LTE" q="9.90" rsrp="-116" sinr="6" rsrq="-14"/>
        <radio op="I TIM" rat="LTE" q="5.50" rsrp="-120" sinr="6" rsrq="-13"/>
      </extensions>
    </trkpt>
    <trkpt lat="45.6025638" lon="10.4536733">
      <ele>261.0</ele>
      <time>2026-10-07T17:56:19.055+02:00</time>
      <extensions>
        <activity type="STILL" conf="100" state="still" tsMs="1791388567929"/>
        <radio op="vodafone IT" rat="LTE" rsrp="-108" rsrq="-11"/>
        <radio op="I TIM" rat="LTE" rsrp="-113" rsrq="-13"/>
      </extensions>
    </trkpt>
    <trkpt lat="45.6025621" lon="10.453677">
      <ele>261.0</ele>
      <time>2026-10-07T17:56:27.887+02:00</time>
      <extensions>
        <activity type="UNKNOWN" conf="40" state="unknown" tsMs="1791388589294"/>
        <radio op="vodafone IT" rat="LTE" rsrp="-109" rsrq="-15"/>
        <radio op="I TIM" rat="LTE" q="25.50" rsrp="-110" sinr="12" rsrq="-12"/>
      </extensions>
    </trkpt>
    <trkpt lat="45.6025692" lon="10.453686">
      <ele>261.0</ele>
      <time>2026-10-07T17:57:00.591+02:00</time>
      <extensions>
        <activity type="UNKNOWN" conf="40" state="unknown" tsMs="1791388606634"/>
        <radio op="vodafone IT" rat="LTE" rsrp="-114" rsrq="-14"/>
        <radio op="I TIM" rat="LTE" q="3.50" rsrp="-120" sinr="2" rsrq="-17"/>
      </extensions>
    </trkpt>
    <trkpt lat="45.6025929" lon="10.4537166">
      <ele>261.0</ele>
      <time>2026-10-07T17:57:32.131+02:00</time>
      <extensions>
        <activity type="UNKNOWN" conf="40" state="unknown" tsMs="1791388638136"/>
        <radio op="vodafone IT" rat="LTE" q="16.50" rsrp="-110" sinr="6" rsrq="-9"/>
        <radio op="I TIM" rat="LTE" q="16.80" rsrp="-111" sinr="7" rsrq="-12"/>
      </extensions>
    </trkpt>
    <trkpt lat="45.6026002" lon="10.453723">
      <ele>261.0</ele>
      <time>2026-10-07T17:58:03.751+02:00</time>
      <extensions>
        <activity type="STILL" conf="98" state="still" tsMs="1791388676709"/>
        <radio op="vodafone IT" rat="LTE" q="12.60" rsrp="-111" sinr="4" rsrq="-12"/>
        <radio op="I TIM" rat="LTE" q="17.60" rsrp="-109" sinr="6" rsrq="-11"/>
      </extensions>
    </trkpt>
  </trkseg></trk>
</gpx>
