<?xml version="1.0" encoding="UTF-8"?>
<gpx version="1.1" creator="CellGPX" xmlns="http://www.topografix.com/GPX/1/1">
  <trk><name>CellGPX</name><trkseg>
    <trkpt lat="45.6023749" lon="10.4536328">
      <ele>261.4000244140625</ele>
      <time>2026-08-25T13:26:24.455+02:00</time>
      <extensions>
        <activity type="ON_FOOT" conf="97" state="moving" tsMs="1787657196443"/>
        <radio op="vodafone IT" rat="LTE" q="13.60" rsrp="-108" sinr="3" rsrq="-13"/>
        <radio op="I TIM" rat="LTE" q="21.60" rsrp="-98" sinr="3" rsrq="-13"/>
      </extensions>
    </trkpt>
    <trkpt lat="45.6021526" lon="10.4534092">
      <ele>261.3000183105469</ele>
      <time>2026-08-25T13:27:01.86+02:00</time>
      <extensions>
        <activity type="ON_FOOT" conf="96" state="moving" tsMs="1787657218165"/>
        <radio op="vodafone IT" rat="LTE" q="47.60" rsrp="-97" sinr="12" rsrq="-10"/>
        <radio op="I TIM" rat="LTE" rsrp="-93" rsrq="-13"/>
      </extensions>
    </trkpt>
    <trkpt lat="45.6022001" lon="10.4530697">
      <ele>261.3000183105469</ele>
      <time>2026-08-25T13:27:46.728+02:00</time>
      <extensions>
        <activity type="ON_FOOT" conf="85" state="moving" tsMs="1787657260783"/>
        <radio op="vodafone IT" rat="LTE" q="28.90" rsrp="-108" sinr="12" rsrq="-12"/>
        <radio op="I TIM" rat="LTE" rsrp="-95" rsrq="-11"/>
      </extensions>
    </trkpt>
    <trkpt lat="45.602368" lon="10.4536518">
      <ele>259.63305933728986</ele>
      <time>2026-08-25T13:28:27.725+02:00</time>
      <extensions>
        <activity type="UNKNOWN" conf="40" state="unknown" tsMs="1787657304164"/>
        <radio op="vodafone IT" rat="LTE" rsrp="-119" rsrq="-12"/>
        <radio op="I TIM" rat="LTE" q="11.50" rsrp="-102" sinr="0" rsrq="-10"/>
      </extensions>
    </trkpt>
    <trkpt lat="45.6032984" lon="10.4578948">
      <ele>263.4000244140625</ele>
      <time>2026-08-25T13:29:17.53+02:00</time>
      <extensions>
        <activity type="IN_VEHICLE" conf="85" state="moving" tsMs="1787657356135"/>
        <radio op="vodafone IT" rat="LTE" q="92.50" rsrp="-88" sinr="30" rsrq="-10"/>
        <radio op="I TIM" rat="LTE" q="100.00" rsrp="-74" sinr="20" rsrq="-9"/>
      </extensions>
    </trkpt>
    <trkpt lat="45.6036816" lon="10.457703">
      <ele>263.4000244140625</ele>
      <time>2026-08-25T13:29:28.135+02:00</time>
      <extensions>
        <activity type="IN_VEHICLE" conf="85" state="moving" tsMs="1787657356135"/>
        <radio op="vodafone IT" rat="LTE" q="77.50" rsrp="-94" sinr="29" rsrq="-7"/>
        <radio op="I TIM" rat="LTE" q="92.00" rsrp="-75" sinr="18" rsrq="-10"/>
      </extensions>
    </trkpt>
    <trkpt lat="45.6037708" lon="10.4592939">
      <ele>264.1000061035156</ele>
      <time>2026-08-25T13:30:24.355+02:00</time>
      <extensions>
        <activity type="UNKNOWN" conf="40" state="unknown" tsMs="1787657423627"/>
        <radio op="vodafone IT" rat="LTE" q="92.50" rsrp="-88" sinr="22" rsrq="-10"/>
        <radio op="I TIM" rat="LTE" q="72.00" rsrp="-79" sinr="13" rsrq="-9"/>
      </extensions>
    </trkpt>
    <trkpt lat="45.6038174" lon="10.4593013">
      <ele>264.1000061035156</ele>
      <time>2026-08-25T13:30:30.135+02:00</time>
      <extensions>
        <activity type="UNKNOWN" conf="40" state="unknown" tsMs="1787657423627"/>
        <radio op="vodafone IT" rat="LTE" q="67.20" rsrp="-93" sinr="16" rsrq="-11"/>
        <radio op="I TIM" rat="LTE" q="60.00" rsrp="-82" sinr="10" rsrq="-9"/>
      </extensions>
    </trkpt>
    <trkpt lat="45.6038609" lon="10.4593775">
      <ele>264.1000061035156</ele>
      <time>2026-08-25T13:30:41.135+02:00</time>
      <extensions>
        <activity type="ON_FOOT" conf="97" state="moving" tsMs="1787657427828"/>
        <radio op="vodafone IT" rat="LTE" q="100.00" rsrp="-85" sinr="22" rsrq="-8"/>
        <radio op="I TIM" rat="LTE" q="68.00" rsrp="-74" sinr="12" rsrq="-7"/>
      </extensions>
    </trkpt>
    <trkpt lat="45.604224" lon="10.4593673">
      <ele>264.3000183105469</ele>
      <time>2026-08-25T13:31:18.648+02:00</time>
      <extensions>
        <activity type="ON_FOOT" conf="96" state="moving" tsMs="1787657478291"/>
        <radio op="vodafone IT" rat="LTE" q="36.80" rsrp="-109" sinr="18" rsrq="-10"/>
        <radio op="I TIM" rat="LTE" q="65.00" rsrp="-99" sinr="21" rsrq="-10"/>
      </extensions>
    </trkpt>
    <trkpt lat="45.6041121" lon="10.4593957">
      <ele>264.3000183105469</ele>
      <time>2026-08-25T13:31:49.945+02:00</time>
      <extensions>
        <activity type="ON_FOOT" conf="89" state="moving" tsMs="1787657504429"/>
        <radio op="vodafone IT" rat="LTE" q="37.40" rsrp="-108" sinr="17" rsrq="-7"/>
        <radio op="I TIM" rat="LTE" q="43.20" rsrp="-107" sinr="19" rsrq="-8"/>
      </extensions>
    </trkpt>
    <trkpt lat="45.6042131" lon="10.4594831">
      <ele>264.3000183105469</ele>
      <time>2026-08-25T13:32:21.043+02:00</time>
      <extensions>
        <activity type="UNKNOWN" conf="40" state="unknown" tsMs="1787657535643"/>
        <radio op="vodafone IT" rat="LTE" q="55.00" rsrp="-103" sinr="24" rsrq="-8"/>
        <radio op="I TIM" rat="LTE" q="50.00" rsrp="-105" sinr="22" rsrq="-9"/>
      </extensions>
    </trkpt>
    <trkpt lat="45.6042298" lon="10.45948">
      <ele>264.3000183105469</ele>
      <time>2026-08-25T13:32:57.77+02:00</time>
      <extensions>
        <activity type="STILL" conf="63" state="still" tsMs="1787657572209"/>
        <radio op="vodafone IT" rat="LTE" q="47.50" rsrp="-106" sinr="20" rsrq="-9"/>
        <radio op="I TIM" rat="LTE" q="44.00" rsrp="-105" sinr="17" rsrq="-8"/>
      </extensions>
    </trkpt>
    <trkpt lat="45.6041303" lon="10.4593048">
      <ele>264.3000183105469</ele>
      <time>2026-08-25T13:33:29.975+02:00</time>
      <extensions>
        <activity type="UNKNOWN" conf="40" state="unknown" tsMs="1787657609771"/>
        <radio op="vodafone IT" rat="LTE" q="57.50" rsrp="-102" sinr="20" rsrq="-9"/>
        <radio op="I TIM" rat="LTE" q="52.80" rsrp="-101" sinr="17" rsrq="-11"/>
      </extensions>
    </trkpt>
    <trkpt lat="45.6040948" lon="10.4593373">
      <ele>264.3000183105469</ele>
      <time>2026-08-25T13:34:06.91+02:00</time>
      <extensions>
        <activity type="STILL" conf="84" state="still" tsMs="1787657643540"/>
        <radio op="vodafone IT" rat="LTE" q="55.00" rsrp="-103" sinr="22" rsrq="-7"/>
        <radio op="I TIM" rat="LTE" q="50.60" rsrp="-103" sinr="18" rsrq="-9"/>
      </extensions>
    </trkpt>
    <trkpt lat="45.604137" lon="10.4593158">
      <ele>264.3000183105469</ele>
      <time>2026-08-25T13:34:51.08+02:00</time>
      <extensions>
        <activity type="IN_VEHICLE" conf="90" state="moving" tsMs="1787657693464"/>
        <radio op="vodafone IT" rat="LTE" rsrq="-20"/>
        <radio op="I TIM" rat="LTE" q="55.20" rsrp="-102" sinr="19" rsrq="-12"/>
      </extensions>
    </trkpt>
    <trkpt lat="45.6041432" lon="10.4593239">
      <ele>264.3000183105469</ele>
      <time>2026-08-25T13:35:42.81+02:00</time>
      <extensions>
        <activity type="STILL" conf="99" state="still" tsMs="1787657737119"/>
        <radio op="vodafone IT" rat="LTE" q="67.50" rsrp="-98" sinr="23" rsrq="-9"/>
        <radio op="I TIM" rat="LTE" q="18.00" rsrp="-113" sinr="10" rsrq="-9"/>
      </extensions>
    </trkpt>
    <trkpt lat="45.6041199" lon="10.4593333">
      <ele>264.3000183105469</ele>
      <time>2026-08-25T13:36:22.475+02:00</time>
      <extensions>
        <activity type="UNKNOWN" conf="40" state="unknown" tsMs="1787657781871"/>
        <radio op="vodafone IT" rat="LTE" q="72.50" rsrp="-96" sinr="22" rsrq="-8"/>
        <radio op="I TIM" rat="LTE" q="15.60" rsrp="-112" sinr="7" rsrq="-11"/>
      </extensions>
    </trkpt>
    <trkpt lat="45.6041409" lon="10.4593286">
      <ele>264.3000183105469</ele>
      <time>2026-08-25T13:37:00.59+02:00</time>
      <extensions>
        <activity type="STILL" conf="79" state="still" tsMs="1787657818445"/>
        <radio op="vodafone IT" rat="LTE" q="65.00" rsrp="-99" sinr="24" rsrq="-6"/>
        <radio op="I TIM" rat="LTE" q="14.40" rsrp="-113" sinr="7" rsrq="-9"/>
      </extensions>
    </trkpt>
    <trkpt lat="45.6042825" lon="10.4593342">
      <ele>264.3000183105469</ele>
      <time>2026-08-25T13:37:31.801+02:00</time>
      <extensions>
        <activity type="UNKNOWN" conf="40" state="unknown" tsMs="1787657846454"/>
        <radio op="vodafone IT" rat="LTE" q="55.00" rsrp="-103" sinr="22" rsrq="-8"/>
        <radio op="I TIM" rat="LTE" q="9.10" rsrp="-118" sinr="8" rsrq="-11"/>
      </extensions>
    </trkpt>
    <trkpt lat="45.6039338" lon="10.4593667">
      <ele>264.1000061035156</ele>
      <time>2026-08-25T13:38:07.313+02:00</time>
      <extensions>
        <activity type="ON_FOOT" conf="92" state="moving" tsMs="1787657885690"/>
        <radio op="vodafone IT" rat="LTE" q="93.60" rsrp="-86" sinr="19" rsrq="-8"/>
        <radio op="I TIM" rat="LTE" q="48.60" rsrp="-98" sinr="13" rsrq="-7"/>
      </extensions>
    </trkpt>
    <trkpt lat="45.6037398" lon="10.4593197">
      <ele>264.0</ele>
      <time>2026-08-25T13:38:38.642+02:00</time>
      <extensions>
        <activity type="ON_FOOT" conf="96" state="moving" tsMs="1787657918341"/>
        <radio op="vodafone IT" rat="LTE" q="100.00" rsrp="-67" sinr="25" rsrq="-7"/>
        <radio op="I TIM" rat="LTE" rsrq="-20"/>
      </extensions>
    </trkpt>
    <trkpt lat="45.6036793" lon="10.4591064">
      <ele>263.9000244140625</ele>
      <time>2026-08-25T13:39:10.784+02:00</time>
      <extensions>
        <activity type="STILL" conf="60" state="still" tsMs="1787657946596"/>
        <radio op="vodafone IT" rat="LTE" rsrp="-70" rsrq="-12"/>
        <radio op="I TIM" rat="LTE" q="100.00" rsrp="-78" sinr="24" rsrq="-7"/>
      </extensions>
    </trkpt>
    <trkpt lat="45.6037006" lon="10.4591402">
      <ele>263.9000244140625</ele>
      <time>2026-08-25T13:39:30.911+02:00</time>
      <extensions>
        <activity type="STILL" conf="97" state="still" tsMs="1787657978366"/>
        <radio op="vodafone IT" rat="LTE" q="100.00" rsrp="-65" sinr="30" rsrq="-3"/>
        <radio op="I TIM" rat="LTE" q="84.00" rsrp="-78" sinr="16" rsrq="-8"/>
      </extensions>
    </trkpt>
    <trkpt lat="45.6037056" lon="10.4592106">
      <ele>263.9000244140625</ele>
      <time>2026-08-25T13:40:02.067+02:00</time>
      <extensions>
        <activity type="IN_VEHICLE" conf="97" state="moving" tsMs="1787658000039"/>
        <radio op="vodafone IT" rat="LTE" q="88.00" rsrp="-67" sinr="17" rsrq="-11"/>
        <radio op="I TIM" rat="LTE" q="100.00" rsrp="-77" sinr="26" rsrq="-8"/>
      </extensions>
    </trkpt>
    <trkpt lat="45.6038391" lon="10.4611822">
      <ele>267.4000244140625</ele>
      <time>2026-08-25T13:40:35.184+02:00</time>
      <extensions>
        <activity type="IN_VEHICLE" conf="97" state="moving" tsMs="1787658033768"/>
        <radio op="vodafone IT" rat="LTE" q="92.00" rsrp="-66" sinr="18" rsrq="-7"/>
        <radio op="I TIM" rat="LTE" q="31.00" rsrp="-94" sinr="5" rsrq="-8"/>
      </extensions>
    </trkpt>
    <trkpt lat="45.6047997" lon="10.4671654">
      <ele>272.1742570091012</ele>
      <time>2026-08-25T13:41:19.64+02:00</time>
      <extensions>
        <activity type="IN_VEHICLE" conf="97" state="moving" tsMs="1787658085299"/>
        <radio op="vodafone IT" rat="LTE" q="100.00" rsrp="-85" sinr="25" rsrq="-6"/>
        <radio op="I TIM" rat="LTE" q="64.60" rsrp="-91" sinr="14" rsrq="-7"/>
      </extensions>
    </trkpt>
    <trkpt lat="45.6121942" lon="10.4879702">
      <ele>240.69469501840547</ele>
      <time>2026-08-25T13:42:58.768+02:00</time>
      <extensions>
        <activity type="IN_VEHICLE" conf="96" state="moving" tsMs="1787658174075"/>
        <radio op="vodafone IT" rat="LTE" rsrp="-117" rsrq="-10"/>
        <radio op="I TIM" rat="LTE" rsrp="-125" rsrq="-15"/>
      </extensions>
    </trkpt>
    <trkpt lat="45.6122613" lon="10.4872449">
      <ele>242.84605281881645</ele>
      <time>2026-08-25T13:43:04.437+02:00</time>
      <extensions>
        <activity type="IN_VEHICLE" conf="96" state="moving" tsMs="1787658174075"/>
        <radio op="vodafone IT" rat="LTE" rsrp="-111" rsrq="-15"/>
        <radio op="I TIM" rat="LTE" rsrp="-106" rsrq="-15"/>
      </extensions>
    </trkpt>
    <trkpt lat="45.6117498" lon="10.4921627">
      <ele>225.50001525878906</ele>
      <time>2026-08-25T13:43:43.863+02:00</time>
      <extensions>
        <activity type="IN_VEHICLE" conf="96" state="moving" tsMs="1787658223629"/>
        <radio op="vodafone IT" rat="LTE" rsrp="-103" rsrq="-16"/>
        <radio op="I TIM" rat="LTE" rsrp="-107" rsrq="-12"/>
      </extensions>
    </trkpt>
    <trkpt lat="45.6153472" lon="10.4952831">
      <ele>223.7164854502838</ele>
      <time>2026-08-25T13:44:47.049+02:00</time>
      <extensions>
        <activity type="IN_VEHICLE" conf="97" state="moving" tsMs="1787658303065"/>
        <radio op="vodafone IT" rat="LTE" rsrp="-91" rsrq="-14"/>
        <radio op="I TIM" rat="LTE" q="100.00" rsrp="-85" sinr="20" rsrq="-11"/>
      </extensions>
    </trkpt>
    <trkpt lat="45.6181706" lon="10.4935225">
      <ele>226.40000915527344</ele>
      <time>2026-08-25T13:45:18.12+02:00</time>
      <extensions>
        <activity type="IN_VEHICLE" conf="97" state="moving" tsMs="1787658313850"/>
        <radio op="vodafone IT" rat="LTE" rsrp="-89" rsrq="-12"/>
        <radio op="I TIM" rat="LTE" q="60.80" rsrp="-93" sinr="14" rsrq="-11"/>
      </extensions>
    </trkpt>
    <trkpt lat="45.6180416" lon="10.4929852">
      <ele>226.40000915527344</ele>
      <time>2026-08-25T13:45:24.138+02:00</time>
      <extensions>
        <activity type="IN_VEHICLE" conf="97" state="moving" tsMs="1787658328887"/>
        <radio op="vodafone IT" rat="LTE" rsrp="-91" rsrq="-10"/>
        <radio op="I TIM" rat="LTE" q="55.00" rsrp="-100" sinr="17" rsrq="-11"/>
      </extensions>
    </trkpt>
    <trkpt lat="45.6176132" lon="10.494183">
      <ele>224.40000915527344</ele>
      <time>2026-08-25T13:45:59.552+02:00</time>
      <extensions>
        <activity type="IN_VEHICLE" conf="92" state="moving" tsMs="1787658354948"/>
        <radio op="vodafone IT" rat="LTE" q="35.00" rsrp="-90" sinr="5" rsrq="-11"/>
        <radio op="I TIM" rat="LTE" q="57.50" rsrp="-100" sinr="18" rsrq="-12"/>
      </extensions>
    </trkpt>
    <trkpt lat="45.6177518" lon="10.4938709">
      <ele>224.40000915527344</ele>
      <time>2026-08-25T13:46:30.731+02:00</time>
      <extensions>
        <activity type="TILTING" conf="100" state="moving" tsMs="1787658385968"/>
        <radio op="vodafone IT" rat="LTE" rsrp="-95" rsrq="-14"/>
        <radio op="I TIM" rat="LTE" q="72.60" rsrp="-92" sinr="17" rsrq="-12"/>
      </extensions>
    </trkpt>
    <trkpt lat="45.6177212" lon="10.493751">
      <ele>224.40000915527344</ele>
      <time>2026-08-25T13:47:02.017+02:00</time>
      <extensions>
        <activity type="UNKNOWN" conf="40" state="unknown" tsMs="1787658418291"/>
        <radio op="vodafone IT" rat="LTE" q="57.60" rsrp="-101" sinr="19" rsrq="-11"/>
        <radio op="I TIM" rat="LTE" q="56.70" rsrp="-98" sinr="16" rsrq="-12"/>
      </extensions>
    </trkpt>
    <trkpt lat="45.6176089" lon="10.4941805">
      <ele>224.40000915527344</ele>
      <time>2026-08-25T13:47:33.338+02:00</time>
      <extensions>
        <activity type="UNKNOWN" conf="40" state="unknown" tsMs="1787658449150"/>
        <radio op="vodafone IT" rat="LTE" q="67.50" rsrp="-98" sinr="23" rsrq="-8"/>
        <radio op="I TIM" rat="LTE" q="75.00" rsrp="-95" sinr="23" rsrq="-12"/>
      </extensions>
    </trkpt>
    <trkpt lat="45.617816" lon="10.493463">
      <ele>224.70001220703125</ele>
      <time>2026-08-25T13:48:04.622+02:00</time>
      <extensions>
        <activity type="ON_FOOT" conf="86" state="moving" tsMs="1787658481174"/>
        <radio op="vodafone IT" rat="LTE" q="39.90" rsrp="-106" sinr="16" rsrq="-9"/>
        <radio op="I TIM" rat="LTE" q="58.80" rsrp="-97" sinr="16" rsrq="-11"/>
      </extensions>
    </trkpt>
    <trkpt lat="45.6181875" lon="10.493451">
      <ele>229.75104948583964</ele>
      <time>2026-08-25T13:48:35.968+02:00</time>
      <extensions>
        <activity type="ON_FOOT" conf="96" state="moving" tsMs="1787658512402"/>
        <radio op="vodafone IT" rat="LTE" q="33.60" rsrp="-109" sinr="16" rsrq="-12"/>
        <radio op="I TIM" rat="LTE" q="39.10" rsrp="-102" sinr="12" rsrq="-12"/>
      </extensions>
    </trkpt>
    <trkpt lat="45.6181679" lon="10.4934829">
      <ele>230.31517470151158</ele>
      <time>2026-08-25T13:49:07.198+02:00</time>
      <extensions>
        <activity type="ON_FOOT" conf="97" state="moving" tsMs="1787658543777"/>
        <radio op="vodafone IT" rat="LTE" q="50.40" rsrp="-104" sinr="19" rsrq="-8"/>
        <radio op="I TIM" rat="LTE" q="64.40" rsrp="-97" sinr="18" rsrq="-11"/>
      </extensions>
    </trkpt>
    <trkpt lat="45.6178638" lon="10.4936066">
      <ele>229.81390328789755</ele>
      <time>2026-08-25T13:49:42.305+02:00</time>
      <extensions>
        <activity type="UNKNOWN" conf="40" state="unknown" tsMs="1787658580366"/>
        <radio op="vodafone IT" rat="LTE" q="8.00" rsrp="-117" sinr="5" rsrq="-12"/>
        <radio op="I TIM" rat="LTE" q="23.80" rsrp="-111" sinr="12" rsrq="-12"/>
      </extensions>
    </trkpt>
    <trkpt lat="45.6182077" lon="10.493671">
      <ele>230.49316105487557</ele>
      <time>2026-08-25T13:50:14.997+02:00</time>
      <extensions>
        <activity type="UNKNOWN" conf="40" state="unknown" tsMs="1787658585658"/>
        <radio op="vodafone IT" rat="LTE" q="52.80" rsrp="-103" sinr="19" rsrq="-11"/>
        <radio op="I TIM" rat="LTE" q="32.00" rsrp="-93" sinr="5" rsrq="-12"/>
      </extensions>
    </trkpt>
    <trkpt lat="45.6182015" lon="10.4936268">
      <ele>230.28397529717512</ele>
      <time>2026-08-25T13:50:47.765+02:00</time>
      <extensions>
        <activity type="STILL" conf="49" state="still" tsMs="1787658646219"/>
        <radio op="vodafone IT" rat="LTE" q="38.40" rsrp="-101" sinr="11" rsrq="-9"/>
        <radio op="I TIM" rat="LTE" q="68.00" rsrp="-91" sinr="15" rsrq="-12"/>
      </extensions>
    </trkpt>
    <trkpt lat="45.6181991" lon="10.4936368">
      <ele>230.29398609528357</ele>
      <time>2026-08-25T13:51:18.997+02:00</time>
      <extensions>
        <activity type="STILL" conf="99" state="still" tsMs="1787658675698"/>
        <radio op="vodafone IT" rat="LTE" q="48.30" rsrp="-102" sinr="16" rsrq="-9"/>
        <radio op="I TIM" rat="LTE" q="90.00" rsrp="-89" sinr="22" rsrq="-12"/>
      </extensions>
    </trkpt>
    <trkpt lat="45.6182085" lon="10.493626">
      <ele>230.1161496353253</ele>
      <time>2026-08-25T13:51:50.331+02:00</time>
      <extensions>
        <activity type="STILL" conf="98" state="still" tsMs="1787658706791"/>
        <radio op="vodafone IT" rat="LTE" q="28.60" rsrp="-103" sinr="8" rsrq="-8"/>
        <radio op="I TIM" rat="LTE" q="32.40" rsrp="-89" sinr="4" rsrq="-10"/>
      </extensions>
    </trkpt>
    <trkpt lat="45.6182063" lon="10.4936435">
      <ele>230.20302522182448</ele>
      <time>2026-08-25T13:52:21.641+02:00</time>
      <extensions>
        <activity type="STILL" conf="97" state="still" tsMs="1787658737884"/>
        <radio op="vodafone IT" rat="LTE" q="40.80" rsrp="-101" sinr="12" rsrq="-8"/>
        <radio op="I TIM" rat="LTE" q="25.90" rsrp="-88" sinr="2" rsrq="-12"/>
      </extensions>
    </trkpt>
    <trkpt lat="45.6182002" lon="10.4935952">
      <ele>230.12886308097106</ele>
      <time>2026-08-25T13:52:52.898+02:00</time>
      <extensions>
        <activity type="STILL" conf="97" state="still" tsMs="1787658769273"/>
        <radio op="vodafone IT" rat="LTE" q="36.00" rsrp="-101" sinr="10" rsrq="-8"/>
        <radio op="I TIM" rat="LTE" q="87.50" rsrp="-90" sinr="24" rsrq="-12"/>
      </extensions>
    </trkpt>
    <trkpt lat="45.6182066" lon="10.4936399">
      <ele>230.44785217356733</ele>
      <time>2026-08-25T13:53:24.191+02:00</time>
      <extensions>
        <activity type="STILL" conf="98" state="still" tsMs="1787658800511"/>
        <radio op="vodafone IT" rat="LTE" q="37.50" rsrp="-100" sinr="10" rsrq="-12"/>
        <radio op="I TIM" rat="LTE" q="28.80" rsrp="-89" sinr="3" rsrq="-12"/>
      </extensions>
    </trkpt>
    <trkpt lat="45.6181921" lon="10.4934575">
      <ele>226.40000915527344</ele>
      <time>2026-08-25T14:42:23.69+02:00</time>
      <extensions>
        <activity type="ON_FOOT" conf="97" state="moving" tsMs="1787661770819"/>
        <radio op="vodafone IT" rat="LTE" q="33.60" rsrp="-109" sinr="16" rsrq="-8"/>
        <radio op="I TIM" rat="LTE" q="43.70" rsrp="-102" sinr="14" rsrq="-11"/>
      </extensions>
    </trkpt>
    <trkpt lat="45.617753" lon="10.4933793">
      <ele>224.40000915527344</ele>
      <time>2026-08-25T14:43:12.063+02:00</time>
      <extensions>
        <activity type="ON_FOOT" conf="97" state="moving" tsMs="1787661786936"/>
        <radio op="vodafone IT" rat="LTE" q="46.00" rsrp="-102" sinr="15" rsrq="-9"/>
        <radio op="I TIM" rat="LTE" q="60.00" rsrp="-101" sinr="21" rsrq="-11"/>
      </extensions>
    </trkpt>
    <trkpt lat="45.6178074" lon="10.4934532">
      <ele>224.70001220703125</ele>
      <time>2026-08-25T14:43:44.612+02:00</time>
      <extensions>
        <activity type="ON_FOOT" conf="96" state="moving" tsMs="1787661819791"/>
        <radio op="vodafone IT" rat="LTE" q="35.70" rsrp="-104" sinr="12" rsrq="-8"/>
        <radio op="I TIM" rat="LTE" q="49.40" rsrp="-99" sinr="14" rsrq="-12"/>
      </extensions>
    </trkpt>
    <trkpt lat="45.6176404" lon="10.4941158">
      <ele>224.40000915527344</ele>
      <time>2026-08-25T14:44:26.596+02:00</time>
      <extensions>
        <activity type="UNKNOWN" conf="40" state="unknown" tsMs="1787661864856"/>
        <radio op="vodafone IT" rat="LTE" q="57.50" rsrp="-102" sinr="21" rsrq="-9"/>
        <radio op="I TIM" rat="LTE" q="63.80" rsrp="-96" sinr="17" rsrq="-13"/>
      </extensions>
    </trkpt>
    <trkpt lat="45.6177232" lon="10.4935734">
      <ele>224.40000915527344</ele>
      <time>2026-08-25T14:45:15.846+02:00</time>
      <extensions>
        <activity type="UNKNOWN" conf="40" state="unknown" tsMs="1787661910829"/>
        <radio op="vodafone IT" rat="LTE" q="33.60" rsrp="-104" sinr="11" rsrq="-10"/>
        <radio op="I TIM" rat="LTE" q="50.40" rsrp="-97" sinr="13" rsrq="-11"/>
      </extensions>
    </trkpt>
    <trkpt lat="45.6177887" lon="10.4934247">
      <ele>224.40000915527344</ele>
      <time>2026-08-25T14:46:27.704+02:00</time>
      <extensions>
        <activity type="UNKNOWN" conf="40" state="unknown" tsMs="1787661983851"/>
        <radio op="vodafone IT" rat="LTE" q="15.60" rsrp="-113" sinr="8" rsrq="-9"/>
        <radio op="I TIM" rat="LTE" q="46.20" rsrp="-104" sinr="17" rsrq="-12"/>
      </extensions>
    </trkpt>
    <trkpt lat="45.6177562" lon="10.4934154">
      <ele>224.40000915527344</ele>
      <time>2026-08-25T14:47:07.535+02:00</time>
      <extensions>
        <activity type="UNKNOWN" conf="40" state="unknown" tsMs="1787662022690"/>
        <radio op="vodafone IT" rat="LTE" q="57.50" rsrp="-102" sinr="20" rsrq="-9"/>
        <radio op="I TIM" rat="LTE" q="62.40" rsrp="-99" sinr="19" rsrq="-12"/>
      </extensions>
    </trkpt>
    <trkpt lat="45.6177588" lon="10.4934459">
      <ele>224.40000915527344</ele>
      <time>2026-08-25T14:47:47.555+02:00</time>
      <extensions>
        <activity type="UNKNOWN" conf="40" state="unknown" tsMs="1787662066664"/>
        <radio op="vodafone IT" rat="LTE" q="55.00" rsrp="-103" sinr="20" rsrq="-8"/>
        <radio op="I TIM" rat="LTE" q="38.00" rsrp="-105" sinr="14" rsrq="-12"/>
      </extensions>
    </trkpt>
    <trkpt lat="45.6177355" lon="10.4933562">
      <ele>224.40000915527344</ele>
      <time>2026-08-25T14:48:45.754+02:00</time>
      <extensions>
        <activity type="UNKNOWN" conf="40" state="unknown" tsMs="1787662124857"/>
        <radio op="vodafone IT" rat="LTE" q="52.90" rsrp="-102" sinr="18" rsrq="-10"/>
        <radio op="I TIM" rat="LTE" q="50.40" rsrp="-101" sinr="16" rsrq="-11"/>
      </extensions>
    </trkpt>
    <trkpt lat="45.6177175" lon="10.4935158">
      <ele>224.40000915527344</ele>
      <time>2026-08-25T14:49:45.762+02:00</time>
      <extensions>
        <activity type="UNKNOWN" conf="40" state="unknown" tsMs="1787662180301"/>
        <radio op="vodafone IT" rat="LTE" q="36.10" rsrp="-106" sinr="14" rsrq="-10"/>
        <radio op="I TIM" rat="LTE" q="42.00" rsrp="-104" sinr="15" rsrq="-12"/>
      </extensions>
    </trkpt>
    <trkpt lat="45.617618" lon="10.4941539">
      <ele>224.40000915527344</ele>
      <time>2026-08-25T14:50:33.461+02:00</time>
      <extensions>
        <activity type="UNKNOWN" conf="40" state="unknown" tsMs="1787662229178"/>
        <radio op="vodafone IT" rat="LTE" q="56.70" rsrp="-98" sinr="16" rsrq="-7"/>
        <radio op="I TIM" rat="LTE" q="70.00" rsrp="-97" sinr="23" rsrq="-12"/>
      </extensions>
    </trkpt>
    <trkpt lat="45.6176464" lon="10.4941916">
      <ele>224.40000915527344</ele>
      <time>2026-08-25T14:51:15.271+02:00</time>
      <extensions>
        <activity type="ON_FOOT" conf="90" state="moving" tsMs="1787662272843"/>
        <radio op="vodafone IT" rat="LTE" q="82.50" rsrp="-92" sinr="21" rsrq="-10"/>
        <radio op="I TIM" rat="LTE" q="48.00" rsrp="-101" sinr="15" rsrq="-11"/>
      </extensions>
    </trkpt>
    <trkpt lat="45.6175998" lon="10.4942032">
      <ele>224.40000915527344</ele>
      <time>2026-08-25T14:51:56.703+02:00</time>
      <extensions>
        <activity type="ON_FOOT" conf="92" state="moving" tsMs="1787662312955"/>
        <radio op="vodafone IT" rat="LTE" q="70.00" rsrp="-97" sinr="23" rsrq="-7"/>
        <radio op="I TIM" rat="LTE" q="60.90" rsrp="-96" sinr="16" rsrq="-12"/>
      </extensions>
    </trkpt>
    <trkpt lat="45.6176833" lon="10.4941905">
      <ele>224.40000915527344</ele>
      <time>2026-08-25T14:52:30.218+02:00</time>
      <extensions>
        <activity type="STILL" conf="99" state="still" tsMs="1787662344688"/>
        <radio op="vodafone IT" rat="LTE" q="70.00" rsrp="-97" sinr="22" rsrq="-11"/>
        <radio op="I TIM" rat="LTE" q="82.50" rsrp="-92" sinr="23" rsrq="-11"/>
      </extensions>
    </trkpt>
    <trkpt lat="45.6176229" lon="10.4942031">
      <ele>224.40000915527344</ele>
      <time>2026-08-25T14:53:00.135+02:00</time>
      <extensions>
        <activity type="STILL" conf="97" state="still" tsMs="1787662381184"/>
        <radio op="vodafone IT" rat="LTE" q="50.60" rsrp="-103" sinr="18" rsrq="-7"/>
        <radio op="I TIM" rat="LTE" q="77.00" rsrp="-90" sinr="17" rsrq="-12"/>
      </extensions>
    </trkpt>
    <trkpt lat="45.6176095" lon="10.4942181">
      <ele>224.40000915527344</ele>
      <time>2026-08-25T14:53:30.134+02:00</time>
      <extensions>
        <activity type="UNKNOWN" conf="40" state="unknown" tsMs="1787662409536"/>
        <radio op="vodafone IT" rat="LTE" q="70.00" rsrp="-97" sinr="21" rsrq="-9"/>
        <radio op="I TIM" rat="LTE" q="82.50" rsrp="-92" sinr="20" rsrq="-13"/>
      </extensions>
    </trkpt>
    <trkpt lat="45.6176639" lon="10.4941924">
      <ele>224.40000915527344</ele>
      <time>2026-08-25T14:54:04.924+02:00</time>
      <extensions>
        <activity type="UNKNOWN" conf="40" state="unknown" tsMs="1787662441378"/>
        <radio op="vodafone IT" rat="LTE" q="70.00" rsrp="-97" sinr="24" rsrq="-8"/>
        <radio op="I TIM" rat="LTE" q="79.20" rsrp="-89" sinr="17" rsrq="-12"/>
      </extensions>
    </trkpt>
    <trkpt lat="45.6176438" lon="10.494208">
      <ele>224.40000915527344</ele>
      <time>2026-08-25T14:54:36.18+02:00</time>
      <extensions>
        <activity type="UNKNOWN" conf="40" state="unknown" tsMs="1787662472553"/>
        <radio op="vodafone IT" rat="LTE" q="75.00" rsrp="-95" sinr="21" rsrq="-6"/>
        <radio op="I TIM" rat="LTE" q="68.40" rsrp="-89" sinr="14" rsrq="-12"/>
      </extensions>
    </trkpt>
    <trkpt lat="45.6177555" lon="10.494598">
      <ele>224.40000915527344</ele>
      <time>2026-08-25T14:55:07.402+02:00</time>
      <extensions>
        <activity type="UNKNOWN" conf="40" state="unknown" tsMs="1787662513673"/>
        <radio op="vodafone IT" rat="LTE" q="70.00" rsrp="-97" sinr="23" rsrq="-10"/>
        <radio op="I TIM" rat="LTE" q="87.50" rsrp="-90" sinr="20" rsrq="-13"/>
      </extensions>
    </trkpt>
    <trkpt lat="45.617608" lon="10.4942212">
      <ele>224.40000915527344</ele>
      <time>2026-08-25T14:55:38.698+02:00</time>
      <extensions>
        <activity type="STILL" conf="62" state="still" tsMs="1787662535097"/>
        <radio op="vodafone IT" rat="LTE" q="70.00" rsrp="-97" sinr="22" rsrq="-10"/>
        <radio op="I TIM" rat="LTE" q="70.30" rsrp="-88" sinr="14" rsrq="-13"/>
      </extensions>
    </trkpt>
    <trkpt lat="45.6175812" lon="10.4942354">
      <ele>224.40000915527344</ele>
      <time>2026-08-25T14:56:09.991+02:00</time>
      <extensions>
        <activity type="STILL" conf="44" state="still" tsMs="1787662566471"/>
        <radio op="vodafone IT" rat="LTE" q="35.00" rsrp="-100" sinr="9" rsrq="-10"/>
        <radio op="I TIM" rat="LTE" q="92.50" rsrp="-88" sinr="21" rsrq="-9"/>
      </extensions>
    </trkpt>
    <trkpt lat="45.617583" lon="10.4942083">
      <ele>224.40000915527344</ele>
      <time>2026-08-25T14:56:41.216+02:00</time>
      <extensions>
        <activity type="STILL" conf="39" state="still" tsMs="1787662597744"/>
        <radio op="vodafone IT" rat="LTE" q="67.50" rsrp="-98" sinr="22" rsrq="-7"/>
        <radio op="I TIM" rat="LTE" q="73.60" rsrp="-93" sinr="18" rsrq="-11"/>
      </extensions>
    </trkpt>
    <trkpt lat="45.6176055" lon="10.4942364">
      <ele>224.40000915527344</ele>
      <time>2026-08-25T14:57:12.391+02:00</time>
      <extensions>
        <activity type="UNKNOWN" conf="40" state="unknown" tsMs="1787662628894"/>
        <radio op="vodafone IT" rat="LTE" q="72.50" rsrp="-96" sinr="22" rsrq="-6"/>
        <radio op="I TIM" rat="LTE" q="75.90" rsrp="-92" sinr="18" rsrq="-12"/>
      </extensions>
    </trkpt>
    <trkpt lat="45.6175838" lon="10.494714">
      <ele>224.40000915527344</ele>
      <time>2026-08-25T14:57:43.821+02:00</time>
      <extensions>
        <activity type="STILL" conf="75" state="still" tsMs="1787662660210"/>
        <radio op="vodafone IT" rat="LTE" q="13.00" rsrp="-99" sinr="0" rsrq="-11"/>
        <radio op="I TIM" rat="LTE" q="92.50" rsrp="-88" sinr="20" rsrq="-12"/>
      </extensions>
    </trkpt>
    <trkpt lat="45.6176757" lon="10.4941922">
      <ele>224.40000915527344</ele>
      <time>2026-08-25T14:58:10.162+02:00</time>
      <extensions>
        <activity type="UNKNOWN" conf="40" state="unknown" tsMs="1787662691570"/>
        <radio op="vodafone IT" rat="LTE" q="33.80" rsrp="-99" sinr="8" rsrq="-10"/>
        <radio op="I TIM" rat="LTE" q="78.20" rsrp="-91" sinr="18" rsrq="-12"/>
      </extensions>
    </trkpt>
    <trkpt lat="45.6175823" lon="10.4942319">
      <ele>224.40000915527344</ele>
      <time>2026-08-25T14:58:45.672+02:00</time>
      <extensions>
        <activity type="UNKNOWN" conf="40" state="unknown" tsMs="1787662722134"/>
        <radio op="vodafone IT" rat="LTE" rsrp="-95" rsrq="-9"/>
        <radio op="I TIM" rat="LTE" q="88.00" rsrp="-85" sinr="17" rsrq="-12"/>
      </extensions>
    </trkpt>
    <trkpt lat="45.6176128" lon="10.4945081">
      <ele>224.40000915527344</ele>
      <time>2026-08-25T14:59:16.923+02:00</time>
      <extensions>
        <activity type="UNKNOWN" conf="40" state="unknown" tsMs="1787662753322"/>
        <radio op="vodafone IT" rat="LTE" rsrp="-96" rsrq="-14"/>
        <radio op="I TIM" rat="LTE" q="92.00" rsrp="-85" sinr="18" rsrq="-12"/>
      </extensions>
    </trkpt>
    <trkpt lat="45.6176077" lon="10.4942168">
      <ele>224.40000915527344</ele>
      <time>2026-08-25T14:59:48.158+02:00</time>
      <extensions>
        <activity type="STILL" conf="50" state="still" tsMs="1787662784631"/>
        <radio op="vodafone IT" rat="LTE" q="18.90" rsrp="-98" sinr="2" rsrq="-10"/>
        <radio op="I TIM" rat="LTE" q="90.00" rsrp="-89" sinr="21" rsrq="-13"/>
      </extensions>
    </trkpt>
    <trkpt lat="45.6175813" lon="10.4942157">
      <ele>224.40000915527344</ele>
      <time>2026-08-25T15:00:19.462+02:00</time>
      <extensions>
        <activity type="STILL" conf="86" state="still" tsMs="1787662815858"/>
        <radio op="vodafone IT" rat="LTE" q="34.80" rsrp="-96" sinr="7" rsrq="-11"/>
        <radio op="I TIM" rat="LTE" q="85.10" rsrp="-88" sinr="18" rsrq="-11"/>
      </extensions>
    </trkpt>
    <trkpt lat="45.617624" lon="10.4943975">
      <ele>224.40000915527344</ele>
      <time>2026-08-25T15:00:50.174+02:00</time>
      <extensions>
        <activity type="UNKNOWN" conf="40" state="unknown" tsMs="1787662847103"/>
        <radio op="vodafone IT" rat="LTE" q="15.00" rsrp="-95" sinr="0" rsrq="-12"/>
        <radio op="I TIM" rat="LTE" q="100.00" rsrp="-85" sinr="25" rsrq="-12"/>
      </extensions>
    </trkpt>
    <trkpt lat="45.6176077" lon="10.4942156">
      <ele>224.40000915527344</ele>
      <time>2026-08-25T15:01:23.437+02:00</time>
      <extensions>
        <activity type="UNKNOWN" conf="40" state="unknown" tsMs="1787662879940"/>
        <radio op="vodafone IT" rat="LTE" q="24.80" rsrp="-94" sinr="3" rsrq="-11"/>
        <radio op="I TIM" rat="LTE" q="96.00" rsrp="-83" sinr="19" rsrq="-10"/>
      </extensions>
    </trkpt>
    <trkpt lat="45.6175902" lon="10.4947768">
      <ele>223.8000030517578</ele>
      <time>2026-08-25T15:01:54.659+02:00</time>
      <extensions>
        <activity type="UNKNOWN" conf="40" state="unknown" tsMs="1787662911064"/>
        <radio op="vodafone IT" rat="LTE" q="22.40" rsrp="-97" sinr="3" rsrq="-12"/>
        <radio op="I TIM" rat="LTE" q="97.50" rsrp="-86" sinr="22" rsrq="-12"/>
      </extensions>
    </trkpt>
    <trkpt lat="45.6176168" lon="10.4942266">
      <ele>224.40000915527344</ele>
      <time>2026-08-25T15:02:22.266+02:00</time>
      <extensions>
        <activity type="STILL" conf="54" state="still" tsMs="1787662942272"/>
        <radio op="vodafone IT" rat="LTE" q="20.30" rsrp="-96" sinr="2" rsrq="-10"/>
        <radio op="I TIM" rat="LTE" q="87.50" rsrp="-90" sinr="21" rsrq="-12"/>
      </extensions>
    </trkpt>
    <trkpt lat="45.6175826" lon="10.4942068">
      <ele>224.40000915527344</ele>
      <time>2026-08-25T15:02:56.511+02:00</time>
      <extensions>
        <activity type="STILL" conf="65" state="still" tsMs="1787662972610"/>
        <radio op="vodafone IT" rat="LTE" q="13.50" rsrp="-98" sinr="0" rsrq="-13"/>
        <radio op="I TIM" rat="LTE" q="72.00" rsrp="-85" sinr="13" rsrq="-11"/>
      </extensions>
    </trkpt>
    <trkpt lat="45.617617" lon="10.4942045">
      <ele>224.40000915527344</ele>
      <time>2026-08-25T15:03:27.757+02:00</time>
      <extensions>
        <activity type="STILL" conf="50" state="still" tsMs="1787663004099"/>
        <radio op="vodafone IT" rat="LTE" q="15.50" rsrp="-94" sinr="0" rsrq="-11"/>
        <radio op="I TIM" rat="LTE" q="76.00" rsrp="-87" sinr="15" rsrq="-11"/>
      </extensions>
    </trkpt>
    <trkpt lat="45.6176152" lon="10.4941824">
      <ele>224.40000915527344</ele>
      <time>2026-08-25T15:03:59.046+02:00</time>
      <extensions>
        <activity type="UNKNOWN" conf="40" state="unknown" tsMs="1787663035419"/>
        <radio op="vodafone IT" rat="LTE" q="21.60" rsrp="-98" sinr="3" rsrq="-9"/>
        <radio op="I TIM" rat="LTE" q="100.00" rsrp="-85" sinr="24" rsrq="-11"/>
      </extensions>
    </trkpt>
    <trkpt lat="45.617582" lon="10.4942349">
      <ele>224.40000915527344</ele>
      <time>2026-08-25T15:04:30.411+02:00</time>
      <extensions>
        <activity type="UNKNOWN" conf="40" state="unknown" tsMs="1787663066836"/>
        <radio op="vodafone IT" rat="LTE" q="21.00" rsrp="-95" sinr="2" rsrq="-8"/>
        <radio op="I TIM" rat="LTE" q="92.50" rsrp="-88" sinr="23" rsrq="-11"/>
      </extensions>
    </trkpt>
    <trkpt lat="45.617643" lon="10.4941958">
      <ele>224.40000915527344</ele>
      <time>2026-08-25T15:05:01.571+02:00</time>
      <extensions>
        <activity type="STILL" conf="61" state="still" tsMs="1787663098127"/>
        <radio op="vodafone IT" rat="LTE" q="20.30" rsrp="-96" sinr="2" rsrq="-14"/>
        <radio op="I TIM" rat="LTE" q="100.00" rsrp="-85" sinr="21" rsrq="-12"/>
      </extensions>
    </trkpt>
    <trkpt lat="45.6176081" lon="10.494222">
      <ele>224.40000915527344</ele>
      <time>2026-08-25T15:05:32.875+02:00</time>
      <extensions>
        <activity type="UNKNOWN" conf="40" state="unknown" tsMs="1787663129231"/>
        <radio op="vodafone IT" rat="LTE" rsrp="-99" rsrq="-14"/>
        <radio op="I TIM" rat="LTE" q="97.50" rsrp="-86" sinr="20" rsrq="-12"/>
      </extensions>
    </trkpt>
    <trkpt lat="45.6175807" lon="10.4942284">
      <ele>224.40000915527344</ele>
      <time>2026-08-25T15:10:00.227+02:00</time>
      <extensions>
        <activity type="ON_FOOT" conf="91" state="moving" tsMs="1787663400109"/>
        <radio op="vodafone IT" rat="LTE" q="24.00" rsrp="-95" sinr="3" rsrq="-10"/>
        <radio op="I TIM" rat="LTE" q="92.50" rsrp="-88" sinr="21" rsrq="-12"/>
      </extensions>
    </trkpt>
    <trkpt lat="45.6175806" lon="10.4942221">
      <ele>224.40000915527344</ele>
      <time>2026-08-25T15:10:31.408+02:00</time>
      <extensions>
        <activity type="ON_FOOT" conf="90" state="moving" tsMs="1787663425990"/>
        <radio op="vodafone IT" rat="LTE" q="33.00" rsrp="-95" sinr="6" rsrq="-11"/>
        <radio op="I TIM" rat="LTE" q="93.60" rsrp="-86" sinr="19" rsrq="-12"/>
      </extensions>
    </trkpt>
    <trkpt lat="45.6176075" lon="10.4942206">
      <ele>224.40000915527344</ele>
      <time>2026-08-25T15:11:02.59+02:00</time>
      <extensions>
        <activity type="ON_FOOT" conf="85" state="moving" tsMs="1787663462366"/>
        <radio op="vodafone IT" rat="LTE" rsrp="-94" rsrq="-11"/>
        <radio op="I TIM" rat="LTE" q="64.60" rsrp="-87" sinr="12" rsrq="-11"/>
      </extensions>
    </trkpt>
    <trkpt lat="45.6175798" lon="10.4942311">
      <ele>224.40000915527344</ele>
      <time>2026-08-25T15:11:30.191+02:00</time>
      <extensions>
        <activity type="UNKNOWN" conf="40" state="unknown" tsMs="1787663488273"/>
        <radio op="vodafone IT" rat="LTE" q="26.10" rsrp="-96" sinr="4" rsrq="-10"/>
        <radio op="I TIM" rat="LTE" q="82.80" rsrp="-89" sinr="18" rsrq="-12"/>
      </extensions>
    </trkpt>
    <trkpt lat="45.6176557" lon="10.4941935">
      <ele>224.40000915527344</ele>
      <time>2026-08-25T15:12:04.218+02:00</time>
      <extensions>
        <activity type="UNKNOWN" conf="40" state="unknown" tsMs="1787663519472"/>
        <radio op="vodafone IT" rat="LTE" q="19.60" rsrp="-97" sinr="2" rsrq="-14"/>
        <radio op="I TIM" rat="LTE" q="90.00" rsrp="-89" sinr="20" rsrq="-12"/>
      </extensions>
    </trkpt>
    <trkpt lat="45.6176368" lon="10.4942005">
      <ele>224.40000915527344</ele>
      <time>2026-08-25T15:12:35.395+02:00</time>
      <extensions>
        <activity type="UNKNOWN" conf="40" state="unknown" tsMs="1787663551819"/>
        <radio op="vodafone IT" rat="LTE" q="24.00" rsrp="-101" sinr="5" rsrq="-14"/>
        <radio op="I TIM" rat="LTE" q="79.20" rsrp="-92" sinr="19" rsrq="-12"/>
      </extensions>
    </trkpt>
    <trkpt lat="45.6176048" lon="10.4942153">
      <ele>224.40000915527344</ele>
      <time>2026-08-25T15:13:06.505+02:00</time>
      <extensions>
        <activity type="ON_FOOT" conf="85" state="moving" tsMs="1787663583011"/>
        <radio op="vodafone IT" rat="LTE" q="29.00" rsrp="-96" sinr="5" rsrq="-11"/>
        <radio op="I TIM" rat="LTE" q="100.00" rsrp="-85" sinr="24" rsrq="-12"/>
      </extensions>
    </trkpt>
    <trkpt lat="45.6175834" lon="10.4941965">
      <ele>224.40000915527344</ele>
      <time>2026-08-25T15:13:37.808+02:00</time>
      <extensions>
        <activity type="STILL" conf="56" state="still" tsMs="1787663614132"/>
        <radio op="vodafone IT" rat="LTE" q="21.00" rsrp="-95" sinr="2" rsrq="-12"/>
        <radio op="I TIM" rat="LTE" q="100.00" rsrp="-84" sinr="26" rsrq="-11"/>
      </extensions>
    </trkpt>
    <trkpt lat="45.6176605" lon="10.4941528">
      <ele>224.40000915527344</ele>
      <time>2026-08-25T15:14:09.073+02:00</time>
      <extensions>
        <activity type="STILL" conf="91" state="still" tsMs="1787663645385"/>
        <radio op="vodafone IT" rat="LTE" q="49.50" rsrp="-92" sinr="10" rsrq="-8"/>
        <radio op="I TIM" rat="LTE" rsrp="-87" rsrq="-12"/>
      </extensions>
    </trkpt>
    <trkpt lat="45.6174538" lon="10.4943886">
      <ele>222.70001220703125</ele>
      <time>2026-08-25T15:14:43.64+02:00</time>
      <extensions>
        <activity type="UNKNOWN" conf="40" state="unknown" tsMs="1787663689247"/>
        <radio op="vodafone IT" rat="LTE" q="30.80" rsrp="-97" sinr="6" rsrq="-11"/>
        <radio op="I TIM" rat="LTE" q="100.00" rsrp="-84" sinr="20" rsrq="-12"/>
      </extensions>
    </trkpt>
    <trkpt lat="45.6176863" lon="10.4941749">
      <ele>224.40000915527344</ele>
      <time>2026-08-25T15:15:23.431+02:00</time>
      <extensions>
        <activity type="UNKNOWN" conf="40" state="unknown" tsMs="1787663721500"/>
        <radio op="vodafone IT" rat="LTE" q="38.40" rsrp="-93" sinr="7" rsrq="-11"/>
        <radio op="I TIM" rat="LTE" q="66.30" rsrp="-86" sinr="12" rsrq="-13"/>
      </extensions>
    </trkpt>
    <trkpt lat="45.617687" lon="10.4941655">
      <ele>224.40000915527344</ele>
      <time>2026-08-25T15:15:54.577+02:00</time>
      <extensions>
        <activity type="UNKNOWN" conf="40" state="unknown" tsMs="1787663749068"/>
        <radio op="vodafone IT" rat="LTE" q="23.20" rsrp="-96" sinr="3" rsrq="-10"/>
        <radio op="I TIM" rat="LTE" q="70.00" rsrp="-90" sinr="15" rsrq="-12"/>
      </extensions>
    </trkpt>
    <trkpt lat="45.6176217" lon="10.49419">
      <ele>224.40000915527344</ele>
      <time>2026-08-25T15:16:25.614+02:00</time>
      <extensions>
        <activity type="UNKNOWN" conf="40" state="unknown" tsMs="1787663780252"/>
        <radio op="vodafone IT" rat="LTE" q="34.00" rsrp="-91" sinr="5" rsrq="-8"/>
        <radio op="I TIM" rat="LTE" q="87.40" rsrp="-87" sinr="18" rsrq="-11"/>
      </extensions>
    </trkpt>
    <trkpt lat="45.6176016" lon="10.4942806">
      <ele>225.10000610351562</ele>
      <time>2026-08-25T15:16:58.353+02:00</time>
      <extensions>
        <activity type="UNKNOWN" conf="40" state="unknown" tsMs="1787663811369"/>
        <radio op="vodafone IT" rat="LTE" q="13.00" rsrp="-99" sinr="0" rsrq="-12"/>
        <radio op="I TIM" rat="LTE" q="97.50" rsrp="-86" sinr="20" rsrq="-12"/>
      </extensions>
    </trkpt>
    <trkpt lat="45.6176905" lon="10.494127">
      <ele>224.40000915527344</ele>
      <time>2026-08-25T15:17:29.084+02:00</time>
      <extensions>
        <activity type="STILL" conf="55" state="still" tsMs="1787663847940"/>
        <radio op="vodafone IT" rat="LTE" q="25.00" rsrp="-100" sinr="5" rsrq="-12"/>
        <radio op="I TIM" rat="LTE" q="88.00" rsrp="-85" sinr="17" rsrq="-9"/>
      </extensions>
    </trkpt>
    <trkpt lat="45.6176028" lon="10.4942013">
      <ele>224.40000915527344</ele>
      <time>2026-08-25T15:18:00.549+02:00</time>
      <extensions>
        <activity type="STILL" conf="39" state="still" tsMs="1787663880197"/>
        <radio op="vodafone IT" rat="LTE" q="26.10" rsrp="-96" sinr="4" rsrq="-8"/>
        <radio op="I TIM" rat="LTE" q="75.90" rsrp="-92" sinr="18" rsrq="-12"/>
      </extensions>
    </trkpt>
    <trkpt lat="45.6176041" lon="10.4945929">
      <ele>224.40000915527344</ele>
      <time>2026-08-25T15:18:31.629+02:00</time>
      <extensions>
        <activity type="UNKNOWN" conf="40" state="unknown" tsMs="1787663911587"/>
        <radio op="vodafone IT" rat="LTE" rsrp="-99" rsrq="-10"/>
        <radio op="I TIM" rat="LTE" q="81.60" rsrp="-91" sinr="19" rsrq="-11"/>
      </extensions>
    </trkpt>
    <trkpt lat="45.6176015" lon="10.4942">
      <ele>224.40000915527344</ele>
      <time>2026-08-25T15:19:02.741+02:00</time>
      <extensions>
        <activity type="STILL" conf="44" state="still" tsMs="1787663942589"/>
        <radio op="vodafone IT" rat="LTE" q="36.00" rsrp="-95" sinr="7" rsrq="-9"/>
        <radio op="I TIM" rat="LTE" q="95.00" rsrp="-87" sinr="23" rsrq="-11"/>
      </extensions>
    </trkpt>
    <trkpt lat="45.6175995" lon="10.4942039">
      <ele>224.40000915527344</ele>
      <time>2026-08-25T15:19:30.187+02:00</time>
      <extensions>
        <activity type="UNKNOWN" conf="40" state="unknown" tsMs="1787663968394"/>
        <radio op="vodafone IT" rat="LTE" rsrp="-97" rsrq="-11"/>
        <radio op="I TIM" rat="LTE" q="71.40" rsrp="-91" sinr="16" rsrq="-12"/>
      </extensions>
    </trkpt>
    <trkpt lat="45.6175988" lon="10.4941873">
      <ele>224.40000915527344</ele>
      <time>2026-08-25T15:20:04.482+02:00</time>
      <extensions>
        <activity type="STILL" conf="99" state="still" tsMs="1787664001902"/>
        <radio op="vodafone IT" rat="LTE" rsrp="-97" rsrq="-13"/>
        <radio op="I TIM" rat="LTE" q="63.00" rsrp="-90" sinr="13" rsrq="-12"/>
      </extensions>
    </trkpt>
    <trkpt lat="45.6175874" lon="10.4942169">
      <ele>224.40000915527344</ele>
      <time>2026-08-25T15:20:35.699+02:00</time>
      <extensions>
        <activity type="STILL" conf="99" state="still" tsMs="1787664032545"/>
        <radio op="vodafone IT" rat="LTE" q="16.20" rsrp="-98" sinr="1" rsrq="-14"/>
        <radio op="I TIM" rat="LTE" q="71.40" rsrp="-91" sinr="16" rsrq="-11"/>
      </extensions>
    </trkpt>
    <trkpt lat="45.6175844" lon="10.4942144">
      <ele>224.40000915527344</ele>
      <time>2026-08-25T15:21:07.079+02:00</time>
      <extensions>
        <activity type="STILL" conf="99" state="still" tsMs="1787664063721"/>
        <radio op="vodafone IT" rat="LTE" rsrp="-99" rsrq="-11"/>
        <radio op="I TIM" rat="LTE" q="68.00" rsrp="-91" sinr="15" rsrq="-12"/>
      </extensions>
    </trkpt>
    <trkpt lat="45.6175839" lon="10.494207">
      <ele>224.40000915527344</ele>
      <time>2026-08-25T15:21:38.432+02:00</time>
      <extensions>
        <activity type="STILL" conf="99" state="still" tsMs="1787664094833"/>
        <radio op="vodafone IT" rat="LTE" rsrp="-98" rsrq="-13"/>
        <radio op="I TIM" rat="LTE" q="85.00" rsrp="-91" sinr="20" rsrq="-12"/>
      </extensions>
    </trkpt>
    <trkpt lat="45.6175864" lon="10.4942129">
      <ele>224.40000915527344</ele>
      <time>2026-08-25T15:22:09.706+02:00</time>
      <extensions>
        <activity type="STILL" conf="99" state="still" tsMs="1787664126078"/>
        <radio op="vodafone IT" rat="LTE" rsrp="-99" rsrq="-10"/>
        <radio op="I TIM" rat="LTE" q="85.00" rsrp="-91" sinr="22" rsrq="-12"/>
      </extensions>
    </trkpt>
    <trkpt lat="45.6176075" lon="10.4942196">
      <ele>224.40000915527344</ele>
      <time>2026-08-25T15:47:37.721+02:00</time>
      <extensions>
        <activity type="ON_FOOT" conf="89" state="moving" tsMs="1787665674950"/>
        <radio op="vodafone IT" rat="LTE" rsrp="-92" rsrq="-12"/>
        <radio op="I TIM" rat="LTE" q="74.80" rsrp="-91" sinr="17" rsrq="-13"/>
      </extensions>
    </trkpt>
    <trkpt lat="45.6176776" lon="10.4940738">
      <ele>224.40000915527344</ele>
      <time>2026-08-25T15:48:09.207+02:00</time>
      <extensions>
        <activity type="STILL" conf="42" state="still" tsMs="1787665685720"/>
        <radio op="vodafone IT" rat="LTE" q="24.30" rsrp="-98" sinr="4" rsrq="-12"/>
        <radio op="I TIM" rat="LTE" q="74.80" rsrp="-91" sinr="17" rsrq="-13"/>
      </extensions>
    </trkpt>
    <trkpt lat="45.6176488" lon="10.4941692">
      <ele>224.40000915527344</ele>
      <time>2026-08-25T15:48:40.647+02:00</time>
      <extensions>
        <activity type="ON_FOOT" conf="85" state="moving" tsMs="1787665717131"/>
        <radio op="vodafone IT" rat="LTE" q="39.60" rsrp="-92" sinr="7" rsrq="-8"/>
        <radio op="I TIM" rat="LTE" q="85.00" rsrp="-91" sinr="27" rsrq="-13"/>
      </extensions>
    </trkpt>
    <trkpt lat="45.6175462" lon="10.4944284">
      <ele>224.40000915527344</ele>
      <time>2026-08-25T15:49:00.424+02:00</time>
      <extensions>
        <activity type="ON_FOOT" conf="82" state="moving" tsMs="1787665732409"/>
        <radio op="vodafone IT" rat="LTE" q="44.20" rsrp="-91" sinr="8" rsrq="-11"/>
        <radio op="I TIM" rat="LTE" q="85.00" rsrp="-91" sinr="24" rsrq="-13"/>
      </extensions>
    </trkpt>
    <trkpt lat="45.6176776" lon="10.4941696">
      <ele>224.40000915527344</ele>
      <time>2026-08-25T15:49:15.265+02:00</time>
      <extensions>
        <activity type="UNKNOWN" conf="40" state="unknown" tsMs="1787665755306"/>
        <radio op="vodafone IT" rat="LTE" q="56.00" rsrp="-90" sinr="11" rsrq="-8"/>
        <radio op="I TIM" rat="LTE" q="85.00" rsrp="-91" sinr="26" rsrq="-13"/>
      </extensions>
    </trkpt>
    <trkpt lat="45.6175814" lon="10.4942345">
      <ele>224.40000915527344</ele>
      <time>2026-08-25T15:49:52.83+02:00</time>
      <extensions>
        <activity type="STILL" conf="74" state="still" tsMs="1787665789851"/>
        <radio op="vodafone IT" rat="LTE" rsrp="-97" rsrq="-12"/>
        <radio op="I TIM" rat="LTE" q="78.20" rsrp="-91" sinr="18" rsrq="-13"/>
      </extensions>
    </trkpt>
    <trkpt lat="45.6176452" lon="10.494195">
      <ele>224.40000915527344</ele>
      <time>2026-08-25T15:50:24.237+02:00</time>
      <extensions>
        <activity type="STILL" conf="99" state="still" tsMs="1787665823929"/>
        <radio op="vodafone IT" rat="LTE" rsrp="-92" rsrq="-10"/>
        <radio op="I TIM" rat="LTE" q="85.00" rsrp="-91" sinr="20" rsrq="-13"/>
      </extensions>
    </trkpt>
    <trkpt lat="45.6176053" lon="10.4942159">
      <ele>224.40000915527344</ele>
      <time>2026-08-25T15:50:55.8+02:00</time>
      <extensions>
        <activity type="STILL" conf="99" state="still" tsMs="1787665852255"/>
        <radio op="vodafone IT" rat="LTE" q="35.20" rsrp="-93" sinr="6" rsrq="-12"/>
        <radio op="I TIM" rat="LTE" q="74.80" rsrp="-91" sinr="17" rsrq="-12"/>
      </extensions>
    </trkpt>
    <trkpt lat="45.6175984" lon="10.4942021">
      <ele>224.40000915527344</ele>
      <time>2026-08-25T15:51:27.271+02:00</time>
      <extensions>
        <activity type="STILL" conf="99" state="still" tsMs="1787665883830"/>
        <radio op="vodafone IT" rat="LTE" q="40.30" rsrp="-94" sinr="8" rsrq="-8"/>
        <radio op="I TIM" rat="LTE" q="49.00" rsrp="-90" sinr="9" rsrq="-10"/>
      </extensions>
    </trkpt>
    <trkpt lat="45.6176074" lon="10.4944609">
      <ele>224.40000915527344</ele>
      <time>2026-08-25T15:51:58.767+02:00</time>
      <extensions>
        <activity type="STILL" conf="99" state="still" tsMs="1787665915227"/>
        <radio op="vodafone IT" rat="LTE" q="49.60" rsrp="-94" sinr="11" rsrq="-11"/>
        <radio op="I TIM" rat="LTE" q="80.00" rsrp="-93" sinr="22" rsrq="-13"/>
      </extensions>
    </trkpt>
    <trkpt lat="45.6175978" lon="10.4942028">
      <ele>224.40000915527344</ele>
      <time>2026-08-25T15:52:30.251+02:00</time>
      <extensions>
        <activity type="STILL" conf="99" state="still" tsMs="1787665946841"/>
        <radio op="vodafone IT" rat="LTE" q="19.60" rsrp="-97" sinr="2" rsrq="-9"/>
        <radio op="I TIM" rat="LTE" q="70.00" rsrp="-90" sinr="15" rsrq="-13"/>
      </extensions>
    </trkpt>
    <trkpt lat="45.617605" lon="10.4942161">
      <ele>224.40000915527344</ele>
      <time>2026-08-25T15:53:01.748+02:00</time>
      <extensions>
        <activity type="STILL" conf="99" state="still" tsMs="1787665978237"/>
        <radio op="vodafone IT" rat="LTE" q="20.30" rsrp="-96" sinr="2" rsrq="-9"/>
        <radio op="I TIM" rat="LTE" q="90.00" rsrp="-89" sinr="20" rsrq="-12"/>
      </extensions>
    </trkpt>
    <trkpt lat="45.6176052" lon="10.4942158">
      <ele>224.40000915527344</ele>
      <time>2026-08-25T15:53:33.263+02:00</time>
      <extensions>
        <activity type="STILL" conf="99" state="still" tsMs="1787666009756"/>
        <radio op="vodafone IT" rat="LTE" q="20.30" rsrp="-96" sinr="2" rsrq="-8"/>
        <radio op="I TIM" rat="LTE" q="87.50" rsrp="-90" sinr="22" rsrq="-12"/>
      </extensions>
    </trkpt>
    <trkpt lat="45.6176051" lon="10.494216">
      <ele>224.40000915527344</ele>
      <time>2026-08-25T15:54:04.682+02:00</time>
      <extensions>
        <activity type="STILL" conf="99" state="still" tsMs="1787666041178"/>
        <radio op="vodafone IT" rat="LTE" q="20.30" rsrp="-96" sinr="2" rsrq="-11"/>
        <radio op="I TIM" rat="LTE" q="54.00" rsrp="-89" sinr="10" rsrq="-12"/>
      </extensions>
    </trkpt>
    <trkpt lat="45.6175794" lon="10.4942189">
      <ele>224.40000915527344</ele>
      <time>2026-08-25T15:54:36.065+02:00</time>
      <extensions>
        <activity type="STILL" conf="98" state="still" tsMs="1787666072633"/>
        <radio op="vodafone IT" rat="LTE" q="14.40" rsrp="-107" sinr="3" rsrq="-12"/>
        <radio op="I TIM" rat="LTE" q="52.80" rsrp="-101" sinr="17" rsrq="-11"/>
      </extensions>
    </trkpt>
    <trkpt lat="45.6175793" lon="10.4942255">
      <ele>224.40000915527344</ele>
      <time>2026-08-25T15:55:07.789+02:00</time>
      <extensions>
        <activity type="STILL" conf="99" state="still" tsMs="1787666103975"/>
        <radio op="vodafone IT" rat="LTE" q="14.00" rsrp="-105" sinr="2" rsrq="-9"/>
        <radio op="I TIM" rat="LTE" q="52.80" rsrp="-101" sinr="17" rsrq="-10"/>
      </extensions>
    </trkpt>
    <trkpt lat="45.6175788" lon="10.4942178">
      <ele>224.40000915527344</ele>
      <time>2026-08-25T15:55:39.246+02:00</time>
      <extensions>
        <activity type="STILL" conf="99" state="still" tsMs="1787666135687"/>
        <radio op="vodafone IT" rat="LTE" q="22.00" rsrp="-105" sinr="6" rsrq="-12"/>
        <radio op="I TIM" rat="LTE" q="36.00" rsrp="-101" sinr="10" rsrq="-12"/>
      </extensions>
    </trkpt>
    <trkpt lat="45.6177994" lon="10.4934677">
      <ele>224.70001220703125</ele>
      <time>2026-08-25T16:37:38.137+02:00</time>
      <extensions>
        <activity type="ON_FOOT" conf="96" state="moving" tsMs="1787668657389"/>
        <radio op="vodafone IT" rat="LTE" q="54.40" rsrp="-91" sinr="11" rsrq="-7"/>
        <radio op="I TIM" rat="LTE" q="44.00" rsrp="-103" sinr="15" rsrq="-13"/>
      </extensions>
    </trkpt>
    <trkpt lat="45.6176145" lon="10.4941782">
      <ele>224.40000915527344</ele>
      <time>2026-08-25T16:38:46.989+02:00</time>
      <extensions>
        <activity type="ON_FOOT" conf="84" state="moving" tsMs="1787668714358"/>
        <radio op="vodafone IT" rat="LTE" q="44.00" rsrp="-105" sinr="17" rsrq="-11"/>
        <radio op="I TIM" rat="LTE" q="50.60" rsrp="-102" sinr="17" rsrq="-12"/>
      </extensions>
    </trkpt>
    <trkpt lat="45.6176064" lon="10.4941855">
      <ele>224.40000915527344</ele>
      <time>2026-08-25T16:39:42.939+02:00</time>
      <extensions>
        <activity type="STILL" conf="99" state="still" tsMs="1787668777953"/>
        <radio op="vodafone IT" rat="LTE" q="24.00" rsrp="-105" sinr="7" rsrq="-8"/>
        <radio op="I TIM" rat="LTE" q="55.20" rsrp="-102" sinr="19" rsrq="-12"/>
      </extensions>
    </trkpt>
    <trkpt lat="45.6176124" lon="10.4941771">
      <ele>224.40000915527344</ele>
      <time>2026-08-25T16:40:20.41+02:00</time>
      <extensions>
        <activity type="STILL" conf="33" state="still" tsMs="1787668816172"/>
        <radio op="vodafone IT" rat="LTE" q="67.50" rsrp="-98" sinr="23" rsrq="-9"/>
        <radio op="I TIM" rat="LTE" q="57.60" rsrp="-101" sinr="19" rsrq="-10"/>
      </extensions>
    </trkpt>
    <trkpt lat="45.6176094" lon="10.4942225">
      <ele>224.40000915527344</ele>
      <time>2026-08-25T16:41:08.629+02:00</time>
      <extensions>
        <activity type="ON_FOOT" conf="96" state="moving" tsMs="1787668864939"/>
        <radio op="vodafone IT" rat="LTE" q="70.00" rsrp="-97" sinr="22" rsrq="-6"/>
        <radio op="I TIM" rat="LTE" q="39.90" rsrp="-104" sinr="14" rsrq="-12"/>
      </extensions>
    </trkpt>
    <trkpt lat="45.6175977" lon="10.4942046">
      <ele>222.69965664361243</ele>
      <time>2026-08-25T16:41:48.22+02:00</time>
      <extensions>
        <activity type="ON_FOOT" conf="94" state="moving" tsMs="1787668902952"/>
        <radio op="vodafone IT" rat="LTE" q="65.00" rsrp="-99" sinr="20" rsrq="-8"/>
        <radio op="I TIM" rat="LTE" q="34.50" rsrp="-102" sinr="10" rsrq="-12"/>
      </extensions>
    </trkpt>
    <trkpt lat="45.617741" lon="10.49332">
      <ele>224.40000915527344</ele>
      <time>2026-08-25T16:42:19.487+02:00</time>
      <extensions>
        <activity type="ON_FOOT" conf="96" state="moving" tsMs="1787668935818"/>
        <radio op="vodafone IT" rat="LTE" q="90.00" rsrp="-89" sinr="23" rsrq="-9"/>
        <radio op="I TIM" rat="LTE" q="36.00" rsrp="-105" sinr="13" rsrq="-13"/>
      </extensions>
    </trkpt>
    <trkpt lat="45.6176093" lon="10.4941904">
      <ele>224.40000915527344</ele>
      <time>2026-08-25T16:42:56.512+02:00</time>
      <extensions>
        <activity type="ON_FOOT" conf="93" state="moving" tsMs="1787668973946"/>
        <radio op="vodafone IT" rat="LTE" q="62.50" rsrp="-100" sinr="25" rsrq="-8"/>
        <radio op="I TIM" rat="LTE" q="54.60" rsrp="-99" sinr="16" rsrq="-12"/>
      </extensions>
    </trkpt>
    <trkpt lat="45.6175956" lon="10.4942062">
      <ele>224.40000915527344</ele>
      <time>2026-08-25T16:43:14.664+02:00</time>
      <extensions>
        <activity type="ON_FOOT" conf="96" state="moving" tsMs="1787668993751"/>
        <radio op="vodafone IT" rat="LTE" q="85.00" rsrp="-91" sinr="24" rsrq="-8"/>
        <radio op="I TIM" rat="LTE" q="41.80" rsrp="-103" sinr="14" rsrq="-11"/>
      </extensions>
    </trkpt>
    <trkpt lat="45.617713" lon="10.4940956">
      <ele>224.40000915527344</ele>
      <time>2026-08-25T16:43:21.124+02:00</time>
      <extensions>
        <activity type="ON_FOOT" conf="96" state="moving" tsMs="1787668993751"/>
        <radio op="vodafone IT" rat="LTE" q="70.00" rsrp="-97" sinr="22" rsrq="-10"/>
        <radio op="I TIM" rat="LTE" rsrp="-103" rsrq="-11"/>
      </extensions>
    </trkpt>
    <trkpt lat="45.6176103" lon="10.4942454">
      <ele>222.6779820012812</ele>
      <time>2026-08-25T16:43:58.772+02:00</time>
      <extensions>
        <activity type="UNKNOWN" conf="40" state="unknown" tsMs="1787669037632"/>
        <radio op="vodafone IT" rat="LTE" q="52.80" rsrp="-103" sinr="19" rsrq="-9"/>
        <radio op="I TIM" rat="LTE" q="50.40" rsrp="-101" sinr="16" rsrq="-12"/>
      </extensions>
    </trkpt>
    <trkpt lat="45.617609" lon="10.4944828">
      <ele>224.40000915527344</ele>
      <time>2026-08-25T16:44:30.928+02:00</time>
      <extensions>
        <activity type="UNKNOWN" conf="40" state="unknown" tsMs="1787669070716"/>
        <radio op="vodafone IT" rat="LTE" q="30.00" rsrp="-105" sinr="10" rsrq="-7"/>
        <radio op="I TIM" rat="LTE" q="35.00" rsrp="-100" sinr="9" rsrq="-12"/>
      </extensions>
    </trkpt>
    <trkpt lat="45.6175635" lon="10.4953717">
      <ele>223.8000030517578</ele>
      <time>2026-08-25T16:45:24.177+02:00</time>
      <extensions>
        <activity type="UNKNOWN" conf="40" state="unknown" tsMs="1787669123973"/>
        <radio op="vodafone IT" rat="LTE" q="49.40" rsrp="-99" sinr="14" rsrq="-7"/>
        <radio op="I TIM" rat="LTE" q="76.80" rsrp="-93" sinr="19" rsrq="-11"/>
      </extensions>
    </trkpt>
    <trkpt lat="45.6175798" lon="10.4942295">
      <ele>224.40000915527344</ele>
      <time>2026-08-25T16:46:04.708+02:00</time>
      <extensions>
        <activity type="UNKNOWN" conf="40" state="unknown" tsMs="1787669164380"/>
        <radio op="vodafone IT" rat="LTE" q="62.50" rsrp="-100" sinr="21" rsrq="-8"/>
        <radio op="I TIM" rat="LTE" q="37.50" rsrp="-100" sinr="10" rsrq="-12"/>
      </extensions>
    </trkpt>
    <trkpt lat="45.6176169" lon="10.4941823">
      <ele>224.40000915527344</ele>
      <time>2026-08-25T16:46:35.973+02:00</time>
      <extensions>
        <activity type="UNKNOWN" conf="40" state="unknown" tsMs="1787669190601"/>
        <radio op="vodafone IT" rat="LTE" q="62.50" rsrp="-100" sinr="21" rsrq="-7"/>
        <radio op="I TIM" rat="LTE" q="26.60" rsrp="-106" sinr="9" rsrq="-13"/>
      </extensions>
    </trkpt>
    <trkpt lat="45.6175806" lon="10.4942315">
      <ele>224.40000915527344</ele>
      <time>2026-08-25T16:47:14.815+02:00</time>
      <extensions>
        <activity type="ON_FOOT" conf="83" state="moving" tsMs="1787669233974"/>
        <radio op="vodafone IT" rat="LTE" q="67.50" rsrp="-98" sinr="20" rsrq="-11"/>
        <radio op="I TIM" rat="LTE" q="45.60" rsrp="-101" sinr="14" rsrq="-12"/>
      </extensions>
    </trkpt>
    <trkpt lat="45.6176078" lon="10.4942177">
      <ele>224.40000915527344</ele>
      <time>2026-08-25T16:47:46.605+02:00</time>
      <extensions>
        <activity type="UNKNOWN" conf="40" state="unknown" tsMs="1787669238195"/>
        <radio op="vodafone IT" rat="LTE" q="52.50" rsrp="-104" sinr="23" rsrq="-10"/>
        <radio op="I TIM" rat="LTE" q="28.00" rsrp="-97" sinr="5" rsrq="-11"/>
      </extensions>
    </trkpt>
    <trkpt lat="45.6175553" lon="10.4954443">
      <ele>224.40000915527344</ele>
      <time>2026-08-25T16:48:41.775+02:00</time>
      <extensions>
        <activity type="UNKNOWN" conf="40" state="unknown" tsMs="1787669316831"/>
        <radio op="vodafone IT" rat="LTE" q="50.40" rsrp="-101" sinr="16" rsrq="-9"/>
        <radio op="I TIM" rat="LTE" q="73.60" rsrp="-93" sinr="18" rsrq="-11"/>
      </extensions>
    </trkpt>
    <trkpt lat="45.6175551" lon="10.4954451">
      <ele>222.70001220703125</ele>
      <time>2026-08-25T16:50:01.545+02:00</time>
      <extensions>
        <activity type="STILL" conf="99" state="still" tsMs="1787669384392"/>
        <radio op="vodafone IT" rat="LTE" q="10.20" rsrp="-108" sinr="1" rsrq="-11"/>
        <radio op="I TIM" rat="LTE" q="17.60" rsrp="-103" sinr="3" rsrq="-11"/>
      </extensions>
    </trkpt>
    <trkpt lat="45.6176076" lon="10.4942176">
      <ele>222.70001220703125</ele>
      <time>2026-08-25T16:50:41.866+02:00</time>
      <extensions>
        <activity type="UNKNOWN" conf="40" state="unknown" tsMs="1787669438774"/>
        <radio op="vodafone IT" rat="LTE" q="20.00" rsrp="-100" sinr="3" rsrq="-7"/>
        <radio op="I TIM" rat="LTE" rsrp="-104" rsrq="-13"/>
      </extensions>
    </trkpt>
    <trkpt lat="45.6176195" lon="10.4942465">
      <ele>224.40000915527344</ele>
      <time>2026-08-25T16:51:13.146+02:00</time>
      <extensions>
        <activity type="UNKNOWN" conf="40" state="unknown" tsMs="1787669467659"/>
        <radio op="vodafone IT" rat="LTE" q="50.60" rsrp="-102" sinr="17" rsrq="-7"/>
        <radio op="I TIM" rat="LTE" q="59.80" rsrp="-99" sinr="18" rsrq="-11"/>
      </extensions>
    </trkpt>
    <trkpt lat="45.6176064" lon="10.4942156">
      <ele>224.40000915527344</ele>
      <time>2026-08-25T16:51:44.44+02:00</time>
      <extensions>
        <activity type="UNKNOWN" conf="40" state="unknown" tsMs="1787669498866"/>
        <radio op="vodafone IT" rat="LTE" q="67.20" rsrp="-97" sinr="19" rsrq="-7"/>
        <radio op="I TIM" rat="LTE" q="42.00" rsrp="-104" sinr="15" rsrq="-12"/>
      </extensions>
    </trkpt>
    <trkpt lat="45.6175796" lon="10.494229">
      <ele>222.36153062806954</ele>
      <time>2026-08-25T16:52:23.14+02:00</time>
      <extensions>
        <activity type="UNKNOWN" conf="40" state="unknown" tsMs="1787669541467"/>
        <radio op="vodafone IT" rat="LTE" q="67.50" rsrp="-98" sinr="22" rsrq="-8"/>
        <radio op="I TIM" rat="LTE" q="46.80" rsrp="-99" sinr="13" rsrq="-12"/>
      </extensions>
    </trkpt>
    <trkpt lat="45.6175447" lon="10.4944735">
      <ele>221.91271737549565</ele>
      <time>2026-08-25T16:53:10.126+02:00</time>
      <extensions>
        <activity type="UNKNOWN" conf="40" state="unknown" tsMs="1787669575067"/>
        <radio op="vodafone IT" rat="LTE" q="56.70" rsrp="-98" sinr="16" rsrq="-11"/>
        <radio op="I TIM" rat="LTE" q="54.00" rsrp="-95" sinr="13" rsrq="-12"/>
      </extensions>
    </trkpt>
    <trkpt lat="45.6175279" lon="10.4945238">
      <ele>224.40000915527344</ele>
      <time>2026-08-25T16:53:12.13+02:00</time>
      <extensions>
        <activity type="UNKNOWN" conf="40" state="unknown" tsMs="1787669581493"/>
        <radio op="vodafone IT" rat="LTE" q="52.00" rsrp="-99" sinr="15" rsrq="-11"/>
        <radio op="I TIM" rat="LTE" q="72.00" rsrp="-95" sinr="19" rsrq="-11"/>
      </extensions>
    </trkpt>
    <trkpt lat="45.6175795" lon="10.4942255">
      <ele>221.8216873559201</ele>
      <time>2026-08-25T16:54:29.414+02:00</time>
      <extensions>
        <activity type="UNKNOWN" conf="40" state="unknown" tsMs="1787669663985"/>
        <radio op="vodafone IT" rat="LTE" q="70.00" rsrp="-97" sinr="22" rsrq="-9"/>
        <radio op="I TIM" rat="LTE" q="58.00" rsrp="-96" sinr="15" rsrq="-11"/>
      </extensions>
    </trkpt>
    <trkpt lat="45.6175587" lon="10.4953235">
      <ele>223.8000030517578</ele>
      <time>2026-08-25T16:55:00.788+02:00</time>
      <extensions>
        <activity type="UNKNOWN" conf="40" state="unknown" tsMs="1787669696297"/>
        <radio op="vodafone IT" rat="LTE" rsrp="-102" rsrq="-11"/>
        <radio op="I TIM" rat="LTE" q="43.70" rsrp="-102" sinr="14" rsrq="-12"/>
      </extensions>
    </trkpt>
    <trkpt lat="45.6176115" lon="10.4942149">
      <ele>221.67032561925257</ele>
      <time>2026-08-25T16:55:51.397+02:00</time>
      <extensions>
        <activity type="UNKNOWN" conf="40" state="unknown" tsMs="1787669750998"/>
        <radio op="vodafone IT" rat="LTE" q="62.50" rsrp="-100" sinr="20" rsrq="-10"/>
        <radio op="I TIM" rat="LTE" q="35.70" rsrp="-104" sinr="12" rsrq="-12"/>
      </extensions>
    </trkpt>
    <trkpt lat="45.6176107" lon="10.4942074">
      <ele>224.40000915527344</ele>
      <time>2026-08-25T16:56:22.542+02:00</time>
      <extensions>
        <activity type="ON_FOOT" conf="86" state="moving" tsMs="1787669777043"/>
        <radio op="vodafone IT" rat="LTE" q="59.40" rsrp="-98" sinr="17" rsrq="-9"/>
        <radio op="I TIM" rat="LTE" q="35.00" rsrp="-100" sinr="9" rsrq="-12"/>
      </extensions>
    </trkpt>
    <trkpt lat="45.6176323" lon="10.4941889">
      <ele>221.70897307146083</ele>
      <time>2026-08-25T16:56:53.877+02:00</time>
      <extensions>
        <activity type="ON_FOOT" conf="84" state="moving" tsMs="1787669813592"/>
        <radio op="vodafone IT" rat="LTE" q="50.60" rsrp="-103" sinr="18" rsrq="-14"/>
        <radio op="I TIM" rat="LTE" q="28.50" rsrp="-106" sinr="10" rsrq="-12"/>
      </extensions>
    </trkpt>
    <trkpt lat="45.6176108" lon="10.4942143">
      <ele>222.09486742049134</ele>
      <time>2026-08-25T16:57:25.085+02:00</time>
      <extensions>
        <activity type="UNKNOWN" conf="40" state="unknown" tsMs="1787669839550"/>
        <radio op="vodafone IT" rat="LTE" q="60.00" rsrp="-100" sinr="19" rsrq="-11"/>
        <radio op="I TIM" rat="LTE" q="33.00" rsrp="-103" sinr="10" rsrq="-12"/>
      </extensions>
    </trkpt>
    <trkpt lat="45.617654" lon="10.4941563">
      <ele>222.65799541565218</ele>
      <time>2026-08-25T16:57:56.339+02:00</time>
      <extensions>
        <activity type="UNKNOWN" conf="40" state="unknown" tsMs="1787669870761"/>
        <radio op="vodafone IT" rat="LTE" q="70.00" rsrp="-97" sinr="21" rsrq="-10"/>
        <radio op="I TIM" rat="LTE" q="34.50" rsrp="-102" sinr="10" rsrq="-13"/>
      </extensions>
    </trkpt>
    <trkpt lat="45.6176795" lon="10.4941519">
      <ele>224.40000915527344</ele>
      <time>2026-08-25T16:58:27.569+02:00</time>
      <extensions>
        <activity type="UNKNOWN" conf="40" state="unknown" tsMs="1787669902004"/>
        <radio op="vodafone IT" rat="LTE" q="56.00" rsrp="-97" sinr="15" rsrq="-8"/>
        <radio op="I TIM" rat="LTE" q="50.60" rsrp="-102" sinr="17" rsrq="-11"/>
      </extensions>
    </trkpt>
    <trkpt lat="45.6176048" lon="10.4942749">
      <ele>222.6253474573882</ele>
      <time>2026-08-25T16:59:03.244+02:00</time>
      <extensions>
        <activity type="UNKNOWN" conf="40" state="unknown" tsMs="1787669939380"/>
        <radio op="vodafone IT" rat="LTE" q="52.00" rsrp="-99" sinr="15" rsrq="-6"/>
        <radio op="I TIM" rat="LTE" q="52.00" rsrp="-99" sinr="15" rsrq="-12"/>
      </extensions>
    </trkpt>
    <trkpt lat="45.6175784" lon="10.4942215">
      <ele>221.48231142752928</ele>
      <time>2026-08-25T16:59:42.189+02:00</time>
      <extensions>
        <activity type="UNKNOWN" conf="40" state="unknown" tsMs="1787669977322"/>
        <radio op="vodafone IT" rat="LTE" q="26.00" rsrp="-105" sinr="8" rsrq="-9"/>
        <radio op="I TIM" rat="LTE" q="12.00" rsrp="-110" sinr="3" rsrq="-11"/>
      </extensions>
    </trkpt>
    <trkpt lat="45.6175587" lon="10.4954029">
      <ele>222.70001220703125</ele>
      <time>2026-08-25T17:01:05.3+02:00</time>
      <extensions>
        <activity type="UNKNOWN" conf="40" state="unknown" tsMs="1787670065103"/>
        <radio op="vodafone IT" rat="LTE" q="18.00" rsrp="-107" sinr="5" rsrq="-12"/>
        <radio op="I TIM" rat="LTE" q="36.00" rsrp="-101" sinr="10" rsrq="-10"/>
      </extensions>
    </trkpt>
    <trkpt lat="45.6176022" lon="10.4943052">
      <ele>224.40000915527344</ele>
      <time>2026-08-25T17:01:42.363+02:00</time>
      <extensions>
        <activity type="UNKNOWN" conf="40" state="unknown" tsMs="1787670101932"/>
        <radio op="vodafone IT" rat="LTE" q="60.00" rsrp="-101" sinr="20" rsrq="-6"/>
        <radio op="I TIM" rat="LTE" q="49.30" rsrp="-96" sinr="12" rsrq="-9"/>
      </extensions>
    </trkpt>
    <trkpt lat="45.6175779" lon="10.4942211">
      <ele>224.40000915527344</ele>
      <time>2026-08-25T17:02:30.391+02:00</time>
      <extensions>
        <activity type="UNKNOWN" conf="40" state="unknown" tsMs="1787670149378"/>
        <radio op="vodafone IT" rat="LTE" q="46.20" rsrp="-104" sinr="17" rsrq="-12"/>
        <radio op="I TIM" rat="LTE" q="38.00" rsrp="-105" sinr="14" rsrq="-10"/>
      </extensions>
    </trkpt>
    <trkpt lat="45.6175787" lon="10.4942241">
      <ele>224.40000915527344</ele>
      <time>2026-08-25T17:03:28.016+02:00</time>
      <extensions>
        <activity type="UNKNOWN" conf="40" state="unknown" tsMs="1787670202003"/>
        <radio op="vodafone IT" rat="LTE" q="37.40" rsrp="-103" sinr="12" rsrq="-12"/>
        <radio op="I TIM" rat="LTE" q="48.30" rsrp="-104" sinr="18" rsrq="-12"/>
      </extensions>
    </trkpt>
    <trkpt lat="45.617578" lon="10.4942205">
      <ele>224.40000915527344</ele>
      <time>2026-08-25T17:03:59.519+02:00</time>
      <extensions>
        <activity type="UNKNOWN" conf="40" state="unknown" tsMs="1787670234007"/>
        <radio op="vodafone IT" rat="LTE" q="52.90" rsrp="-102" sinr="18" rsrq="-9"/>
        <radio op="I TIM" rat="LTE" q="55.20" rsrp="-101" sinr="18" rsrq="-13"/>
      </extensions>
    </trkpt>
    <trkpt lat="45.6176644" lon="10.4941592">
      <ele>224.40000915527344</ele>
      <time>2026-08-25T17:04:36.476+02:00</time>
      <extensions>
        <activity type="UNKNOWN" conf="40" state="unknown" tsMs="1787670275012"/>
        <radio op="vodafone IT" rat="LTE" q="45.00" rsrp="-100" sinr="13" rsrq="-7"/>
        <radio op="I TIM" rat="LTE" q="62.40" rsrp="-99" sinr="19" rsrq="-11"/>
      </extensions>
    </trkpt>
    <trkpt lat="45.6176105" lon="10.4942195">
      <ele>226.6277155760964</ele>
      <time>2026-08-25T17:05:07.542+02:00</time>
      <extensions>
        <activity type="ON_FOOT" conf="93" state="moving" tsMs="1787670307445"/>
        <radio op="vodafone IT" rat="LTE" q="77.50" rsrp="-94" sinr="22" rsrq="-11"/>
        <radio op="I TIM" rat="LTE" q="20.80" rsrp="-99" sinr="3" rsrq="-13"/>
      </extensions>
    </trkpt>
    <trkpt lat="45.6178078" lon="10.4934939">
      <ele>226.89245289388055</ele>
      <time>2026-08-25T17:05:38.706+02:00</time>
      <extensions>
        <activity type="ON_FOOT" conf="96" state="moving" tsMs="1787670335487"/>
        <radio op="vodafone IT" rat="LTE" q="90.00" rsrp="-89" sinr="24" rsrq="-12"/>
        <radio op="I TIM" rat="LTE" q="52.20" rsrp="-96" sinr="13" rsrq="-12"/>
      </extensions>
    </trkpt>
    <trkpt lat="45.6178014" lon="10.4934891">
      <ele>226.3545190587857</ele>
      <time>2026-08-25T17:06:09.841+02:00</time>
      <extensions>
        <activity type="ON_FOOT" conf="92" state="moving" tsMs="1787670366234"/>
        <radio op="vodafone IT" rat="LTE" q="45.00" rsrp="-100" sinr="13" rsrq="-12"/>
        <radio op="I TIM" rat="LTE" q="79.20" rsrp="-92" sinr="19" rsrq="-10"/>
      </extensions>
    </trkpt>
    <trkpt lat="45.6177679" lon="10.4934585">
      <ele>226.3926395943651</ele>
      <time>2026-08-25T17:06:41.065+02:00</time>
      <extensions>
        <activity type="UNKNOWN" conf="40" state="unknown" tsMs="1787670397668"/>
        <radio op="vodafone IT" rat="LTE" q="66.70" rsrp="-96" sinr="18" rsrq="-11"/>
        <radio op="I TIM" rat="LTE" q="57.00" rsrp="-95" sinr="14" rsrq="-10"/>
      </extensions>
    </trkpt>
    <trkpt lat="45.6177254" lon="10.4934486">
      <ele>224.60000610351562</ele>
      <time>2026-08-25T17:07:12.559+02:00</time>
      <extensions>
        <activity type="ON_FOOT" conf="84" state="moving" tsMs="1787670427988"/>
        <radio op="vodafone IT" rat="LTE" q="52.80" rsrp="-103" sinr="19" rsrq="-13"/>
        <radio op="I TIM" rat="LTE" q="69.00" rsrp="-95" sinr="18" rsrq="-12"/>
      </extensions>
    </trkpt>
    <trkpt lat="45.6177426" lon="10.4934795">
      <ele>224.40000915527344</ele>
      <time>2026-08-25T17:07:43.94+02:00</time>
      <extensions>
        <activity type="UNKNOWN" conf="40" state="unknown" tsMs="1787670460649"/>
        <radio op="vodafone IT" rat="LTE" q="62.50" rsrp="-100" sinr="24" rsrq="-12"/>
        <radio op="I TIM" rat="LTE" q="57.50" rsrp="-100" sinr="18" rsrq="-11"/>
      </extensions>
    </trkpt>
    <trkpt lat="45.617745" lon="10.4938944">
      <ele>226.1231736374189</ele>
      <time>2026-08-25T17:08:15.444+02:00</time>
      <extensions>
        <activity type="STILL" conf="97" state="still" tsMs="1787670491801"/>
        <radio op="vodafone IT" rat="LTE" q="62.50" rsrp="-100" sinr="23" rsrq="-11"/>
        <radio op="I TIM" rat="LTE" q="77.50" rsrp="-94" sinr="21" rsrq="-8"/>
      </extensions>
    </trkpt>
    <trkpt lat="45.6177718" lon="10.4932571">
      <ele>224.40000915527344</ele>
      <time>2026-08-25T17:08:46.638+02:00</time>
      <extensions>
        <activity type="UNKNOWN" conf="40" state="unknown" tsMs="1787670517695"/>
        <radio op="vodafone IT" rat="LTE" q="65.00" rsrp="-99" sinr="21" rsrq="-14"/>
        <radio op="I TIM" rat="LTE" q="82.50" rsrp="-92" sinr="20" rsrq="-9"/>
      </extensions>
    </trkpt>
    <trkpt lat="45.617739" lon="10.4933118">
      <ele>224.40000915527344</ele>
      <time>2026-08-25T17:09:18.074+02:00</time>
      <extensions>
        <activity type="UNKNOWN" conf="40" state="unknown" tsMs="1787670554566"/>
        <radio op="vodafone IT" rat="LTE" q="55.00" rsrp="-100" sinr="17" rsrq="-12"/>
        <radio op="I TIM" rat="LTE" q="85.00" rsrp="-91" sinr="20" rsrq="-10"/>
      </extensions>
    </trkpt>
    <trkpt lat="45.6177578" lon="10.493443">
      <ele>224.40000915527344</ele>
      <time>2026-08-25T17:09:49.53+02:00</time>
      <extensions>
        <activity type="UNKNOWN" conf="40" state="unknown" tsMs="1787670585042"/>
        <radio op="vodafone IT" rat="LTE" q="65.00" rsrp="-99" sinr="25" rsrq="-13"/>
        <radio op="I TIM" rat="LTE" q="57.00" rsrp="-95" sinr="14" rsrq="-12"/>
      </extensions>
    </trkpt>
    <trkpt lat="45.617886" lon="10.4935966">
      <ele>227.1818133571598</ele>
      <time>2026-08-25T17:10:20.928+02:00</time>
      <extensions>
        <activity type="IN_VEHICLE" conf="97" state="moving" tsMs="1787670620079"/>
        <radio op="vodafone IT" rat="LTE" q="28.90" rsrp="-108" sinr="12" rsrq="-8"/>
        <radio op="I TIM" rat="LTE" q="50.40" rsrp="-101" sinr="16" rsrq="-12"/>
      </extensions>
    </trkpt>
    <trkpt lat="45.6159931" lon="10.4941517">
      <ele>224.70001220703125</ele>
      <time>2026-08-25T17:10:55.436+02:00</time>
      <extensions>
        <activity type="IN_VEHICLE" conf="97" state="moving" tsMs="1787670667563"/>
        <radio op="vodafone IT" rat="LTE" q="92.50" rsrp="-88" sinr="24" rsrq="-11"/>
        <radio op="I TIM" rat="LTE" q="95.00" rsrp="-87" sinr="23" rsrq="-11"/>
      </extensions>
    </trkpt>
    <trkpt lat="45.612522" lon="10.4965464">
      <ele>231.02491433910512</ele>
      <time>2026-08-25T17:11:38.127+02:00</time>
      <extensions>
        <activity type="IN_VEHICLE" conf="97" state="moving" tsMs="1787670703684"/>
        <radio op="vodafone IT" rat="LTE" q="76.00" rsrp="-85" sinr="14" rsrq="-9"/>
        <radio op="I TIM" rat="LTE" rsrp="-113" rsrq="-19"/>
      </extensions>
    </trkpt>
    <trkpt lat="45.6116787" lon="10.4921236">
      <ele>231.67684809188628</ele>
      <time>2026-08-25T17:12:15.962+02:00</time>
      <extensions>
        <activity type="IN_VEHICLE" conf="97" state="moving" tsMs="1787670735835"/>
        <radio op="vodafone IT" rat="LTE" q="32.40" rsrp="-107" sinr="13" rsrq="-8"/>
        <radio op="I TIM" rat="LTE" rsrp="-120" rsrq="-20"/>
      </extensions>
    </trkpt>
    <trkpt lat="45.6120601" lon="10.4910745">
      <ele>233.90000915527344</ele>
      <time>2026-08-25T17:12:47.273+02:00</time>
      <extensions>
        <activity type="UNKNOWN" conf="40" state="unknown" tsMs="1787670764097"/>
        <radio op="vodafone IT" rat="LTE" rsrp="-97" rsrq="-14"/>
        <radio op="I TIM" rat="LTE" q="19.00" rsrp="-106" sinr="5" rsrq="-13"/>
      </extensions>
    </trkpt>
    <trkpt lat="45.6120004" lon="10.4907341">
      <ele>233.90000915527344</ele>
      <time>2026-08-25T17:12:53.127+02:00</time>
      <extensions>
        <activity type="UNKNOWN" conf="40" state="unknown" tsMs="1787670764097"/>
        <radio op="vodafone IT" rat="LTE" rsrp="-98" rsrq="-13"/>
        <radio op="I TIM" rat="LTE" rsrp="-109" rsrq="-15"/>
      </extensions>
    </trkpt>
    <trkpt lat="45.6059459" lon="10.4684103">
      <ele>269.4038065813073</ele>
      <time>2026-08-25T17:14:32.632+02:00</time>
      <extensions>
        <activity type="IN_VEHICLE" conf="97" state="moving" tsMs="1787670872355"/>
        <radio op="vodafone IT" rat="LTE" q="77.50" rsrp="-94" sinr="27" rsrq="-7"/>
        <radio op="I TIM" rat="LTE" q="100.00" rsrp="-78" sinr="21" rsrq="-11"/>
      </extensions>
    </trkpt>
    <trkpt lat="45.6059459" lon="10.4684103">
      <ele>275.39983530654695</ele>
      <time>2026-08-25T17:14:43.828+02:00</time>
      <extensions>
        <activity type="IN_VEHICLE" conf="96" state="moving" tsMs="1787670876126"/>
        <radio op="vodafone IT" rat="LTE" q="100.00" rsrp="-83" sinr="30" rsrq="-6"/>
        <radio op="I TIM" rat="LTE" rsrp="-71" rsrq="-8"/>
      </extensions>
    </trkpt>
    <trkpt lat="45.605346" lon="10.4662087">
      <ele>270.24073789266436</ele>
      <time>2026-08-25T17:15:31.151+02:00</time>
      <extensions>
        <activity type="IN_VEHICLE" conf="96" state="moving" tsMs="1787670930015"/>
        <radio op="vodafone IT" rat="LTE" q="87.50" rsrp="-90" sinr="21" rsrq="-6"/>
        <radio op="I TIM" rat="LTE" q="49.50" rsrp="-92" sinr="10" rsrq="-7"/>
      </extensions>
    </trkpt>
    <trkpt lat="45.6044495" lon="10.4625609">
      <ele>266.9000244140625</ele>
      <time>2026-08-25T17:16:12.298+02:00</time>
      <extensions>
        <activity type="IN_VEHICLE" conf="97" state="moving" tsMs="1787670972302"/>
        <radio op="vodafone IT" rat="LTE" q="92.00" rsrp="-81" sinr="18" rsrq="-10"/>
        <radio op="I TIM" rat="LTE" q="17.00" rsrp="-91" sinr="0" rsrq="-10"/>
      </extensions>
    </trkpt>
    <trkpt lat="45.6044008" lon="10.4617435">
      <ele>266.9000244140625</ele>
      <time>2026-08-25T17:16:19.437+02:00</time>
      <extensions>
        <activity type="IN_VEHICLE" conf="97" state="moving" tsMs="1787670972302"/>
        <radio op="vodafone IT" rat="LTE" q="100.00" rsrp="-83" sinr="28" rsrq="-11"/>
        <radio op="I TIM" rat="LTE" q="38.50" rsrp="-90" sinr="6" rsrq="-10"/>
      </extensions>
    </trkpt>
    <trkpt lat="45.6031567" lon="10.4577425">
      <ele>263.4000244140625</ele>
      <time>2026-08-25T17:17:00.782+02:00</time>
      <extensions>
        <activity type="IN_VEHICLE" conf="97" state="moving" tsMs="1787671016933"/>
        <radio op="vodafone IT" rat="LTE" q="100.00" rsrp="-80" sinr="26" rsrq="-12"/>
        <radio op="I TIM" rat="LTE" q="92.00" rsrp="-80" sinr="18" rsrq="-12"/>
      </extensions>
    </trkpt>
    <trkpt lat="45.6023313" lon="10.4550857">
      <ele>261.70001220703125</ele>
      <time>2026-08-25T17:17:43.472+02:00</time>
      <extensions>
        <activity type="IN_VEHICLE" conf="97" state="moving" tsMs="1787671058990"/>
        <radio op="vodafone IT" rat="LTE" q="10.50" rsrp="-104" sinr="0" rsrq="-14"/>
        <radio op="I TIM" rat="LTE" rsrp="-101" rsrq="-15"/>
      </extensions>
    </trkpt>
    <trkpt lat="45.6021928" lon="10.4548851">
      <ele>261.70001220703125</ele>
      <time>2026-08-25T17:17:50.126+02:00</time>
      <extensions>
        <activity type="IN_VEHICLE" conf="97" state="moving" tsMs="1787671074344"/>
        <radio op="vodafone IT" rat="LTE" q="18.00" rsrp="-95" sinr="1" rsrq="-12"/>
        <radio op="I TIM" rat="LTE" q="63.00" rsrp="-95" sinr="16" rsrq="-12"/>
      </extensions>
    </trkpt>
    <trkpt lat="45.601381" lon="10.4538012">
      <ele>261.20001220703125</ele>
      <time>2026-08-25T17:18:31.788+02:00</time>
      <extensions>
        <activity type="UNKNOWN" conf="40" state="unknown" tsMs="1787671107373"/>
        <radio op="vodafone IT" rat="LTE" rsrp="-102" rsrq="-14"/>
        <radio op="I TIM" rat="LTE" rsrp="-99" rsrq="-14"/>
      </extensions>
    </trkpt>
    <trkpt lat="45.6014058" lon="10.4536884">
      <ele>261.0</ele>
      <time>2026-08-25T17:19:00.611+02:00</time>
      <extensions>
        <activity type="IN_VEHICLE" conf="97" state="moving" tsMs="1787671139363"/>
        <radio op="vodafone IT" rat="LTE" q="36.40" rsrp="-99" sinr="9" rsrq="-8"/>
        <radio op="I TIM" rat="LTE" q="27.90" rsrp="-94" sinr="4" rsrq="-12"/>
      </extensions>
    </trkpt>
    <trkpt lat="45.6014134" lon="10.4536593">
      <ele>261.0</ele>
      <time>2026-08-25T17:19:12.126+02:00</time>
      <extensions>
        <activity type="IN_VEHICLE" conf="97" state="moving" tsMs="1787671139363"/>
        <radio op="vodafone IT" rat="LTE" q="53.20" rsrp="-97" sinr="14" rsrq="-9"/>
        <radio op="I TIM" rat="LTE" q="80.00" rsrp="-93" sinr="20" rsrq="-11"/>
      </extensions>
    </trkpt>
    <trkpt lat="45.6017184" lon="10.4541555">
      <ele>261.0</ele>
      <time>2026-08-25T17:19:22.126+02:00</time>
      <extensions>
        <activity type="IN_VEHICLE" conf="97" state="moving" tsMs="1787671158019"/>
        <radio op="vodafone IT" rat="LTE" q="24.20" rsrp="-103" sinr="6" rsrq="-9"/>
        <radio op="I TIM" rat="LTE" q="20.30" rsrp="-96" sinr="2" rsrq="-12"/>
      </extensions>
    </trkpt>
    <trkpt lat="45.6022711" lon="10.4537902">
      <ele>261.0</ele>
      <time>2026-08-25T17:19:32.127+02:00</time>
      <extensions>
        <activity type="IN_VEHICLE" conf="97" state="moving" tsMs="1787671168769"/>
        <radio op="vodafone IT" rat="LTE" q="10.80" rsrp="-107" sinr="1" rsrq="-10"/>
        <radio op="I TIM" rat="LTE" q="47.60" rsrp="-97" sinr="12" rsrq="-12"/>
      </extensions>
    </trkpt>
    <trkpt lat="45.6022591" lon="10.4534282">
      <ele>261.0</ele>
      <time>2026-08-25T17:19:42.127+02:00</time>
      <extensions>
        <activity type="IN_VEHICLE" conf="97" state="moving" tsMs="1787671179560"/>
        <radio op="vodafone IT" rat="LTE" rsrp="-100" rsrq="-11"/>
        <radio op="I TIM" rat="LTE" q="23.40" rsrp="-99" sinr="4" rsrq="-12"/>
      </extensions>
    </trkpt>
    <trkpt lat="45.6021524" lon="10.453442">
      <ele>261.0</ele>
      <time>2026-08-25T17:19:52.127+02:00</time>
      <extensions>
        <activity type="IN_VEHICLE" conf="97" state="moving" tsMs="1787671190475"/>
        <radio op="vodafone IT" rat="LTE" q="13.50" rsrp="-98" sinr="0" rsrq="-11"/>
        <radio op="I TIM" rat="LTE" q="43.50" rsrp="-96" sinr="10" rsrq="-12"/>
      </extensions>
    </trkpt>
    <trkpt lat="45.6022053" lon="10.4535409">
      <ele>261.0</ele>
      <time>2026-08-25T17:20:02.127+02:00</time>
      <extensions>
        <activity type="IN_VEHICLE" conf="97" state="moving" tsMs="1787671201210"/>
        <radio op="vodafone IT" rat="LTE" q="33.60" rsrp="-104" sinr="11" rsrq="-8"/>
        <radio op="I TIM" rat="LTE" q="23.40" rsrp="-99" sinr="4" rsrq="-13"/>
      </extensions>
    </trkpt>
    <trkpt lat="45.6022053" lon="10.4535409">
      <ele>261.0</ele>
      <time>2026-08-25T17:20:08.127+02:00</time>
      <extensions>
        <activity type="IN_VEHICLE" conf="96" state="moving" tsMs="1787671212133"/>
        <radio op="vodafone IT" rat="LTE" rsrp="-106" rsrq="-8"/>
        <radio op="I TIM" rat="LTE" q="44.20" rsrp="-99" sinr="12" rsrq="-12"/>
      </extensions>
    </trkpt>
    <trkpt lat="45.6022471" lon="10.4534896">
      <ele>261.3000183105469</ele>
      <time>2026-08-25T17:20:50.886+02:00</time>
      <extensions>
        <activity type="UNKNOWN" conf="40" state="unknown" tsMs="1787671249554"/>
        <radio op="vodafone IT" rat="LTE" q="12.00" rsrp="-110" sinr="3" rsrq="-13"/>
        <radio op="I TIM" rat="LTE" q="16.20" rsrp="-107" sinr="4" rsrq="-12"/>
      </extensions>
    </trkpt>
    <trkpt lat="45.6022803" lon="10.4534831">
      <ele>261.3000183105469</ele>
      <time>2026-08-25T17:21:22.095+02:00</time>
      <extensions>
        <activity type="UNKNOWN" conf="40" state="unknown" tsMs="1787671276733"/>
        <radio op="vodafone IT" rat="LTE" q="28.50" rsrp="-106" sinr="10" rsrq="-11"/>
        <radio op="I TIM" rat="LTE" q="23.40" rsrp="-107" sinr="8" rsrq="-12"/>
      </extensions>
    </trkpt>
    <trkpt lat="45.6026013" lon="10.4535776">
      <ele>261.4000244140625</ele>
      <time>2026-08-25T17:22:00.235+02:00</time>
      <extensions>
        <activity type="ON_FOOT" conf="96" state="moving" tsMs="1787671319423"/>
        <radio op="vodafone IT" rat="LTE" q="14.40" rsrp="-109" sinr="4" rsrq="-8"/>
        <radio op="I TIM" rat="LTE" q="17.50" rsrp="-100" sinr="2" rsrq="-11"/>
      </extensions>
    </trkpt>
    <trkpt lat="45.6025518" lon="10.453686">
      <ele>261.5</ele>
      <time>2026-08-25T17:22:31.311+02:00</time>
      <extensions>
        <activity type="ON_FOOT" conf="83" state="moving" tsMs="1787671351191"/>
        <radio op="vodafone IT" rat="LTE" q="6.40" rsrp="-117" sinr="3" rsrq="-12"/>
        <radio op="I TIM" rat="LTE" q="4.80" rsrp="-119" sinr="3" rsrq="-12"/>
      </extensions>
    </trkpt>
    <trkpt lat="45.602559" lon="10.4537016">
      <ele>261.5</ele>
      <time>2026-08-25T17:23:08.53+02:00</time>
      <extensions>
        <activity type="STILL" conf="100" state="still" tsMs="1787671385637"/>
        <radio op="vodafone IT" rat="LTE" q="6.00" rsrp="-113" sinr="0" rsrq="-14"/>
        <radio op="I TIM" rat="LTE" q="5.40" rsrp="-116" sinr="1" rsrq="-14"/>
      </extensions>
    </trkpt>
    <trkpt lat="45.6025531" lon="10.4536921">
      <ele>261.5</ele>
      <time>2026-08-25T17:23:40.555+02:00</time>
      <extensions>
        <activity type="STILL" conf="82" state="still" tsMs="1787671419946"/>
        <radio op="vodafone IT" rat="LTE" q="1.00" rsrp="-123" sinr="0" rsrq="-14"/>
        <radio op="I TIM" rat="LTE" rsrp="-119" rsrq="-16"/>
      </extensions>
    </trkpt>
    <trkpt lat="45.6025485" lon="10.4536877">
      <ele>261.5</ele>
      <time>2026-08-25T17:24:12.991+02:00</time>
      <extensions>
        <activity type="STILL" conf="68" state="still" tsMs="1787671451821"/>
        <radio op="vodafone IT" rat="LTE" q="7.70" rsrp="-118" sinr="6" rsrq="-13"/>
        <radio op="I TIM" rat="LTE" q="26.60" rsrp="-111" sinr="14" rsrq="-12"/>
      </extensions>
    </trkpt>
    <trkpt lat="45.6025525" lon="10.4536873">
      <ele>261.5</ele>
      <time>2026-08-25T17:24:58.353+02:00</time>
      <extensions>
        <activity type="UNKNOWN" conf="40" state="unknown" tsMs="1787671495795"/>
        <radio op="vodafone IT" rat="LTE" q="4.20" rsrp="-118" sinr="1" rsrq="-10"/>
        <radio op="I TIM" rat="LTE" q="5.50" rsrp="-114" sinr="0" rsrq="-12"/>
      </extensions>
    </trkpt>
    <trkpt lat="45.6025523" lon="10.4536913">
      <ele>261.5</ele>
      <time>2026-08-25T17:25:33.077+02:00</time>
      <extensions>
        <activity type="STILL" conf="58" state="still" tsMs="1787671531752"/>
        <radio op="vodafone IT" rat="LTE" q="3.60" rsrp="-121" sinr="4" rsrq="-14"/>
        <radio op="I TIM" rat="LTE" q="16.80" rsrp="-113" sinr="9" rsrq="-12"/>
      </extensions>
    </trkpt>
    <trkpt lat="45.6025522" lon="10.4536915">
      <ele>261.5</ele>
      <time>2026-08-25T17:26:15.805+02:00</time>
      <extensions>
        <activity type="STILL" conf="47" state="still" tsMs="1787671575151"/>
        <radio op="vodafone IT" rat="LTE" q="4.00" rsrp="-117" sinr="0" rsrq="-13"/>
        <radio op="I TIM" rat="LTE" q="6.00" rsrp="-113" sinr="0" rsrq="-14"/>
      </extensions>
    </trkpt>
  </trkseg></trk>
</gpx>
