<?xml version="1.0" encoding="UTF-8"?>
<gpx version="1.1" creator="CellGPX" xmlns="http://www.topografix.com/GPX/1/1">
  <trk><name>CellGPX</name><trkseg>
    <trkpt lat="45.6026037" lon="10.4537167">
      <ele>261.6000061035156</ele>
      <time>2026-07-24T14:01:41.661+02:00</time>
      <extensions>
        <activity type="ON_FOOT" conf="88" state="moving" tsMs="1784894473944"/>
        <radio op="vodafone IT" rat="LTE" q="0.00" rsrp="-126" sinr="6" rsrq="-14"/>
        <radio op="I TIM" rat="LTE" rsrp="-122" rsrq="-17"/>
      </extensions>
    </trkpt>
    <trkpt lat="45.6026001" lon="10.4537252">
      <ele>261.6000061035156</ele>
      <time>2026-07-24T14:01:47.437+02:00</time>
      <extensions>
        <activity type="UNKNOWN" conf="40" state="unknown" tsMs="1784894494409"/>
        <radio op="vodafone IT" rat="LTE" q="1.20" rsrp="-123" sinr="1" rsrq="-15"/>
        <radio op="I TIM" rat="LTE" q="1.80" rsrp="-122" sinr="1" rsrq="-15"/>
      </extensions>
    </trkpt>
    <trkpt lat="45.6025752" lon="10.4537203">
      <ele>261.6000061035156</ele>
      <time>2026-07-24T14:01:58.018+02:00</time>
      <extensions>
        <activity type="UNKNOWN" conf="40" state="unknown" tsMs="1784894494409"/>
        <radio op="vodafone IT" rat="LTE" rsrp="-121" rsrq="-11"/>
        <radio op="I TIM" rat="LTE" rsrp="-132" rsrq="-20"/>
      </extensions>
    </trkpt>
    <trkpt lat="45.602553" lon="10.4536835">
      <ele>261.6000061035156</ele>
      <time>2026-07-24T14:02:05.406+02:00</time>
      <extensions>
        <activity type="UNKNOWN" conf="40" state="unknown" tsMs="1784894515600"/>
        <radio op="vodafone IT" rat="LTE" rsrp="-124" rsrq="-10"/>
        <radio op="I TIM" rat="LTE" rsrp="-124" rsrq="-13"/>
      </extensions>
    </trkpt>
    <trkpt lat="45.6025447" lon="10.4536674">
      <ele>261.6000061035156</ele>
      <time>2026-07-24T14:02:12.63+02:00</time>
      <extensions>
        <activity type="UNKNOWN" conf="40" state="unknown" tsMs="1784894539617"/>
        <radio op="vodafone IT" rat="LTE" q="0.60" rsrp="-124" sinr="1" rsrq="-14"/>
        <radio op="I TIM" rat="LTE" q="0.60" rsrp="-124" sinr="1" rsrq="-13"/>
      </extensions>
    </trkpt>
    <trkpt lat="45.6025519" lon="10.4536688">
      <ele>261.6000061035156</ele>
      <time>2026-07-24T14:02:28.31+02:00</time>
      <extensions>
        <activity type="STILL" conf="98" state="still" tsMs="1784894544791"/>
        <radio op="vodafone IT" rat="LTE" q="0.50" rsrp="-124" sinr="0" rsrq="-15"/>
        <radio op="I TIM" rat="LTE" rsrq="-20"/>
      </extensions>
    </trkpt>
    <trkpt lat="45.6025483" lon="10.4536686">
      <ele>261.6000061035156</ele>
      <time>2026-07-24T14:02:38.515+02:00</time>
      <extensions>
        <activity type="STILL" conf="98" state="still" tsMs="1784894544791"/>
        <radio op="vodafone IT" rat="LTE" q="3.50" rsrp="-120" sinr="2" rsrq="-12"/>
        <radio op="I TIM" rat="LTE" rsrq="-20"/>
      </extensions>
    </trkpt>
    <trkpt lat="45.6025452" lon="10.4536674">
      <ele>261.6000061035156</ele>
      <time>2026-07-24T14:02:48.823+02:00</time>
      <extensions>
        <activity type="UNKNOWN" conf="40" state="unknown" tsMs="1784894556489"/>
        <radio op="vodafone IT" rat="LTE" rsrp="-127" rsrq="-16"/>
        <radio op="I TIM" rat="LTE" rsrq="-20"/>
      </extensions>
    </trkpt>
    <trkpt lat="45.6025487" lon="10.4536558">
      <ele>261.6000061035156</ele>
      <time>2026-07-24T14:03:02.926+02:00</time>
      <extensions>
        <activity type="UNKNOWN" conf="40" state="unknown" tsMs="1784894556489"/>
        <radio op="vodafone IT" rat="LTE" q="3.50" rsrp="-118" sinr="0" rsrq="-12"/>
        <radio op="I TIM" rat="LTE" q="4.80" rsrp="-119" sinr="3" rsrq="-16"/>
      </extensions>
    </trkpt>
    <trkpt lat="45.6025508" lon="10.4536807">
      <ele>261.6000061035156</ele>
      <time>2026-07-24T14:03:13.046+02:00</time>
      <extensions>
        <activity type="UNKNOWN" conf="40" state="unknown" tsMs="1784894590347"/>
        <radio op="vodafone IT" rat="LTE" q="4.20" rsrp="-118" sinr="1" rsrq="-16"/>
        <radio op="I TIM" rat="LTE" rsrp="-118" rsrq="-15"/>
      </extensions>
    </trkpt>
    <trkpt lat="45.6025533" lon="10.4536801">
      <ele>261.6000061035156</ele>
      <time>2026-07-24T14:03:23.206+02:00</time>
      <extensions>
        <activity type="UNKNOWN" conf="40" state="unknown" tsMs="1784894590347"/>
        <radio op="vodafone IT" rat="LTE" q="11.20" rsrp="-109" sinr="2" rsrq="-12"/>
        <radio op="I TIM" rat="LTE" q="23.40" rsrp="-107" sinr="8" rsrq="-11"/>
      </extensions>
    </trkpt>
    <trkpt lat="45.6024824" lon="10.4536596">
      <ele>261.6000061035156</ele>
      <time>2026-07-24T14:03:33.52+02:00</time>
      <extensions>
        <activity type="UNKNOWN" conf="40" state="unknown" tsMs="1784894612057"/>
        <radio op="vodafone IT" rat="LTE" q="18.40" rsrp="-102" sinr="3" rsrq="-11"/>
        <radio op="I TIM" rat="LTE" q="22.10" rsrp="-108" sinr="8" rsrq="-13"/>
      </extensions>
    </trkpt>
    <trkpt lat="45.6024039" lon="10.4536981">
      <ele>261.6000061035156</ele>
      <time>2026-07-24T14:03:42.489+02:00</time>
      <extensions>
        <activity type="ON_FOOT" conf="96" state="moving" tsMs="1784894617469"/>
        <radio op="vodafone IT" rat="LTE" q="18.60" rsrp="-94" sinr="1" rsrq="-12"/>
        <radio op="I TIM" rat="LTE" q="36.00" rsrp="-101" sinr="10" rsrq="-11"/>
      </extensions>
    </trkpt>
    <trkpt lat="45.6023214" lon="10.4536751">
      <ele>261.6000061035156</ele>
      <time>2026-07-24T14:03:49.449+02:00</time>
      <extensions>
        <activity type="ON_FOOT" conf="96" state="moving" tsMs="1784894617469"/>
        <radio op="vodafone IT" rat="LTE" q="21.00" rsrp="-104" sinr="5" rsrq="-11"/>
        <radio op="I TIM" rat="LTE" q="29.90" rsrp="-102" sinr="8" rsrq="-14"/>
      </extensions>
    </trkpt>
    <trkpt lat="45.6021869" lon="10.4532462">
      <ele>261.70001220703125</ele>
      <time>2026-07-24T14:04:21.023+02:00</time>
      <extensions>
        <activity type="ON_FOOT" conf="97" state="moving" tsMs="1784894654745"/>
        <radio op="vodafone IT" rat="LTE" rsrp="-103" rsrq="-14"/>
        <radio op="I TIM" rat="LTE" rsrp="-104" rsrq="-15"/>
      </extensions>
    </trkpt>
    <trkpt lat="45.6021175" lon="10.4530472">
      <ele>261.70001220703125</ele>
      <time>2026-07-24T14:04:54.787+02:00</time>
      <extensions>
        <activity type="ON_FOOT" conf="93" state="moving" tsMs="1784894689570"/>
        <radio op="vodafone IT" rat="LTE" q="41.40" rsrp="-102" sinr="13" rsrq="-11"/>
        <radio op="I TIM" rat="LTE" q="21.60" rsrp="-101" sinr="4" rsrq="-13"/>
      </extensions>
    </trkpt>
    <trkpt lat="45.6021632" lon="10.4530797">
      <ele>261.70001220703125</ele>
      <time>2026-07-24T14:05:21.025+02:00</time>
      <extensions>
        <activity type="UNKNOWN" conf="40" state="unknown" tsMs="1784894722048"/>
        <radio op="vodafone IT" rat="LTE" q="32.00" rsrp="-105" sinr="11" rsrq="-7"/>
        <radio op="I TIM" rat="LTE" q="26.40" rsrp="-103" sinr="7" rsrq="-12"/>
      </extensions>
    </trkpt>
    <trkpt lat="45.602131" lon="10.4530198">
      <ele>261.70001220703125</ele>
      <time>2026-07-24T14:05:56.545+02:00</time>
      <extensions>
        <activity type="UNKNOWN" conf="40" state="unknown" tsMs="1784894752645"/>
        <radio op="vodafone IT" rat="LTE" q="28.00" rsrp="-105" sinr="9" rsrq="-9"/>
        <radio op="I TIM" rat="LTE" q="23.10" rsrp="-104" sinr="6" rsrq="-10"/>
      </extensions>
    </trkpt>
    <trkpt lat="45.6021255" lon="10.4531576">
      <ele>261.70001220703125</ele>
      <time>2026-07-24T14:06:27.771+02:00</time>
      <extensions>
        <activity type="UNKNOWN" conf="40" state="unknown" tsMs="1784894783815"/>
        <radio op="vodafone IT" rat="LTE" q="24.70" rsrp="-106" sinr="8" rsrq="-9"/>
        <radio op="I TIM" rat="LTE" q="19.80" rsrp="-103" sinr="4" rsrq="-11"/>
      </extensions>
    </trkpt>
    <trkpt lat="45.6021412" lon="10.4530771">
      <ele>261.70001220703125</ele>
      <time>2026-07-24T14:06:58.901+02:00</time>
      <extensions>
        <activity type="STILL" conf="56" state="still" tsMs="1784894815167"/>
        <radio op="vodafone IT" rat="LTE" q="26.00" rsrp="-105" sinr="8" rsrq="-8"/>
        <radio op="I TIM" rat="LTE" q="24.20" rsrp="-103" sinr="6" rsrq="-11"/>
      </extensions>
    </trkpt>
    <trkpt lat="45.6021108" lon="10.4530572">
      <ele>261.70001220703125</ele>
      <time>2026-07-24T14:07:30.163+02:00</time>
      <extensions>
        <activity type="UNKNOWN" conf="40" state="unknown" tsMs="1784894846265"/>
        <radio op="vodafone IT" rat="LTE" q="26.60" rsrp="-106" sinr="9" rsrq="-9"/>
        <radio op="I TIM" rat="LTE" q="18.90" rsrp="-104" sinr="4" rsrq="-11"/>
      </extensions>
    </trkpt>
    <trkpt lat="45.6021686" lon="10.4530087">
      <ele>259.7185395410819</ele>
      <time>2026-07-24T14:08:01.354+02:00</time>
      <extensions>
        <activity type="UNKNOWN" conf="40" state="unknown" tsMs="1784894877532"/>
        <radio op="vodafone IT" rat="LTE" q="33.60" rsrp="-104" sinr="11" rsrq="-9"/>
        <radio op="I TIM" rat="LTE" q="13.20" rsrp="-103" sinr="1" rsrq="-10"/>
      </extensions>
    </trkpt>
    <trkpt lat="45.6024553" lon="10.4533938">
      <ele>261.5</ele>
      <time>2026-07-24T14:08:34.311+02:00</time>
      <extensions>
        <activity type="IN_VEHICLE" conf="97" state="moving" tsMs="1784894908591"/>
        <radio op="vodafone IT" rat="LTE" q="23.10" rsrp="-104" sinr="6" rsrq="-10"/>
        <radio op="I TIM" rat="LTE" rsrp="-107" rsrq="-16"/>
      </extensions>
    </trkpt>
    <trkpt lat="45.6026729" lon="10.4562271">
      <ele>269.01763530657547</ele>
      <time>2026-07-24T14:09:06.801+02:00</time>
      <extensions>
        <activity type="IN_VEHICLE" conf="97" state="moving" tsMs="1784894945202"/>
        <radio op="vodafone IT" rat="LTE" q="9.90" rsrp="-114" sinr="4" rsrq="-12"/>
        <radio op="I TIM" rat="LTE" q="43.20" rsrp="-98" sinr="11" rsrq="-13"/>
      </extensions>
    </trkpt>
    <trkpt lat="45.6026488" lon="10.4570576">
      <ele>269.01763530657547</ele>
      <time>2026-07-24T14:09:13.759+02:00</time>
      <extensions>
        <activity type="IN_VEHICLE" conf="97" state="moving" tsMs="1784894945202"/>
        <radio op="vodafone IT" rat="LTE" q="6.30" rsrp="-116" sinr="2" rsrq="-12"/>
        <radio op="I TIM" rat="LTE" q="100.00" rsrp="-80" sinr="20" rsrq="-8"/>
      </extensions>
    </trkpt>
    <trkpt lat="45.6042677" lon="10.4623307">
      <ele>275.0803631058069</ele>
      <time>2026-07-24T14:09:47.957+02:00</time>
      <extensions>
        <activity type="IN_VEHICLE" conf="97" state="moving" tsMs="1784894983542"/>
        <radio op="vodafone IT" rat="LTE" q="96.00" rsrp="-83" sinr="19" rsrq="-8"/>
        <radio op="I TIM" rat="LTE" q="48.00" rsrp="-85" sinr="7" rsrq="-12"/>
      </extensions>
    </trkpt>
    <trkpt lat="45.6058065" lon="10.4667158">
      <ele>274.10570784009894</ele>
      <time>2026-07-24T14:10:21.449+02:00</time>
      <extensions>
        <activity type="IN_VEHICLE" conf="98" state="moving" tsMs="1784895014728"/>
        <radio op="vodafone IT" rat="LTE" q="100.00" rsrp="-78" sinr="27" rsrq="-6"/>
        <radio op="I TIM" rat="LTE" q="60.80" rsrp="-93" sinr="14" rsrq="-7"/>
      </extensions>
    </trkpt>
    <trkpt lat="45.6060349" lon="10.4674639">
      <ele>274.10570784009894</ele>
      <time>2026-07-24T14:10:25.449+02:00</time>
      <extensions>
        <activity type="IN_VEHICLE" conf="97" state="moving" tsMs="1784895029822"/>
        <radio op="vodafone IT" rat="LTE" q="100.00" rsrp="-82" sinr="22" rsrq="-7"/>
        <radio op="I TIM" rat="LTE" q="93.60" rsrp="-86" sinr="19" rsrq="-4"/>
      </extensions>
    </trkpt>
    <trkpt lat="45.6083994" lon="10.4747791">
      <ele>279.55322396954335</ele>
      <time>2026-07-24T14:11:02.45+02:00</time>
      <extensions>
        <activity type="IN_VEHICLE" conf="96" state="moving" tsMs="1784895056717"/>
        <radio op="vodafone IT" rat="LTE" q="100.00" rsrp="-83" sinr="24" rsrq="-5"/>
        <radio op="I TIM" rat="LTE" q="81.40" rsrp="-88" sinr="17" rsrq="-11"/>
      </extensions>
    </trkpt>
    <trkpt lat="45.6083601" lon="10.4756883">
      <ele>279.55322396954335</ele>
      <time>2026-07-24T14:11:08.449+02:00</time>
      <extensions>
        <activity type="IN_VEHICLE" conf="97" state="moving" tsMs="1784895062106"/>
        <radio op="vodafone IT" rat="LTE" q="49.40" rsrp="-99" sinr="14" rsrq="-10"/>
        <radio op="I TIM" rat="LTE" q="68.40" rsrp="-89" sinr="14" rsrq="-7"/>
      </extensions>
    </trkpt>
    <trkpt lat="45.6119086" lon="10.4810982">
      <ele>275.46249813867223</ele>
      <time>2026-07-24T14:11:43.84+02:00</time>
      <extensions>
        <activity type="IN_VEHICLE" conf="97" state="moving" tsMs="1784895098834"/>
        <radio op="vodafone IT" rat="LTE" q="62.00" rsrp="-94" sinr="15" rsrq="-8"/>
        <radio op="I TIM" rat="LTE" rsrp="-110" rsrq="-9"/>
      </extensions>
    </trkpt>
    <trkpt lat="45.6203927" lon="10.4859898">
      <ele>279.6727090651883</ele>
      <time>2026-07-24T14:12:53.062+02:00</time>
      <extensions>
        <activity type="IN_VEHICLE" conf="97" state="moving" tsMs="1784895172583"/>
        <radio op="vodafone IT" rat="LTE" q="33.60" rsrp="-97" sinr="7" rsrq="-12"/>
        <radio op="I TIM" rat="LTE" q="11.20" rsrp="-111" sinr="3" rsrq="-13"/>
      </extensions>
    </trkpt>
    <trkpt lat="45.6236012" lon="10.4937694">
      <ele>278.70001220703125</ele>
      <time>2026-07-24T14:13:35.325+02:00</time>
      <extensions>
        <activity type="IN_VEHICLE" conf="97" state="moving" tsMs="1784895212133"/>
        <radio op="vodafone IT" rat="LTE" q="22.50" rsrp="-100" sinr="4" rsrq="-13"/>
        <radio op="I TIM" rat="LTE" q="17.10" rsrp="-106" sinr="4" rsrq="-12"/>
      </extensions>
    </trkpt>
    <trkpt lat="45.6237571" lon="10.4933343">
      <ele>278.5</ele>
      <time>2026-07-24T14:14:07.594+02:00</time>
      <extensions>
        <activity type="IN_VEHICLE" conf="92" state="moving" tsMs="1784895245913"/>
        <radio op="vodafone IT" rat="LTE" q="24.00" rsrp="-101" sinr="5" rsrq="-11"/>
        <radio op="I TIM" rat="LTE" q="18.00" rsrp="-113" sinr="10" rsrq="-12"/>
      </extensions>
    </trkpt>
    <trkpt lat="45.6237929" lon="10.4927491">
      <ele>278.70001220703125</ele>
      <time>2026-07-24T14:14:50.575+02:00</time>
      <extensions>
        <activity type="ON_FOOT" conf="97" state="moving" tsMs="1784895288414"/>
        <radio op="vodafone IT" rat="LTE" q="3.50" rsrp="-118" sinr="0" rsrq="-14"/>
        <radio op="I TIM" rat="LTE" q="2.70" rsrp="-122" sinr="4" rsrq="-13"/>
      </extensions>
    </trkpt>
    <trkpt lat="45.6237967" lon="10.4927298">
      <ele>278.5</ele>
      <time>2026-07-24T14:15:21.753+02:00</time>
      <extensions>
        <activity type="ON_FOOT" conf="91" state="moving" tsMs="1784895318155"/>
        <radio op="vodafone IT" rat="OTHER"/>
        <radio op="I TIM" rat="LTE" q="0.00" rsrp="-127" sinr="3" rsrq="-15"/>
      </extensions>
    </trkpt>
    <trkpt lat="45.6237881" lon="10.4927185">
      <ele>284.0427058791896</ele>
      <time>2026-07-24T14:15:58.866+02:00</time>
      <extensions>
        <activity type="UNKNOWN" conf="40" state="unknown" tsMs="1784895358688"/>
        <radio op="vodafone IT" rat="LTE" rsrq="-20"/>
        <radio op="I TIM" rat="LTE" rsrp="-134" rsrq="-19"/>
      </extensions>
    </trkpt>
    <trkpt lat="45.6238124" lon="10.4927044">
      <ele>289.9000244140625</ele>
      <time>2026-07-24T14:16:23.634+02:00</time>
      <extensions>
        <activity type="UNKNOWN" conf="40" state="unknown" tsMs="1784895382877"/>
        <radio op="vodafone IT" rat="LTE" rsrp="-104" rsrq="-11"/>
        <radio op="I TIM" rat="LTE" q="43.70" rsrp="-102" sinr="14" rsrq="-10"/>
      </extensions>
    </trkpt>
    <trkpt lat="45.6238017" lon="10.4927289">
      <ele>290.70001220703125</ele>
      <time>2026-07-24T14:16:26.444+02:00</time>
      <extensions>
        <activity type="UNKNOWN" conf="40" state="unknown" tsMs="1784895382877"/>
        <radio op="vodafone IT" rat="LTE" q="7.50" rsrp="-110" sinr="0" rsrq="-9"/>
        <radio op="I TIM" rat="LTE" q="16.80" rsrp="-113" sinr="9" rsrq="-12"/>
      </extensions>
    </trkpt>
    <trkpt lat="45.62379" lon="10.4927557">
      <ele>290.70001220703125</ele>
      <time>2026-07-24T14:16:58.144+02:00</time>
      <extensions>
        <activity type="ON_FOOT" conf="97" state="moving" tsMs="1784895414718"/>
        <radio op="vodafone IT" rat="LTE" q="42.00" rsrp="-105" sinr="16" rsrq="-12"/>
        <radio op="I TIM" rat="LTE" q="12.60" rsrp="-116" sinr="9" rsrq="-12"/>
      </extensions>
    </trkpt>
    <trkpt lat="45.6237699" lon="10.4927352">
      <ele>290.70001220703125</ele>
      <time>2026-07-24T14:17:30.025+02:00</time>
      <extensions>
        <activity type="STILL" conf="99" state="still" tsMs="1784895447994"/>
        <radio op="vodafone IT" rat="LTE" q="7.00" rsrp="-118" sinr="5" rsrq="-13"/>
        <radio op="I TIM" rat="LTE" q="16.50" rsrp="-114" sinr="10" rsrq="-13"/>
      </extensions>
    </trkpt>
    <trkpt lat="45.6237631" lon="10.4927432">
      <ele>290.8000183105469</ele>
      <time>2026-07-24T14:18:01.878+02:00</time>
      <extensions>
        <activity type="STILL" conf="99" state="still" tsMs="1784895477926"/>
        <radio op="vodafone IT" rat="LTE" q="39.90" rsrp="-104" sinr="14" rsrq="-9"/>
        <radio op="I TIM" rat="LTE" q="17.60" rsrp="-114" sinr="11" rsrq="-12"/>
      </extensions>
    </trkpt>
    <trkpt lat="45.6237802" lon="10.4927518">
      <ele>290.70001220703125</ele>
      <time>2026-07-24T14:18:36.577+02:00</time>
      <extensions>
        <activity type="STILL" conf="72" state="still" tsMs="1784895510157"/>
        <radio op="vodafone IT" rat="LTE" rsrp="-119" rsrq="-12"/>
        <radio op="I TIM" rat="LTE" q="1.60" rsrp="-123" sinr="3" rsrq="-14"/>
      </extensions>
    </trkpt>
    <trkpt lat="45.6238142" lon="10.4927286">
      <ele>288.41630101477114</ele>
      <time>2026-07-24T14:19:47.541+02:00</time>
      <extensions>
        <activity type="UNKNOWN" conf="40" state="unknown" tsMs="1784895581601"/>
        <radio op="vodafone IT" rat="LTE" q="3.60" rsrp="-119" sinr="1" rsrq="-14"/>
        <radio op="I TIM" rat="LTE" q="9.60" rsrp="-117" sinr="7" rsrq="-14"/>
      </extensions>
    </trkpt>
    <trkpt lat="45.6237737" lon="10.4927629">
      <ele>290.9000244140625</ele>
      <time>2026-07-24T16:18:12.627+02:00</time>
      <extensions>
        <activity type="IN_VEHICLE" conf="72" state="moving" tsMs="1784902695868"/>
        <radio op="vodafone IT" rat="LTE" rsrp="-119" rsrq="-12"/>
        <radio op="I TIM" rat="LTE" q="14.00" rsrp="-115" sinr="9" rsrq="-12"/>
      </extensions>
    </trkpt>
    <trkpt lat="45.6237943" lon="10.4927373">
      <ele>290.9000244140625</ele>
      <time>2026-07-24T16:18:45.678+02:00</time>
      <extensions>
        <activity type="UNKNOWN" conf="40" state="unknown" tsMs="1784902722487"/>
        <radio op="vodafone IT" rat="LTE" q="4.00" rsrp="-117" sinr="0" rsrq="-10"/>
        <radio op="I TIM" rat="LTE" q="22.10" rsrp="-112" sinr="12" rsrq="-10"/>
      </extensions>
    </trkpt>
    <trkpt lat="45.6237919" lon="10.4927486">
      <ele>290.8000183105469</ele>
      <time>2026-07-24T16:19:21.354+02:00</time>
      <extensions>
        <activity type="UNKNOWN" conf="40" state="unknown" tsMs="1784902756039"/>
        <radio op="vodafone IT" rat="LTE" q="11.00" rsrp="-115" sinr="6" rsrq="-9"/>
        <radio op="I TIM" rat="LTE" q="8.80" rsrp="-117" sinr="6" rsrq="-13"/>
      </extensions>
    </trkpt>
    <trkpt lat="45.6237891" lon="10.4927569">
      <ele>290.8000183105469</ele>
      <time>2026-07-24T16:19:52.861+02:00</time>
      <extensions>
        <activity type="STILL" conf="46" state="still" tsMs="1784902787652"/>
        <radio op="vodafone IT" rat="LTE" q="16.50" rsrp="-114" sinr="10" rsrq="-10"/>
        <radio op="I TIM" rat="LTE" q="18.70" rsrp="-114" sinr="12" rsrq="-13"/>
      </extensions>
    </trkpt>
    <trkpt lat="45.6237632" lon="10.4927628">
      <ele>290.8000183105469</ele>
      <time>2026-07-24T16:20:38.66+02:00</time>
      <extensions>
        <activity type="STILL" conf="45" state="still" tsMs="1784902835644"/>
        <radio op="vodafone IT" rat="LTE" q="14.40" rsrp="-113" sinr="7" rsrq="-10"/>
        <radio op="I TIM" rat="LTE" q="14.00" rsrp="-115" sinr="9" rsrq="-12"/>
      </extensions>
    </trkpt>
    <trkpt lat="45.623783" lon="10.4927552">
      <ele>290.9000244140625</ele>
      <time>2026-07-24T16:21:12.825+02:00</time>
      <extensions>
        <activity type="UNKNOWN" conf="40" state="unknown" tsMs="1784902867373"/>
        <radio op="vodafone IT" rat="LTE" q="8.80" rsrp="-117" sinr="6" rsrq="-10"/>
        <radio op="I TIM" rat="LTE" q="14.40" rsrp="-113" sinr="7" rsrq="-10"/>
      </extensions>
    </trkpt>
    <trkpt lat="45.6238043" lon="10.4927451">
      <ele>290.9000244140625</ele>
      <time>2026-07-24T16:38:54.447+02:00</time>
      <extensions>
        <activity type="IN_VEHICLE" conf="90" state="moving" tsMs="1784903950516"/>
        <radio op="vodafone IT" rat="LTE" rsrp="-122" rsrq="-12"/>
        <radio op="I TIM" rat="LTE" rsrp="-118" rsrq="-13"/>
      </extensions>
    </trkpt>
    <trkpt lat="45.6237831" lon="10.4927545">
      <ele>290.70001220703125</ele>
      <time>2026-07-24T16:39:31.356+02:00</time>
      <extensions>
        <activity type="STILL" conf="99" state="still" tsMs="1784903968326"/>
        <radio op="vodafone IT" rat="LTE" rsrp="-122" rsrq="-15"/>
        <radio op="I TIM" rat="LTE" rsrp="-118" rsrq="-13"/>
      </extensions>
    </trkpt>
    <trkpt lat="45.6237504" lon="10.4927757">
      <ele>294.2276654602423</ele>
      <time>2026-07-24T16:40:04.057+02:00</time>
      <extensions>
        <activity type="STILL" conf="99" state="still" tsMs="1784903999193"/>
        <radio op="vodafone IT" rat="LTE" rsrp="-122" rsrq="-13"/>
        <radio op="I TIM" rat="LTE" rsrp="-121" rsrq="-16"/>
      </extensions>
    </trkpt>
    <trkpt lat="45.6237658" lon="10.4927694">
      <ele>294.42780134565623</ele>
      <time>2026-07-24T16:40:50.913+02:00</time>
      <extensions>
        <activity type="STILL" conf="99" state="still" tsMs="1784904045402"/>
        <radio op="vodafone IT" rat="LTE" q="2.80" rsrp="-121" sinr="2" rsrq="-12"/>
        <radio op="I TIM" rat="LTE" rsrp="-119" rsrq="-13"/>
      </extensions>
    </trkpt>
    <trkpt lat="45.6237764" lon="10.4927641">
      <ele>294.2830594102346</ele>
      <time>2026-07-24T16:41:39.733+02:00</time>
      <extensions>
        <activity type="STILL" conf="99" state="still" tsMs="1784904072810"/>
        <radio op="vodafone IT" rat="LTE" q="2.80" rsrp="-121" sinr="2" rsrq="-12"/>
        <radio op="I TIM" rat="LTE" rsrp="-119" rsrq="-13"/>
      </extensions>
    </trkpt>
    <trkpt lat="45.6238193" lon="10.4925743">
      <ele>290.8000183105469</ele>
      <time>2026-07-24T18:02:27.971+02:00</time>
      <extensions>
        <activity type="ON_FOOT" conf="92" state="moving" tsMs="1784908919709"/>
        <radio op="vodafone IT" rat="LTE" q="18.70" rsrp="-108" sinr="6" rsrq="-9"/>
        <radio op="I TIM" rat="LTE" q="34.00" rsrp="-105" sinr="12" rsrq="-12"/>
      </extensions>
    </trkpt>
    <trkpt lat="45.6238213" lon="10.4926123">
      <ele>290.8000183105469</ele>
      <time>2026-07-24T18:02:38.02+02:00</time>
      <extensions>
        <activity type="UNKNOWN" conf="40" state="unknown" tsMs="1784908940316"/>
        <radio op="vodafone IT" rat="LTE" q="10.80" rsrp="-113" sinr="4" rsrq="-10"/>
        <radio op="I TIM" rat="LTE" q="17.60" rsrp="-114" sinr="11" rsrq="-13"/>
      </extensions>
    </trkpt>
    <trkpt lat="45.6237238" lon="10.4926354">
      <ele>287.32559793017197</ele>
      <time>2026-07-24T18:02:48.279+02:00</time>
      <extensions>
        <activity type="UNKNOWN" conf="40" state="unknown" tsMs="1784908940316"/>
        <radio op="vodafone IT" rat="LTE" q="6.50" rsrp="-120" sinr="8" rsrq="-12"/>
        <radio op="I TIM" rat="LTE" q="5.60" rsrp="-117" sinr="2" rsrq="-12"/>
      </extensions>
    </trkpt>
    <trkpt lat="45.6238251" lon="10.492617">
      <ele>286.3721008635305</ele>
      <time>2026-07-24T18:02:58.603+02:00</time>
      <extensions>
        <activity type="ON_FOOT" conf="96" state="moving" tsMs="1784908973643"/>
        <radio op="vodafone IT" rat="LTE" q="10.00" rsrp="-120" sinr="15" rsrq="-12"/>
        <radio op="I TIM" rat="LTE" q="7.70" rsrp="-118" sinr="6" rsrq="-12"/>
      </extensions>
    </trkpt>
    <trkpt lat="45.6238134" lon="10.4926481">
      <ele>284.5743005049901</ele>
      <time>2026-07-24T18:03:08.596+02:00</time>
      <extensions>
        <activity type="ON_FOOT" conf="92" state="moving" tsMs="1784908979030"/>
        <radio op="vodafone IT" rat="LTE" rsrp="-120" rsrq="-12"/>
        <radio op="I TIM" rat="LTE" q="0.00" rsrp="-128" sinr="2" rsrq="-14"/>
      </extensions>
    </trkpt>
    <trkpt lat="45.6236797" lon="10.4927362">
      <ele>283.05238139358846</ele>
      <time>2026-07-24T18:03:18.594+02:00</time>
      <extensions>
        <activity type="ON_FOOT" conf="92" state="moving" tsMs="1784908979030"/>
        <radio op="vodafone IT" rat="LTE" q="7.00" rsrp="-120" sinr="9" rsrq="-12"/>
        <radio op="I TIM" rat="LTE" q="5.20" rsrp="-121" sinr="8" rsrq="-14"/>
      </extensions>
    </trkpt>
    <trkpt lat="45.6235783" lon="10.4927445">
      <ele>282.95666368806894</ele>
      <time>2026-07-24T18:03:25.614+02:00</time>
      <extensions>
        <activity type="ON_FOOT" conf="90" state="moving" tsMs="1784908983897"/>
        <radio op="vodafone IT" rat="LTE" q="10.40" rsrp="-112" sinr="3" rsrq="-11"/>
        <radio op="I TIM" rat="LTE" q="19.50" rsrp="-110" sinr="8" rsrq="-13"/>
      </extensions>
    </trkpt>
    <trkpt lat="45.6237398" lon="10.4932911">
      <ele>282.3000183105469</ele>
      <time>2026-07-24T18:03:48.977+02:00</time>
      <extensions>
        <activity type="ON_FOOT" conf="94" state="moving" tsMs="1784909004993"/>
        <radio op="vodafone IT" rat="LTE" rsrp="-109" rsrq="-12"/>
        <radio op="I TIM" rat="LTE" q="18.00" rsrp="-107" sinr="5" rsrq="-12"/>
      </extensions>
    </trkpt>
    <trkpt lat="45.6237217" lon="10.4933114">
      <ele>282.25588288141915</ele>
      <time>2026-07-24T18:03:58.632+02:00</time>
      <extensions>
        <activity type="ON_FOOT" conf="92" state="moving" tsMs="1784909026598"/>
        <radio op="vodafone IT" rat="LTE" rsrp="-116" rsrq="-11"/>
        <radio op="I TIM" rat="LTE" rsrp="-119" rsrq="-13"/>
      </extensions>
    </trkpt>
    <trkpt lat="45.6237159" lon="10.4933177">
      <ele>280.27799154900464</ele>
      <time>2026-07-24T18:04:08.626+02:00</time>
      <extensions>
        <activity type="ON_FOOT" conf="92" state="moving" tsMs="1784909026598"/>
        <radio op="vodafone IT" rat="LTE" rsrp="-115" rsrq="-13"/>
        <radio op="I TIM" rat="LTE" q="16.80" rsrp="-111" sinr="7" rsrq="-12"/>
      </extensions>
    </trkpt>
    <trkpt lat="45.6236784" lon="10.4933245">
      <ele>278.4000244140625</ele>
      <time>2026-07-24T18:04:19.627+02:00</time>
      <extensions>
        <activity type="UNKNOWN" conf="40" state="unknown" tsMs="1784909042219"/>
        <radio op="vodafone IT" rat="LTE" rsrp="-116" rsrq="-13"/>
        <radio op="I TIM" rat="LTE" q="14.00" rsrp="-115" sinr="9" rsrq="-13"/>
      </extensions>
    </trkpt>
    <trkpt lat="45.6237034" lon="10.4933206">
      <ele>278.4000244140625</ele>
      <time>2026-07-24T18:04:29.613+02:00</time>
      <extensions>
        <activity type="UNKNOWN" conf="40" state="unknown" tsMs="1784909057714"/>
        <radio op="vodafone IT" rat="LTE" rsrp="-117" rsrq="-13"/>
        <radio op="I TIM" rat="LTE" q="20.40" rsrp="-113" sinr="12" rsrq="-12"/>
      </extensions>
    </trkpt>
    <trkpt lat="45.6237681" lon="10.493653">
      <ele>278.4000244140625</ele>
      <time>2026-07-24T18:04:39.603+02:00</time>
      <extensions>
        <activity type="UNKNOWN" conf="40" state="unknown" tsMs="1784909079278"/>
        <radio op="vodafone IT" rat="LTE" q="9.00" rsrp="-116" sinr="5" rsrq="-13"/>
        <radio op="I TIM" rat="LTE" q="5.60" rsrp="-117" sinr="2" rsrq="-13"/>
      </extensions>
    </trkpt>
    <trkpt lat="45.6237348" lon="10.4936503">
      <ele>278.3000183105469</ele>
      <time>2026-07-24T18:04:42.603+02:00</time>
      <extensions>
        <activity type="UNKNOWN" conf="40" state="unknown" tsMs="1784909079278"/>
        <radio op="vodafone IT" rat="LTE" q="3.00" rsrp="-119" sinr="0" rsrq="-14"/>
        <radio op="I TIM" rat="LTE" q="3.00" rsrp="-119" sinr="0" rsrq="-14"/>
      </extensions>
    </trkpt>
    <trkpt lat="45.6214513" lon="10.4881623">
      <ele>280.35797065687717</ele>
      <time>2026-07-24T18:05:23.604+02:00</time>
      <extensions>
        <activity type="IN_VEHICLE" conf="86" state="moving" tsMs="1784909131159"/>
        <radio op="vodafone IT" rat="LTE" q="4.00" rsrp="-117" sinr="0" rsrq="-16"/>
        <radio op="I TIM" rat="LTE" rsrp="-116" rsrq="-14"/>
      </extensions>
    </trkpt>
    <trkpt lat="45.6167313" lon="10.4836289">
      <ele>278.3000183105469</ele>
      <time>2026-07-24T18:06:03.728+02:00</time>
      <extensions>
        <activity type="IN_VEHICLE" conf="97" state="moving" tsMs="1784909158254"/>
        <radio op="vodafone IT" rat="LTE" q="7.00" rsrp="-111" sinr="0" rsrq="-13"/>
        <radio op="I TIM" rat="LTE" rsrp="-127" rsrq="-17"/>
      </extensions>
    </trkpt>
    <trkpt lat="45.6124357" lon="10.4816407">
      <ele>273.0621941003706</ele>
      <time>2026-07-24T18:06:34.91+02:00</time>
      <extensions>
        <activity type="IN_VEHICLE" conf="92" state="moving" tsMs="1784909190517"/>
        <radio op="vodafone IT" rat="LTE" q="3.00" rsrp="-119" sinr="0" rsrq="-11"/>
        <radio op="I TIM" rat="LTE" q="7.70" rsrp="-114" sinr="2" rsrq="-14"/>
      </extensions>
    </trkpt>
    <trkpt lat="45.612477" lon="10.4813678">
      <ele>273.0621941003706</ele>
      <time>2026-07-24T18:06:41.604+02:00</time>
      <extensions>
        <activity type="IN_VEHICLE" conf="90" state="moving" tsMs="1784909200022"/>
        <radio op="vodafone IT" rat="LTE" q="6.00" rsrp="-115" sinr="1" rsrq="-13"/>
        <radio op="I TIM" rat="LTE" rsrp="-117" rsrq="-15"/>
      </extensions>
    </trkpt>
    <trkpt lat="45.6122783" lon="10.4812565">
      <ele>275.3289246969592</ele>
      <time>2026-07-24T18:06:54.603+02:00</time>
      <extensions>
        <activity type="UNKNOWN" conf="40" state="unknown" tsMs="1784909215984"/>
        <radio op="vodafone IT" rat="LTE" q="16.10" rsrp="-102" sinr="2" rsrq="-14"/>
        <radio op="I TIM" rat="LTE" rsrp="-110" rsrq="-16"/>
      </extensions>
    </trkpt>
    <trkpt lat="45.6118355" lon="10.4796784">
      <ele>275.5717656556224</ele>
      <time>2026-07-24T18:07:26.96+02:00</time>
      <extensions>
        <activity type="UNKNOWN" conf="40" state="unknown" tsMs="1784909242805"/>
        <radio op="vodafone IT" rat="LTE" q="33.60" rsrp="-97" sinr="7" rsrq="-13"/>
        <radio op="I TIM" rat="LTE" q="57.00" rsrp="-95" sinr="14" rsrq="-8"/>
      </extensions>
    </trkpt>
    <trkpt lat="45.6084834" lon="10.4752839">
      <ele>275.99050971695266</ele>
      <time>2026-07-24T18:07:58.884+02:00</time>
      <extensions>
        <activity type="IN_VEHICLE" conf="97" state="moving" tsMs="1784909276730"/>
        <radio op="vodafone IT" rat="LTE" q="96.00" rsrp="-72" sinr="19" rsrq="-9"/>
        <radio op="I TIM" rat="LTE" q="100.00" rsrp="-77" sinr="26" rsrq="-7"/>
      </extensions>
    </trkpt>
    <trkpt lat="45.6064107" lon="10.468726">
      <ele>274.880988796196</ele>
      <time>2026-07-24T18:08:30.15+02:00</time>
      <extensions>
        <activity type="IN_VEHICLE" conf="97" state="moving" tsMs="1784909306592"/>
        <radio op="vodafone IT" rat="LTE" q="96.00" rsrp="-67" sinr="19" rsrq="-8"/>
        <radio op="I TIM" rat="LTE" q="28.00" rsrp="-69" sinr="2" rsrq="-6"/>
      </extensions>
    </trkpt>
    <trkpt lat="45.6056824" lon="10.4661591">
      <ele>274.880988796196</ele>
      <time>2026-07-24T18:08:38.604+02:00</time>
      <extensions>
        <activity type="IN_VEHICLE" conf="97" state="moving" tsMs="1784909306592"/>
        <radio op="vodafone IT" rat="LTE" q="100.00" rsrp="-61" sinr="23" rsrq="-10"/>
        <radio op="I TIM" rat="LTE" q="68.00" rsrp="-91" sinr="15" rsrq="-6"/>
      </extensions>
    </trkpt>
    <trkpt lat="45.6032282" lon="10.4584547">
      <ele>267.6000061035156</ele>
      <time>2026-07-24T18:09:42.813+02:00</time>
      <extensions>
        <activity type="IN_VEHICLE" conf="97" state="moving" tsMs="1784909393268"/>
        <radio op="vodafone IT" rat="LTE" q="100.00" rsrp="-61" sinr="30" rsrq="-9"/>
        <radio op="I TIM" rat="LTE" q="100.00" rsrp="-76" sinr="30" rsrq="-11"/>
      </extensions>
    </trkpt>
    <trkpt lat="45.6029496" lon="10.456979">
      <ele>267.6000061035156</ele>
      <time>2026-07-24T18:10:14.064+02:00</time>
      <extensions>
        <activity type="IN_VEHICLE" conf="97" state="moving" tsMs="1784909409347"/>
        <radio op="vodafone IT" rat="LTE" q="100.00" rsrp="-78" sinr="22" rsrq="-9"/>
        <radio op="I TIM" rat="LTE" q="91.20" rsrp="-87" sinr="19" rsrq="-10"/>
      </extensions>
    </trkpt>
    <trkpt lat="45.6028357" lon="10.4567037">
      <ele>267.6000061035156</ele>
      <time>2026-07-24T18:10:21.603+02:00</time>
      <extensions>
        <activity type="IN_VEHICLE" conf="96" state="moving" tsMs="1784909424466"/>
        <radio op="vodafone IT" rat="LTE" q="76.00" rsrp="-84" sinr="14" rsrq="-11"/>
        <radio op="I TIM" rat="LTE" q="56.10" rsrp="-92" sinr="12" rsrq="-10"/>
      </extensions>
    </trkpt>
    <trkpt lat="45.6024111" lon="10.4553969">
      <ele>265.54128927791044</ele>
      <time>2026-07-24T18:10:55.434+02:00</time>
      <extensions>
        <activity type="IN_VEHICLE" conf="97" state="moving" tsMs="1784909451192"/>
        <radio op="vodafone IT" rat="LTE" rsrp="-94" rsrq="-14"/>
        <radio op="I TIM" rat="LTE" q="19.80" rsrp="-103" sinr="4" rsrq="-15"/>
      </extensions>
    </trkpt>
    <trkpt lat="45.601451" lon="10.453742">
      <ele>264.8046138188289</ele>
      <time>2026-07-24T18:11:26.663+02:00</time>
      <extensions>
        <activity type="IN_VEHICLE" conf="97" state="moving" tsMs="1784909481962"/>
        <radio op="vodafone IT" rat="LTE" q="34.20" rsrp="-87" sinr="4" rsrq="-13"/>
        <radio op="I TIM" rat="LTE" rsrp="-99" rsrq="-15"/>
      </extensions>
    </trkpt>
    <trkpt lat="45.6000962" lon="10.4514349">
      <ele>262.9000244140625</ele>
      <time>2026-07-24T18:11:57.852+02:00</time>
      <extensions>
        <activity type="IN_VEHICLE" conf="97" state="moving" tsMs="1784909513252"/>
        <radio op="vodafone IT" rat="LTE" q="32.00" rsrp="-82" sinr="3" rsrq="-8"/>
        <radio op="I TIM" rat="LTE" q="54.40" rsrp="-93" sinr="12" rsrq="-7"/>
      </extensions>
    </trkpt>
    <trkpt lat="45.5985241" lon="10.4494783">
      <ele>262.9000244140625</ele>
      <time>2026-07-24T18:12:29.149+02:00</time>
      <extensions>
        <activity type="IN_VEHICLE" conf="97" state="moving" tsMs="1784909544272"/>
        <radio op="vodafone IT" rat="LTE" q="20.00" rsrp="-82" sinr="0" rsrq="-11"/>
        <radio op="I TIM" rat="LTE" q="77.70" rsrp="-88" sinr="16" rsrq="-10"/>
      </extensions>
    </trkpt>
    <trkpt lat="45.5968378" lon="10.4465371">
      <ele>262.0</ele>
      <time>2026-07-24T18:13:00.311+02:00</time>
      <extensions>
        <activity type="UNKNOWN" conf="40" state="unknown" tsMs="1784909575431"/>
        <radio op="vodafone IT" rat="LTE" q="24.00" rsrp="-78" sinr="1" rsrq="-12"/>
        <radio op="I TIM" rat="LTE" q="48.00" rsrp="-84" sinr="7" rsrq="-8"/>
      </extensions>
    </trkpt>
    <trkpt lat="45.5951419" lon="10.4441301">
      <ele>260.8000183105469</ele>
      <time>2026-07-24T18:13:31.622+02:00</time>
      <extensions>
        <activity type="IN_VEHICLE" conf="97" state="moving" tsMs="1784909606848"/>
        <radio op="vodafone IT" rat="LTE" rsrp="-83" rsrq="-13"/>
        <radio op="I TIM" rat="LTE" q="18.50" rsrp="-88" sinr="0" rsrq="-8"/>
      </extensions>
    </trkpt>
    <trkpt lat="45.5952509" lon="10.4432261">
      <ele>260.8000183105469</ele>
      <time>2026-07-24T18:13:37.603+02:00</time>
      <extensions>
        <activity type="IN_VEHICLE" conf="97" state="moving" tsMs="1784909616710"/>
        <radio op="vodafone IT" rat="LTE" q="44.00" rsrp="-79" sinr="6" rsrq="-12"/>
        <radio op="I TIM" rat="LTE" q="84.00" rsrp="-84" sinr="16" rsrq="-7"/>
      </extensions>
    </trkpt>
    <trkpt lat="45.5943579" lon="10.4429049">
      <ele>261.0611759483228</ele>
      <time>2026-07-24T18:14:12.834+02:00</time>
      <extensions>
        <activity type="IN_VEHICLE" conf="97" state="moving" tsMs="1784909648834"/>
        <radio op="vodafone IT" rat="LTE" q="32.00" rsrp="-79" sinr="3" rsrq="-10"/>
        <radio op="I TIM" rat="LTE" q="68.00" rsrp="-81" sinr="12" rsrq="-6"/>
      </extensions>
    </trkpt>
    <trkpt lat="45.5946573" lon="10.4432425">
      <ele>256.1000061035156</ele>
      <time>2026-07-24T18:14:39.594+02:00</time>
      <extensions>
        <activity type="IN_VEHICLE" conf="96" state="moving" tsMs="1784909679381"/>
        <radio op="vodafone IT" rat="LTE" q="44.00" rsrp="-75" sinr="6" rsrq="-12"/>
        <radio op="I TIM" rat="LTE" q="76.00" rsrp="-79" sinr="14" rsrq="-5"/>
      </extensions>
    </trkpt>
    <trkpt lat="45.5950337" lon="10.4439427">
      <ele>262.00762631025736</ele>
      <time>2026-07-24T18:15:14.603+02:00</time>
      <extensions>
        <activity type="STILL" conf="99" state="still" tsMs="1784909710533"/>
        <radio op="vodafone IT" rat="LTE" q="32.00" rsrp="-74" sinr="3" rsrq="-13"/>
        <radio op="I TIM" rat="LTE" q="72.00" rsrp="-79" sinr="13" rsrq="-10"/>
      </extensions>
    </trkpt>
    <trkpt lat="45.5950425" lon="10.4439005">
      <ele>260.8000183105469</ele>
      <time>2026-07-24T18:15:45.775+02:00</time>
      <extensions>
        <activity type="STILL" conf="99" state="still" tsMs="1784909741079"/>
        <radio op="vodafone IT" rat="LTE" rsrp="-75" rsrq="-12"/>
        <radio op="I TIM" rat="LTE" q="76.00" rsrp="-80" sinr="14" rsrq="-6"/>
      </extensions>
    </trkpt>
    <trkpt lat="45.5950728" lon="10.4438583">
      <ele>261.8569512322601</ele>
      <time>2026-07-24T18:16:16.945+02:00</time>
      <extensions>
        <activity type="STILL" conf="99" state="still" tsMs="1784909772263"/>
        <radio op="vodafone IT" rat="LTE" q="40.00" rsrp="-75" sinr="5" rsrq="-12"/>
        <radio op="I TIM" rat="LTE" q="72.00" rsrp="-80" sinr="13" rsrq="-7"/>
      </extensions>
    </trkpt>
    <trkpt lat="45.5949167" lon="10.4439715">
      <ele>261.68081329068616</ele>
      <time>2026-07-24T18:16:48.233+02:00</time>
      <extensions>
        <activity type="STILL" conf="99" state="still" tsMs="1784909803495"/>
        <radio op="vodafone IT" rat="LTE" q="48.00" rsrp="-75" sinr="7" rsrq="-12"/>
        <radio op="I TIM" rat="LTE" q="68.00" rsrp="-81" sinr="12" rsrq="-5"/>
      </extensions>
    </trkpt>
    <trkpt lat="45.5940745" lon="10.4425973">
      <ele>261.73811077940627</ele>
      <time>2026-07-24T18:17:19.393+02:00</time>
      <extensions>
        <activity type="STILL" conf="99" state="still" tsMs="1784909834671"/>
        <radio op="vodafone IT" rat="LTE" q="28.00" rsrp="-75" sinr="2" rsrq="-12"/>
        <radio op="I TIM" rat="LTE" q="72.00" rsrp="-80" sinr="13" rsrq="-5"/>
      </extensions>
    </trkpt>
    <trkpt lat="45.5951458" lon="10.4429342">
      <ele>261.73811077940627</ele>
      <time>2026-07-24T18:17:25.603+02:00</time>
      <extensions>
        <activity type="STILL" conf="99" state="still" tsMs="1784909849876"/>
        <radio op="vodafone IT" rat="LTE" q="44.00" rsrp="-74" sinr="6" rsrq="-12"/>
        <radio op="I TIM" rat="LTE" q="72.00" rsrp="-81" sinr="13" rsrq="-6"/>
      </extensions>
    </trkpt>
    <trkpt lat="45.5950066" lon="10.4439322">
      <ele>261.8930281232415</ele>
      <time>2026-07-24T18:18:00.781+02:00</time>
      <extensions>
        <activity type="STILL" conf="99" state="still" tsMs="1784909876714"/>
        <radio op="vodafone IT" rat="LTE" q="40.00" rsrp="-75" sinr="5" rsrq="-13"/>
        <radio op="I TIM" rat="LTE" q="72.00" rsrp="-80" sinr="13" rsrq="-8"/>
      </extensions>
    </trkpt>
    <trkpt lat="45.5950544" lon="10.4438884">
      <ele>261.5449985459925</ele>
      <time>2026-07-24T18:18:32.08+02:00</time>
      <extensions>
        <activity type="STILL" conf="99" state="still" tsMs="1784909907296"/>
        <radio op="vodafone IT" rat="LTE" q="32.00" rsrp="-75" sinr="3" rsrq="-13"/>
        <radio op="I TIM" rat="LTE" q="72.00" rsrp="-81" sinr="13" rsrq="-7"/>
      </extensions>
    </trkpt>
    <trkpt lat="45.5951135" lon="10.4438749">
      <ele>261.8697924956006</ele>
      <time>2026-07-24T18:19:03.259+02:00</time>
      <extensions>
        <activity type="STILL" conf="99" state="still" tsMs="1784909938577"/>
        <radio op="vodafone IT" rat="LTE" rsrp="-75" rsrq="-12"/>
        <radio op="I TIM" rat="LTE" q="72.00" rsrp="-80" sinr="13" rsrq="-9"/>
      </extensions>
    </trkpt>
    <trkpt lat="45.5950457" lon="10.443627">
      <ele>261.84220438015893</ele>
      <time>2026-07-24T18:19:34.44+02:00</time>
      <extensions>
        <activity type="STILL" conf="99" state="still" tsMs="1784909969872"/>
        <radio op="vodafone IT" rat="LTE" q="36.00" rsrp="-75" sinr="4" rsrq="-11"/>
        <radio op="I TIM" rat="LTE" q="76.00" rsrp="-80" sinr="14" rsrq="-7"/>
      </extensions>
    </trkpt>
    <trkpt lat="45.5950103" lon="10.443887">
      <ele>261.7106315086496</ele>
      <time>2026-07-24T18:20:05.649+02:00</time>
      <extensions>
        <activity type="STILL" conf="99" state="still" tsMs="1784910001150"/>
        <radio op="vodafone IT" rat="LTE" q="32.00" rsrp="-74" sinr="3" rsrq="-9"/>
        <radio op="I TIM" rat="LTE" q="72.00" rsrp="-79" sinr="13" rsrq="-5"/>
      </extensions>
    </trkpt>
    <trkpt lat="45.5950216" lon="10.4437668">
      <ele>261.4793227921228</ele>
      <time>2026-07-24T18:20:37.016+02:00</time>
      <extensions>
        <activity type="STILL" conf="99" state="still" tsMs="1784910033114"/>
        <radio op="vodafone IT" rat="LTE" q="40.00" rsrp="-74" sinr="5" rsrq="-12"/>
        <radio op="I TIM" rat="LTE" q="76.00" rsrp="-80" sinr="14" rsrq="-6"/>
      </extensions>
    </trkpt>
    <trkpt lat="45.5950559" lon="10.4434989">
      <ele>261.59179322582906</ele>
      <time>2026-07-24T18:21:08.284+02:00</time>
      <extensions>
        <activity type="STILL" conf="99" state="still" tsMs="1784910064426"/>
        <radio op="vodafone IT" rat="LTE" q="48.00" rsrp="-73" sinr="7" rsrq="-12"/>
        <radio op="I TIM" rat="LTE" q="76.00" rsrp="-79" sinr="14" rsrq="-7"/>
      </extensions>
    </trkpt>
    <trkpt lat="45.5951947" lon="10.4432482">
      <ele>261.7212421494736</ele>
      <time>2026-07-24T18:21:39.565+02:00</time>
      <extensions>
        <activity type="STILL" conf="99" state="still" tsMs="1784910095725"/>
        <radio op="vodafone IT" rat="LTE" q="44.00" rsrp="-73" sinr="6" rsrq="-9"/>
        <radio op="I TIM" rat="LTE" q="80.00" rsrp="-79" sinr="15" rsrq="-6"/>
      </extensions>
    </trkpt>
    <trkpt lat="45.5950911" lon="10.4437877">
      <ele>261.8888920119815</ele>
      <time>2026-07-24T18:22:10.825+02:00</time>
      <extensions>
        <activity type="STILL" conf="99" state="still" tsMs="1784910126947"/>
        <radio op="vodafone IT" rat="LTE" q="56.00" rsrp="-72" sinr="9" rsrq="-9"/>
        <radio op="I TIM" rat="LTE" q="80.00" rsrp="-79" sinr="15" rsrq="-8"/>
      </extensions>
    </trkpt>
    <trkpt lat="45.5949708" lon="10.4439031">
      <ele>261.91435809980476</ele>
      <time>2026-07-24T18:22:42.053+02:00</time>
      <extensions>
        <activity type="STILL" conf="99" state="still" tsMs="1784910157456"/>
        <radio op="vodafone IT" rat="LTE" q="48.00" rsrp="-73" sinr="7" rsrq="-12"/>
        <radio op="I TIM" rat="LTE" q="80.00" rsrp="-79" sinr="15" rsrq="-8"/>
      </extensions>
    </trkpt>
    <trkpt lat="45.5945752" lon="10.4431202">
      <ele>261.9928790119797</ele>
      <time>2026-07-24T18:23:13.218+02:00</time>
      <extensions>
        <activity type="STILL" conf="99" state="still" tsMs="1784910188643"/>
        <radio op="vodafone IT" rat="LTE" q="44.00" rsrp="-72" sinr="6" rsrq="-9"/>
        <radio op="I TIM" rat="LTE" q="84.00" rsrp="-78" sinr="16" rsrq="-5"/>
      </extensions>
    </trkpt>
    <trkpt lat="45.5945396" lon="10.4435695">
      <ele>262.0013678021829</ele>
      <time>2026-07-24T18:23:44.449+02:00</time>
      <extensions>
        <activity type="STILL" conf="100" state="still" tsMs="1784910197231"/>
        <radio op="vodafone IT" rat="LTE" q="48.00" rsrp="-73" sinr="7" rsrq="-8"/>
        <radio op="I TIM" rat="LTE" q="80.00" rsrp="-79" sinr="15" rsrq="-8"/>
      </extensions>
    </trkpt>
    <trkpt lat="45.5949107" lon="10.4434528">
      <ele>261.92284681250504</ele>
      <time>2026-07-24T18:24:15.767+02:00</time>
      <extensions>
        <activity type="STILL" conf="100" state="still" tsMs="1784910235154"/>
        <radio op="vodafone IT" rat="LTE" q="36.00" rsrp="-73" sinr="4" rsrq="-8"/>
        <radio op="I TIM" rat="LTE" q="80.00" rsrp="-79" sinr="15" rsrq="-6"/>
      </extensions>
    </trkpt>
    <trkpt lat="45.594951" lon="10.4434868">
      <ele>262.1355739219819</ele>
      <time>2026-07-24T18:25:07.344+02:00</time>
      <extensions>
        <activity type="STILL" conf="100" state="still" tsMs="1784910296891"/>
        <radio op="vodafone IT" rat="LTE" q="56.00" rsrp="-72" sinr="9" rsrq="-9"/>
        <radio op="I TIM" rat="LTE" q="84.00" rsrp="-77" sinr="16" rsrq="-7"/>
      </extensions>
    </trkpt>
    <trkpt lat="45.5944676" lon="10.4433369">
      <ele>258.851770069836</ele>
      <time>2026-07-24T18:26:09.042+02:00</time>
      <extensions>
        <activity type="STILL" conf="100" state="still" tsMs="1784910358600"/>
        <radio op="vodafone IT" rat="LTE" q="36.00" rsrp="-72" sinr="4" rsrq="-11"/>
        <radio op="I TIM" rat="LTE" q="76.00" rsrp="-78" sinr="14" rsrq="-5"/>
      </extensions>
    </trkpt>
    <trkpt lat="45.595073" lon="10.4437704">
      <ele>255.8000030517578</ele>
      <time>2026-07-24T18:26:40.287+02:00</time>
      <extensions>
        <activity type="STILL" conf="100" state="still" tsMs="1784910373004"/>
        <radio op="vodafone IT" rat="LTE" q="68.00" rsrp="-72" sinr="12" rsrq="-13"/>
        <radio op="I TIM" rat="LTE" q="80.00" rsrp="-77" sinr="15" rsrq="-5"/>
      </extensions>
    </trkpt>
    <trkpt lat="45.59512" lon="10.4428776">
      <ele>255.8000030517578</ele>
      <time>2026-07-24T18:26:55.912+02:00</time>
      <extensions>
        <activity type="STILL" conf="100" state="still" tsMs="1784910421076"/>
        <radio op="vodafone IT" rat="LTE" q="64.00" rsrp="-71" sinr="11" rsrq="-12"/>
        <radio op="I TIM" rat="LTE" q="80.00" rsrp="-77" sinr="15" rsrq="-5"/>
      </extensions>
    </trkpt>
    <trkpt lat="45.5951978" lon="10.4432473">
      <ele>255.8000030517578</ele>
      <time>2026-07-24T18:28:12.402+02:00</time>
      <extensions>
        <activity type="STILL" conf="100" state="still" tsMs="1784910481932"/>
        <radio op="vodafone IT" rat="LTE" q="52.00" rsrp="-72" sinr="8" rsrq="-9"/>
        <radio op="I TIM" rat="LTE" q="80.00" rsrp="-78" sinr="15" rsrq="-6"/>
      </extensions>
    </trkpt>
    <trkpt lat="45.5951618" lon="10.4434309">
      <ele>256.29998779296875</ele>
      <time>2026-07-24T18:28:43.634+02:00</time>
      <extensions>
        <activity type="STILL" conf="100" state="still" tsMs="1784910496377"/>
        <radio op="vodafone IT" rat="LTE" q="52.00" rsrp="-72" sinr="8" rsrq="-10"/>
        <radio op="I TIM" rat="LTE" q="80.00" rsrp="-78" sinr="15" rsrq="-5"/>
      </extensions>
    </trkpt>
    <trkpt lat="45.5944518" lon="10.4432687">
      <ele>256.29998779296875</ele>
      <time>2026-07-24T18:29:14.865+02:00</time>
      <extensions>
        <activity type="STILL" conf="100" state="still" tsMs="1784910527603"/>
        <radio op="vodafone IT" rat="LTE" q="52.00" rsrp="-73" sinr="8" rsrq="-13"/>
        <radio op="I TIM" rat="LTE" q="76.00" rsrp="-79" sinr="14" rsrq="-8"/>
      </extensions>
    </trkpt>
    <trkpt lat="45.5950434" lon="10.4434944">
      <ele>256.29998779296875</ele>
      <time>2026-07-24T18:29:46.142+02:00</time>
      <extensions>
        <activity type="STILL" conf="100" state="still" tsMs="1784910558893"/>
        <radio op="vodafone IT" rat="LTE" q="48.00" rsrp="-73" sinr="7" rsrq="-13"/>
        <radio op="I TIM" rat="LTE" q="76.00" rsrp="-80" sinr="14" rsrq="-5"/>
      </extensions>
    </trkpt>
    <trkpt lat="45.5950959" lon="10.4434305">
      <ele>256.1000061035156</ele>
      <time>2026-07-24T18:30:17.395+02:00</time>
      <extensions>
        <activity type="STILL" conf="100" state="still" tsMs="1784910590152"/>
        <radio op="vodafone IT" rat="LTE" q="32.00" rsrp="-73" sinr="3" rsrq="-9"/>
        <radio op="I TIM" rat="LTE" q="76.00" rsrp="-80" sinr="14" rsrq="-7"/>
      </extensions>
    </trkpt>
    <trkpt lat="45.5942533" lon="10.4428891">
      <ele>256.29998779296875</ele>
      <time>2026-07-24T18:30:48.664+02:00</time>
      <extensions>
        <activity type="STILL" conf="100" state="still" tsMs="1784910621356"/>
        <radio op="vodafone IT" rat="LTE" q="56.00" rsrp="-74" sinr="9" rsrq="-9"/>
        <radio op="I TIM" rat="LTE" q="76.00" rsrp="-80" sinr="14" rsrq="-8"/>
      </extensions>
    </trkpt>
    <trkpt lat="45.5943782" lon="10.4430326">
      <ele>255.8000030517578</ele>
      <time>2026-07-24T18:31:19.944+02:00</time>
      <extensions>
        <activity type="STILL" conf="100" state="still" tsMs="1784910652638"/>
        <radio op="vodafone IT" rat="LTE" q="32.00" rsrp="-76" sinr="3" rsrq="-12"/>
        <radio op="I TIM" rat="LTE" q="76.00" rsrp="-80" sinr="14" rsrq="-7"/>
      </extensions>
    </trkpt>
    <trkpt lat="45.5949141" lon="10.4440018">
      <ele>256.29998779296875</ele>
      <time>2026-07-24T18:31:51.223+02:00</time>
      <extensions>
        <activity type="STILL" conf="100" state="still" tsMs="1784910683894"/>
        <radio op="vodafone IT" rat="LTE" q="32.00" rsrp="-75" sinr="3" rsrq="-13"/>
        <radio op="I TIM" rat="LTE" q="76.00" rsrp="-80" sinr="14" rsrq="-8"/>
      </extensions>
    </trkpt>
    <trkpt lat="45.5950645" lon="10.4440161">
      <ele>256.1000061035156</ele>
      <time>2026-07-24T18:32:42.778+02:00</time>
      <extensions>
        <activity type="STILL" conf="100" state="still" tsMs="1784910752336"/>
        <radio op="vodafone IT" rat="LTE" q="28.00" rsrp="-76" sinr="2" rsrq="-13"/>
        <radio op="I TIM" rat="LTE" q="80.00" rsrp="-80" sinr="15" rsrq="-8"/>
      </extensions>
    </trkpt>
    <trkpt lat="45.594348" lon="10.4430657">
      <ele>255.8000030517578</ele>
      <time>2026-07-24T18:33:14.007+02:00</time>
      <extensions>
        <activity type="STILL" conf="100" state="still" tsMs="1784910766740"/>
        <radio op="vodafone IT" rat="LTE" q="52.00" rsrp="-72" sinr="8" rsrq="-11"/>
        <radio op="I TIM" rat="LTE" q="80.00" rsrp="-79" sinr="15" rsrq="-7"/>
      </extensions>
    </trkpt>
    <trkpt lat="45.5940443" lon="10.4425249">
      <ele>256.1000061035156</ele>
      <time>2026-07-24T18:33:45.306+02:00</time>
      <extensions>
        <activity type="STILL" conf="100" state="still" tsMs="1784910814876"/>
        <radio op="vodafone IT" rat="LTE" q="60.00" rsrp="-72" sinr="10" rsrq="-9"/>
        <radio op="I TIM" rat="LTE" q="80.00" rsrp="-79" sinr="15" rsrq="-7"/>
      </extensions>
    </trkpt>
    <trkpt lat="45.595135" lon="10.4428907">
      <ele>256.1000061035156</ele>
      <time>2026-07-24T18:33:51.601+02:00</time>
      <extensions>
        <activity type="STILL" conf="100" state="still" tsMs="1784910814876"/>
        <radio op="vodafone IT" rat="LTE" q="56.00" rsrp="-73" sinr="9" rsrq="-12"/>
        <radio op="I TIM" rat="LTE" q="80.00" rsrp="-79" sinr="15" rsrq="-10"/>
      </extensions>
    </trkpt>
    <trkpt lat="45.5949076" lon="10.4437273">
      <ele>255.40000915527344</ele>
      <time>2026-07-24T18:34:46.932+02:00</time>
      <extensions>
        <activity type="STILL" conf="100" state="still" tsMs="1784910876449"/>
        <radio op="vodafone IT" rat="LTE" q="60.00" rsrp="-73" sinr="10" rsrq="-10"/>
        <radio op="I TIM" rat="LTE" q="76.00" rsrp="-80" sinr="14" rsrq="-8"/>
      </extensions>
    </trkpt>
    <trkpt lat="45.595017" lon="10.4437459">
      <ele>255.8000030517578</ele>
      <time>2026-07-24T18:35:18.129+02:00</time>
      <extensions>
        <activity type="STILL" conf="100" state="still" tsMs="1784910890830"/>
        <radio op="vodafone IT" rat="LTE" q="44.00" rsrp="-74" sinr="6" rsrq="-10"/>
        <radio op="I TIM" rat="LTE" q="76.00" rsrp="-80" sinr="14" rsrq="-10"/>
      </extensions>
    </trkpt>
    <trkpt lat="45.594996" lon="10.4439637">
      <ele>256.1000061035156</ele>
      <time>2026-07-24T18:35:49.444+02:00</time>
      <extensions>
        <activity type="STILL" conf="100" state="still" tsMs="1784910922127"/>
        <radio op="vodafone IT" rat="LTE" q="40.00" rsrp="-74" sinr="5" rsrq="-8"/>
        <radio op="I TIM" rat="LTE" q="76.00" rsrp="-80" sinr="14" rsrq="-8"/>
      </extensions>
    </trkpt>
    <trkpt lat="45.5940804" lon="10.4426449">
      <ele>257.0</ele>
      <time>2026-07-24T18:36:20.709+02:00</time>
      <extensions>
        <activity type="STILL" conf="100" state="still" tsMs="1784910960105"/>
        <radio op="vodafone IT" rat="LTE" q="48.00" rsrp="-74" sinr="7" rsrq="-9"/>
        <radio op="I TIM" rat="LTE" q="72.00" rsrp="-80" sinr="13" rsrq="-10"/>
      </extensions>
    </trkpt>
    <trkpt lat="45.5951306" lon="10.4429037">
      <ele>257.0</ele>
      <time>2026-07-24T18:36:26.602+02:00</time>
      <extensions>
        <activity type="STILL" conf="100" state="still" tsMs="1784910984664"/>
        <radio op="vodafone IT" rat="LTE" q="40.00" rsrp="-74" sinr="5" rsrq="-9"/>
        <radio op="I TIM" rat="LTE" q="72.00" rsrp="-80" sinr="13" rsrq="-7"/>
      </extensions>
    </trkpt>
    <trkpt lat="45.5947359" lon="10.4429193">
      <ele>256.29998779296875</ele>
      <time>2026-07-24T18:37:12.251+02:00</time>
      <extensions>
        <activity type="STILL" conf="100" state="still" tsMs="1784911021819"/>
        <radio op="vodafone IT" rat="LTE" q="40.00" rsrp="-74" sinr="5" rsrq="-8"/>
        <radio op="I TIM" rat="LTE" q="72.00" rsrp="-78" sinr="13" rsrq="-5"/>
      </extensions>
    </trkpt>
    <trkpt lat="45.5949436" lon="10.4436661">
      <ele>255.8000030517578</ele>
      <time>2026-07-24T18:37:43.585+02:00</time>
      <extensions>
        <activity type="STILL" conf="100" state="still" tsMs="1784911036229"/>
        <radio op="vodafone IT" rat="LTE" q="60.00" rsrp="-72" sinr="10" rsrq="-8"/>
        <radio op="I TIM" rat="LTE" q="80.00" rsrp="-77" sinr="15" rsrq="-7"/>
      </extensions>
    </trkpt>
    <trkpt lat="45.5951671" lon="10.4434278">
      <ele>256.29998779296875</ele>
      <time>2026-07-24T18:38:14.806+02:00</time>
      <extensions>
        <activity type="STILL" conf="100" state="still" tsMs="1784911084349"/>
        <radio op="vodafone IT" rat="LTE" q="48.00" rsrp="-73" sinr="7" rsrq="-9"/>
        <radio op="I TIM" rat="LTE" q="80.00" rsrp="-77" sinr="15" rsrq="-8"/>
      </extensions>
    </trkpt>
    <trkpt lat="45.5947882" lon="10.4432707">
      <ele>255.8000030517578</ele>
      <time>2026-07-24T18:38:46.135+02:00</time>
      <extensions>
        <activity type="STILL" conf="100" state="still" tsMs="1784911098740"/>
        <radio op="vodafone IT" rat="LTE" q="44.00" rsrp="-74" sinr="6" rsrq="-12"/>
        <radio op="I TIM" rat="LTE" q="76.00" rsrp="-77" sinr="14" rsrq="-6"/>
      </extensions>
    </trkpt>
    <trkpt lat="45.5951562" lon="10.4434705">
      <ele>256.29998779296875</ele>
      <time>2026-07-24T18:39:17.412+02:00</time>
      <extensions>
        <activity type="STILL" conf="100" state="still" tsMs="1784911146950"/>
        <radio op="vodafone IT" rat="LTE" q="52.00" rsrp="-73" sinr="8" rsrq="-13"/>
        <radio op="I TIM" rat="LTE" q="76.00" rsrp="-77" sinr="14" rsrq="-6"/>
      </extensions>
    </trkpt>
    <trkpt lat="45.5952149" lon="10.4433554">
      <ele>256.29998779296875</ele>
      <time>2026-07-24T18:40:19.025+02:00</time>
      <extensions>
        <activity type="STILL" conf="100" state="still" tsMs="1784911208574"/>
        <radio op="vodafone IT" rat="LTE" q="56.00" rsrp="-75" sinr="9" rsrq="-9"/>
        <radio op="I TIM" rat="LTE" q="68.00" rsrp="-80" sinr="12" rsrq="-6"/>
      </extensions>
    </trkpt>
    <trkpt lat="45.5954571" lon="10.4425049">
      <ele>256.29998779296875</ele>
      <time>2026-07-24T18:59:02.517+02:00</time>
      <extensions>
        <activity type="ON_FOOT" conf="82" state="moving" tsMs="1784912340617"/>
        <radio op="vodafone IT" rat="LTE" q="56.70" rsrp="-98" sinr="16" rsrq="-10"/>
        <radio op="I TIM" rat="LTE" q="39.10" rsrp="-102" sinr="12" rsrq="-10"/>
      </extensions>
    </trkpt>
    <trkpt lat="45.5956993" lon="10.4423934">
      <ele>256.20001220703125</ele>
      <time>2026-07-24T18:59:40.586+02:00</time>
      <extensions>
        <activity type="ON_FOOT" conf="87" state="moving" tsMs="1784912374598"/>
        <radio op="vodafone IT" rat="LTE" rsrp="-115" rsrq="-11"/>
        <radio op="I TIM" rat="LTE" rsrp="-105" rsrq="-8"/>
      </extensions>
    </trkpt>
    <trkpt lat="45.595694" lon="10.4423906">
      <ele>256.20001220703125</ele>
      <time>2026-07-24T19:00:18.206+02:00</time>
      <extensions>
        <activity type="UNKNOWN" conf="40" state="unknown" tsMs="1784912412035"/>
        <radio op="vodafone IT" rat="LTE" q="12.00" rsrp="-110" sinr="3" rsrq="-12"/>
        <radio op="I TIM" rat="LTE" q="12.10" rsrp="-114" sinr="6" rsrq="-11"/>
      </extensions>
    </trkpt>
    <trkpt lat="45.5956942" lon="10.4423825">
      <ele>256.20001220703125</ele>
      <time>2026-07-24T19:00:55.589+02:00</time>
      <extensions>
        <activity type="UNKNOWN" conf="40" state="unknown" tsMs="1784912449589"/>
        <radio op="vodafone IT" rat="LTE" rsrp="-110" rsrq="-17"/>
        <radio op="I TIM" rat="LTE" q="9.10" rsrp="-112" sinr="2" rsrq="-10"/>
      </extensions>
    </trkpt>
    <trkpt lat="45.5956784" lon="10.4423868">
      <ele>256.20001220703125</ele>
      <time>2026-07-24T19:02:18.385+02:00</time>
      <extensions>
        <activity type="ON_FOOT" conf="92" state="moving" tsMs="1784912533609"/>
        <radio op="vodafone IT" rat="LTE" q="15.30" rsrp="-108" sinr="4" rsrq="-13"/>
        <radio op="I TIM" rat="LTE" q="13.50" rsrp="-110" sinr="4" rsrq="-9"/>
      </extensions>
    </trkpt>
    <trkpt lat="45.5956835" lon="10.4423971">
      <ele>256.20001220703125</ele>
      <time>2026-07-24T19:03:18.781+02:00</time>
      <extensions>
        <activity type="STILL" conf="99" state="still" tsMs="1784912594582"/>
        <radio op="vodafone IT" rat="LTE" q="19.60" rsrp="-111" sinr="9" rsrq="-10"/>
        <radio op="I TIM" rat="LTE" q="12.00" rsrp="-113" sinr="5" rsrq="-11"/>
      </extensions>
    </trkpt>
    <trkpt lat="45.5956992" lon="10.4423891">
      <ele>256.20001220703125</ele>
      <time>2026-07-24T19:03:59.41+02:00</time>
      <extensions>
        <activity type="STILL" conf="98" state="still" tsMs="1784912638585"/>
        <radio op="vodafone IT" rat="LTE" q="15.60" rsrp="-112" sinr="7" rsrq="-10"/>
        <radio op="I TIM" rat="LTE" q="12.00" rsrp="-113" sinr="5" rsrq="-10"/>
      </extensions>
    </trkpt>
    <trkpt lat="45.5956816" lon="10.442388">
      <ele>256.20001220703125</ele>
      <time>2026-07-24T19:04:45.797+02:00</time>
      <extensions>
        <activity type="STILL" conf="49" state="still" tsMs="1784912683606"/>
        <radio op="vodafone IT" rat="LTE" q="16.50" rsrp="-110" sinr="6" rsrq="-9"/>
        <radio op="I TIM" rat="LTE" q="22.10" rsrp="-108" sinr="8" rsrq="-10"/>
      </extensions>
    </trkpt>
    <trkpt lat="45.5957036" lon="10.442404">
      <ele>256.20001220703125</ele>
      <time>2026-07-24T19:05:24.046+02:00</time>
      <extensions>
        <activity type="UNKNOWN" conf="40" state="unknown" tsMs="1784912722604"/>
        <radio op="vodafone IT" rat="LTE" q="11.00" rsrp="-114" sinr="5" rsrq="-9"/>
        <radio op="I TIM" rat="LTE" q="14.40" rsrp="-109" sinr="4" rsrq="-10"/>
      </extensions>
    </trkpt>
    <trkpt lat="45.5956983" lon="10.4423875">
      <ele>256.20001220703125</ele>
      <time>2026-07-24T19:06:45.825+02:00</time>
      <extensions>
        <activity type="ON_FOOT" conf="83" state="moving" tsMs="1784912805507"/>
        <radio op="vodafone IT" rat="LTE" q="14.40" rsrp="-113" sinr="7" rsrq="-11"/>
        <radio op="I TIM" rat="LTE" q="15.60" rsrp="-113" sinr="8" rsrq="-12"/>
      </extensions>
    </trkpt>
    <trkpt lat="45.5956548" lon="10.4424007">
      <ele>256.20001220703125</ele>
      <time>2026-07-24T19:07:43.668+02:00</time>
      <extensions>
        <activity type="STILL" conf="64" state="still" tsMs="1784912863606"/>
        <radio op="vodafone IT" rat="LTE" q="28.50" rsrp="-106" sinr="10" rsrq="-8"/>
        <radio op="I TIM" rat="LTE" q="20.90" rsrp="-106" sinr="6" rsrq="-12"/>
      </extensions>
    </trkpt>
    <trkpt lat="45.595628" lon="10.442434">
      <ele>256.20001220703125</ele>
      <time>2026-07-24T19:08:13.673+02:00</time>
      <extensions>
        <activity type="STILL" conf="81" state="still" tsMs="1784912895939"/>
        <radio op="vodafone IT" rat="LTE" rsrp="-108" rsrq="-13"/>
        <radio op="I TIM" rat="LTE" q="20.00" rsrp="-105" sinr="5" rsrq="-10"/>
      </extensions>
    </trkpt>
    <trkpt lat="45.595683" lon="10.4424003">
      <ele>256.20001220703125</ele>
      <time>2026-07-24T19:09:45.674+02:00</time>
      <extensions>
        <activity type="UNKNOWN" conf="40" state="unknown" tsMs="1784912981988"/>
        <radio op="vodafone IT" rat="LTE" q="27.20" rsrp="-109" sinr="12" rsrq="-7"/>
        <radio op="I TIM" rat="LTE" q="13.20" rsrp="-113" sinr="6" rsrq="-9"/>
      </extensions>
    </trkpt>
    <trkpt lat="45.5955797" lon="10.4424484">
      <ele>256.20001220703125</ele>
      <time>2026-07-24T19:14:58.936+02:00</time>
      <extensions>
        <activity type="UNKNOWN" conf="40" state="unknown" tsMs="1784913298618"/>
        <radio op="vodafone IT" rat="LTE" q="32.40" rsrp="-107" sinr="13" rsrq="-11"/>
        <radio op="I TIM" rat="LTE" q="28.80" rsrp="-109" sinr="13" rsrq="-7"/>
      </extensions>
    </trkpt>
    <trkpt lat="45.5955747" lon="10.4423976">
      <ele>256.20001220703125</ele>
      <time>2026-07-24T19:15:43.215+02:00</time>
      <extensions>
        <activity type="UNKNOWN" conf="40" state="unknown" tsMs="1784913339622"/>
        <radio op="vodafone IT" rat="LTE" q="23.80" rsrp="-108" sinr="9" rsrq="-8"/>
        <radio op="I TIM" rat="LTE" q="10.40" rsrp="-112" sinr="3" rsrq="-12"/>
      </extensions>
    </trkpt>
    <trkpt lat="45.5956666" lon="10.4423826">
      <ele>256.20001220703125</ele>
      <time>2026-07-24T19:16:17.701+02:00</time>
      <extensions>
        <activity type="STILL" conf="54" state="still" tsMs="1784913376424"/>
        <radio op="vodafone IT" rat="LTE" q="18.20" rsrp="-112" sinr="9" rsrq="-12"/>
        <radio op="I TIM" rat="LTE" q="8.10" rsrp="-116" sinr="4" rsrq="-10"/>
      </extensions>
    </trkpt>
    <trkpt lat="45.5955844" lon="10.4424409">
      <ele>256.20001220703125</ele>
      <time>2026-07-24T19:16:50.065+02:00</time>
      <extensions>
        <activity type="UNKNOWN" conf="40" state="unknown" tsMs="1784913409049"/>
        <radio op="vodafone IT" rat="LTE" q="52.50" rsrp="-100" sinr="16" rsrq="-10"/>
        <radio op="I TIM" rat="LTE" q="46.20" rsrp="-103" sinr="16" rsrq="-6"/>
      </extensions>
    </trkpt>
    <trkpt lat="45.595676" lon="10.4423996">
      <ele>256.20001220703125</ele>
      <time>2026-07-24T19:17:22.544+02:00</time>
      <extensions>
        <activity type="UNKNOWN" conf="40" state="unknown" tsMs="1784913441634"/>
        <radio op="vodafone IT" rat="LTE" q="21.00" rsrp="-110" sinr="9" rsrq="-9"/>
        <radio op="I TIM" rat="LTE" q="15.60" rsrp="-112" sinr="7" rsrq="-12"/>
      </extensions>
    </trkpt>
    <trkpt lat="45.5956292" lon="10.4424341">
      <ele>256.20001220703125</ele>
      <time>2026-07-24T19:18:21.323+02:00</time>
      <extensions>
        <activity type="UNKNOWN" conf="40" state="unknown" tsMs="1784913499641"/>
        <radio op="vodafone IT" rat="LTE" q="56.10" rsrp="-92" sinr="12" rsrq="-11"/>
        <radio op="I TIM" rat="LTE" q="32.00" rsrp="-93" sinr="5" rsrq="-10"/>
      </extensions>
    </trkpt>
    <trkpt lat="45.5956152" lon="10.4424373">
      <ele>256.20001220703125</ele>
      <time>2026-07-24T19:18:58.55+02:00</time>
      <extensions>
        <activity type="UNKNOWN" conf="40" state="unknown" tsMs="1784913536625"/>
        <radio op="vodafone IT" rat="LTE" q="26.60" rsrp="-106" sinr="9" rsrq="-7"/>
        <radio op="I TIM" rat="LTE" q="9.60" rsrp="-109" sinr="1" rsrq="-8"/>
      </extensions>
    </trkpt>
    <trkpt lat="45.5956606" lon="10.4423992">
      <ele>256.20001220703125</ele>
      <time>2026-07-24T19:19:39.806+02:00</time>
      <extensions>
        <activity type="UNKNOWN" conf="40" state="unknown" tsMs="1784913577725"/>
        <radio op="vodafone IT" rat="LTE" q="11.00" rsrp="-114" sinr="5" rsrq="-12"/>
        <radio op="I TIM" rat="LTE" q="24.00" rsrp="-110" sinr="11" rsrq="-8"/>
      </extensions>
    </trkpt>
    <trkpt lat="45.5956215" lon="10.4424366">
      <ele>256.20001220703125</ele>
      <time>2026-07-24T19:20:10.995+02:00</time>
      <extensions>
        <activity type="UNKNOWN" conf="40" state="unknown" tsMs="1784913610476"/>
        <radio op="vodafone IT" rat="LTE" q="39.90" rsrp="-104" sinr="14" rsrq="-13"/>
        <radio op="I TIM" rat="LTE" q="30.60" rsrp="-108" sinr="13" rsrq="-7"/>
      </extensions>
    </trkpt>
    <trkpt lat="45.5955928" lon="10.442466">
      <ele>256.20001220703125</ele>
      <time>2026-07-24T19:20:44.211+02:00</time>
      <extensions>
        <activity type="UNKNOWN" conf="40" state="unknown" tsMs="1784913649994"/>
        <radio op="vodafone IT" rat="LTE" q="25.50" rsrp="-110" sinr="12" rsrq="-11"/>
        <radio op="I TIM" rat="LTE" q="21.00" rsrp="-111" sinr="10" rsrq="-9"/>
      </extensions>
    </trkpt>
    <trkpt lat="45.5956523" lon="10.4424358">
      <ele>256.20001220703125</ele>
      <time>2026-07-24T19:21:15.432+02:00</time>
      <extensions>
        <activity type="UNKNOWN" conf="40" state="unknown" tsMs="1784913671676"/>
        <radio op="vodafone IT" rat="LTE" q="16.90" rsrp="-112" sinr="8" rsrq="-8"/>
        <radio op="I TIM" rat="LTE" q="15.60" rsrp="-112" sinr="7" rsrq="-12"/>
      </extensions>
    </trkpt>
    <trkpt lat="45.5956017" lon="10.4424436">
      <ele>256.20001220703125</ele>
      <time>2026-07-24T19:21:46.732+02:00</time>
      <extensions>
        <activity type="STILL" conf="83" state="still" tsMs="1784913702925"/>
        <radio op="vodafone IT" rat="LTE" q="22.40" rsrp="-111" sinr="11" rsrq="-8"/>
        <radio op="I TIM" rat="LTE" q="14.40" rsrp="-113" sinr="7" rsrq="-9"/>
      </extensions>
    </trkpt>
    <trkpt lat="45.5955066" lon="10.4424718">
      <ele>256.29998779296875</ele>
      <time>2026-07-24T19:22:21.415+02:00</time>
      <extensions>
        <activity type="STILL" conf="68" state="still" tsMs="1784913739637"/>
        <radio op="vodafone IT" rat="LTE" q="42.00" rsrp="-104" sinr="15" rsrq="-7"/>
        <radio op="I TIM" rat="LTE" q="27.30" rsrp="-104" sinr="8" rsrq="-11"/>
      </extensions>
    </trkpt>
    <trkpt lat="45.5956194" lon="10.4424474">
      <ele>256.20001220703125</ele>
      <time>2026-07-24T19:22:58.978+02:00</time>
      <extensions>
        <activity type="UNKNOWN" conf="40" state="unknown" tsMs="1784913777217"/>
        <radio op="vodafone IT" rat="LTE" q="28.80" rsrp="-109" sinr="13" rsrq="-11"/>
        <radio op="I TIM" rat="LTE" q="27.20" rsrp="-109" sinr="12" rsrq="-12"/>
      </extensions>
    </trkpt>
    <trkpt lat="45.5955875" lon="10.4424691">
      <ele>256.20001220703125</ele>
      <time>2026-07-24T19:23:29.858+02:00</time>
      <extensions>
        <activity type="UNKNOWN" conf="40" state="unknown" tsMs="1784913809625"/>
        <radio op="vodafone IT" rat="LTE" q="19.60" rsrp="-111" sinr="9" rsrq="-11"/>
        <radio op="I TIM" rat="LTE" q="37.80" rsrp="-104" sinr="13" rsrq="-10"/>
      </extensions>
    </trkpt>
    <trkpt lat="45.595473" lon="10.4425748">
      <ele>256.29998779296875</ele>
      <time>2026-07-24T19:28:00.056+02:00</time>
      <extensions>
        <activity type="UNKNOWN" conf="40" state="unknown" tsMs="1784914079098"/>
        <radio op="vodafone IT" rat="LTE" q="5.40" rsrp="-116" sinr="1" rsrq="-11"/>
        <radio op="I TIM" rat="LTE" q="19.20" rsrp="-109" sinr="7" rsrq="-11"/>
      </extensions>
    </trkpt>
    <trkpt lat="45.5954176" lon="10.4426175">
      <ele>256.20001220703125</ele>
      <time>2026-07-24T19:28:44.644+02:00</time>
      <extensions>
        <activity type="UNKNOWN" conf="40" state="unknown" tsMs="1784914124095"/>
        <radio op="vodafone IT" rat="LTE" rsrp="-110" rsrq="-12"/>
        <radio op="I TIM" rat="LTE" q="22.00" rsrp="-105" sinr="6" rsrq="-8"/>
      </extensions>
    </trkpt>
    <trkpt lat="45.5954628" lon="10.4425582">
      <ele>256.20001220703125</ele>
      <time>2026-07-24T19:29:21.415+02:00</time>
      <extensions>
        <activity type="UNKNOWN" conf="40" state="unknown" tsMs="1784914159338"/>
        <radio op="vodafone IT" rat="LTE" q="22.00" rsrp="-105" sinr="6" rsrq="-10"/>
        <radio op="I TIM" rat="LTE" q="24.00" rsrp="-105" sinr="7" rsrq="-10"/>
      </extensions>
    </trkpt>
    <trkpt lat="45.5955792" lon="10.4424611">
      <ele>256.20001220703125</ele>
      <time>2026-07-24T19:29:53.396+02:00</time>
      <extensions>
        <activity type="UNKNOWN" conf="40" state="unknown" tsMs="1784914165934"/>
        <radio op="vodafone IT" rat="LTE" q="16.00" rsrp="-109" sinr="5" rsrq="-8"/>
        <radio op="I TIM" rat="LTE" q="12.60" rsrp="-111" sinr="4" rsrq="-10"/>
      </extensions>
    </trkpt>
    <trkpt lat="45.5955852" lon="10.4424589">
      <ele>256.20001220703125</ele>
      <time>2026-07-24T19:30:26.367+02:00</time>
      <extensions>
        <activity type="UNKNOWN" conf="40" state="unknown" tsMs="1784914221109"/>
        <radio op="vodafone IT" rat="LTE" rsrp="-115" rsrq="-13"/>
        <radio op="I TIM" rat="LTE" q="25.50" rsrp="-108" sinr="10" rsrq="-9"/>
      </extensions>
    </trkpt>
    <trkpt lat="45.595563" lon="10.442455">
      <ele>256.20001220703125</ele>
      <time>2026-07-24T19:30:59.957+02:00</time>
      <extensions>
        <activity type="STILL" conf="96" state="still" tsMs="1784914253828"/>
        <radio op="vodafone IT" rat="LTE" q="24.00" rsrp="-105" sinr="7" rsrq="-10"/>
        <radio op="I TIM" rat="LTE" q="28.90" rsrp="-108" sinr="12" rsrq="-11"/>
      </extensions>
    </trkpt>
    <trkpt lat="45.5954695" lon="10.4424943">
      <ele>256.20001220703125</ele>
      <time>2026-07-24T19:32:07.025+02:00</time>
      <extensions>
        <activity type="UNKNOWN" conf="40" state="unknown" tsMs="1784914320631"/>
        <radio op="vodafone IT" rat="LTE" q="9.00" rsrp="-107" sinr="0" rsrq="-9"/>
        <radio op="I TIM" rat="LTE" q="20.00" rsrp="-105" sinr="5" rsrq="-7"/>
      </extensions>
    </trkpt>
    <trkpt lat="45.5954755" lon="10.4424723">
      <ele>256.20001220703125</ele>
      <time>2026-07-24T19:32:43.588+02:00</time>
      <extensions>
        <activity type="UNKNOWN" conf="40" state="unknown" tsMs="1784914358651"/>
        <radio op="vodafone IT" rat="LTE" q="26.00" rsrp="-105" sinr="8" rsrq="-9"/>
        <radio op="I TIM" rat="LTE" q="42.00" rsrp="-104" sinr="15" rsrq="-10"/>
      </extensions>
    </trkpt>
    <trkpt lat="45.5954883" lon="10.4424967">
      <ele>256.29998779296875</ele>
      <time>2026-07-24T19:33:16.909+02:00</time>
      <extensions>
        <activity type="UNKNOWN" conf="40" state="unknown" tsMs="1784914391501"/>
        <radio op="vodafone IT" rat="LTE" q="50.60" rsrp="-103" sinr="18" rsrq="-8"/>
        <radio op="I TIM" rat="LTE" q="18.90" rsrp="-104" sinr="4" rsrq="-11"/>
      </extensions>
    </trkpt>
    <trkpt lat="45.5954817" lon="10.4425448">
      <ele>256.29998779296875</ele>
      <time>2026-07-24T19:34:02.177+02:00</time>
      <extensions>
        <activity type="UNKNOWN" conf="40" state="unknown" tsMs="1784914439630"/>
        <radio op="vodafone IT" rat="LTE" q="37.40" rsrp="-103" sinr="12" rsrq="-10"/>
        <radio op="I TIM" rat="LTE" q="23.40" rsrp="-107" sinr="8" rsrq="-7"/>
      </extensions>
    </trkpt>
    <trkpt lat="45.5954751" lon="10.4425433">
      <ele>256.29998779296875</ele>
      <time>2026-07-24T19:34:38.922+02:00</time>
      <extensions>
        <activity type="STILL" conf="45" state="still" tsMs="1784914475642"/>
        <radio op="vodafone IT" rat="LTE" q="29.40" rsrp="-104" sinr="9" rsrq="-7"/>
        <radio op="I TIM" rat="LTE" q="18.40" rsrp="-102" sinr="3" rsrq="-12"/>
      </extensions>
    </trkpt>
    <trkpt lat="45.5955747" lon="10.4424477">
      <ele>256.20001220703125</ele>
      <time>2026-07-24T19:35:26.201+02:00</time>
      <extensions>
        <activity type="ON_FOOT" conf="85" state="moving" tsMs="1784914537526"/>
        <radio op="vodafone IT" rat="LTE" q="38.40" rsrp="-101" sinr="11" rsrq="-9"/>
        <radio op="I TIM" rat="LTE" q="36.10" rsrp="-106" sinr="14" rsrq="-9"/>
      </extensions>
    </trkpt>
    <trkpt lat="45.5956913" lon="10.4424025">
      <ele>256.20001220703125</ele>
      <time>2026-07-24T19:36:02.987+02:00</time>
      <extensions>
        <activity type="ON_FOOT" conf="93" state="moving" tsMs="1784914559628"/>
        <radio op="vodafone IT" rat="LTE" q="18.70" rsrp="-108" sinr="6" rsrq="-9"/>
        <radio op="I TIM" rat="LTE" q="30.00" rsrp="-105" sinr="10" rsrq="-7"/>
      </extensions>
    </trkpt>
    <trkpt lat="45.5956839" lon="10.4423942">
      <ele>256.20001220703125</ele>
      <time>2026-07-24T19:37:09.16+02:00</time>
      <extensions>
        <activity type="STILL" conf="96" state="still" tsMs="1784914624835"/>
        <radio op="vodafone IT" rat="LTE" q="22.50" rsrp="-110" sinr="10" rsrq="-8"/>
        <radio op="I TIM" rat="LTE" q="34.20" rsrp="-106" sinr="13" rsrq="-10"/>
      </extensions>
    </trkpt>
    <trkpt lat="45.5956983" lon="10.4423924">
      <ele>256.20001220703125</ele>
      <time>2026-07-24T19:38:05.245+02:00</time>
      <extensions>
        <activity type="UNKNOWN" conf="40" state="unknown" tsMs="1784914673053"/>
        <radio op="vodafone IT" rat="LTE" q="14.40" rsrp="-113" sinr="7" rsrq="-11"/>
        <radio op="I TIM" rat="LTE" q="44.10" rsrp="-104" sinr="16" rsrq="-8"/>
      </extensions>
    </trkpt>
    <trkpt lat="45.5957117" lon="10.4423905">
      <ele>257.87485492775625</ele>
      <time>2026-07-24T19:38:43.439+02:00</time>
      <extensions>
        <activity type="UNKNOWN" conf="40" state="unknown" tsMs="1784914722442"/>
        <radio op="vodafone IT" rat="LTE" q="18.20" rsrp="-112" sinr="9" rsrq="-12"/>
        <radio op="I TIM" rat="LTE" q="22.40" rsrp="-111" sinr="11" rsrq="-11"/>
      </extensions>
    </trkpt>
    <trkpt lat="45.5955616" lon="10.4424332">
      <ele>256.20001220703125</ele>
      <time>2026-07-24T19:39:40.11+02:00</time>
      <extensions>
        <activity type="UNKNOWN" conf="40" state="unknown" tsMs="1784914774647"/>
        <radio op="vodafone IT" rat="LTE" q="16.20" rsrp="-107" sinr="4" rsrq="-8"/>
        <radio op="I TIM" rat="LTE" q="54.60" rsrp="-99" sinr="16" rsrq="-10"/>
      </extensions>
    </trkpt>
    <trkpt lat="45.5954717" lon="10.4425024">
      <ele>256.20001220703125</ele>
      <time>2026-07-24T19:40:23.842+02:00</time>
      <extensions>
        <activity type="ON_FOOT" conf="84" state="moving" tsMs="1784914819650"/>
        <radio op="vodafone IT" rat="LTE" q="24.00" rsrp="-109" sinr="10" rsrq="-9"/>
        <radio op="I TIM" rat="LTE" q="17.60" rsrp="-109" sinr="6" rsrq="-10"/>
      </extensions>
    </trkpt>
    <trkpt lat="45.5956253" lon="10.442428">
      <ele>256.20001220703125</ele>
      <time>2026-07-24T19:40:54.91+02:00</time>
      <extensions>
        <activity type="STILL" conf="54" state="still" tsMs="1784914851086"/>
        <radio op="vodafone IT" rat="LTE" q="14.40" rsrp="-109" sinr="4" rsrq="-7"/>
        <radio op="I TIM" rat="LTE" rsrp="-102" rsrq="-10"/>
      </extensions>
    </trkpt>
    <trkpt lat="45.5956899" lon="10.4424038">
      <ele>256.20001220703125</ele>
      <time>2026-07-24T19:41:00.188+02:00</time>
      <extensions>
        <activity type="UNKNOWN" conf="40" state="unknown" tsMs="1784914860689"/>
        <radio op="vodafone IT" rat="LTE" q="6.00" rsrp="-115" sinr="1" rsrq="-11"/>
        <radio op="I TIM" rat="LTE" q="11.00" rsrp="-115" sinr="6" rsrq="-10"/>
      </extensions>
    </trkpt>
    <trkpt lat="45.5954813" lon="10.4424752">
      <ele>256.20001220703125</ele>
      <time>2026-07-24T19:41:46.213+02:00</time>
      <extensions>
        <activity type="ON_FOOT" conf="83" state="moving" tsMs="1784914900677"/>
        <radio op="vodafone IT" rat="LTE" q="41.60" rsrp="-99" sinr="11" rsrq="-7"/>
        <radio op="I TIM" rat="LTE" q="25.30" rsrp="-102" sinr="6" rsrq="-12"/>
      </extensions>
    </trkpt>
    <trkpt lat="45.595461" lon="10.4425507">
      <ele>256.20001220703125</ele>
      <time>2026-07-24T19:42:37.926+02:00</time>
      <extensions>
        <activity type="UNKNOWN" conf="40" state="unknown" tsMs="1784914956637"/>
        <radio op="vodafone IT" rat="LTE" q="85.00" rsrp="-91" sinr="20" rsrq="-9"/>
        <radio op="I TIM" rat="LTE" q="46.20" rsrp="-103" sinr="16" rsrq="-10"/>
      </extensions>
    </trkpt>
    <trkpt lat="45.5954541" lon="10.4425126">
      <ele>252.2765781695618</ele>
      <time>2026-07-24T19:43:18.655+02:00</time>
      <extensions>
        <activity type="UNKNOWN" conf="40" state="unknown" tsMs="1784914994810"/>
        <radio op="vodafone IT" rat="LTE" q="22.10" rsrp="-108" sinr="8" rsrq="-8"/>
        <radio op="I TIM" rat="LTE" q="32.00" rsrp="-105" sinr="11" rsrq="-10"/>
      </extensions>
    </trkpt>
    <trkpt lat="45.5954225" lon="10.4426158">
      <ele>256.20001220703125</ele>
      <time>2026-07-24T19:44:17.222+02:00</time>
      <extensions>
        <activity type="STILL" conf="37" state="still" tsMs="1784915044046"/>
        <radio op="vodafone IT" rat="LTE" q="35.70" rsrp="-104" sinr="12" rsrq="-10"/>
        <radio op="I TIM" rat="LTE" q="39.90" rsrp="-104" sinr="14" rsrq="-8"/>
      </extensions>
    </trkpt>
    <trkpt lat="45.5954491" lon="10.4425348">
      <ele>256.20001220703125</ele>
      <time>2026-07-24T19:45:20.13+02:00</time>
      <extensions>
        <activity type="UNKNOWN" conf="40" state="unknown" tsMs="1784915117657"/>
        <radio op="vodafone IT" rat="LTE" q="44.20" rsrp="-99" sinr="12" rsrq="-9"/>
        <radio op="I TIM" rat="LTE" q="55.20" rsrp="-101" sinr="18" rsrq="-10"/>
      </extensions>
    </trkpt>
    <trkpt lat="45.595439" lon="10.4426023">
      <ele>252.8488112659919</ele>
      <time>2026-07-24T19:45:54.886+02:00</time>
      <extensions>
        <activity type="STILL" conf="82" state="still" tsMs="1784915153662"/>
        <radio op="vodafone IT" rat="LTE" q="47.60" rsrp="-97" sinr="12" rsrq="-8"/>
        <radio op="I TIM" rat="LTE" q="35.00" rsrp="-100" sinr="9" rsrq="-8"/>
      </extensions>
    </trkpt>
    <trkpt lat="45.5954471" lon="10.4425915">
      <ele>256.20001220703125</ele>
      <time>2026-07-24T19:46:37.034+02:00</time>
      <extensions>
        <activity type="UNKNOWN" conf="40" state="unknown" tsMs="1784915191193"/>
        <radio op="vodafone IT" rat="LTE" q="33.60" rsrp="-101" sinr="9" rsrq="-8"/>
        <radio op="I TIM" rat="LTE" q="43.20" rsrp="-98" sinr="11" rsrq="-7"/>
      </extensions>
    </trkpt>
    <trkpt lat="45.5954771" lon="10.4424994">
      <ele>256.29998779296875</ele>
      <time>2026-07-24T19:47:18.15+02:00</time>
      <extensions>
        <activity type="STILL" conf="80" state="still" tsMs="1784915234028"/>
        <radio op="vodafone IT" rat="LTE" q="44.00" rsrp="-103" sinr="15" rsrq="-8"/>
        <radio op="I TIM" rat="LTE" q="44.20" rsrp="-99" sinr="12" rsrq="-9"/>
      </extensions>
    </trkpt>
    <trkpt lat="45.5954544" lon="10.4425838">
      <ele>256.20001220703125</ele>
      <time>2026-07-24T19:48:17.177+02:00</time>
      <extensions>
        <activity type="ON_FOOT" conf="91" state="moving" tsMs="1784915296041"/>
        <radio op="vodafone IT" rat="LTE" q="38.00" rsrp="-105" sinr="14" rsrq="-8"/>
        <radio op="I TIM" rat="LTE" q="33.80" rsrp="-99" sinr="8" rsrq="-12"/>
      </extensions>
    </trkpt>
    <trkpt lat="45.5954597" lon="10.4425609">
      <ele>256.20001220703125</ele>
      <time>2026-07-24T19:49:23.947+02:00</time>
      <extensions>
        <activity type="UNKNOWN" conf="40" state="unknown" tsMs="1784915359894"/>
        <radio op="vodafone IT" rat="LTE" q="36.00" rsrp="-101" sinr="10" rsrq="-12"/>
        <radio op="I TIM" rat="LTE" q="36.40" rsrp="-97" sinr="8" rsrq="-11"/>
      </extensions>
    </trkpt>
    <trkpt lat="45.5954487" lon="10.4426059">
      <ele>256.20001220703125</ele>
      <time>2026-07-24T19:49:57.944+02:00</time>
      <extensions>
        <activity type="UNKNOWN" conf="40" state="unknown" tsMs="1784915395911"/>
        <radio op="vodafone IT" rat="LTE" q="33.60" rsrp="-104" sinr="11" rsrq="-7"/>
        <radio op="I TIM" rat="LTE" q="32.40" rsrp="-98" sinr="7" rsrq="-8"/>
      </extensions>
    </trkpt>
    <trkpt lat="45.5954282" lon="10.4426295">
      <ele>256.29998779296875</ele>
      <time>2026-07-24T19:50:31.481+02:00</time>
      <extensions>
        <activity type="STILL" conf="52" state="still" tsMs="1784915429496"/>
        <radio op="vodafone IT" rat="LTE" q="41.80" rsrp="-103" sinr="14" rsrq="-8"/>
        <radio op="I TIM" rat="LTE" q="42.50" rsrp="-100" sinr="12" rsrq="-7"/>
      </extensions>
    </trkpt>
    <trkpt lat="45.5954921" lon="10.4425098">
      <ele>256.20001220703125</ele>
      <time>2026-07-24T19:51:02.561+02:00</time>
      <extensions>
        <activity type="UNKNOWN" conf="40" state="unknown" tsMs="1784915462300"/>
        <radio op="vodafone IT" rat="LTE" q="41.60" rsrp="-99" sinr="11" rsrq="-9"/>
        <radio op="I TIM" rat="LTE" q="45.00" rsrp="-95" sinr="10" rsrq="-13"/>
      </extensions>
    </trkpt>
    <trkpt lat="45.5953862" lon="10.4421967">
      <ele>254.47927449169276</ele>
      <time>2026-07-24T19:51:37.773+02:00</time>
      <extensions>
        <activity type="UNKNOWN" conf="40" state="unknown" tsMs="1784915493614"/>
        <radio op="vodafone IT" rat="LTE" q="93.60" rsrp="-86" sinr="19" rsrq="-8"/>
        <radio op="I TIM" rat="LTE" q="88.00" rsrp="-76" sinr="17" rsrq="-8"/>
      </extensions>
    </trkpt>
    <trkpt lat="45.5950087" lon="10.4435864">
      <ele>257.0</ele>
      <time>2026-07-24T19:52:20.834+02:00</time>
      <extensions>
        <activity type="ON_FOOT" conf="90" state="moving" tsMs="1784915534999"/>
        <radio op="vodafone IT" rat="LTE" q="52.80" rsrp="-92" sinr="11" rsrq="-8"/>
        <radio op="I TIM" rat="LTE" q="77.70" rsrp="-88" sinr="16" rsrq="-11"/>
      </extensions>
    </trkpt>
    <trkpt lat="45.594879" lon="10.4431182">
      <ele>256.1000061035156</ele>
      <time>2026-07-24T19:52:55.582+02:00</time>
      <extensions>
        <activity type="UNKNOWN" conf="40" state="unknown" tsMs="1784915581806"/>
        <radio op="vodafone IT" rat="LTE" q="58.90" rsrp="-94" sinr="14" rsrq="-7"/>
        <radio op="I TIM" rat="LTE" q="41.60" rsrp="-93" sinr="8" rsrq="-8"/>
      </extensions>
    </trkpt>
    <trkpt lat="45.5964776" lon="10.4452311">
      <ele>256.6000061035156</ele>
      <time>2026-07-24T19:53:50.11+02:00</time>
      <extensions>
        <activity type="IN_VEHICLE" conf="86" state="moving" tsMs="1784915626874"/>
        <radio op="vodafone IT" rat="LTE" q="29.90" rsrp="-102" sinr="8" rsrq="-9"/>
        <radio op="I TIM" rat="LTE" rsrp="-108" rsrq="-11"/>
      </extensions>
    </trkpt>
    <trkpt lat="45.596957" lon="10.4465543">
      <ele>256.6000061035156</ele>
      <time>2026-07-24T19:53:58.616+02:00</time>
      <extensions>
        <activity type="IN_VEHICLE" conf="86" state="moving" tsMs="1784915626874"/>
        <radio op="vodafone IT" rat="LTE" q="42.00" rsrp="-97" sinr="10" rsrq="-10"/>
        <radio op="I TIM" rat="LTE" q="27.50" rsrp="-100" sinr="6" rsrq="-12"/>
      </extensions>
    </trkpt>
    <trkpt lat="45.6019857" lon="10.4533301">
      <ele>258.84231017683646</ele>
      <time>2026-07-24T19:55:10.615+02:00</time>
      <extensions>
        <activity type="IN_VEHICLE" conf="87" state="moving" tsMs="1784915706661"/>
        <radio op="vodafone IT" rat="LTE" q="35.20" rsrp="-103" sinr="11" rsrq="-11"/>
        <radio op="I TIM" rat="LTE" q="64.40" rsrp="-97" sinr="18" rsrq="-11"/>
      </extensions>
    </trkpt>
    <trkpt lat="45.6021145" lon="10.4531921">
      <ele>259.0527107026786</ele>
      <time>2026-07-24T19:55:17.615+02:00</time>
      <extensions>
        <activity type="IN_VEHICLE" conf="87" state="moving" tsMs="1784915706661"/>
        <radio op="vodafone IT" rat="LTE" q="15.60" rsrp="-112" sinr="7" rsrq="-12"/>
        <radio op="I TIM" rat="LTE" q="19.00" rsrp="-106" sinr="5" rsrq="-11"/>
      </extensions>
    </trkpt>
    <trkpt lat="45.6021888" lon="10.4534428">
      <ele>261.6000061035156</ele>
      <time>2026-07-24T19:55:52.428+02:00</time>
      <extensions>
        <activity type="UNKNOWN" conf="40" state="unknown" tsMs="1784915746503"/>
        <radio op="vodafone IT" rat="LTE" q="28.00" rsrp="-105" sinr="9" rsrq="-13"/>
        <radio op="I TIM" rat="LTE" q="13.80" rsrp="-102" sinr="1" rsrq="-12"/>
      </extensions>
    </trkpt>
    <trkpt lat="45.6025209" lon="10.4535936">
      <ele>261.5</ele>
      <time>2026-07-24T19:56:40.615+02:00</time>
      <extensions>
        <activity type="ON_FOOT" conf="86" state="moving" tsMs="1784915822107"/>
        <radio op="vodafone IT" rat="LTE" q="9.00" rsrp="-107" sinr="0" rsrq="-11"/>
        <radio op="I TIM" rat="LTE" q="16.00" rsrp="-109" sinr="5" rsrq="-9"/>
      </extensions>
    </trkpt>
    <trkpt lat="45.6025529" lon="10.4536954">
      <ele>261.6000061035156</ele>
      <time>2026-07-24T19:57:36.756+02:00</time>
      <extensions>
        <activity type="ON_FOOT" conf="82" state="moving" tsMs="1784915855691"/>
        <radio op="vodafone IT" rat="LTE" q="13.00" rsrp="-115" sinr="8" rsrq="-12"/>
        <radio op="I TIM" rat="LTE" rsrp="-114" rsrq="-15"/>
      </extensions>
    </trkpt>
    <trkpt lat="45.6025498" lon="10.4536661">
      <ele>261.6000061035156</ele>
      <time>2026-07-24T19:58:08.244+02:00</time>
      <extensions>
        <activity type="UNKNOWN" conf="40" state="unknown" tsMs="1784915882439"/>
        <radio op="vodafone IT" rat="LTE" q="1.00" rsrp="-123" sinr="0" rsrq="-12"/>
        <radio op="I TIM" rat="LTE" q="2.40" rsrp="-122" sinr="3" rsrq="-12"/>
      </extensions>
    </trkpt>
    <trkpt lat="45.6025601" lon="10.4536913">
      <ele>261.6000061035156</ele>
      <time>2026-07-24T19:58:39.939+02:00</time>
      <extensions>
        <activity type="UNKNOWN" conf="40" state="unknown" tsMs="1784915919147"/>
        <radio op="vodafone IT" rat="LTE" rsrp="-110" rsrq="-12"/>
        <radio op="I TIM" rat="LTE" rsrp="-110" rsrq="-11"/>
      </extensions>
    </trkpt>
    <trkpt lat="45.6025812" lon="10.4537144">
      <ele>261.6000061035156</ele>
      <time>2026-07-24T19:59:27.523+02:00</time>
      <extensions>
        <activity type="UNKNOWN" conf="40" state="unknown" tsMs="1784915964309"/>
        <radio op="vodafone IT" rat="LTE" rsrp="-118" rsrq="-13"/>
        <radio op="I TIM" rat="LTE" rsrp="-119" rsrq="-13"/>
      </extensions>
    </trkpt>
    <trkpt lat="45.6025588" lon="10.4537222">
      <ele>261.6000061035156</ele>
      <time>2026-07-24T19:59:58.847+02:00</time>
      <extensions>
        <activity type="STILL" conf="60" state="still" tsMs="1784915998339"/>
        <radio op="vodafone IT" rat="LTE" rsrp="-113" rsrq="-11"/>
        <radio op="I TIM" rat="LTE" q="19.00" rsrp="-106" sinr="5" rsrq="-10"/>
      </extensions>
    </trkpt>
    <trkpt lat="45.6025481" lon="10.4536813">
      <ele>261.6000061035156</ele>
      <time>2026-07-24T20:00:32.988+02:00</time>
      <extensions>
        <activity type="STILL" conf="49" state="still" tsMs="1784916032053"/>
        <radio op="vodafone IT" rat="LTE" q="2.70" rsrp="-122" sinr="4" rsrq="-13"/>
        <radio op="I TIM" rat="LTE" q="20.70" rsrp="-116" sinr="18" rsrq="-9"/>
      </extensions>
    </trkpt>
  </trkseg></trk>
</gpx>
