<?xml version="1.0" encoding="UTF-8"?>
<gpx version="1.1" creator="CellGPX" xmlns="http://www.topografix.com/GPX/1/1">
  <trk><name>CellGPX</name><trkseg>
    <trkpt lat="45.6025709" lon="10.4536878">
      <ele>261.0</ele>
      <time>2026-10-05T07:54:30.055+02:00</time>
      <extensions>
        <activity type="STILL" conf="100" state="still" tsMs="1791179659553"/>
        <radio op="vodafone IT" rat="LTE" q="60.00" rsrp="-101" sinr="21" rsrq="-10"/>
        <radio op="I TIM" rat="LTE" q="9.60" rsrp="-117" sinr="7" rsrq="-11"/>
      </extensions>
    </trkpt>
    <trkpt lat="45.6025699" lon="10.4536916">
      <ele>261.0</ele>
      <time>2026-10-05T07:55:32.212+02:00</time>
      <extensions>
        <activity type="STILL" conf="100" state="still" tsMs="1791179721722"/>
        <radio op="vodafone IT" rat="LTE" q="57.60" rsrp="-101" sinr="19" rsrq="-9"/>
        <radio op="I TIM" rat="LTE" q="9.60" rsrp="-117" sinr="7" rsrq="-12"/>
      </extensions>
    </trkpt>
    <trkpt lat="45.6025745" lon="10.4536868">
      <ele>261.0</ele>
      <time>2026-10-05T07:56:34.393+02:00</time>
      <extensions>
        <activity type="STILL" conf="100" state="still" tsMs="1791179783947"/>
        <radio op="vodafone IT" rat="LTE" q="46.00" rsrp="-102" sinr="15" rsrq="-12"/>
        <radio op="I TIM" rat="LTE" q="7.70" rsrp="-118" sinr="6" rsrq="-9"/>
      </extensions>
    </trkpt>
    <trkpt lat="45.6026002" lon="10.453717">
      <ele>261.0</ele>
      <time>2026-10-05T11:22:09.373+02:00</time>
      <extensions>
        <activity type="STILL" conf="100" state="still" tsMs="1791192115140"/>
        <radio op="vodafone IT" rat="LTE" q="25.20" rsrp="-107" sinr="9" rsrq="-11"/>
        <radio op="I TIM" rat="LTE" q="50.00" rsrp="-105" sinr="20" rsrq="-10"/>
      </extensions>
    </trkpt>
    <trkpt lat="45.6025987" lon="10.453728">
      <ele>261.0</ele>
      <time>2026-10-05T11:26:39.211+02:00</time>
      <extensions>
        <activity type="STILL" conf="100" state="still" tsMs="1791192378633"/>
        <radio op="vodafone IT" rat="LTE" q="28.50" rsrp="-106" sinr="10" rsrq="-10"/>
        <radio op="I TIM" rat="LTE" q="50.00" rsrp="-105" sinr="22" rsrq="-8"/>
      </extensions>
    </trkpt>
    <trkpt lat="45.6023218" lon="10.4537904">
      <ele>260.8000183105469</ele>
      <time>2026-10-05T19:25:19.962+02:00</time>
      <extensions>
        <activity type="UNKNOWN" conf="40" state="unknown" tsMs="1791221109233"/>
        <radio op="vodafone IT" rat="LTE" rsrp="-113" rsrq="-10"/>
        <radio op="I TIM" rat="LTE" q="23.80" rsrp="-108" sinr="9" rsrq="-12"/>
      </extensions>
    </trkpt>
    <trkpt lat="45.6023573" lon="10.4534667">
      <ele>261.0</ele>
      <time>2026-10-05T19:25:30.191+02:00</time>
      <extensions>
        <activity type="ON_FOOT" conf="96" state="moving" tsMs="1791221121775"/>
        <radio op="vodafone IT" rat="LTE" rsrp="-108" rsrq="-13"/>
        <radio op="I TIM" rat="LTE" q="12.00" rsrp="-105" sinr="1" rsrq="-14"/>
      </extensions>
    </trkpt>
    <trkpt lat="45.6022252" lon="10.4533664">
      <ele>260.6000061035156</ele>
      <time>2026-10-05T19:25:40.07+02:00</time>
      <extensions>
        <activity type="ON_FOOT" conf="97" state="moving" tsMs="1791221130996"/>
        <radio op="vodafone IT" rat="LTE" q="23.00" rsrp="-102" sinr="5" rsrq="-12"/>
        <radio op="I TIM" rat="LTE" q="20.70" rsrp="-102" sinr="4" rsrq="-12"/>
      </extensions>
    </trkpt>
    <trkpt lat="45.6020881" lon="10.4533569">
      <ele>260.6000061035156</ele>
      <time>2026-10-05T19:25:50.53+02:00</time>
      <extensions>
        <activity type="ON_FOOT" conf="97" state="moving" tsMs="1791221143617"/>
        <radio op="vodafone IT" rat="LTE" q="33.60" rsrp="-97" sinr="7" rsrq="-9"/>
        <radio op="I TIM" rat="LTE" q="47.50" rsrp="-100" sinr="14" rsrq="-12"/>
      </extensions>
    </trkpt>
    <trkpt lat="45.6019462" lon="10.453408">
      <ele>260.6000061035156</ele>
      <time>2026-10-05T19:26:00.575+02:00</time>
      <extensions>
        <activity type="ON_FOOT" conf="96" state="moving" tsMs="1791221155845"/>
        <radio op="vodafone IT" rat="LTE" q="38.40" rsrp="-101" sinr="11" rsrq="-7"/>
        <radio op="I TIM" rat="LTE" q="48.60" rsrp="-98" sinr="13" rsrq="-13"/>
      </extensions>
    </trkpt>
    <trkpt lat="45.6018149" lon="10.4534946">
      <ele>260.4000244140625</ele>
      <time>2026-10-05T19:26:10.252+02:00</time>
      <extensions>
        <activity type="ON_FOOT" conf="96" state="moving" tsMs="1791221155845"/>
        <radio op="vodafone IT" rat="LTE" q="46.80" rsrp="-99" sinr="13" rsrq="-11"/>
        <radio op="I TIM" rat="LTE" q="59.80" rsrp="-99" sinr="18" rsrq="-11"/>
      </extensions>
    </trkpt>
    <trkpt lat="45.6016756" lon="10.4535754">
      <ele>260.3000183105469</ele>
      <time>2026-10-05T19:26:20.809+02:00</time>
      <extensions>
        <activity type="ON_FOOT" conf="94" state="moving" tsMs="1791221164162"/>
        <radio op="vodafone IT" rat="LTE" q="27.30" rsrp="-104" sinr="8" rsrq="-7"/>
        <radio op="I TIM" rat="LTE" q="51.30" rsrp="-98" sinr="14" rsrq="-11"/>
      </extensions>
    </trkpt>
    <trkpt lat="45.6015437" lon="10.4535936">
      <ele>260.20001220703125</ele>
      <time>2026-10-05T19:26:30.887+02:00</time>
      <extensions>
        <activity type="ON_FOOT" conf="98" state="moving" tsMs="1791221174286"/>
        <radio op="vodafone IT" rat="LTE" q="36.40" rsrp="-99" sinr="9" rsrq="-7"/>
        <radio op="I TIM" rat="LTE" q="59.40" rsrp="-98" sinr="17" rsrq="-9"/>
      </extensions>
    </trkpt>
    <trkpt lat="45.6014014" lon="10.453495">
      <ele>260.20001220703125</ele>
      <time>2026-10-05T19:26:41.193+02:00</time>
      <extensions>
        <activity type="ON_FOOT" conf="96" state="moving" tsMs="1791221196293"/>
        <radio op="vodafone IT" rat="LTE" q="23.20" rsrp="-96" sinr="3" rsrq="-7"/>
        <radio op="I TIM" rat="LTE" q="55.80" rsrp="-94" sinr="13" rsrq="-10"/>
      </extensions>
    </trkpt>
    <trkpt lat="45.6013035" lon="10.4533464">
      <ele>260.20001220703125</ele>
      <time>2026-10-05T19:26:50.931+02:00</time>
      <extensions>
        <activity type="ON_FOOT" conf="97" state="moving" tsMs="1791221205587"/>
        <radio op="vodafone IT" rat="LTE" q="50.40" rsrp="-97" sinr="13" rsrq="-9"/>
        <radio op="I TIM" rat="LTE" q="73.60" rsrp="-93" sinr="18" rsrq="-9"/>
      </extensions>
    </trkpt>
    <trkpt lat="45.6012056" lon="10.4531889">
      <ele>260.3000183105469</ele>
      <time>2026-10-05T19:27:01.233+02:00</time>
      <extensions>
        <activity type="ON_FOOT" conf="97" state="moving" tsMs="1791221214891"/>
        <radio op="vodafone IT" rat="LTE" q="41.60" rsrp="-93" sinr="8" rsrq="-10"/>
        <radio op="I TIM" rat="LTE" q="65.10" rsrp="-94" sinr="16" rsrq="-10"/>
      </extensions>
    </trkpt>
    <trkpt lat="45.601124" lon="10.4530489">
      <ele>260.1000061035156</ele>
      <time>2026-10-05T19:27:11.255+02:00</time>
      <extensions>
        <activity type="ON_FOOT" conf="97" state="moving" tsMs="1791221224148"/>
        <radio op="vodafone IT" rat="LTE" q="92.50" rsrp="-88" sinr="23" rsrq="-8"/>
        <radio op="I TIM" rat="LTE" q="53.20" rsrp="-87" sinr="9" rsrq="-11"/>
      </extensions>
    </trkpt>
    <trkpt lat="45.601028" lon="10.4528936">
      <ele>260.3000183105469</ele>
      <time>2026-10-05T19:27:21.634+02:00</time>
      <extensions>
        <activity type="ON_FOOT" conf="95" state="moving" tsMs="1791221231370"/>
        <radio op="vodafone IT" rat="LTE" q="39.20" rsrp="-97" sinr="9" rsrq="-8"/>
        <radio op="I TIM" rat="LTE" q="57.60" rsrp="-93" sinr="13" rsrq="-11"/>
      </extensions>
    </trkpt>
    <trkpt lat="45.6009277" lon="10.4527193">
      <ele>259.6000061035156</ele>
      <time>2026-10-05T19:27:31.231+02:00</time>
      <extensions>
        <activity type="ON_FOOT" conf="98" state="moving" tsMs="1791221242715"/>
        <radio op="vodafone IT" rat="LTE" q="24.00" rsrp="-105" sinr="7" rsrq="-11"/>
        <radio op="I TIM" rat="LTE" q="45.00" rsrp="-100" sinr="13" rsrq="-11"/>
      </extensions>
    </trkpt>
    <trkpt lat="45.6008298" lon="10.4525291">
      <ele>259.5</ele>
      <time>2026-10-05T19:27:41.901+02:00</time>
      <extensions>
        <activity type="ON_FOOT" conf="98" state="moving" tsMs="1791221252817"/>
        <radio op="vodafone IT" rat="LTE" q="42.50" rsrp="-100" sinr="12" rsrq="-7"/>
        <radio op="I TIM" rat="LTE" q="55.10" rsrp="-96" sinr="14" rsrq="-11"/>
      </extensions>
    </trkpt>
    <trkpt lat="45.6007306" lon="10.4523652">
      <ele>259.4000244140625</ele>
      <time>2026-10-05T19:27:51.869+02:00</time>
      <extensions>
        <activity type="ON_FOOT" conf="96" state="moving" tsMs="1791221265413"/>
        <radio op="vodafone IT" rat="LTE" q="46.80" rsrp="-99" sinr="13" rsrq="-6"/>
        <radio op="I TIM" rat="LTE" q="60.90" rsrp="-96" sinr="16" rsrq="-12"/>
      </extensions>
    </trkpt>
    <trkpt lat="45.6006229" lon="10.4522029">
      <ele>259.20001220703125</ele>
      <time>2026-10-05T19:28:02.03+02:00</time>
      <extensions>
        <activity type="ON_FOOT" conf="97" state="moving" tsMs="1791221272237"/>
        <radio op="vodafone IT" rat="LTE" q="42.50" rsrp="-100" sinr="12" rsrq="-7"/>
        <radio op="I TIM" rat="LTE" q="62.50" rsrp="-100" sinr="20" rsrq="-10"/>
      </extensions>
    </trkpt>
    <trkpt lat="45.6005048" lon="10.4520486">
      <ele>259.5</ele>
      <time>2026-10-05T19:28:12.367+02:00</time>
      <extensions>
        <activity type="ON_FOOT" conf="97" state="moving" tsMs="1791221281547"/>
        <radio op="vodafone IT" rat="LTE" q="29.90" rsrp="-102" sinr="8" rsrq="-7"/>
        <radio op="I TIM" rat="LTE" q="33.60" rsrp="-101" sinr="9" rsrq="-11"/>
      </extensions>
    </trkpt>
    <trkpt lat="45.6004009" lon="10.4518765">
      <ele>259.1000061035156</ele>
      <time>2026-10-05T19:28:22.267+02:00</time>
      <extensions>
        <activity type="ON_FOOT" conf="96" state="moving" tsMs="1791221292788"/>
        <radio op="vodafone IT" rat="LTE" q="43.20" rsrp="-98" sinr="11" rsrq="-7"/>
        <radio op="I TIM" rat="LTE" q="47.60" rsrp="-97" sinr="12" rsrq="-12"/>
      </extensions>
    </trkpt>
    <trkpt lat="45.6002791" lon="10.4517079">
      <ele>258.8000183105469</ele>
      <time>2026-10-05T19:28:32.509+02:00</time>
      <extensions>
        <activity type="ON_FOOT" conf="96" state="moving" tsMs="1791221302080"/>
        <radio op="vodafone IT" rat="LTE" q="19.80" rsrp="-103" sinr="4" rsrq="-10"/>
        <radio op="I TIM" rat="LTE" q="32.50" rsrp="-100" sinr="8" rsrq="-12"/>
      </extensions>
    </trkpt>
    <trkpt lat="45.6002124" lon="10.4515673">
      <ele>258.70001220703125</ele>
      <time>2026-10-05T19:28:42.251+02:00</time>
      <extensions>
        <activity type="ON_FOOT" conf="98" state="moving" tsMs="1791221311391"/>
        <radio op="vodafone IT" rat="LTE" q="30.00" rsrp="-100" sinr="7" rsrq="-10"/>
        <radio op="I TIM" rat="LTE" q="42.50" rsrp="-100" sinr="12" rsrq="-12"/>
      </extensions>
    </trkpt>
    <trkpt lat="45.6001075" lon="10.4514026">
      <ele>258.70001220703125</ele>
      <time>2026-10-05T19:28:52.627+02:00</time>
      <extensions>
        <activity type="ON_FOOT" conf="96" state="moving" tsMs="1791221323958"/>
        <radio op="vodafone IT" rat="LTE" q="20.00" rsrp="-100" sinr="3" rsrq="-9"/>
        <radio op="I TIM" rat="LTE" q="15.60" rsrp="-99" sinr="1" rsrq="-13"/>
      </extensions>
    </trkpt>
    <trkpt lat="45.5999974" lon="10.4512441">
      <ele>258.70001220703125</ele>
      <time>2026-10-05T19:29:03.001+02:00</time>
      <extensions>
        <activity type="ON_FOOT" conf="96" state="moving" tsMs="1791221333240"/>
        <radio op="vodafone IT" rat="LTE" q="24.20" rsrp="-103" sinr="6" rsrq="-13"/>
        <radio op="I TIM" rat="LTE" q="43.50" rsrp="-96" sinr="10" rsrq="-12"/>
      </extensions>
    </trkpt>
    <trkpt lat="45.5998882" lon="10.4510731">
      <ele>258.6000061035156</ele>
      <time>2026-10-05T19:29:13.013+02:00</time>
      <extensions>
        <activity type="ON_FOOT" conf="97" state="moving" tsMs="1791221349465"/>
        <radio op="vodafone IT" rat="LTE" q="27.00" rsrp="-95" sinr="4" rsrq="-8"/>
        <radio op="I TIM" rat="LTE" q="57.60" rsrp="-93" sinr="13" rsrq="-12"/>
      </extensions>
    </trkpt>
    <trkpt lat="45.5998" lon="10.45092">
      <ele>258.5</ele>
      <time>2026-10-05T19:29:22.939+02:00</time>
      <extensions>
        <activity type="ON_FOOT" conf="96" state="moving" tsMs="1791221356232"/>
        <radio op="vodafone IT" rat="LTE" q="22.50" rsrp="-100" sinr="4" rsrq="-12"/>
        <radio op="I TIM" rat="LTE" q="49.60" rsrp="-94" sinr="11" rsrq="-12"/>
      </extensions>
    </trkpt>
    <trkpt lat="45.5997025" lon="10.4507647">
      <ele>258.5</ele>
      <time>2026-10-05T19:29:33.21+02:00</time>
      <extensions>
        <activity type="ON_FOOT" conf="97" state="moving" tsMs="1791221365525"/>
        <radio op="vodafone IT" rat="LTE" rsrp="-102" rsrq="-10"/>
        <radio op="I TIM" rat="LTE" q="26.00" rsrp="-99" sinr="5" rsrq="-13"/>
      </extensions>
    </trkpt>
    <trkpt lat="45.5995984" lon="10.4505964">
      <ele>258.5</ele>
      <time>2026-10-05T19:29:43.221+02:00</time>
      <extensions>
        <activity type="ON_FOOT" conf="98" state="moving" tsMs="1791221374768"/>
        <radio op="vodafone IT" rat="LTE" q="20.70" rsrp="-102" sinr="4" rsrq="-13"/>
        <radio op="I TIM" rat="LTE" q="29.70" rsrp="-98" sinr="6" rsrq="-12"/>
      </extensions>
    </trkpt>
    <trkpt lat="45.5994914" lon="10.4504321">
      <ele>258.3000183105469</ele>
      <time>2026-10-05T19:29:53.534+02:00</time>
      <extensions>
        <activity type="ON_FOOT" conf="98" state="moving" tsMs="1791221374768"/>
        <radio op="vodafone IT" rat="LTE" q="16.10" rsrp="-102" sinr="2" rsrq="-12"/>
        <radio op="I TIM" rat="LTE" q="14.00" rsrp="-97" sinr="0" rsrq="-14"/>
      </extensions>
    </trkpt>
    <trkpt lat="45.5994091" lon="10.4502761">
      <ele>258.3000183105469</ele>
      <time>2026-10-05T19:30:03.11+02:00</time>
      <extensions>
        <activity type="ON_FOOT" conf="97" state="moving" tsMs="1791221387403"/>
        <radio op="vodafone IT" rat="LTE" q="24.30" rsrp="-98" sinr="4" rsrq="-11"/>
        <radio op="I TIM" rat="LTE" q="33.00" rsrp="-95" sinr="6" rsrq="-13"/>
      </extensions>
    </trkpt>
    <trkpt lat="45.5993856" lon="10.4502386">
      <ele>258.20001220703125</ele>
      <time>2026-10-05T19:30:05.86+02:00</time>
      <extensions>
        <activity type="ON_FOOT" conf="98" state="moving" tsMs="1791221400024"/>
        <radio op="vodafone IT" rat="LTE" q="33.80" rsrp="-99" sinr="8" rsrq="-13"/>
        <radio op="I TIM" rat="LTE" rsrp="-99" rsrq="-16"/>
      </extensions>
    </trkpt>
    <trkpt lat="45.5993848" lon="10.4502392">
      <ele>257.9000244140625</ele>
      <time>2026-10-05T19:31:01.215+02:00</time>
      <extensions>
        <activity type="ON_FOOT" conf="96" state="moving" tsMs="1791221455406"/>
        <radio op="vodafone IT" rat="LTE" q="51.00" rsrp="-95" sinr="12" rsrq="-10"/>
        <radio op="I TIM" rat="LTE" q="34.10" rsrp="-94" sinr="6" rsrq="-12"/>
      </extensions>
    </trkpt>
    <trkpt lat="45.5979182" lon="10.4487402">
      <ele>257.70001220703125</ele>
      <time>2026-10-05T19:31:36.521+02:00</time>
      <extensions>
        <activity type="ON_FOOT" conf="97" state="moving" tsMs="1791221495392"/>
        <radio op="vodafone IT" rat="LTE" q="36.40" rsrp="-97" sinr="8" rsrq="-11"/>
        <radio op="I TIM" rat="LTE" q="89.70" rsrp="-86" sinr="18" rsrq="-12"/>
      </extensions>
    </trkpt>
    <trkpt lat="45.5978279" lon="10.448419">
      <ele>257.70001220703125</ele>
      <time>2026-10-05T19:32:15.043+02:00</time>
      <extensions>
        <activity type="ON_FOOT" conf="97" state="moving" tsMs="1791221534388"/>
        <radio op="vodafone IT" rat="LTE" q="36.30" rsrp="-92" sinr="6" rsrq="-12"/>
        <radio op="I TIM" rat="LTE" q="25.20" rsrp="-89" sinr="2" rsrq="-12"/>
      </extensions>
    </trkpt>
    <trkpt lat="45.5973614" lon="10.4471449">
      <ele>257.70001220703125</ele>
      <time>2026-10-05T19:33:25.808+02:00</time>
      <extensions>
        <activity type="ON_FOOT" conf="96" state="moving" tsMs="1791221613605"/>
        <radio op="vodafone IT" rat="LTE" rsrp="-104" rsrq="-15"/>
        <radio op="I TIM" rat="LTE" q="35.20" rsrp="-93" sinr="6" rsrq="-13"/>
      </extensions>
    </trkpt>
    <trkpt lat="45.5973637" lon="10.4471505">
      <ele>257.3999938964844</ele>
      <time>2026-10-05T19:33:57.516+02:00</time>
      <extensions>
        <activity type="ON_FOOT" conf="96" state="moving" tsMs="1791221619620"/>
        <radio op="vodafone IT" rat="LTE" q="50.40" rsrp="-97" sinr="13" rsrq="-11"/>
        <radio op="I TIM" rat="LTE" q="42.00" rsrp="-90" sinr="7" rsrq="-13"/>
      </extensions>
    </trkpt>
    <trkpt lat="45.5967497" lon="10.4461093">
      <ele>257.29998779296875</ele>
      <time>2026-10-05T19:34:31.808+02:00</time>
      <extensions>
        <activity type="ON_FOOT" conf="97" state="moving" tsMs="1791221668097"/>
        <radio op="vodafone IT" rat="LTE" q="29.00" rsrp="-96" sinr="5" rsrq="-10"/>
        <radio op="I TIM" rat="LTE" q="44.20" rsrp="-91" sinr="8" rsrq="-13"/>
      </extensions>
    </trkpt>
    <trkpt lat="45.596748" lon="10.4461065">
      <ele>257.1000061035156</ele>
      <time>2026-10-05T19:35:11.899+02:00</time>
      <extensions>
        <activity type="ON_FOOT" conf="96" state="moving" tsMs="1791221703453"/>
        <radio op="vodafone IT" rat="LTE" q="33.80" rsrp="-99" sinr="8" rsrq="-13"/>
        <radio op="I TIM" rat="LTE" q="40.30" rsrp="-94" sinr="8" rsrq="-15"/>
      </extensions>
    </trkpt>
    <trkpt lat="45.5960334" lon="10.4449909">
      <ele>256.8999938964844</ele>
      <time>2026-10-05T19:35:44.75+02:00</time>
      <extensions>
        <activity type="ON_FOOT" conf="98" state="moving" tsMs="1791221724512"/>
        <radio op="vodafone IT" rat="LTE" rsrp="-109" rsrq="-12"/>
        <radio op="I TIM" rat="LTE" q="15.40" rsrp="-103" sinr="2" rsrq="-13"/>
      </extensions>
    </trkpt>
    <trkpt lat="45.5960734" lon="10.4449702">
      <ele>256.79998779296875</ele>
      <time>2026-10-05T19:36:15.496+02:00</time>
      <extensions>
        <activity type="ON_FOOT" conf="96" state="moving" tsMs="1791221767240"/>
        <radio op="vodafone IT" rat="LTE" q="43.70" rsrp="-102" sinr="14" rsrq="-10"/>
        <radio op="I TIM" rat="LTE" q="36.40" rsrp="-97" sinr="8" rsrq="-8"/>
      </extensions>
    </trkpt>
    <trkpt lat="45.5953285" lon="10.4439787">
      <ele>256.79998779296875</ele>
      <time>2026-10-05T19:36:46.718+02:00</time>
      <extensions>
        <activity type="ON_FOOT" conf="97" state="moving" tsMs="1791221799320"/>
        <radio op="vodafone IT" rat="LTE" q="58.00" rsrp="-96" sinr="15" rsrq="-9"/>
        <radio op="I TIM" rat="LTE" q="46.80" rsrp="-89" sinr="8" rsrq="-10"/>
      </extensions>
    </trkpt>
    <trkpt lat="45.595343" lon="10.4439011">
      <ele>256.79998779296875</ele>
      <time>2026-10-05T19:36:52.809+02:00</time>
      <extensions>
        <activity type="ON_FOOT" conf="97" state="moving" tsMs="1791221809760"/>
        <radio op="vodafone IT" rat="LTE" rsrp="-95" rsrq="-16"/>
        <radio op="I TIM" rat="LTE" q="16.50" rsrp="-92" sinr="0" rsrq="-16"/>
      </extensions>
    </trkpt>
    <trkpt lat="45.5950525" lon="10.4435282">
      <ele>256.6000061035156</ele>
      <time>2026-10-05T19:37:28.136+02:00</time>
      <extensions>
        <activity type="ON_FOOT" conf="93" state="moving" tsMs="1791221838438"/>
        <radio op="vodafone IT" rat="LTE" q="59.50" rsrp="-90" sinr="12" rsrq="-9"/>
        <radio op="I TIM" rat="LTE" q="66.30" rsrp="-86" sinr="12" rsrq="-9"/>
      </extensions>
    </trkpt>
    <trkpt lat="45.5945032" lon="10.4430392">
      <ele>255.0792863803507</ele>
      <time>2026-10-05T19:38:14.134+02:00</time>
      <extensions>
        <activity type="ON_FOOT" conf="97" state="moving" tsMs="1791221893398"/>
        <radio op="vodafone IT" rat="LTE" q="31.00" rsrp="-94" sinr="5" rsrq="-10"/>
        <radio op="I TIM" rat="LTE" q="18.60" rsrp="-94" sinr="1" rsrq="-14"/>
      </extensions>
    </trkpt>
    <trkpt lat="45.5940267" lon="10.4426543">
      <ele>256.79998779296875</ele>
      <time>2026-10-05T19:38:48.32+02:00</time>
      <extensions>
        <activity type="ON_FOOT" conf="96" state="moving" tsMs="1791221921061"/>
        <radio op="vodafone IT" rat="LTE" q="33.00" rsrp="-92" sinr="5" rsrq="-10"/>
        <radio op="I TIM" rat="LTE" q="74.10" rsrp="-86" sinr="14" rsrq="-9"/>
      </extensions>
    </trkpt>
    <trkpt lat="45.5941018" lon="10.4425923">
      <ele>254.94898470851217</ele>
      <time>2026-10-05T19:38:54.809+02:00</time>
      <extensions>
        <activity type="ON_FOOT" conf="96" state="moving" tsMs="1791221927112"/>
        <radio op="vodafone IT" rat="LTE" q="56.10" rsrp="-92" sinr="12" rsrq="-11"/>
        <radio op="I TIM" rat="LTE" q="53.20" rsrp="-87" sinr="9" rsrq="-8"/>
      </extensions>
    </trkpt>
    <trkpt lat="45.5936954" lon="10.4428983">
      <ele>255.00001525878906</ele>
      <time>2026-10-05T19:39:31.306+02:00</time>
      <extensions>
        <activity type="ON_FOOT" conf="96" state="moving" tsMs="1791221969387"/>
        <radio op="vodafone IT" rat="LTE" q="49.50" rsrp="-92" sinr="10" rsrq="-9"/>
        <radio op="I TIM" rat="LTE" q="51.80" rsrp="-88" sinr="9" rsrq="-9"/>
      </extensions>
    </trkpt>
    <trkpt lat="45.5928726" lon="10.4430154">
      <ele>255.00001525878906</ele>
      <time>2026-10-05T19:40:10.729+02:00</time>
      <extensions>
        <activity type="ON_FOOT" conf="96" state="moving" tsMs="1791221994852"/>
        <radio op="vodafone IT" rat="LTE" q="100.00" rsrp="-78" sinr="20" rsrq="-10"/>
        <radio op="I TIM" rat="LTE" q="84.00" rsrp="-69" sinr="16" rsrq="-13"/>
      </extensions>
    </trkpt>
    <trkpt lat="45.5932033" lon="10.442798">
      <ele>254.90000915527344</ele>
      <time>2026-10-05T19:40:45.222+02:00</time>
      <extensions>
        <activity type="ON_FOOT" conf="94" state="moving" tsMs="1791222035434"/>
        <radio op="vodafone IT" rat="LTE" q="62.40" rsrp="-99" sinr="19" rsrq="-7"/>
        <radio op="I TIM" rat="LTE" q="87.50" rsrp="-90" sinr="20" rsrq="-10"/>
      </extensions>
    </trkpt>
    <trkpt lat="45.5932245" lon="10.4428284">
      <ele>254.90000915527344</ele>
      <time>2026-10-05T19:41:28.862+02:00</time>
      <extensions>
        <activity type="STILL" conf="75" state="still" tsMs="1791222084011"/>
        <radio op="vodafone IT" rat="LTE" q="51.30" rsrp="-98" sinr="14" rsrq="-7"/>
        <radio op="I TIM" rat="LTE" q="57.20" rsrp="-99" sinr="17" rsrq="-11"/>
      </extensions>
    </trkpt>
    <trkpt lat="45.5932316" lon="10.4427657">
      <ele>255.00001525878906</ele>
      <time>2026-10-05T19:42:29.752+02:00</time>
      <extensions>
        <activity type="UNKNOWN" conf="40" state="unknown" tsMs="1791222143422"/>
        <radio op="vodafone IT" rat="LTE" q="28.50" rsrp="-106" sinr="10" rsrq="-10"/>
        <radio op="I TIM" rat="LTE" q="52.80" rsrp="-101" sinr="17" rsrq="-11"/>
      </extensions>
    </trkpt>
    <trkpt lat="45.5933997" lon="10.4424482">
      <ele>255.00001525878906</ele>
      <time>2026-10-05T19:43:11.213+02:00</time>
      <extensions>
        <activity type="ON_FOOT" conf="81" state="moving" tsMs="1791222188042"/>
        <radio op="vodafone IT" rat="LTE" q="15.60" rsrp="-112" sinr="7" rsrq="-10"/>
        <radio op="I TIM" rat="LTE" q="18.70" rsrp="-108" sinr="6" rsrq="-10"/>
      </extensions>
    </trkpt>
    <trkpt lat="45.593365" lon="10.4425205">
      <ele>255.00001525878906</ele>
      <time>2026-10-05T19:43:45.317+02:00</time>
      <extensions>
        <activity type="UNKNOWN" conf="40" state="unknown" tsMs="1791222212889"/>
        <radio op="vodafone IT" rat="LTE" q="21.00" rsrp="-104" sinr="5" rsrq="-10"/>
        <radio op="I TIM" rat="LTE" q="15.50" rsrp="-94" sinr="0" rsrq="-9"/>
      </extensions>
    </trkpt>
    <trkpt lat="45.5933577" lon="10.4425285">
      <ele>255.00001525878906</ele>
      <time>2026-10-05T19:44:17.865+02:00</time>
      <extensions>
        <activity type="STILL" conf="96" state="still" tsMs="1791222251776"/>
        <radio op="vodafone IT" rat="LTE" q="25.20" rsrp="-104" sinr="7" rsrq="-7"/>
        <radio op="I TIM" rat="LTE" q="51.30" rsrp="-98" sinr="14" rsrq="-9"/>
      </extensions>
    </trkpt>
    <trkpt lat="45.5933734" lon="10.4424731">
      <ele>255.00001525878906</ele>
      <time>2026-10-05T19:44:51.506+02:00</time>
      <extensions>
        <activity type="UNKNOWN" conf="40" state="unknown" tsMs="1791222279904"/>
        <radio op="vodafone IT" rat="LTE" q="9.90" rsrp="-114" sinr="4" rsrq="-10"/>
        <radio op="I TIM" rat="LTE" rsrp="-104" rsrq="-11"/>
      </extensions>
    </trkpt>
    <trkpt lat="45.5934194" lon="10.4424178">
      <ele>255.00001525878906</ele>
      <time>2026-10-05T19:46:27.188+02:00</time>
      <extensions>
        <activity type="STILL" conf="46" state="still" tsMs="1791222386376"/>
        <radio op="vodafone IT" rat="LTE" q="33.00" rsrp="-103" sinr="10" rsrq="-9"/>
        <radio op="I TIM" rat="LTE" q="43.20" rsrp="-98" sinr="11" rsrq="-10"/>
      </extensions>
    </trkpt>
    <trkpt lat="45.593473" lon="10.4423905">
      <ele>255.00001525878906</ele>
      <time>2026-10-05T19:50:21.512+02:00</time>
      <extensions>
        <activity type="ON_FOOT" conf="86" state="moving" tsMs="1791222617303"/>
        <radio op="vodafone IT" rat="LTE" q="39.10" rsrp="-102" sinr="12" rsrq="-7"/>
        <radio op="I TIM" rat="LTE" q="60.80" rsrp="-93" sinr="14" rsrq="-11"/>
      </extensions>
    </trkpt>
    <trkpt lat="45.5933879" lon="10.44256">
      <ele>255.00001525878906</ele>
      <time>2026-10-05T19:50:58.367+02:00</time>
      <extensions>
        <activity type="ON_FOOT" conf="86" state="moving" tsMs="1791222658703"/>
        <radio op="vodafone IT" rat="LTE" q="18.00" rsrp="-110" sinr="7" rsrq="-12"/>
        <radio op="I TIM" rat="LTE" q="41.80" rsrp="-103" sinr="14" rsrq="-12"/>
      </extensions>
    </trkpt>
    <trkpt lat="45.5934038" lon="10.4424708">
      <ele>255.00001525878906</ele>
      <time>2026-10-05T19:51:35.094+02:00</time>
      <extensions>
        <activity type="ON_FOOT" conf="81" state="moving" tsMs="1791222692222"/>
        <radio op="vodafone IT" rat="LTE" q="16.50" rsrp="-110" sinr="6" rsrq="-7"/>
        <radio op="I TIM" rat="LTE" q="32.00" rsrp="-105" sinr="11" rsrq="-12"/>
      </extensions>
    </trkpt>
    <trkpt lat="45.5934148" lon="10.4424636">
      <ele>255.00001525878906</ele>
      <time>2026-10-05T19:52:39.231+02:00</time>
      <extensions>
        <activity type="STILL" conf="64" state="still" tsMs="1791222758386"/>
        <radio op="vodafone IT" rat="LTE" q="20.40" rsrp="-108" sinr="7" rsrq="-11"/>
        <radio op="I TIM" rat="LTE" q="60.00" rsrp="-100" sinr="19" rsrq="-11"/>
      </extensions>
    </trkpt>
    <trkpt lat="45.5934069" lon="10.4424509">
      <ele>255.00001525878906</ele>
      <time>2026-10-05T19:53:10.617+02:00</time>
      <extensions>
        <activity type="UNKNOWN" conf="40" state="unknown" tsMs="1791222772608"/>
        <radio op="vodafone IT" rat="LTE" q="19.50" rsrp="-110" sinr="8" rsrq="-9"/>
        <radio op="I TIM" rat="LTE" q="36.80" rsrp="-102" sinr="11" rsrq="-10"/>
      </extensions>
    </trkpt>
    <trkpt lat="45.5934076" lon="10.4424769">
      <ele>255.00001525878906</ele>
      <time>2026-10-05T20:04:59.217+02:00</time>
      <extensions>
        <activity type="UNKNOWN" conf="40" state="unknown" tsMs="1791223497341"/>
        <radio op="vodafone IT" rat="LTE" q="25.60" rsrp="-109" sinr="11" rsrq="-8"/>
        <radio op="I TIM" rat="LTE" q="52.50" rsrp="-100" sinr="16" rsrq="-13"/>
      </extensions>
    </trkpt>
    <trkpt lat="45.5933945" lon="10.4425273">
      <ele>256.8213425835466</ele>
      <time>2026-10-05T20:05:33.008+02:00</time>
      <extensions>
        <activity type="UNKNOWN" conf="40" state="unknown" tsMs="1791223522538"/>
        <radio op="vodafone IT" rat="LTE" q="11.70" rsrp="-112" sinr="4" rsrq="-12"/>
        <radio op="I TIM" rat="LTE" q="18.90" rsrp="-104" sinr="4" rsrq="-11"/>
      </extensions>
    </trkpt>
    <trkpt lat="45.5933835" lon="10.4426186">
      <ele>255.00001525878906</ele>
      <time>2026-10-05T20:06:04.467+02:00</time>
      <extensions>
        <activity type="UNKNOWN" conf="40" state="unknown" tsMs="1791223551250"/>
        <radio op="vodafone IT" rat="LTE" q="7.20" rsrp="-117" sinr="4" rsrq="-13"/>
        <radio op="I TIM" rat="LTE" q="19.50" rsrp="-110" sinr="8" rsrq="-9"/>
      </extensions>
    </trkpt>
    <trkpt lat="45.5933622" lon="10.44265">
      <ele>255.00001525878906</ele>
      <time>2026-10-05T20:06:33.119+02:00</time>
      <extensions>
        <activity type="STILL" conf="46" state="still" tsMs="1791223577223"/>
        <radio op="vodafone IT" rat="LTE" rsrp="-112" rsrq="-12"/>
        <radio op="I TIM" rat="LTE" q="30.00" rsrp="-105" sinr="10" rsrq="-9"/>
      </extensions>
    </trkpt>
    <trkpt lat="45.5933887" lon="10.4426233">
      <ele>255.00001525878906</ele>
      <time>2026-10-05T20:07:06.468+02:00</time>
      <extensions>
        <activity type="STILL" conf="99" state="still" tsMs="1791223616206"/>
        <radio op="vodafone IT" rat="LTE" rsrp="-114" rsrq="-11"/>
        <radio op="I TIM" rat="LTE" q="23.10" rsrp="-104" sinr="6" rsrq="-13"/>
      </extensions>
    </trkpt>
    <trkpt lat="45.5933825" lon="10.4426672">
      <ele>255.00001525878906</ele>
      <time>2026-10-05T20:07:33.166+02:00</time>
      <extensions>
        <activity type="STILL" conf="100" state="still" tsMs="1791223654216"/>
        <radio op="vodafone IT" rat="LTE" rsrp="-113" rsrq="-10"/>
        <radio op="I TIM" rat="LTE" q="28.80" rsrp="-101" sinr="7" rsrq="-10"/>
      </extensions>
    </trkpt>
    <trkpt lat="45.5933799" lon="10.4426284">
      <ele>255.00001525878906</ele>
      <time>2026-10-05T20:08:08.159+02:00</time>
      <extensions>
        <activity type="STILL" conf="99" state="still" tsMs="1791223671084"/>
        <radio op="vodafone IT" rat="LTE" rsrp="-115" rsrq="-8"/>
        <radio op="I TIM" rat="LTE" q="26.40" rsrp="-103" sinr="7" rsrq="-9"/>
      </extensions>
    </trkpt>
    <trkpt lat="45.5934429" lon="10.4424353">
      <ele>255.00001525878906</ele>
      <time>2026-10-05T20:08:43.219+02:00</time>
      <extensions>
        <activity type="UNKNOWN" conf="40" state="unknown" tsMs="1791223722760"/>
        <radio op="vodafone IT" rat="LTE" q="9.60" rsrp="-113" sinr="3" rsrq="-9"/>
        <radio op="I TIM" rat="LTE" q="30.40" rsrp="-106" sinr="11" rsrq="-13"/>
      </extensions>
    </trkpt>
    <trkpt lat="45.5934613" lon="10.4424283">
      <ele>255.00001525878906</ele>
      <time>2026-10-05T20:09:57.301+02:00</time>
      <extensions>
        <activity type="UNKNOWN" conf="40" state="unknown" tsMs="1791223791379"/>
        <radio op="vodafone IT" rat="LTE" q="43.20" rsrp="-101" sinr="13" rsrq="-8"/>
        <radio op="I TIM" rat="LTE" q="46.00" rsrp="-102" sinr="15" rsrq="-11"/>
      </extensions>
    </trkpt>
    <trkpt lat="45.5934234" lon="10.4424434">
      <ele>255.00001525878906</ele>
      <time>2026-10-05T20:10:39.953+02:00</time>
      <extensions>
        <activity type="UNKNOWN" conf="40" state="unknown" tsMs="1791223837401"/>
        <radio op="vodafone IT" rat="LTE" q="7.80" rsrp="-112" sinr="1" rsrq="-12"/>
        <radio op="I TIM" rat="LTE" q="28.80" rsrp="-107" sinr="11" rsrq="-12"/>
      </extensions>
    </trkpt>
    <trkpt lat="45.5934352" lon="10.4424657">
      <ele>255.00001525878906</ele>
      <time>2026-10-05T20:11:14.387+02:00</time>
      <extensions>
        <activity type="ON_FOOT" conf="92" state="moving" tsMs="1791223862263"/>
        <radio op="vodafone IT" rat="LTE" rsrp="-109" rsrq="-12"/>
        <radio op="I TIM" rat="LTE" q="20.70" rsrp="-102" sinr="4" rsrq="-11"/>
      </extensions>
    </trkpt>
    <trkpt lat="45.5934012" lon="10.44256">
      <ele>255.00001525878906</ele>
      <time>2026-10-05T20:11:45.767+02:00</time>
      <extensions>
        <activity type="STILL" conf="46" state="still" tsMs="1791223888126"/>
        <radio op="vodafone IT" rat="LTE" q="14.00" rsrp="-111" sinr="5" rsrq="-12"/>
        <radio op="I TIM" rat="LTE" q="24.20" rsrp="-103" sinr="6" rsrq="-9"/>
      </extensions>
    </trkpt>
    <trkpt lat="45.5934028" lon="10.4426362">
      <ele>255.00001525878906</ele>
      <time>2026-10-05T20:12:17.209+02:00</time>
      <extensions>
        <activity type="UNKNOWN" conf="40" state="unknown" tsMs="1791223927195"/>
        <radio op="vodafone IT" rat="LTE" q="11.20" rsrp="-111" sinr="3" rsrq="-11"/>
        <radio op="I TIM" rat="LTE" q="19.00" rsrp="-106" sinr="5" rsrq="-12"/>
      </extensions>
    </trkpt>
    <trkpt lat="45.593361" lon="10.4425802">
      <ele>255.00001525878906</ele>
      <time>2026-10-05T20:12:48.63+02:00</time>
      <extensions>
        <activity type="UNKNOWN" conf="40" state="unknown" tsMs="1791223953266"/>
        <radio op="vodafone IT" rat="LTE" q="15.40" rsrp="-114" sinr="9" rsrq="-11"/>
        <radio op="I TIM" rat="LTE" q="23.40" rsrp="-107" sinr="8" rsrq="-11"/>
      </extensions>
    </trkpt>
    <trkpt lat="45.5934131" lon="10.4424564">
      <ele>255.00001525878906</ele>
      <time>2026-10-05T20:13:19.966+02:00</time>
      <extensions>
        <activity type="ON_FOOT" conf="96" state="moving" tsMs="1791223992206"/>
        <radio op="vodafone IT" rat="LTE" q="15.60" rsrp="-113" sinr="8" rsrq="-13"/>
        <radio op="I TIM" rat="LTE" q="24.00" rsrp="-110" sinr="11" rsrq="-12"/>
      </extensions>
    </trkpt>
    <trkpt lat="45.5932685" lon="10.4429215">
      <ele>255.00001525878906</ele>
      <time>2026-10-05T20:13:51.355+02:00</time>
      <extensions>
        <activity type="ON_FOOT" conf="92" state="moving" tsMs="1791224016837"/>
        <radio op="vodafone IT" rat="LTE" q="63.00" rsrp="-95" sinr="16" rsrq="-8"/>
        <radio op="I TIM" rat="LTE" q="50.40" rsrp="-97" sinr="13" rsrq="-9"/>
      </extensions>
    </trkpt>
    <trkpt lat="45.5932741" lon="10.4429286">
      <ele>255.00001525878906</ele>
      <time>2026-10-05T20:14:22.669+02:00</time>
      <extensions>
        <activity type="UNKNOWN" conf="40" state="unknown" tsMs="1791224055900"/>
        <radio op="vodafone IT" rat="LTE" q="19.60" rsrp="-111" sinr="9" rsrq="-11"/>
        <radio op="I TIM" rat="LTE" q="37.40" rsrp="-103" sinr="12" rsrq="-10"/>
      </extensions>
    </trkpt>
    <trkpt lat="45.5932828" lon="10.4429249">
      <ele>255.00001525878906</ele>
      <time>2026-10-05T20:14:53.974+02:00</time>
      <extensions>
        <activity type="UNKNOWN" conf="40" state="unknown" tsMs="1791224079510"/>
        <radio op="vodafone IT" rat="LTE" q="42.00" rsrp="-104" sinr="15" rsrq="-11"/>
        <radio op="I TIM" rat="LTE" q="55.20" rsrp="-102" sinr="19" rsrq="-9"/>
      </extensions>
    </trkpt>
    <trkpt lat="45.593279" lon="10.442923">
      <ele>255.00001525878906</ele>
      <time>2026-10-05T20:15:31.01+02:00</time>
      <extensions>
        <activity type="UNKNOWN" conf="40" state="unknown" tsMs="1791224115486"/>
        <radio op="vodafone IT" rat="LTE" q="63.80" rsrp="-96" sinr="17" rsrq="-7"/>
        <radio op="I TIM" rat="LTE" q="37.00" rsrp="-88" sinr="5" rsrq="-9"/>
      </extensions>
    </trkpt>
    <trkpt lat="45.5932761" lon="10.442891">
      <ele>255.00001525878906</ele>
      <time>2026-10-05T20:15:33.723+02:00</time>
      <extensions>
        <activity type="UNKNOWN" conf="40" state="unknown" tsMs="1791224128391"/>
        <radio op="vodafone IT" rat="LTE" q="38.00" rsrp="-106" sinr="15" rsrq="-8"/>
        <radio op="I TIM" rat="LTE" q="75.90" rsrp="-92" sinr="18" rsrq="-9"/>
      </extensions>
    </trkpt>
    <trkpt lat="45.5932762" lon="10.4429197">
      <ele>255.00001525878906</ele>
      <time>2026-10-05T20:16:12.143+02:00</time>
      <extensions>
        <activity type="UNKNOWN" conf="40" state="unknown" tsMs="1791224164514"/>
        <radio op="vodafone IT" rat="LTE" q="43.70" rsrp="-102" sinr="14" rsrq="-8"/>
        <radio op="I TIM" rat="LTE" q="60.00" rsrp="-101" sinr="20" rsrq="-8"/>
      </extensions>
    </trkpt>
    <trkpt lat="45.5933018" lon="10.4433942">
      <ele>255.10000610351562</ele>
      <time>2026-10-05T20:16:43.374+02:00</time>
      <extensions>
        <activity type="ON_FOOT" conf="96" state="moving" tsMs="1791224196498"/>
        <radio op="vodafone IT" rat="LTE" q="74.10" rsrp="-86" sinr="14" rsrq="-11"/>
        <radio op="I TIM" rat="LTE" q="84.00" rsrp="-67" sinr="16" rsrq="-9"/>
      </extensions>
    </trkpt>
    <trkpt lat="45.5935802" lon="10.4430957">
      <ele>255.00001525878906</ele>
      <time>2026-10-05T20:17:13.186+02:00</time>
      <extensions>
        <activity type="ON_FOOT" conf="95" state="moving" tsMs="1791224218987"/>
        <radio op="vodafone IT" rat="LTE" q="97.50" rsrp="-86" sinr="24" rsrq="-6"/>
        <radio op="I TIM" rat="LTE" q="88.00" rsrp="-77" sinr="17" rsrq="-7"/>
      </extensions>
    </trkpt>
    <trkpt lat="45.5937997" lon="10.4426176">
      <ele>255.00001525878906</ele>
      <time>2026-10-05T20:17:46.676+02:00</time>
      <extensions>
        <activity type="ON_FOOT" conf="97" state="moving" tsMs="1791224261279"/>
        <radio op="vodafone IT" rat="LTE" q="66.60" rsrp="-88" sinr="13" rsrq="-9"/>
        <radio op="I TIM" rat="LTE" q="74.10" rsrp="-86" sinr="14" rsrq="-9"/>
      </extensions>
    </trkpt>
    <trkpt lat="45.5938692" lon="10.4426888">
      <ele>255.10000610351562</ele>
      <time>2026-10-05T20:18:18.138+02:00</time>
      <extensions>
        <activity type="ON_FOOT" conf="98" state="moving" tsMs="1791224289562"/>
        <radio op="vodafone IT" rat="LTE" rsrp="-88" rsrq="-10"/>
        <radio op="I TIM" rat="LTE" q="56.00" rsrp="-81" sinr="9" rsrq="-9"/>
      </extensions>
    </trkpt>
    <trkpt lat="45.5944765" lon="10.4427998">
      <ele>255.50001525878906</ele>
      <time>2026-10-05T20:18:49.191+02:00</time>
      <extensions>
        <activity type="ON_FOOT" conf="97" state="moving" tsMs="1791224318068"/>
        <radio op="vodafone IT" rat="LTE" rsrp="-82" rsrq="-7"/>
        <radio op="I TIM" rat="LTE" rsrp="-87" rsrq="-12"/>
      </extensions>
    </trkpt>
    <trkpt lat="45.5948309" lon="10.4429338">
      <ele>256.8999938964844</ele>
      <time>2026-10-05T20:19:20.466+02:00</time>
      <extensions>
        <activity type="ON_FOOT" conf="98" state="moving" tsMs="1791224356322"/>
        <radio op="vodafone IT" rat="LTE" rsrp="-92" rsrq="-9"/>
        <radio op="I TIM" rat="LTE" q="37.00" rsrp="-88" sinr="5" rsrq="-10"/>
      </extensions>
    </trkpt>
    <trkpt lat="45.5948149" lon="10.443236">
      <ele>256.8999938964844</ele>
      <time>2026-10-05T20:19:27.017+02:00</time>
      <extensions>
        <activity type="ON_FOOT" conf="98" state="moving" tsMs="1791224364283"/>
        <radio op="vodafone IT" rat="LTE" q="92.00" rsrp="-83" sinr="18" rsrq="-9"/>
        <radio op="I TIM" rat="LTE" q="80.00" rsrp="-78" sinr="15" rsrq="-10"/>
      </extensions>
    </trkpt>
    <trkpt lat="45.5952324" lon="10.4433331">
      <ele>256.8999938964844</ele>
      <time>2026-10-05T20:20:01.815+02:00</time>
      <extensions>
        <activity type="ON_FOOT" conf="98" state="moving" tsMs="1791224396379"/>
        <radio op="vodafone IT" rat="LTE" q="59.20" rsrp="-88" sinr="11" rsrq="-10"/>
        <radio op="I TIM" rat="LTE" q="48.00" rsrp="-79" sinr="7" rsrq="-11"/>
      </extensions>
    </trkpt>
    <trkpt lat="45.5953107" lon="10.4436314">
      <ele>256.8999938964844</ele>
      <time>2026-10-05T20:20:33.148+02:00</time>
      <extensions>
        <activity type="ON_FOOT" conf="97" state="moving" tsMs="1791224424816"/>
        <radio op="vodafone IT" rat="LTE" q="46.80" rsrp="-86" sinr="7" rsrq="-8"/>
        <radio op="I TIM" rat="LTE" q="29.60" rsrp="-88" sinr="3" rsrq="-12"/>
      </extensions>
    </trkpt>
    <trkpt lat="45.5954041" lon="10.4438866">
      <ele>256.8999938964844</ele>
      <time>2026-10-05T20:20:39.018+02:00</time>
      <extensions>
        <activity type="ON_FOOT" conf="98" state="moving" tsMs="1791224434338"/>
        <radio op="vodafone IT" rat="LTE" q="29.00" rsrp="-96" sinr="5" rsrq="-10"/>
        <radio op="I TIM" rat="LTE" q="22.40" rsrp="-93" sinr="2" rsrq="-11"/>
      </extensions>
    </trkpt>
    <trkpt lat="45.5954041" lon="10.4438866">
      <ele>256.8999938964844</ele>
      <time>2026-10-05T20:21:14.601+02:00</time>
      <extensions>
        <activity type="ON_FOOT" conf="98" state="moving" tsMs="1791224462906"/>
        <radio op="vodafone IT" rat="LTE" q="26.40" rsrp="-101" sinr="6" rsrq="-10"/>
        <radio op="I TIM" rat="LTE" q="20.30" rsrp="-96" sinr="2" rsrq="-13"/>
      </extensions>
    </trkpt>
    <trkpt lat="45.5959058" lon="10.4450089">
      <ele>256.79998779296875</ele>
      <time>2026-10-05T20:21:45.897+02:00</time>
      <extensions>
        <activity type="ON_FOOT" conf="98" state="moving" tsMs="1791224501003"/>
        <radio op="vodafone IT" rat="LTE" q="16.10" rsrp="-102" sinr="2" rsrq="-12"/>
        <radio op="I TIM" rat="LTE" q="51.00" rsrp="-91" sinr="10" rsrq="-10"/>
      </extensions>
    </trkpt>
    <trkpt lat="45.5960362" lon="10.4449435">
      <ele>256.79998779296875</ele>
      <time>2026-10-05T20:21:52.017+02:00</time>
      <extensions>
        <activity type="ON_FOOT" conf="98" state="moving" tsMs="1791224509727"/>
        <radio op="vodafone IT" rat="LTE" q="24.00" rsrp="-101" sinr="5" rsrq="-12"/>
        <radio op="I TIM" rat="LTE" q="39.20" rsrp="-97" sinr="9" rsrq="-11"/>
      </extensions>
    </trkpt>
    <trkpt lat="45.5960362" lon="10.4449435">
      <ele>257.1000061035156</ele>
      <time>2026-10-05T20:22:27.372+02:00</time>
      <extensions>
        <activity type="ON_FOOT" conf="98" state="moving" tsMs="1791224538324"/>
        <radio op="vodafone IT" rat="LTE" q="33.00" rsrp="-95" sinr="6" rsrq="-13"/>
        <radio op="I TIM" rat="LTE" q="21.70" rsrp="-94" sinr="2" rsrq="-14"/>
      </extensions>
    </trkpt>
    <trkpt lat="45.5966973" lon="10.4457464">
      <ele>257.1000061035156</ele>
      <time>2026-10-05T20:23:00.23+02:00</time>
      <extensions>
        <activity type="ON_FOOT" conf="98" state="moving" tsMs="1791224566843"/>
        <radio op="vodafone IT" rat="LTE" q="49.50" rsrp="-92" sinr="10" rsrq="-8"/>
        <radio op="I TIM" rat="LTE" rsrp="-90" rsrq="-14"/>
      </extensions>
    </trkpt>
    <trkpt lat="45.5966677" lon="10.4459056">
      <ele>257.1000061035156</ele>
      <time>2026-10-05T20:23:31.011+02:00</time>
      <extensions>
        <activity type="ON_FOOT" conf="97" state="moving" tsMs="1791224602399"/>
        <radio op="vodafone IT" rat="LTE" q="14.00" rsrp="-97" sinr="0" rsrq="-11"/>
        <radio op="I TIM" rat="LTE" rsrp="-91" rsrq="-13"/>
      </extensions>
    </trkpt>
    <trkpt lat="45.5978572" lon="10.4467854">
      <ele>257.5</ele>
      <time>2026-10-05T20:24:02.257+02:00</time>
      <extensions>
        <activity type="ON_FOOT" conf="98" state="moving" tsMs="1791224630967"/>
        <radio op="vodafone IT" rat="LTE" q="28.80" rsrp="-89" sinr="3" rsrq="-11"/>
        <radio op="I TIM" rat="LTE" q="36.00" rsrp="-80" sinr="4" rsrq="-11"/>
      </extensions>
    </trkpt>
    <trkpt lat="45.5977114" lon="10.4485371">
      <ele>257.8000183105469</ele>
      <time>2026-10-05T20:25:04.767+02:00</time>
      <extensions>
        <activity type="ON_FOOT" conf="98" state="moving" tsMs="1791224705986"/>
        <radio op="vodafone IT" rat="LTE" q="25.20" rsrp="-97" sinr="4" rsrq="-14"/>
        <radio op="I TIM" rat="LTE" rsrp="-88" rsrq="-11"/>
      </extensions>
    </trkpt>
    <trkpt lat="45.597989" lon="10.4482024">
      <ele>257.70001220703125</ele>
      <time>2026-10-05T20:25:36.048+02:00</time>
      <extensions>
        <activity type="ON_FOOT" conf="98" state="moving" tsMs="1791224724938"/>
        <radio op="vodafone IT" rat="LTE" rsrp="-90" rsrq="-10"/>
        <radio op="I TIM" rat="LTE" q="72.00" rsrp="-79" sinr="13" rsrq="-12"/>
      </extensions>
    </trkpt>
    <trkpt lat="45.5980431" lon="10.4489168">
      <ele>257.70001220703125</ele>
      <time>2026-10-05T20:26:07.294+02:00</time>
      <extensions>
        <activity type="ON_FOOT" conf="98" state="moving" tsMs="1791224763076"/>
        <radio op="vodafone IT" rat="LTE" rsrp="-95" rsrq="-9"/>
        <radio op="I TIM" rat="LTE" q="92.00" rsrp="-76" sinr="18" rsrq="-11"/>
      </extensions>
    </trkpt>
    <trkpt lat="45.5988365" lon="10.4490517">
      <ele>257.8000183105469</ele>
      <time>2026-10-05T20:26:38.651+02:00</time>
      <extensions>
        <activity type="ON_FOOT" conf="98" state="moving" tsMs="1791224790273"/>
        <radio op="vodafone IT" rat="LTE" q="16.80" rsrp="-97" sinr="1" rsrq="-10"/>
        <radio op="I TIM" rat="LTE" q="68.40" rsrp="-87" sinr="13" rsrq="-12"/>
      </extensions>
    </trkpt>
    <trkpt lat="45.5990948" lon="10.4493415">
      <ele>258.5</ele>
      <time>2026-10-05T20:27:09.962+02:00</time>
      <extensions>
        <activity type="ON_FOOT" conf="98" state="moving" tsMs="1791224818832"/>
        <radio op="vodafone IT" rat="LTE" q="32.50" rsrp="-100" sinr="8" rsrq="-9"/>
        <radio op="I TIM" rat="LTE" q="72.20" rsrp="-87" sinr="14" rsrq="-11"/>
      </extensions>
    </trkpt>
    <trkpt lat="45.5991093" lon="10.4501231">
      <ele>258.20001220703125</ele>
      <time>2026-10-05T20:27:41.204+02:00</time>
      <extensions>
        <activity type="ON_FOOT" conf="98" state="moving" tsMs="1791224856999"/>
        <radio op="vodafone IT" rat="LTE" q="34.80" rsrp="-96" sinr="7" rsrq="-9"/>
        <radio op="I TIM" rat="LTE" rsrp="-93" rsrq="-14"/>
      </extensions>
    </trkpt>
    <trkpt lat="45.5994144" lon="10.4502015">
      <ele>258.20001220703125</ele>
      <time>2026-10-05T20:28:12.5+02:00</time>
      <extensions>
        <activity type="ON_FOOT" conf="98" state="moving" tsMs="1791224884080"/>
        <radio op="vodafone IT" rat="LTE" q="27.00" rsrp="-98" sinr="5" rsrq="-10"/>
        <radio op="I TIM" rat="LTE" q="57.80" rsrp="-91" sinr="12" rsrq="-10"/>
      </extensions>
    </trkpt>
    <trkpt lat="45.599663" lon="10.4511217">
      <ele>258.5</ele>
      <time>2026-10-05T20:28:43.763+02:00</time>
      <extensions>
        <activity type="ON_FOOT" conf="98" state="moving" tsMs="1791224912503"/>
        <radio op="vodafone IT" rat="LTE" q="26.40" rsrp="-103" sinr="7" rsrq="-11"/>
        <radio op="I TIM" rat="LTE" q="60.00" rsrp="-95" sinr="15" rsrq="-11"/>
      </extensions>
    </trkpt>
    <trkpt lat="45.6001861" lon="10.4516118">
      <ele>258.70001220703125</ele>
      <time>2026-10-05T20:29:14.969+02:00</time>
      <extensions>
        <activity type="ON_FOOT" conf="98" state="moving" tsMs="1791224950628"/>
        <radio op="vodafone IT" rat="LTE" q="21.60" rsrp="-101" sinr="4" rsrq="-10"/>
        <radio op="I TIM" rat="LTE" q="60.80" rsrp="-87" sinr="11" rsrq="-11"/>
      </extensions>
    </trkpt>
    <trkpt lat="45.6003745" lon="10.4517809">
      <ele>259.1000061035156</ele>
      <time>2026-10-05T20:29:46.194+02:00</time>
      <extensions>
        <activity type="ON_FOOT" conf="97" state="moving" tsMs="1791224977843"/>
        <radio op="vodafone IT" rat="LTE" q="81.40" rsrp="-88" sinr="17" rsrq="-6"/>
        <radio op="I TIM" rat="LTE" q="73.60" rsrp="-93" sinr="18" rsrq="-12"/>
      </extensions>
    </trkpt>
    <trkpt lat="45.6006534" lon="10.452187">
      <ele>259.5</ele>
      <time>2026-10-05T20:30:17.451+02:00</time>
      <extensions>
        <activity type="ON_FOOT" conf="98" state="moving" tsMs="1791225006307"/>
        <radio op="vodafone IT" rat="LTE" q="25.20" rsrp="-104" sinr="7" rsrq="-8"/>
        <radio op="I TIM" rat="LTE" q="45.90" rsrp="-98" sinr="12" rsrq="-12"/>
      </extensions>
    </trkpt>
    <trkpt lat="45.6009033" lon="10.4526195">
      <ele>259.5</ele>
      <time>2026-10-05T20:30:48.728+02:00</time>
      <extensions>
        <activity type="ON_FOOT" conf="98" state="moving" tsMs="1791225044407"/>
        <radio op="vodafone IT" rat="LTE" q="39.00" rsrp="-99" sinr="10" rsrq="-12"/>
        <radio op="I TIM" rat="LTE" q="74.40" rsrp="-94" sinr="19" rsrq="-9"/>
      </extensions>
    </trkpt>
    <trkpt lat="45.6010454" lon="10.4528822">
      <ele>260.70001220703125</ele>
      <time>2026-10-05T20:31:19.982+02:00</time>
      <extensions>
        <activity type="ON_FOOT" conf="97" state="moving" tsMs="1791225071679"/>
        <radio op="vodafone IT" rat="LTE" q="66.00" rsrp="-95" sinr="17" rsrq="-7"/>
        <radio op="I TIM" rat="LTE" q="87.50" rsrp="-90" sinr="20" rsrq="-12"/>
      </extensions>
    </trkpt>
    <trkpt lat="45.6013909" lon="10.4535973">
      <ele>260.5</ele>
      <time>2026-10-05T20:31:51.225+02:00</time>
      <extensions>
        <activity type="ON_FOOT" conf="97" state="moving" tsMs="1791225100020"/>
        <radio op="vodafone IT" rat="LTE" q="47.60" rsrp="-97" sinr="12" rsrq="-8"/>
        <radio op="I TIM" rat="LTE" q="42.90" rsrp="-92" sinr="8" rsrq="-10"/>
      </extensions>
    </trkpt>
    <trkpt lat="45.6019943" lon="10.4532397">
      <ele>260.6000061035156</ele>
      <time>2026-10-05T20:32:22.663+02:00</time>
      <extensions>
        <activity type="ON_FOOT" conf="97" state="moving" tsMs="1791225138140"/>
        <radio op="vodafone IT" rat="LTE" q="36.40" rsrp="-97" sinr="8" rsrq="-11"/>
        <radio op="I TIM" rat="LTE" q="68.00" rsrp="-83" sinr="12" rsrq="-11"/>
      </extensions>
    </trkpt>
    <trkpt lat="45.601752" lon="10.4535034">
      <ele>260.6000061035156</ele>
      <time>2026-10-05T20:32:29.018+02:00</time>
      <extensions>
        <activity type="ON_FOOT" conf="97" state="moving" tsMs="1791225146351"/>
        <radio op="vodafone IT" rat="LTE" q="65.10" rsrp="-94" sinr="16" rsrq="-8"/>
        <radio op="I TIM" rat="LTE" q="75.90" rsrp="-92" sinr="18" rsrq="-12"/>
      </extensions>
    </trkpt>
    <trkpt lat="45.6021283" lon="10.4534263">
      <ele>260.5</ele>
      <time>2026-10-05T20:33:03.978+02:00</time>
      <extensions>
        <activity type="ON_FOOT" conf="97" state="moving" tsMs="1791225174841"/>
        <radio op="vodafone IT" rat="LTE" q="15.40" rsrp="-103" sinr="2" rsrq="-8"/>
        <radio op="I TIM" rat="LTE" q="22.50" rsrp="-100" sinr="4" rsrq="-13"/>
      </extensions>
    </trkpt>
    <trkpt lat="45.6025843" lon="10.4535793">
      <ele>261.0</ele>
      <time>2026-10-05T20:33:35.205+02:00</time>
      <extensions>
        <activity type="ON_FOOT" conf="98" state="moving" tsMs="1791225203387"/>
        <radio op="vodafone IT" rat="LTE" q="17.60" rsrp="-109" sinr="6" rsrq="-10"/>
        <radio op="I TIM" rat="LTE" q="18.00" rsrp="-95" sinr="1" rsrq="-11"/>
      </extensions>
    </trkpt>
    <trkpt lat="45.6025685" lon="10.4535328">
      <ele>261.0</ele>
      <time>2026-10-05T20:33:41.018+02:00</time>
      <extensions>
        <activity type="ON_FOOT" conf="96" state="moving" tsMs="1791225219844"/>
        <radio op="vodafone IT" rat="LTE" q="6.40" rsrp="-117" sinr="3" rsrq="-14"/>
        <radio op="I TIM" rat="LTE" q="23.40" rsrp="-107" sinr="8" rsrq="-12"/>
      </extensions>
    </trkpt>
    <trkpt lat="45.6025679" lon="10.453673">
      <ele>261.0</ele>
      <time>2026-10-05T20:34:16.659+02:00</time>
      <extensions>
        <activity type="UNKNOWN" conf="40" state="unknown" tsMs="1791225242318"/>
        <radio op="vodafone IT" rat="LTE" q="7.80" rsrp="-112" sinr="1" rsrq="-13"/>
        <radio op="I TIM" rat="LTE" q="14.30" rsrp="-112" sinr="6" rsrq="-12"/>
      </extensions>
    </trkpt>
    <trkpt lat="45.6025825" lon="10.4537033">
      <ele>261.0</ele>
      <time>2026-10-05T20:34:47.844+02:00</time>
      <extensions>
        <activity type="UNKNOWN" conf="40" state="unknown" tsMs="1791225281318"/>
        <radio op="vodafone IT" rat="LTE" q="9.60" rsrp="-109" sinr="1" rsrq="-12"/>
        <radio op="I TIM" rat="LTE" q="27.00" rsrp="-110" sinr="13" rsrq="-12"/>
      </extensions>
    </trkpt>
    <trkpt lat="45.6025641" lon="10.45368">
      <ele>261.0</ele>
      <time>2026-10-05T20:35:19.183+02:00</time>
      <extensions>
        <activity type="STILL" conf="100" state="still" tsMs="1791225314043"/>
        <radio op="vodafone IT" rat="LTE" q="12.80" rsrp="-109" sinr="3" rsrq="-11"/>
        <radio op="I TIM" rat="LTE" q="24.00" rsrp="-110" sinr="11" rsrq="-11"/>
      </extensions>
    </trkpt>
    <trkpt lat="45.6025806" lon="10.453702">
      <ele>261.0</ele>
      <time>2026-10-05T20:35:50.668+02:00</time>
      <extensions>
        <activity type="STILL" conf="100" state="still" tsMs="1791225341968"/>
        <radio op="vodafone IT" rat="LTE" q="16.80" rsrp="-104" sinr="3" rsrq="-12"/>
        <radio op="I TIM" rat="LTE" q="24.00" rsrp="-110" sinr="11" rsrq="-11"/>
      </extensions>
    </trkpt>
    <trkpt lat="45.6025905" lon="10.453736">
      <ele>261.0</ele>
      <time>2026-10-05T20:36:22.188+02:00</time>
      <extensions>
        <activity type="STILL" conf="100" state="still" tsMs="1791225370369"/>
        <radio op="vodafone IT" rat="LTE" q="16.00" rsrp="-105" sinr="3" rsrq="-10"/>
        <radio op="I TIM" rat="LTE" q="21.00" rsrp="-111" sinr="10" rsrq="-11"/>
      </extensions>
    </trkpt>
    <trkpt lat="45.6026026" lon="10.4537288">
      <ele>261.0</ele>
      <time>2026-10-05T20:36:53.778+02:00</time>
      <extensions>
        <activity type="STILL" conf="99" state="still" tsMs="1791225405851"/>
        <radio op="vodafone IT" rat="LTE" q="16.80" rsrp="-104" sinr="3" rsrq="-11"/>
        <radio op="I TIM" rat="LTE" q="18.20" rsrp="-111" sinr="8" rsrq="-11"/>
      </extensions>
    </trkpt>
    <trkpt lat="45.6025933" lon="10.4537227">
      <ele>261.0</ele>
      <time>2026-10-05T20:37:25.189+02:00</time>
      <extensions>
        <activity type="STILL" conf="100" state="still" tsMs="1791225434378"/>
        <radio op="vodafone IT" rat="LTE" q="16.80" rsrp="-104" sinr="3" rsrq="-10"/>
        <radio op="I TIM" rat="LTE" q="25.20" rsrp="-111" sinr="13" rsrq="-11"/>
      </extensions>
    </trkpt>
  </trkseg></trk>
</gpx>
