<?xml version="1.0" encoding="UTF-8"?>
<gpx version="1.1" creator="CellGPX" xmlns="http://www.topografix.com/GPX/1/1">
  <trk><name>CellGPX</name><trkseg>
    <trkpt lat="45.6040918" lon="10.4593636">
      <ele>264.4000244140625</ele>
      <time>2026-04-17T11:15:40.712+02:00</time>
      <extensions>
        <activity type="STILL" conf="100" state="still" tsMs="1776417316971"/>
        <radio op="vodafone IT" rat="LTE" q="19.20" rsrp="-113" sinr="11" rsrq="-12"/>
        <radio op="I TIM" rat="LTE" q="23.40" rsrp="-112" sinr="13" rsrq="-9"/>
      </extensions>
    </trkpt>
    <trkpt lat="45.6040845" lon="10.4593538">
      <ele>264.5</ele>
      <time>2026-04-17T11:16:01.317+02:00</time>
      <extensions>
        <activity type="UNKNOWN" conf="40" state="unknown" tsMs="1776417344895"/>
        <radio op="vodafone IT" rat="LTE" q="21.60" rsrp="-113" sinr="13" rsrq="-12"/>
        <radio op="I TIM" rat="LTE" q="11.00" rsrp="-115" sinr="6" rsrq="-10"/>
      </extensions>
    </trkpt>
    <trkpt lat="45.6041041" lon="10.4593346">
      <ele>264.5</ele>
      <time>2026-04-17T11:16:32.243+02:00</time>
      <extensions>
        <activity type="STILL" conf="96" state="still" tsMs="1776417387506"/>
        <radio op="vodafone IT" rat="LTE" q="30.00" rsrp="-110" sinr="15" rsrq="-9"/>
        <radio op="I TIM" rat="LTE" q="24.00" rsrp="-110" sinr="11" rsrq="-10"/>
      </extensions>
    </trkpt>
    <trkpt lat="45.604105" lon="10.4593449">
      <ele>264.5</ele>
      <time>2026-04-17T11:17:01.313+02:00</time>
      <extensions>
        <activity type="STILL" conf="99" state="still" tsMs="1776417420025"/>
        <radio op="vodafone IT" rat="LTE" q="29.40" rsrp="-111" sinr="16" rsrq="-12"/>
        <radio op="I TIM" rat="LTE" q="21.00" rsrp="-111" sinr="10" rsrq="-11"/>
      </extensions>
    </trkpt>
    <trkpt lat="45.6041156" lon="10.4593404">
      <ele>264.5</ele>
      <time>2026-04-17T11:17:34.616+02:00</time>
      <extensions>
        <activity type="STILL" conf="99" state="still" tsMs="1776417450902"/>
        <radio op="vodafone IT" rat="LTE" q="31.50" rsrp="-110" sinr="16" rsrq="-7"/>
        <radio op="I TIM" rat="LTE" q="16.90" rsrp="-112" sinr="8" rsrq="-9"/>
      </extensions>
    </trkpt>
    <trkpt lat="45.6041241" lon="10.459321">
      <ele>264.5</ele>
      <time>2026-04-17T11:18:06.04+02:00</time>
      <extensions>
        <activity type="STILL" conf="98" state="still" tsMs="1776417482328"/>
        <radio op="vodafone IT" rat="LTE" q="35.20" rsrp="-109" sinr="17" rsrq="-7"/>
        <radio op="I TIM" rat="LTE" q="18.00" rsrp="-113" sinr="10" rsrq="-11"/>
      </extensions>
    </trkpt>
    <trkpt lat="45.6041149" lon="10.459335">
      <ele>264.5</ele>
      <time>2026-04-17T11:18:37.563+02:00</time>
      <extensions>
        <activity type="STILL" conf="96" state="still" tsMs="1776417513835"/>
        <radio op="vodafone IT" rat="LTE" q="29.40" rsrp="-111" sinr="16" rsrq="-11"/>
        <radio op="I TIM" rat="LTE" q="16.80" rsrp="-113" sinr="9" rsrq="-12"/>
      </extensions>
    </trkpt>
    <trkpt lat="45.6041007" lon="10.4593519">
      <ele>264.5</ele>
      <time>2026-04-17T11:19:09.06+02:00</time>
      <extensions>
        <activity type="UNKNOWN" conf="40" state="unknown" tsMs="1776417545369"/>
        <radio op="vodafone IT" rat="LTE" q="37.40" rsrp="-108" sinr="17" rsrq="-11"/>
        <radio op="I TIM" rat="LTE" q="22.40" rsrp="-111" sinr="11" rsrq="-10"/>
      </extensions>
    </trkpt>
    <trkpt lat="45.6046049" lon="10.4593454">
      <ele>264.5</ele>
      <time>2026-04-17T11:44:19.201+02:00</time>
      <extensions>
        <activity type="ON_FOOT" conf="88" state="moving" tsMs="1776419058590"/>
        <radio op="vodafone IT" rat="LTE" q="13.00" rsrp="-115" sinr="8" rsrq="-8"/>
        <radio op="I TIM" rat="LTE" q="62.50" rsrp="-100" sinr="23" rsrq="-10"/>
      </extensions>
    </trkpt>
    <trkpt lat="45.6045584" lon="10.4592991">
      <ele>264.5</ele>
      <time>2026-04-17T11:45:00.652+02:00</time>
      <extensions>
        <activity type="UNKNOWN" conf="40" state="unknown" tsMs="1776419098591"/>
        <radio op="vodafone IT" rat="LTE" q="26.60" rsrp="-111" sinr="14" rsrq="-11"/>
        <radio op="I TIM" rat="LTE" q="55.00" rsrp="-100" sinr="17" rsrq="-10"/>
      </extensions>
    </trkpt>
    <trkpt lat="45.6046067" lon="10.4593259">
      <ele>264.5</ele>
      <time>2026-04-17T11:45:33.094+02:00</time>
      <extensions>
        <activity type="UNKNOWN" conf="40" state="unknown" tsMs="1776419131811"/>
        <radio op="vodafone IT" rat="LTE" q="20.40" rsrp="-113" sinr="12" rsrq="-8"/>
        <radio op="I TIM" rat="LTE" q="57.50" rsrp="-100" sinr="18" rsrq="-9"/>
      </extensions>
    </trkpt>
    <trkpt lat="45.6044174" lon="10.4592732">
      <ele>264.4000244140625</ele>
      <time>2026-04-17T11:46:09.824+02:00</time>
      <extensions>
        <activity type="UNKNOWN" conf="40" state="unknown" tsMs="1776419164592"/>
        <radio op="vodafone IT" rat="LTE" q="45.00" rsrp="-107" sinr="23" rsrq="-7"/>
        <radio op="I TIM" rat="LTE" rsrp="-97" rsrq="-7"/>
      </extensions>
    </trkpt>
    <trkpt lat="45.6043207" lon="10.4593441">
      <ele>264.4000244140625</ele>
      <time>2026-04-17T11:46:48.923+02:00</time>
      <extensions>
        <activity type="UNKNOWN" conf="40" state="unknown" tsMs="1776419205953"/>
        <radio op="vodafone IT" rat="LTE" q="72.50" rsrp="-96" sinr="21" rsrq="-10"/>
        <radio op="I TIM" rat="LTE" q="49.40" rsrp="-99" sinr="14" rsrq="-8"/>
      </extensions>
    </trkpt>
    <trkpt lat="45.6043103" lon="10.4593598">
      <ele>264.4000244140625</ele>
      <time>2026-04-17T11:47:18.95+02:00</time>
      <extensions>
        <activity type="UNKNOWN" conf="40" state="unknown" tsMs="1776419236664"/>
        <radio op="vodafone IT" rat="LTE" q="25.60" rsrp="-109" sinr="11" rsrq="-8"/>
        <radio op="I TIM" rat="LTE" q="72.50" rsrp="-96" sinr="22" rsrq="-9"/>
      </extensions>
    </trkpt>
    <trkpt lat="45.6044589" lon="10.4589778">
      <ele>264.5</ele>
      <time>2026-04-17T11:47:57.447+02:00</time>
      <extensions>
        <activity type="ON_FOOT" conf="82" state="moving" tsMs="1776419278526"/>
        <radio op="vodafone IT" rat="LTE" q="72.50" rsrp="-96" sinr="24" rsrq="-11"/>
        <radio op="I TIM" rat="LTE" q="64.60" rsrp="-87" sinr="12" rsrq="-12"/>
      </extensions>
    </trkpt>
    <trkpt lat="45.6045182" lon="10.4587534">
      <ele>270.02984414167383</ele>
      <time>2026-04-17T11:48:27.454+02:00</time>
      <extensions>
        <activity type="ON_FOOT" conf="96" state="moving" tsMs="1776419305406"/>
        <radio op="vodafone IT" rat="LTE" q="46.80" rsrp="-99" sinr="13" rsrq="-8"/>
        <radio op="I TIM" rat="LTE" q="87.40" rsrp="-87" sinr="18" rsrq="-12"/>
      </extensions>
    </trkpt>
    <trkpt lat="45.6045182" lon="10.4587534">
      <ele>269.5418668575278</ele>
      <time>2026-04-17T11:49:01.012+02:00</time>
      <extensions>
        <activity type="ON_FOOT" conf="81" state="moving" tsMs="1776419337405"/>
        <radio op="vodafone IT" rat="LTE" q="43.70" rsrp="-102" sinr="14" rsrq="-9"/>
        <radio op="I TIM" rat="LTE" q="92.50" rsrp="-88" sinr="24" rsrq="-11"/>
      </extensions>
    </trkpt>
    <trkpt lat="45.6045293" lon="10.4587105">
      <ele>269.3000183105469</ele>
      <time>2026-04-17T11:49:36.67+02:00</time>
      <extensions>
        <activity type="UNKNOWN" conf="40" state="unknown" tsMs="1776419373964"/>
        <radio op="vodafone IT" rat="LTE" q="34.20" rsrp="-106" sinr="13" rsrq="-11"/>
        <radio op="I TIM" rat="LTE" q="77.00" rsrp="-90" sinr="17" rsrq="-11"/>
      </extensions>
    </trkpt>
    <trkpt lat="45.6044732" lon="10.4588285">
      <ele>269.5</ele>
      <time>2026-04-17T11:50:06.685+02:00</time>
      <extensions>
        <activity type="UNKNOWN" conf="40" state="unknown" tsMs="1776419407556"/>
        <radio op="vodafone IT" rat="LTE" q="30.00" rsrp="-95" sinr="5" rsrq="-8"/>
        <radio op="I TIM" rat="LTE" q="100.00" rsrp="-83" sinr="29" rsrq="-7"/>
      </extensions>
    </trkpt>
    <trkpt lat="45.6045454" lon="10.4589019">
      <ele>269.3000183105469</ele>
      <time>2026-04-17T11:50:39.892+02:00</time>
      <extensions>
        <activity type="UNKNOWN" conf="40" state="unknown" tsMs="1776419434987"/>
        <radio op="vodafone IT" rat="LTE" q="67.50" rsrp="-98" sinr="24" rsrq="-8"/>
        <radio op="I TIM" rat="LTE" q="100.00" rsrp="-80" sinr="29" rsrq="-10"/>
      </extensions>
    </trkpt>
    <trkpt lat="45.604563" lon="10.4588993">
      <ele>269.3000183105469</ele>
      <time>2026-04-17T11:51:11.047+02:00</time>
      <extensions>
        <activity type="STILL" conf="40" state="still" tsMs="1776419467336"/>
        <radio op="vodafone IT" rat="LTE" q="64.40" rsrp="-97" sinr="18" rsrq="-10"/>
        <radio op="I TIM" rat="LTE" q="100.00" rsrp="-85" sinr="26" rsrq="-7"/>
      </extensions>
    </trkpt>
    <trkpt lat="45.6046023" lon="10.458842">
      <ele>269.3000183105469</ele>
      <time>2026-04-17T11:51:42.26+02:00</time>
      <extensions>
        <activity type="STILL" conf="97" state="still" tsMs="1776419498355"/>
        <radio op="vodafone IT" rat="LTE" q="82.50" rsrp="-92" sinr="29" rsrq="-6"/>
        <radio op="I TIM" rat="LTE" q="100.00" rsrp="-82" sinr="25" rsrq="-12"/>
      </extensions>
    </trkpt>
    <trkpt lat="45.6046299" lon="10.4591611">
      <ele>269.3000183105469</ele>
      <time>2026-04-17T11:52:08.334+02:00</time>
      <extensions>
        <activity type="STILL" conf="99" state="still" tsMs="1776419528546"/>
        <radio op="vodafone IT" rat="LTE" q="77.50" rsrp="-94" sinr="27" rsrq="-10"/>
        <radio op="I TIM" rat="LTE" q="100.00" rsrp="-82" sinr="24" rsrq="-10"/>
      </extensions>
    </trkpt>
    <trkpt lat="45.6045401" lon="10.4588815">
      <ele>269.5</ele>
      <time>2026-04-17T11:52:43.854+02:00</time>
      <extensions>
        <activity type="STILL" conf="99" state="still" tsMs="1776419560047"/>
        <radio op="vodafone IT" rat="LTE" q="65.00" rsrp="-99" sinr="25" rsrq="-6"/>
        <radio op="I TIM" rat="LTE" q="100.00" rsrp="-83" sinr="23" rsrq="-7"/>
      </extensions>
    </trkpt>
    <trkpt lat="45.6045082" lon="10.4588954">
      <ele>269.5</ele>
      <time>2026-04-17T11:52:59.756+02:00</time>
      <extensions>
        <activity type="UNKNOWN" conf="40" state="unknown" tsMs="1776419579495"/>
        <radio op="vodafone IT" rat="LTE" q="80.00" rsrp="-93" sinr="23" rsrq="-6"/>
        <radio op="I TIM" rat="LTE" q="100.00" rsrp="-84" sinr="27" rsrq="-8"/>
      </extensions>
    </trkpt>
    <trkpt lat="45.6044813" lon="10.4588525">
      <ele>269.5</ele>
      <time>2026-04-17T11:53:12.523+02:00</time>
      <extensions>
        <activity type="UNKNOWN" conf="40" state="unknown" tsMs="1776419579495"/>
        <radio op="vodafone IT" rat="LTE" q="62.50" rsrp="-100" sinr="24" rsrq="-12"/>
        <radio op="I TIM" rat="LTE" q="100.00" rsrp="-85" sinr="23" rsrq="-11"/>
      </extensions>
    </trkpt>
    <trkpt lat="45.6045118" lon="10.4588901">
      <ele>269.5</ele>
      <time>2026-04-17T11:53:45.237+02:00</time>
      <extensions>
        <activity type="STILL" conf="41" state="still" tsMs="1776419622479"/>
        <radio op="vodafone IT" rat="LTE" q="75.00" rsrp="-95" sinr="26" rsrq="-6"/>
        <radio op="I TIM" rat="LTE" q="100.00" rsrp="-84" sinr="23" rsrq="-6"/>
      </extensions>
    </trkpt>
    <trkpt lat="45.6044943" lon="10.4588861">
      <ele>269.5</ele>
      <time>2026-04-17T11:54:16.417+02:00</time>
      <extensions>
        <activity type="STILL" conf="97" state="still" tsMs="1776419652906"/>
        <radio op="vodafone IT" rat="LTE" q="77.50" rsrp="-94" sinr="21" rsrq="-6"/>
        <radio op="I TIM" rat="LTE" q="100.00" rsrp="-84" sinr="23" rsrq="-7"/>
      </extensions>
    </trkpt>
    <trkpt lat="45.6044948" lon="10.4589145">
      <ele>269.5</ele>
      <time>2026-04-17T11:54:46.716+02:00</time>
      <extensions>
        <activity type="STILL" conf="75" state="still" tsMs="1776419683696"/>
        <radio op="vodafone IT" rat="LTE" q="72.50" rsrp="-96" sinr="26" rsrq="-8"/>
        <radio op="I TIM" rat="LTE" q="100.00" rsrp="-84" sinr="23" rsrq="-8"/>
      </extensions>
    </trkpt>
    <trkpt lat="45.6045074" lon="10.4589184">
      <ele>269.5</ele>
      <time>2026-04-17T11:55:19.961+02:00</time>
      <extensions>
        <activity type="STILL" conf="96" state="still" tsMs="1776419716031"/>
        <radio op="vodafone IT" rat="LTE" q="69.60" rsrp="-96" sinr="19" rsrq="-7"/>
        <radio op="I TIM" rat="LTE" q="100.00" rsrp="-84" sinr="23" rsrq="-7"/>
      </extensions>
    </trkpt>
    <trkpt lat="45.6045637" lon="10.4588065">
      <ele>269.5</ele>
      <time>2026-04-17T11:55:51.133+02:00</time>
      <extensions>
        <activity type="STILL" conf="69" state="still" tsMs="1776419747273"/>
        <radio op="vodafone IT" rat="LTE" q="62.50" rsrp="-100" sinr="20" rsrq="-8"/>
        <radio op="I TIM" rat="LTE" q="97.50" rsrp="-86" sinr="28" rsrq="-9"/>
      </extensions>
    </trkpt>
    <trkpt lat="45.6026247" lon="10.4536052">
      <ele>262.0</ele>
      <time>2026-04-17T12:11:27.519+02:00</time>
      <extensions>
        <activity type="UNKNOWN" conf="40" state="unknown" tsMs="1776420676068"/>
        <radio op="vodafone IT" rat="LTE" rsrp="-115" rsrq="-14"/>
        <radio op="I TIM" rat="LTE" q="9.80" rsrp="-111" sinr="2" rsrq="-14"/>
      </extensions>
    </trkpt>
    <trkpt lat="45.6026336" lon="10.4535888">
      <ele>262.0</ele>
      <time>2026-04-17T12:11:38.035+02:00</time>
      <extensions>
        <activity type="UNKNOWN" conf="40" state="unknown" tsMs="1776420676068"/>
        <radio op="vodafone IT" rat="LTE" q="13.50" rsrp="-110" sinr="4" rsrq="-13"/>
        <radio op="I TIM" rat="LTE" q="4.80" rsrp="-119" sinr="3" rsrq="-13"/>
      </extensions>
    </trkpt>
    <trkpt lat="45.6026466" lon="10.4535786">
      <ele>262.0</ele>
      <time>2026-04-17T12:11:45.644+02:00</time>
      <extensions>
        <activity type="UNKNOWN" conf="40" state="unknown" tsMs="1776420692942"/>
        <radio op="vodafone IT" rat="LTE" q="7.00" rsrp="-115" sinr="2" rsrq="-12"/>
        <radio op="I TIM" rat="LTE" q="3.00" rsrp="-119" sinr="0" rsrq="-12"/>
      </extensions>
    </trkpt>
    <trkpt lat="45.6026521" lon="10.4535872">
      <ele>262.0</ele>
      <time>2026-04-17T12:11:57.502+02:00</time>
      <extensions>
        <activity type="UNKNOWN" conf="40" state="unknown" tsMs="1776420715672"/>
        <radio op="vodafone IT" rat="LTE" rsrp="-119" rsrq="-16"/>
        <radio op="I TIM" rat="LTE" q="4.80" rsrp="-117" sinr="1" rsrq="-12"/>
      </extensions>
    </trkpt>
    <trkpt lat="45.602659" lon="10.4535786">
      <ele>262.0</ele>
      <time>2026-04-17T12:12:08.262+02:00</time>
      <extensions>
        <activity type="UNKNOWN" conf="40" state="unknown" tsMs="1776420715672"/>
        <radio op="vodafone IT" rat="LTE" q="6.50" rsrp="-112" sinr="0" rsrq="-14"/>
        <radio op="I TIM" rat="LTE" q="2.70" rsrp="-122" sinr="4" rsrq="-12"/>
      </extensions>
    </trkpt>
    <trkpt lat="45.6026597" lon="10.4535792">
      <ele>262.0</ele>
      <time>2026-04-17T12:12:14.817+02:00</time>
      <extensions>
        <activity type="STILL" conf="99" state="still" tsMs="1776420720852"/>
        <radio op="vodafone IT" rat="LTE" q="4.20" rsrp="-118" sinr="1" rsrq="-12"/>
        <radio op="I TIM" rat="LTE" q="1.60" rsrp="-123" sinr="3" rsrq="-12"/>
      </extensions>
    </trkpt>
    <trkpt lat="45.6026594" lon="10.4535774">
      <ele>262.0</ele>
      <time>2026-04-17T12:12:21.995+02:00</time>
      <extensions>
        <activity type="STILL" conf="99" state="still" tsMs="1776420745037"/>
        <radio op="vodafone IT" rat="LTE" q="6.00" rsrp="-115" sinr="1" rsrq="-14"/>
        <radio op="I TIM" rat="LTE" q="2.40" rsrp="-122" sinr="3" rsrq="-12"/>
      </extensions>
    </trkpt>
    <trkpt lat="45.6026151" lon="10.4536113">
      <ele>262.0</ele>
      <time>2026-04-17T12:12:38.563+02:00</time>
      <extensions>
        <activity type="STILL" conf="96" state="still" tsMs="1776420750138"/>
        <radio op="vodafone IT" rat="LTE" rsrp="-116" rsrq="-14"/>
        <radio op="I TIM" rat="LTE" q="1.00" rsrp="-123" sinr="0" rsrq="-12"/>
      </extensions>
    </trkpt>
    <trkpt lat="45.6026153" lon="10.453611">
      <ele>262.0</ele>
      <time>2026-04-17T12:12:43.981+02:00</time>
      <extensions>
        <activity type="UNKNOWN" conf="40" state="unknown" tsMs="1776420766775"/>
        <radio op="vodafone IT" rat="LTE" rsrp="-115" rsrq="-13"/>
        <radio op="I TIM" rat="LTE" rsrp="-117" rsrq="-13"/>
      </extensions>
    </trkpt>
    <trkpt lat="45.6026013" lon="10.4536169">
      <ele>262.0</ele>
      <time>2026-04-17T12:12:58.567+02:00</time>
      <extensions>
        <activity type="UNKNOWN" conf="40" state="unknown" tsMs="1776420766775"/>
        <radio op="vodafone IT" rat="LTE" q="4.20" rsrp="-119" sinr="2" rsrq="-13"/>
        <radio op="I TIM" rat="LTE" rsrp="-117" rsrq="-13"/>
      </extensions>
    </trkpt>
    <trkpt lat="45.6025859" lon="10.453622">
      <ele>262.0</ele>
      <time>2026-04-17T12:13:08.264+02:00</time>
      <extensions>
        <activity type="STILL" conf="100" state="still" tsMs="1776420772149"/>
        <radio op="vodafone IT" rat="LTE" q="4.50" rsrp="-116" sinr="0" rsrq="-13"/>
        <radio op="I TIM" rat="LTE" q="6.30" rsrp="-116" sinr="2" rsrq="-11"/>
      </extensions>
    </trkpt>
    <trkpt lat="45.6025794" lon="10.4536264">
      <ele>262.0</ele>
      <time>2026-04-17T12:13:18.001+02:00</time>
      <extensions>
        <activity type="UNKNOWN" conf="40" state="unknown" tsMs="1776420796090"/>
        <radio op="vodafone IT" rat="LTE" q="4.90" rsrp="-118" sinr="2" rsrq="-14"/>
        <radio op="I TIM" rat="LTE" rsrp="-110" rsrq="-13"/>
      </extensions>
    </trkpt>
    <trkpt lat="45.6025842" lon="10.453629">
      <ele>262.0</ele>
      <time>2026-04-17T12:13:27.911+02:00</time>
      <extensions>
        <activity type="UNKNOWN" conf="40" state="unknown" tsMs="1776420796090"/>
        <radio op="vodafone IT" rat="LTE" q="7.20" rsrp="-116" sinr="3" rsrq="-11"/>
        <radio op="I TIM" rat="LTE" rsrp="-119" rsrq="-15"/>
      </extensions>
    </trkpt>
    <trkpt lat="45.6025827" lon="10.4536245">
      <ele>262.0</ele>
      <time>2026-04-17T12:13:39.363+02:00</time>
      <extensions>
        <activity type="UNKNOWN" conf="40" state="unknown" tsMs="1776420801349"/>
        <radio op="vodafone IT" rat="LTE" q="5.40" rsrp="-116" sinr="1" rsrq="-13"/>
        <radio op="I TIM" rat="LTE" q="7.20" rsrp="-117" sinr="4" rsrq="-13"/>
      </extensions>
    </trkpt>
    <trkpt lat="45.6025841" lon="10.4536183">
      <ele>262.0</ele>
      <time>2026-04-17T12:13:49.602+02:00</time>
      <extensions>
        <activity type="UNKNOWN" conf="40" state="unknown" tsMs="1776420825364"/>
        <radio op="vodafone IT" rat="LTE" rsrp="-117" rsrq="-14"/>
        <radio op="I TIM" rat="LTE" q="6.40" rsrp="-117" sinr="3" rsrq="-15"/>
      </extensions>
    </trkpt>
    <trkpt lat="45.6025809" lon="10.4536223">
      <ele>262.0</ele>
      <time>2026-04-17T12:13:53.4+02:00</time>
      <extensions>
        <activity type="UNKNOWN" conf="40" state="unknown" tsMs="1776420825364"/>
        <radio op="vodafone IT" rat="LTE" q="18.90" rsrp="-104" sinr="4" rsrq="-11"/>
        <radio op="I TIM" rat="LTE" q="13.60" rsrp="-108" sinr="3" rsrq="-12"/>
      </extensions>
    </trkpt>
    <trkpt lat="45.6057348" lon="10.4661975">
      <ele>268.6000061035156</ele>
      <time>2026-04-17T14:14:19.358+02:00</time>
      <extensions>
        <activity type="UNKNOWN" conf="40" state="unknown" tsMs="1776428056455"/>
        <radio op="vodafone IT" rat="LTE" q="77.50" rsrp="-94" sinr="22" rsrq="-8"/>
        <radio op="I TIM" rat="LTE" q="72.60" rsrp="-92" sinr="17" rsrq="-8"/>
      </extensions>
    </trkpt>
    <trkpt lat="45.6081766" lon="10.4752148">
      <ele>270.0</ele>
      <time>2026-04-17T14:15:06.045+02:00</time>
      <extensions>
        <activity type="IN_VEHICLE" conf="87" state="moving" tsMs="1776428111525"/>
        <radio op="vodafone IT" rat="LTE" q="35.20" rsrp="-103" sinr="11" rsrq="-7"/>
        <radio op="I TIM" rat="LTE" q="44.20" rsrp="-99" sinr="12" rsrq="-7"/>
      </extensions>
    </trkpt>
    <trkpt lat="45.6098083" lon="10.4777983">
      <ele>270.0</ele>
      <time>2026-04-17T14:15:23.045+02:00</time>
      <extensions>
        <activity type="IN_VEHICLE" conf="90" state="moving" tsMs="1776428121044"/>
        <radio op="vodafone IT" rat="LTE" q="39.10" rsrp="-108" sinr="18" rsrq="-7"/>
        <radio op="I TIM" rat="LTE" q="18.70" rsrp="-108" sinr="6" rsrq="-10"/>
      </extensions>
    </trkpt>
    <trkpt lat="45.6109066" lon="10.479328">
      <ele>270.0</ele>
      <time>2026-04-17T14:15:34.044+02:00</time>
      <extensions>
        <activity type="IN_VEHICLE" conf="92" state="moving" tsMs="1776428131872"/>
        <radio op="vodafone IT" rat="LTE" q="52.80" rsrp="-101" sinr="17" rsrq="-6"/>
        <radio op="I TIM" rat="LTE" q="13.00" rsrp="-112" sinr="5" rsrq="-9"/>
      </extensions>
    </trkpt>
    <trkpt lat="45.6122751" lon="10.4805817">
      <ele>270.5</ele>
      <time>2026-04-17T14:16:06.68+02:00</time>
      <extensions>
        <activity type="IN_VEHICLE" conf="86" state="moving" tsMs="1776428164204"/>
        <radio op="vodafone IT" rat="LTE" q="11.90" rsrp="-108" sinr="2" rsrq="-12"/>
        <radio op="I TIM" rat="LTE" rsrp="-120" rsrq="-15"/>
      </extensions>
    </trkpt>
    <trkpt lat="45.6155533" lon="10.4830753">
      <ele>275.1000061035156</ele>
      <time>2026-04-17T14:16:41.045+02:00</time>
      <extensions>
        <activity type="IN_VEHICLE" conf="96" state="moving" tsMs="1776428198277"/>
        <radio op="vodafone IT" rat="LTE" q="13.00" rsrp="-115" sinr="8" rsrq="-12"/>
        <radio op="I TIM" rat="LTE" rsrp="-121" rsrq="-20"/>
      </extensions>
    </trkpt>
    <trkpt lat="45.620493" lon="10.4859622">
      <ele>277.56987103408517</ele>
      <time>2026-04-17T14:17:29.047+02:00</time>
      <extensions>
        <activity type="IN_VEHICLE" conf="94" state="moving" tsMs="1776428246527"/>
        <radio op="vodafone IT" rat="LTE" q="9.60" rsrp="-113" sinr="3" rsrq="-11"/>
        <radio op="I TIM" rat="LTE" q="6.00" rsrp="-115" sinr="1" rsrq="-12"/>
      </extensions>
    </trkpt>
    <trkpt lat="45.6236477" lon="10.492713">
      <ele>285.20001220703125</ele>
      <time>2026-04-17T14:18:13.699+02:00</time>
      <extensions>
        <activity type="IN_VEHICLE" conf="95" state="moving" tsMs="1776428289651"/>
        <radio op="vodafone IT" rat="LTE" q="5.00" rsrp="-115" sinr="0" rsrq="-14"/>
        <radio op="I TIM" rat="LTE" q="16.80" rsrp="-111" sinr="7" rsrq="-12"/>
      </extensions>
    </trkpt>
    <trkpt lat="45.6236645" lon="10.4935572">
      <ele>285.20001220703125</ele>
      <time>2026-04-17T14:18:20.048+02:00</time>
      <extensions>
        <activity type="IN_VEHICLE" conf="96" state="moving" tsMs="1776428299479"/>
        <radio op="vodafone IT" rat="LTE" q="18.00" rsrp="-107" sinr="5" rsrq="-12"/>
        <radio op="I TIM" rat="LTE" q="4.80" rsrp="-119" sinr="3" rsrq="-13"/>
      </extensions>
    </trkpt>
    <trkpt lat="45.6237128" lon="10.4932081">
      <ele>281.45039348465275</ele>
      <time>2026-04-17T14:19:04.449+02:00</time>
      <extensions>
        <activity type="TILTING" conf="100" state="moving" tsMs="1776428338840"/>
        <radio op="vodafone IT" rat="LTE" q="29.40" rsrp="-104" sinr="9" rsrq="-11"/>
        <radio op="I TIM" rat="LTE" q="15.20" rsrp="-106" sinr="3" rsrq="-12"/>
      </extensions>
    </trkpt>
    <trkpt lat="45.623663" lon="10.49262">
      <ele>281.1519339543811</ele>
      <time>2026-04-17T14:19:35.716+02:00</time>
      <extensions>
        <activity type="ON_FOOT" conf="97" state="moving" tsMs="1776428375215"/>
        <radio op="vodafone IT" rat="LTE" q="5.60" rsrp="-117" sinr="2" rsrq="-11"/>
        <radio op="I TIM" rat="LTE" q="12.00" rsrp="-113" sinr="5" rsrq="-12"/>
      </extensions>
    </trkpt>
    <trkpt lat="45.6238096" lon="10.4926983">
      <ele>281.234485554158</ele>
      <time>2026-04-17T14:20:19.117+02:00</time>
      <extensions>
        <activity type="ON_FOOT" conf="96" state="moving" tsMs="1776428407893"/>
        <radio op="vodafone IT" rat="LTE" rsrp="-126" rsrq="-14"/>
        <radio op="I TIM" rat="LTE" q="1.60" rsrp="-123" sinr="3" rsrq="-14"/>
      </extensions>
    </trkpt>
    <trkpt lat="45.6238195" lon="10.4926733">
      <ele>290.76923289402913</ele>
      <time>2026-04-17T14:20:54.937+02:00</time>
      <extensions>
        <activity type="UNKNOWN" conf="40" state="unknown" tsMs="1776428453191"/>
        <radio op="vodafone IT" rat="OTHER"/>
        <radio op="I TIM" rat="LTE" rsrq="-20"/>
      </extensions>
    </trkpt>
    <trkpt lat="45.6237875" lon="10.4926982">
      <ele>285.1000061035156</ele>
      <time>2026-04-17T14:21:31.871+02:00</time>
      <extensions>
        <activity type="ON_FOOT" conf="87" state="moving" tsMs="1776428491874"/>
        <radio op="vodafone IT" rat="LTE" q="24.70" rsrp="-106" sinr="8" rsrq="-7"/>
        <radio op="I TIM" rat="LTE" q="25.50" rsrp="-108" sinr="10" rsrq="-13"/>
      </extensions>
    </trkpt>
    <trkpt lat="45.6237763" lon="10.4927086">
      <ele>287.1976074032196</ele>
      <time>2026-04-17T14:22:27.748+02:00</time>
      <extensions>
        <activity type="UNKNOWN" conf="40" state="unknown" tsMs="1776428542877"/>
        <radio op="vodafone IT" rat="LTE" rsrp="-109" rsrq="-14"/>
        <radio op="I TIM" rat="LTE" q="17.00" rsrp="-115" sinr="12" rsrq="-13"/>
      </extensions>
    </trkpt>
    <trkpt lat="45.6238075" lon="10.4927098">
      <ele>287.03443110425917</ele>
      <time>2026-04-17T14:22:59.953+02:00</time>
      <extensions>
        <activity type="STILL" conf="99" state="still" tsMs="1776428576537"/>
        <radio op="vodafone IT" rat="LTE" rsrp="-117" rsrq="-13"/>
        <radio op="I TIM" rat="LTE" q="18.00" rsrp="-113" sinr="10" rsrq="-12"/>
      </extensions>
    </trkpt>
    <trkpt lat="45.6237119" lon="10.4927329">
      <ele>285.20001220703125</ele>
      <time>2026-04-17T14:23:31.575+02:00</time>
      <extensions>
        <activity type="STILL" conf="96" state="still" tsMs="1776428608269"/>
        <radio op="vodafone IT" rat="LTE" q="25.20" rsrp="-111" sinr="13" rsrq="-10"/>
        <radio op="I TIM" rat="LTE" q="6.30" rsrp="-118" sinr="4" rsrq="-14"/>
      </extensions>
    </trkpt>
    <trkpt lat="45.6238276" lon="10.4926956">
      <ele>285.1000061035156</ele>
      <time>2026-04-17T14:24:03.511+02:00</time>
      <extensions>
        <activity type="ON_FOOT" conf="88" state="moving" tsMs="1776428640329"/>
        <radio op="vodafone IT" rat="LTE" rsrp="-119" rsrq="-12"/>
        <radio op="I TIM" rat="LTE" q="4.00" rsrp="-120" sinr="3" rsrq="-13"/>
      </extensions>
    </trkpt>
    <trkpt lat="45.6237189" lon="10.4927336">
      <ele>285.1000061035156</ele>
      <time>2026-04-17T14:24:35.504+02:00</time>
      <extensions>
        <activity type="UNKNOWN" conf="40" state="unknown" tsMs="1776428672162"/>
        <radio op="vodafone IT" rat="LTE" q="31.50" rsrp="-110" sinr="16" rsrq="-7"/>
        <radio op="I TIM" rat="LTE" q="9.90" rsrp="-116" sinr="6" rsrq="-13"/>
      </extensions>
    </trkpt>
    <trkpt lat="45.6236847" lon="10.4927552">
      <ele>285.20001220703125</ele>
      <time>2026-04-17T14:25:07.011+02:00</time>
      <extensions>
        <activity type="UNKNOWN" conf="40" state="unknown" tsMs="1776428703901"/>
        <radio op="vodafone IT" rat="LTE" q="8.00" rsrp="-115" sinr="3" rsrq="-10"/>
        <radio op="I TIM" rat="LTE" q="7.20" rsrp="-117" sinr="4" rsrq="-13"/>
      </extensions>
    </trkpt>
    <trkpt lat="45.6238151" lon="10.4927038">
      <ele>286.8844447382739</ele>
      <time>2026-04-17T14:25:38.641+02:00</time>
      <extensions>
        <activity type="UNKNOWN" conf="40" state="unknown" tsMs="1776428735400"/>
        <radio op="vodafone IT" rat="LTE" q="4.00" rsrp="-120" sinr="3" rsrq="-13"/>
        <radio op="I TIM" rat="LTE" rsrp="-118" rsrq="-14"/>
      </extensions>
    </trkpt>
    <trkpt lat="45.6238221" lon="10.4926908">
      <ele>286.87172771363703</ele>
      <time>2026-04-17T14:26:10.305+02:00</time>
      <extensions>
        <activity type="UNKNOWN" conf="40" state="unknown" tsMs="1776428767089"/>
        <radio op="vodafone IT" rat="LTE" q="0.70" rsrp="-124" sinr="2" rsrq="-15"/>
        <radio op="I TIM" rat="LTE" rsrp="-124" rsrq="-12"/>
      </extensions>
    </trkpt>
    <trkpt lat="45.6238304" lon="10.4926756">
      <ele>287.12183264998373</ele>
      <time>2026-04-17T14:26:49.627+02:00</time>
      <extensions>
        <activity type="STILL" conf="99" state="still" tsMs="1776428809536"/>
        <radio op="vodafone IT" rat="LTE" q="1.60" rsrp="-123" sinr="3" rsrq="-13"/>
        <radio op="I TIM" rat="LTE" q="2.80" rsrp="-121" sinr="2" rsrq="-12"/>
      </extensions>
    </trkpt>
    <trkpt lat="45.6238167" lon="10.4926976">
      <ele>287.46308925347057</ele>
      <time>2026-04-17T14:27:47.718+02:00</time>
      <extensions>
        <activity type="IN_VEHICLE" conf="95" state="moving" tsMs="1776428867321"/>
        <radio op="vodafone IT" rat="LTE" q="1.60" rsrp="-123" sinr="3" rsrq="-13"/>
        <radio op="I TIM" rat="LTE" q="1.40" rsrp="-123" sinr="2" rsrq="-12"/>
      </extensions>
    </trkpt>
    <trkpt lat="45.6238277" lon="10.4926865">
      <ele>287.34230496241105</ele>
      <time>2026-04-17T14:28:19.443+02:00</time>
      <extensions>
        <activity type="STILL" conf="99" state="still" tsMs="1776428894852"/>
        <radio op="vodafone IT" rat="LTE" q="1.20" rsrp="-124" sinr="7" rsrq="-13"/>
        <radio op="I TIM" rat="LTE" rsrp="-125" rsrq="-13"/>
      </extensions>
    </trkpt>
    <trkpt lat="45.6024118" lon="10.4554732">
      <ele>261.8000183105469</ele>
      <time>2026-04-17T18:03:41.103+02:00</time>
      <extensions>
        <activity type="UNKNOWN" conf="40" state="unknown" tsMs="1776441820999"/>
        <radio op="vodafone IT" rat="LTE" q="19.80" rsrp="-103" sinr="4" rsrq="-10"/>
        <radio op="I TIM" rat="LTE" rsrp="-108" rsrq="-15"/>
      </extensions>
    </trkpt>
    <trkpt lat="45.6025523" lon="10.4536826">
      <ele>262.0</ele>
      <time>2026-04-17T18:06:26.615+02:00</time>
      <extensions>
        <activity type="UNKNOWN" conf="40" state="unknown" tsMs="1776441984934"/>
        <radio op="vodafone IT" rat="LTE" q="8.10" rsrp="-116" sinr="4" rsrq="-11"/>
        <radio op="I TIM" rat="LTE" q="14.40" rsrp="-113" sinr="7" rsrq="-13"/>
      </extensions>
    </trkpt>
    <trkpt lat="45.602548" lon="10.453657">
      <ele>262.0</ele>
      <time>2026-04-17T18:06:38.174+02:00</time>
      <extensions>
        <activity type="UNKNOWN" conf="40" state="unknown" tsMs="1776441994370"/>
        <radio op="vodafone IT" rat="LTE" rsrp="-123" rsrq="-15"/>
        <radio op="I TIM" rat="LTE" rsrp="-129" rsrq="-20"/>
      </extensions>
    </trkpt>
    <trkpt lat="45.6025513" lon="10.4536751">
      <ele>262.0</ele>
      <time>2026-04-17T18:06:44.009+02:00</time>
      <extensions>
        <activity type="UNKNOWN" conf="40" state="unknown" tsMs="1776442001648"/>
        <radio op="vodafone IT" rat="LTE" q="1.50" rsrp="-122" sinr="0" rsrq="-12"/>
        <radio op="I TIM" rat="LTE" q="4.80" rsrp="-119" sinr="3" rsrq="-12"/>
      </extensions>
    </trkpt>
    <trkpt lat="45.6025289" lon="10.4536494">
      <ele>262.0</ele>
      <time>2026-04-17T18:06:58.435+02:00</time>
      <extensions>
        <activity type="UNKNOWN" conf="40" state="unknown" tsMs="1776442016181"/>
        <radio op="vodafone IT" rat="LTE" q="9.60" rsrp="-109" sinr="1" rsrq="-10"/>
        <radio op="I TIM" rat="LTE" q="11.70" rsrp="-112" sinr="4" rsrq="-13"/>
      </extensions>
    </trkpt>
    <trkpt lat="45.6025405" lon="10.4536442">
      <ele>262.0</ele>
      <time>2026-04-17T18:06:58.955+02:00</time>
      <extensions>
        <activity type="STILL" conf="34" state="still" tsMs="1776442026902"/>
        <radio op="vodafone IT" rat="LTE" q="12.00" rsrp="-110" sinr="3" rsrq="-12"/>
        <radio op="I TIM" rat="LTE" q="16.80" rsrp="-111" sinr="7" rsrq="-13"/>
      </extensions>
    </trkpt>
    <trkpt lat="45.6025586" lon="10.4536463">
      <ele>262.0</ele>
      <time>2026-04-17T18:07:39.122+02:00</time>
      <extensions>
        <activity type="STILL" conf="96" state="still" tsMs="1776442053580"/>
        <radio op="vodafone IT" rat="LTE" q="12.00" rsrp="-110" sinr="3" rsrq="-10"/>
        <radio op="I TIM" rat="LTE" q="21.00" rsrp="-110" sinr="9" rsrq="-11"/>
      </extensions>
    </trkpt>
    <trkpt lat="45.6025684" lon="10.4536448">
      <ele>262.0</ele>
      <time>2026-04-17T18:08:10.447+02:00</time>
      <extensions>
        <activity type="STILL" conf="53" state="still" tsMs="1776442086661"/>
        <radio op="vodafone IT" rat="LTE" q="22.40" rsrp="-109" sinr="9" rsrq="-10"/>
        <radio op="I TIM" rat="LTE" q="21.00" rsrp="-110" sinr="9" rsrq="-12"/>
      </extensions>
    </trkpt>
    <trkpt lat="45.6025625" lon="10.4536465">
      <ele>262.0</ele>
      <time>2026-04-17T18:09:09.52+02:00</time>
      <extensions>
        <activity type="STILL" conf="99" state="still" tsMs="1776442145616"/>
        <radio op="vodafone IT" rat="LTE" rsrp="-116" rsrq="-13"/>
        <radio op="I TIM" rat="LTE" q="18.90" rsrp="-116" sinr="16" rsrq="-12"/>
      </extensions>
    </trkpt>
  </trkseg></trk>
</gpx>
