<?xml version="1.0" encoding="UTF-8"?>
<gpx version="1.1" creator="CellGPX" xmlns="http://www.topografix.com/GPX/1/1">
  <trk><name>CellGPX</name><trkseg>
    <trkpt lat="45.6025572" lon="10.4536816">
      <ele>261.6000061035156</ele>
      <time>2026-09-19T00:05:52.56+02:00</time>
      <extensions>
        <activity type="STILL" conf="100" state="still" tsMs="1789769131719"/>
        <radio op="vodafone IT" rat="LTE" q="10.20" rsrp="-108" sinr="1" rsrq="-11"/>
        <radio op="I TIM" rat="LTE" q="22.50" rsrp="-110" sinr="10" rsrq="-10"/>
      </extensions>
    </trkpt>
    <trkpt lat="45.6025565" lon="10.4536819">
      <ele>261.6000061035156</ele>
      <time>2026-09-19T00:06:24.204+02:00</time>
      <extensions>
        <activity type="STILL" conf="100" state="still" tsMs="1789769163495"/>
        <radio op="vodafone IT" rat="LTE" q="11.70" rsrp="-112" sinr="4" rsrq="-14"/>
        <radio op="I TIM" rat="LTE" q="13.50" rsrp="-110" sinr="4" rsrq="-10"/>
      </extensions>
    </trkpt>
    <trkpt lat="45.6025657" lon="10.4536952">
      <ele>261.6000061035156</ele>
      <time>2026-09-19T00:07:16.146+02:00</time>
      <extensions>
        <activity type="STILL" conf="100" state="still" tsMs="1789769225584"/>
        <radio op="vodafone IT" rat="LTE" rsrp="-114" rsrq="-9"/>
        <radio op="I TIM" rat="LTE" q="16.80" rsrp="-113" sinr="9" rsrq="-8"/>
      </extensions>
    </trkpt>
    <trkpt lat="45.6025584" lon="10.4536864">
      <ele>261.6000061035156</ele>
      <time>2026-09-19T00:08:18.173+02:00</time>
      <extensions>
        <activity type="STILL" conf="100" state="still" tsMs="1789769287558"/>
        <radio op="vodafone IT" rat="LTE" rsrp="-116" rsrq="-12"/>
        <radio op="I TIM" rat="LTE" q="7.50" rsrp="-110" sinr="0" rsrq="-10"/>
      </extensions>
    </trkpt>
    <trkpt lat="45.6025996" lon="10.4541509">
      <ele>261.6000061035156</ele>
      <time>2026-09-19T12:30:53.788+02:00</time>
      <extensions>
        <activity type="UNKNOWN" conf="40" state="unknown" tsMs="1789813857516"/>
        <radio op="vodafone IT" rat="LTE" q="16.80" rsrp="-111" sinr="7" rsrq="-12"/>
        <radio op="I TIM" rat="LTE" rsrp="-118" rsrq="-20"/>
      </extensions>
    </trkpt>
    <trkpt lat="45.6029983" lon="10.4536518">
      <ele>262.0</ele>
      <time>2026-09-19T12:32:35.682+02:00</time>
      <extensions>
        <activity type="IN_VEHICLE" conf="93" state="moving" tsMs="1789813953354"/>
        <radio op="vodafone IT" rat="LTE" q="22.00" rsrp="-105" sinr="6" rsrq="-13"/>
        <radio op="I TIM" rat="LTE" q="40.80" rsrp="-101" sinr="12" rsrq="-12"/>
      </extensions>
    </trkpt>
    <trkpt lat="45.6030222" lon="10.4571949">
      <ele>263.9114848560288</ele>
      <time>2026-09-19T12:33:33.353+02:00</time>
      <extensions>
        <activity type="UNKNOWN" conf="40" state="unknown" tsMs="1789814008036"/>
        <radio op="vodafone IT" rat="LTE" q="62.50" rsrp="-100" sinr="20" rsrq="-10"/>
        <radio op="I TIM" rat="LTE" q="49.60" rsrp="-94" sinr="11" rsrq="-11"/>
      </extensions>
    </trkpt>
    <trkpt lat="45.6031808" lon="10.45804">
      <ele>263.9114848560288</ele>
      <time>2026-09-19T12:33:43.015+02:00</time>
      <extensions>
        <activity type="UNKNOWN" conf="40" state="unknown" tsMs="1789814017210"/>
        <radio op="vodafone IT" rat="LTE" q="82.50" rsrp="-92" sinr="29" rsrq="-7"/>
        <radio op="I TIM" rat="LTE" q="100.00" rsrp="-84" sinr="29" rsrq="-8"/>
      </extensions>
    </trkpt>
    <trkpt lat="45.6039771" lon="10.4596755">
      <ele>264.1000061035156</ele>
      <time>2026-09-19T12:34:16.706+02:00</time>
      <extensions>
        <activity type="IN_VEHICLE" conf="91" state="moving" tsMs="1789814052347"/>
        <radio op="vodafone IT" rat="LTE" q="92.50" rsrp="-88" sinr="29" rsrq="-12"/>
        <radio op="I TIM" rat="LTE" q="64.60" rsrp="-87" sinr="12" rsrq="-11"/>
      </extensions>
    </trkpt>
    <trkpt lat="45.604812" lon="10.4680502">
      <ele>273.5987194437871</ele>
      <time>2026-09-19T12:35:21.023+02:00</time>
      <extensions>
        <activity type="IN_VEHICLE" conf="89" state="moving" tsMs="1789814117339"/>
        <radio op="vodafone IT" rat="LTE" q="62.50" rsrp="-100" sinr="22" rsrq="-7"/>
        <radio op="I TIM" rat="LTE" q="27.00" rsrp="-107" sinr="10" rsrq="-6"/>
      </extensions>
    </trkpt>
    <trkpt lat="45.6126169" lon="10.4866265">
      <ele>241.62178415798303</ele>
      <time>2026-09-19T12:36:46.211+02:00</time>
      <extensions>
        <activity type="IN_VEHICLE" conf="93" state="moving" tsMs="1789814231348"/>
        <radio op="vodafone IT" rat="LTE" q="9.00" rsrp="-110" sinr="1" rsrq="-12"/>
        <radio op="I TIM" rat="LTE" rsrp="-115" rsrq="-18"/>
      </extensions>
    </trkpt>
    <trkpt lat="45.6121159" lon="10.4900162">
      <ele>232.39677572482765</ele>
      <time>2026-09-19T12:37:37.495+02:00</time>
      <extensions>
        <activity type="IN_VEHICLE" conf="97" state="moving" tsMs="1789814249367"/>
        <radio op="vodafone IT" rat="LTE" q="13.50" rsrp="-110" sinr="4" rsrq="-10"/>
        <radio op="I TIM" rat="LTE" rsrp="-113" rsrq="-17"/>
      </extensions>
    </trkpt>
    <trkpt lat="45.610992" lon="10.4953994">
      <ele>217.3000030517578</ele>
      <time>2026-09-19T12:38:23.412+02:00</time>
      <extensions>
        <activity type="IN_VEHICLE" conf="94" state="moving" tsMs="1789814303341"/>
        <radio op="vodafone IT" rat="LTE" q="21.00" rsrp="-111" sinr="10" rsrq="-10"/>
        <radio op="I TIM" rat="LTE" rsrp="-118" rsrq="-13"/>
      </extensions>
    </trkpt>
    <trkpt lat="45.6112707" lon="10.4954226">
      <ele>217.3000030517578</ele>
      <time>2026-09-19T12:38:30.039+02:00</time>
      <extensions>
        <activity type="UNKNOWN" conf="40" state="unknown" tsMs="1789814307252"/>
        <radio op="vodafone IT" rat="LTE" q="55.00" rsrp="-103" sinr="20" rsrq="-7"/>
        <radio op="I TIM" rat="LTE" rsrp="-118" rsrq="-17"/>
      </extensions>
    </trkpt>
    <trkpt lat="45.6176782" lon="10.4940064">
      <ele>224.20001220703125</ele>
      <time>2026-09-19T12:40:20.568+02:00</time>
      <extensions>
        <activity type="UNKNOWN" conf="40" state="unknown" tsMs="1789814418457"/>
        <radio op="vodafone IT" rat="LTE" q="12.60" rsrp="-104" sinr="1" rsrq="-12"/>
        <radio op="I TIM" rat="LTE" q="25.60" rsrp="-109" sinr="11" rsrq="-11"/>
      </extensions>
    </trkpt>
    <trkpt lat="45.6177632" lon="10.493844">
      <ele>224.20001220703125</ele>
      <time>2026-09-19T12:40:55.083+02:00</time>
      <extensions>
        <activity type="UNKNOWN" conf="40" state="unknown" tsMs="1789814441099"/>
        <radio op="vodafone IT" rat="LTE" q="54.60" rsrp="-99" sinr="16" rsrq="-7"/>
        <radio op="I TIM" rat="LTE" q="52.80" rsrp="-103" sinr="19" rsrq="-8"/>
      </extensions>
    </trkpt>
    <trkpt lat="45.6178681" lon="10.4933154">
      <ele>226.59975730965465</ele>
      <time>2026-09-19T12:41:26.516+02:00</time>
      <extensions>
        <activity type="ON_FOOT" conf="98" state="moving" tsMs="1789814478924"/>
        <radio op="vodafone IT" rat="LTE" q="22.50" rsrp="-110" sinr="10" rsrq="-11"/>
        <radio op="I TIM" rat="LTE" q="56.00" rsrp="-97" sinr="15" rsrq="-12"/>
      </extensions>
    </trkpt>
    <trkpt lat="45.6181993" lon="10.4934492">
      <ele>229.0350561928313</ele>
      <time>2026-09-19T12:41:58.112+02:00</time>
      <extensions>
        <activity type="ON_FOOT" conf="98" state="moving" tsMs="1789814509145"/>
        <radio op="vodafone IT" rat="LTE" q="27.00" rsrp="-110" sinr="13" rsrq="-11"/>
        <radio op="I TIM" rat="LTE" q="69.60" rsrp="-96" sinr="19" rsrq="-11"/>
      </extensions>
    </trkpt>
    <trkpt lat="45.6182563" lon="10.4932761">
      <ele>228.59279490945718</ele>
      <time>2026-09-19T12:42:08.101+02:00</time>
      <extensions>
        <activity type="ON_FOOT" conf="96" state="moving" tsMs="1789814521304"/>
        <radio op="vodafone IT" rat="LTE" q="18.20" rsrp="-112" sinr="9" rsrq="-10"/>
        <radio op="I TIM" rat="LTE" q="87.50" rsrp="-90" sinr="29" rsrq="-10"/>
      </extensions>
    </trkpt>
    <trkpt lat="45.6182935" lon="10.4934739">
      <ele>229.06625878337266</ele>
      <time>2026-09-19T12:42:18.059+02:00</time>
      <extensions>
        <activity type="ON_FOOT" conf="91" state="moving" tsMs="1789814530583"/>
        <radio op="vodafone IT" rat="LTE" q="37.80" rsrp="-107" sinr="16" rsrq="-9"/>
        <radio op="I TIM" rat="LTE" q="62.00" rsrp="-94" sinr="15" rsrq="-11"/>
      </extensions>
    </trkpt>
    <trkpt lat="45.6181815" lon="10.4934837">
      <ele>229.21698998892072</ele>
      <time>2026-09-19T12:42:28.128+02:00</time>
      <extensions>
        <activity type="ON_FOOT" conf="91" state="moving" tsMs="1789814530583"/>
        <radio op="vodafone IT" rat="LTE" q="30.60" rsrp="-108" sinr="13" rsrq="-8"/>
        <radio op="I TIM" rat="LTE" q="46.20" rsrp="-104" sinr="17" rsrq="-13"/>
      </extensions>
    </trkpt>
    <trkpt lat="45.6181927" lon="10.4934614">
      <ele>228.826735639183</ele>
      <time>2026-09-19T12:42:38.517+02:00</time>
      <extensions>
        <activity type="ON_FOOT" conf="93" state="moving" tsMs="1789814543008"/>
        <radio op="vodafone IT" rat="LTE" q="16.20" rsrp="-107" sinr="4" rsrq="-14"/>
        <radio op="I TIM" rat="LTE" q="21.00" rsrp="-110" sinr="9" rsrq="-12"/>
      </extensions>
    </trkpt>
    <trkpt lat="45.6181934" lon="10.4934741">
      <ele>226.8000030517578</ele>
      <time>2026-09-19T12:42:48.044+02:00</time>
      <extensions>
        <activity type="UNKNOWN" conf="40" state="unknown" tsMs="1789814555644"/>
        <radio op="vodafone IT" rat="LTE" rsrp="-105" rsrq="-16"/>
        <radio op="I TIM" rat="LTE" q="32.00" rsrp="-109" sinr="15" rsrq="-13"/>
      </extensions>
    </trkpt>
    <trkpt lat="45.6181874" lon="10.4934739">
      <ele>226.8000030517578</ele>
      <time>2026-09-19T12:42:58.026+02:00</time>
      <extensions>
        <activity type="UNKNOWN" conf="40" state="unknown" tsMs="1789814568049"/>
        <radio op="vodafone IT" rat="LTE" rsrp="-115" rsrq="-13"/>
        <radio op="I TIM" rat="LTE" q="34.20" rsrp="-106" sinr="13" rsrq="-12"/>
      </extensions>
    </trkpt>
    <trkpt lat="45.6182112" lon="10.4934532">
      <ele>226.8000030517578</ele>
      <time>2026-09-19T12:43:09.081+02:00</time>
      <extensions>
        <activity type="UNKNOWN" conf="40" state="unknown" tsMs="1789814578185"/>
        <radio op="vodafone IT" rat="LTE" q="20.80" rsrp="-112" sinr="11" rsrq="-9"/>
        <radio op="I TIM" rat="LTE" q="30.60" rsrp="-107" sinr="12" rsrq="-13"/>
      </extensions>
    </trkpt>
    <trkpt lat="45.6181526" lon="10.4935327">
      <ele>226.60000610351562</ele>
      <time>2026-09-19T12:43:19.047+02:00</time>
      <extensions>
        <activity type="ON_FOOT" conf="76" state="moving" tsMs="1789814590818"/>
        <radio op="vodafone IT" rat="LTE" q="28.80" rsrp="-107" sinr="11" rsrq="-8"/>
        <radio op="I TIM" rat="LTE" q="77.50" rsrp="-94" sinr="20" rsrq="-12"/>
      </extensions>
    </trkpt>
    <trkpt lat="45.6181599" lon="10.4935589">
      <ele>226.60000610351562</ele>
      <time>2026-09-19T12:43:28.115+02:00</time>
      <extensions>
        <activity type="ON_FOOT" conf="76" state="moving" tsMs="1789814590818"/>
        <radio op="vodafone IT" rat="LTE" q="10.50" rsrp="-110" sinr="2" rsrq="-9"/>
        <radio op="I TIM" rat="LTE" q="70.00" rsrp="-97" sinr="24" rsrq="-12"/>
      </extensions>
    </trkpt>
    <trkpt lat="45.6181447" lon="10.4935589">
      <ele>226.60000610351562</ele>
      <time>2026-09-19T12:43:35.026+02:00</time>
      <extensions>
        <activity type="STILL" conf="99" state="still" tsMs="1789814615816"/>
        <radio op="vodafone IT" rat="LTE" q="28.80" rsrp="-107" sinr="11" rsrq="-8"/>
        <radio op="I TIM" rat="LTE" q="77.70" rsrp="-88" sinr="16" rsrq="-12"/>
      </extensions>
    </trkpt>
    <trkpt lat="45.6182087" lon="10.4936065">
      <ele>226.60000610351562</ele>
      <time>2026-09-19T12:44:09.999+02:00</time>
      <extensions>
        <activity type="STILL" conf="99" state="still" tsMs="1789814644208"/>
        <radio op="vodafone IT" rat="LTE" q="48.40" rsrp="-103" sinr="17" rsrq="-8"/>
        <radio op="I TIM" rat="LTE" q="81.60" rsrp="-91" sinr="19" rsrq="-12"/>
      </extensions>
    </trkpt>
    <trkpt lat="45.6182199" lon="10.4936055">
      <ele>226.60000610351562</ele>
      <time>2026-09-19T12:44:41.207+02:00</time>
      <extensions>
        <activity type="STILL" conf="51" state="still" tsMs="1789814663173"/>
        <radio op="vodafone IT" rat="LTE" q="50.40" rsrp="-104" sinr="19" rsrq="-9"/>
        <radio op="I TIM" rat="LTE" q="92.50" rsrp="-88" sinr="24" rsrq="-12"/>
      </extensions>
    </trkpt>
    <trkpt lat="45.6181976" lon="10.4935969">
      <ele>226.60000610351562</ele>
      <time>2026-09-19T12:45:12.558+02:00</time>
      <extensions>
        <activity type="STILL" conf="100" state="still" tsMs="1789814708157"/>
        <radio op="vodafone IT" rat="LTE" q="57.50" rsrp="-100" sinr="18" rsrq="-7"/>
        <radio op="I TIM" rat="LTE" q="95.00" rsrp="-87" sinr="25" rsrq="-11"/>
      </extensions>
    </trkpt>
    <trkpt lat="45.6182532" lon="10.4935854">
      <ele>226.60000610351562</ele>
      <time>2026-09-19T12:45:43.784+02:00</time>
      <extensions>
        <activity type="STILL" conf="100" state="still" tsMs="1789814735215"/>
        <radio op="vodafone IT" rat="LTE" q="48.30" rsrp="-102" sinr="16" rsrq="-9"/>
        <radio op="I TIM" rat="LTE" q="97.50" rsrp="-86" sinr="25" rsrq="-11"/>
      </extensions>
    </trkpt>
    <trkpt lat="45.6182496" lon="10.4935902">
      <ele>226.60000610351562</ele>
      <time>2026-09-19T12:46:14.983+02:00</time>
      <extensions>
        <activity type="STILL" conf="100" state="still" tsMs="1789814763674"/>
        <radio op="vodafone IT" rat="LTE" q="55.00" rsrp="-100" sinr="17" rsrq="-8"/>
        <radio op="I TIM" rat="LTE" q="95.00" rsrp="-87" sinr="25" rsrq="-11"/>
      </extensions>
    </trkpt>
    <trkpt lat="45.6182205" lon="10.4936269">
      <ele>226.60000610351562</ele>
      <time>2026-09-19T12:47:04.992+02:00</time>
      <extensions>
        <activity type="STILL" conf="99" state="still" tsMs="1789814819074"/>
        <radio op="vodafone IT" rat="LTE" q="55.00" rsrp="-103" sinr="20" rsrq="-11"/>
        <radio op="I TIM" rat="LTE" q="90.00" rsrp="-89" sinr="21" rsrq="-10"/>
      </extensions>
    </trkpt>
    <trkpt lat="45.6182171" lon="10.4935986">
      <ele>226.60000610351562</ele>
      <time>2026-09-19T12:48:00.093+02:00</time>
      <extensions>
        <activity type="STILL" conf="99" state="still" tsMs="1789814874357"/>
        <radio op="vodafone IT" rat="LTE" q="60.00" rsrp="-101" sinr="24" rsrq="-9"/>
        <radio op="I TIM" rat="LTE" q="92.50" rsrp="-88" sinr="28" rsrq="-11"/>
      </extensions>
    </trkpt>
    <trkpt lat="45.618229" lon="10.4936314">
      <ele>226.8000030517578</ele>
      <time>2026-09-19T12:48:31.123+02:00</time>
      <extensions>
        <activity type="UNKNOWN" conf="40" state="unknown" tsMs="1789814893350"/>
        <radio op="vodafone IT" rat="LTE" q="19.80" rsrp="-107" sinr="6" rsrq="-8"/>
        <radio op="I TIM" rat="LTE" q="90.00" rsrp="-89" sinr="22" rsrq="-10"/>
      </extensions>
    </trkpt>
    <trkpt lat="45.6181812" lon="10.4936101">
      <ele>226.8000030517578</ele>
      <time>2026-09-19T12:48:34.715+02:00</time>
      <extensions>
        <activity type="UNKNOWN" conf="40" state="unknown" tsMs="1789814906268"/>
        <radio op="vodafone IT" rat="LTE" q="18.70" rsrp="-108" sinr="6" rsrq="-14"/>
        <radio op="I TIM" rat="LTE" q="85.00" rsrp="-91" sinr="22" rsrq="-10"/>
      </extensions>
    </trkpt>
    <trkpt lat="45.6182263" lon="10.4936089">
      <ele>226.60000610351562</ele>
      <time>2026-09-19T12:49:12.351+02:00</time>
      <extensions>
        <activity type="STILL" conf="96" state="still" tsMs="1789814943103"/>
        <radio op="vodafone IT" rat="LTE" q="28.00" rsrp="-105" sinr="9" rsrq="-11"/>
        <radio op="I TIM" rat="LTE" q="92.50" rsrp="-88" sinr="21" rsrq="-9"/>
      </extensions>
    </trkpt>
    <trkpt lat="45.6182303" lon="10.4936459">
      <ele>226.60000610351562</ele>
      <time>2026-09-19T12:49:43.622+02:00</time>
      <extensions>
        <activity type="STILL" conf="100" state="still" tsMs="1789814971467"/>
        <radio op="vodafone IT" rat="LTE" q="28.00" rsrp="-105" sinr="9" rsrq="-9"/>
        <radio op="I TIM" rat="LTE" q="85.10" rsrp="-88" sinr="18" rsrq="-10"/>
      </extensions>
    </trkpt>
    <trkpt lat="45.6182189" lon="10.4936306">
      <ele>226.60000610351562</ele>
      <time>2026-09-19T12:50:14.79+02:00</time>
      <extensions>
        <activity type="STILL" conf="100" state="still" tsMs="1789815003212"/>
        <radio op="vodafone IT" rat="LTE" q="26.60" rsrp="-106" sinr="9" rsrq="-13"/>
        <radio op="I TIM" rat="LTE" q="90.00" rsrp="-89" sinr="22" rsrq="-11"/>
      </extensions>
    </trkpt>
    <trkpt lat="45.6181587" lon="10.4936085">
      <ele>226.60000610351562</ele>
      <time>2026-09-19T12:50:42.621+02:00</time>
      <extensions>
        <activity type="STILL" conf="96" state="still" tsMs="1789815031610"/>
        <radio op="vodafone IT" rat="LTE" rsrp="-94" rsrq="-12"/>
        <radio op="I TIM" rat="LTE" q="91.20" rsrp="-87" sinr="19" rsrq="-11"/>
      </extensions>
    </trkpt>
    <trkpt lat="45.6182322" lon="10.493641">
      <ele>226.60000610351562</ele>
      <time>2026-09-19T12:51:16.246+02:00</time>
      <extensions>
        <activity type="STILL" conf="100" state="still" tsMs="1789815066955"/>
        <radio op="vodafone IT" rat="LTE" rsrp="-94" rsrq="-9"/>
        <radio op="I TIM" rat="LTE" q="78.20" rsrp="-91" sinr="18" rsrq="-11"/>
      </extensions>
    </trkpt>
    <trkpt lat="45.6182072" lon="10.4936034">
      <ele>226.60000610351562</ele>
      <time>2026-09-19T12:51:47.426+02:00</time>
      <extensions>
        <activity type="STILL" conf="100" state="still" tsMs="1789815095373"/>
        <radio op="vodafone IT" rat="LTE" rsrp="-94" rsrq="-9"/>
        <radio op="I TIM" rat="LTE" q="97.50" rsrp="-86" sinr="21" rsrq="-11"/>
      </extensions>
    </trkpt>
    <trkpt lat="45.6182353" lon="10.4936314">
      <ele>226.60000610351562</ele>
      <time>2026-09-19T12:52:18.498+02:00</time>
      <extensions>
        <activity type="UNKNOWN" conf="40" state="unknown" tsMs="1789815130619"/>
        <radio op="vodafone IT" rat="LTE" rsrp="-95" rsrq="-8"/>
        <radio op="I TIM" rat="LTE" q="80.00" rsrp="-93" sinr="20" rsrq="-11"/>
      </extensions>
    </trkpt>
    <trkpt lat="45.6182447" lon="10.4935816">
      <ele>226.60000610351562</ele>
      <time>2026-09-19T12:52:49.613+02:00</time>
      <extensions>
        <activity type="UNKNOWN" conf="40" state="unknown" tsMs="1789815155025"/>
        <radio op="vodafone IT" rat="LTE" rsrp="-96" rsrq="-9"/>
        <radio op="I TIM" rat="LTE" q="96.00" rsrp="-82" sinr="19" rsrq="-10"/>
      </extensions>
    </trkpt>
    <trkpt lat="45.6182136" lon="10.4935833">
      <ele>226.60000610351562</ele>
      <time>2026-09-19T12:53:17.199+02:00</time>
      <extensions>
        <activity type="UNKNOWN" conf="40" state="unknown" tsMs="1789815193866"/>
        <radio op="vodafone IT" rat="LTE" rsrp="-96" rsrq="-9"/>
        <radio op="I TIM" rat="LTE" q="91.20" rsrp="-87" sinr="19" rsrq="-11"/>
      </extensions>
    </trkpt>
    <trkpt lat="45.6182067" lon="10.4936164">
      <ele>226.60000610351562</ele>
      <time>2026-09-19T12:53:51.329+02:00</time>
      <extensions>
        <activity type="STILL" conf="99" state="still" tsMs="1789815217419"/>
        <radio op="vodafone IT" rat="LTE" rsrp="-94" rsrq="-9"/>
        <radio op="I TIM" rat="LTE" q="97.50" rsrp="-86" sinr="20" rsrq="-11"/>
      </extensions>
    </trkpt>
    <trkpt lat="45.6181977" lon="10.4934648">
      <ele>226.8000030517578</ele>
      <time>2026-09-19T13:00:08.163+02:00</time>
      <extensions>
        <activity type="UNKNOWN" conf="40" state="unknown" tsMs="1789815610501"/>
        <radio op="vodafone IT" rat="LTE" q="8.40" rsrp="-113" sinr="2" rsrq="-12"/>
        <radio op="I TIM" rat="LTE" q="45.60" rsrp="-101" sinr="14" rsrq="-12"/>
      </extensions>
    </trkpt>
    <trkpt lat="45.6181969" lon="10.4934593">
      <ele>226.8000030517578</ele>
      <time>2026-09-19T13:01:01.054+02:00</time>
      <extensions>
        <activity type="UNKNOWN" conf="40" state="unknown" tsMs="1789815658072"/>
        <radio op="vodafone IT" rat="LTE" rsrp="-114" rsrq="-12"/>
        <radio op="I TIM" rat="LTE" q="42.00" rsrp="-105" sinr="16" rsrq="-13"/>
      </extensions>
    </trkpt>
    <trkpt lat="45.6181985" lon="10.4934591">
      <ele>226.8000030517578</ele>
      <time>2026-09-19T13:01:32.362+02:00</time>
      <extensions>
        <activity type="UNKNOWN" conf="40" state="unknown" tsMs="1789815677162"/>
        <radio op="vodafone IT" rat="LTE" rsrp="-105" rsrq="-15"/>
        <radio op="I TIM" rat="LTE" q="39.90" rsrp="-106" sinr="16" rsrq="-11"/>
      </extensions>
    </trkpt>
    <trkpt lat="45.6180613" lon="10.4936896">
      <ele>224.20001220703125</ele>
      <time>2026-09-19T13:02:03.952+02:00</time>
      <extensions>
        <activity type="ON_FOOT" conf="96" state="moving" tsMs="1789815716122"/>
        <radio op="vodafone IT" rat="LTE" rsrp="-111" rsrq="-12"/>
        <radio op="I TIM" rat="LTE" q="51.00" rsrp="-95" sinr="12" rsrq="-11"/>
      </extensions>
    </trkpt>
    <trkpt lat="45.6177335" lon="10.4933638">
      <ele>224.20001220703125</ele>
      <time>2026-09-19T13:02:34.991+02:00</time>
      <extensions>
        <activity type="ON_FOOT" conf="98" state="moving" tsMs="1789815738694"/>
        <radio op="vodafone IT" rat="LTE" q="87.40" rsrp="-87" sinr="18" rsrq="-5"/>
        <radio op="I TIM" rat="LTE" q="82.50" rsrp="-92" sinr="24" rsrq="-9"/>
      </extensions>
    </trkpt>
    <trkpt lat="45.6177208" lon="10.4937049">
      <ele>221.98316222717904</ele>
      <time>2026-09-19T13:03:06.324+02:00</time>
      <extensions>
        <activity type="UNKNOWN" conf="40" state="unknown" tsMs="1789815771608"/>
        <radio op="vodafone IT" rat="LTE" q="44.20" rsrp="-99" sinr="12" rsrq="-7"/>
        <radio op="I TIM" rat="LTE" rsrp="-101" rsrq="-11"/>
      </extensions>
    </trkpt>
    <trkpt lat="45.6177477" lon="10.4937892">
      <ele>222.1612542228866</ele>
      <time>2026-09-19T13:03:37.675+02:00</time>
      <extensions>
        <activity type="STILL" conf="100" state="still" tsMs="1789815813238"/>
        <radio op="vodafone IT" rat="LTE" q="38.00" rsrp="-106" sinr="15" rsrq="-12"/>
        <radio op="I TIM" rat="LTE" q="50.60" rsrp="-102" sinr="17" rsrq="-11"/>
      </extensions>
    </trkpt>
    <trkpt lat="45.6177425" lon="10.4937142">
      <ele>222.0544049212852</ele>
      <time>2026-09-19T13:04:09.087+02:00</time>
      <extensions>
        <activity type="STILL" conf="100" state="still" tsMs="1789815840390"/>
        <radio op="vodafone IT" rat="LTE" q="37.80" rsrp="-104" sinr="13" rsrq="-7"/>
        <radio op="I TIM" rat="LTE" q="46.20" rsrp="-103" sinr="16" rsrq="-9"/>
      </extensions>
    </trkpt>
    <trkpt lat="45.6177076" lon="10.4937169">
      <ele>222.3896131945136</ele>
      <time>2026-09-19T13:04:40.28+02:00</time>
      <extensions>
        <activity type="STILL" conf="98" state="still" tsMs="1789815872152"/>
        <radio op="vodafone IT" rat="LTE" q="50.40" rsrp="-104" sinr="19" rsrq="-11"/>
        <radio op="I TIM" rat="LTE" q="72.50" rsrp="-96" sinr="24" rsrq="-8"/>
      </extensions>
    </trkpt>
    <trkpt lat="45.6176256" lon="10.4941802">
      <ele>222.38492464364072</ele>
      <time>2026-09-19T13:05:11.494+02:00</time>
      <extensions>
        <activity type="STILL" conf="100" state="still" tsMs="1789815900667"/>
        <radio op="vodafone IT" rat="LTE" q="43.20" rsrp="-101" sinr="13" rsrq="-11"/>
        <radio op="I TIM" rat="LTE" q="75.00" rsrp="-95" sinr="20" rsrq="-10"/>
      </extensions>
    </trkpt>
    <trkpt lat="45.6176233" lon="10.4941913">
      <ele>222.00897429219134</ele>
      <time>2026-09-19T13:05:42.642+02:00</time>
      <extensions>
        <activity type="STILL" conf="100" state="still" tsMs="1789815938621"/>
        <radio op="vodafone IT" rat="LTE" q="28.60" rsrp="-103" sinr="8" rsrq="-11"/>
        <radio op="I TIM" rat="LTE" q="15.00" rsrp="-95" sinr="0" rsrq="-9"/>
      </extensions>
    </trkpt>
    <trkpt lat="45.6177377" lon="10.4937539">
      <ele>222.14366298960266</ele>
      <time>2026-09-19T13:06:13.878+02:00</time>
      <extensions>
        <activity type="STILL" conf="99" state="still" tsMs="1789815965284"/>
        <radio op="vodafone IT" rat="LTE" q="77.50" rsrp="-94" sinr="22" rsrq="-7"/>
        <radio op="I TIM" rat="LTE" q="52.50" rsrp="-100" sinr="16" rsrq="-12"/>
      </extensions>
    </trkpt>
    <trkpt lat="45.6177685" lon="10.4936625">
      <ele>224.20001220703125</ele>
      <time>2026-09-19T13:06:42.234+02:00</time>
      <extensions>
        <activity type="STILL" conf="100" state="still" tsMs="1789815993705"/>
        <radio op="vodafone IT" rat="LTE" q="67.20" rsrp="-97" sinr="19" rsrq="-6"/>
        <radio op="I TIM" rat="LTE" q="22.40" rsrp="-97" sinr="3" rsrq="-10"/>
      </extensions>
    </trkpt>
    <trkpt lat="45.6177178" lon="10.4935051">
      <ele>222.17089907945345</ele>
      <time>2026-09-19T13:07:15.591+02:00</time>
      <extensions>
        <activity type="STILL" conf="100" state="still" tsMs="1789816031671"/>
        <radio op="vodafone IT" rat="LTE" q="75.00" rsrp="-95" sinr="21" rsrq="-10"/>
        <radio op="I TIM" rat="LTE" q="61.60" rsrp="-97" sinr="17" rsrq="-12"/>
      </extensions>
    </trkpt>
    <trkpt lat="45.6176278" lon="10.4941289">
      <ele>224.20001220703125</ele>
      <time>2026-09-19T13:07:46.765+02:00</time>
      <extensions>
        <activity type="STILL" conf="100" state="still" tsMs="1789816052193"/>
        <radio op="vodafone IT" rat="LTE" q="66.70" rsrp="-96" sinr="18" rsrq="-9"/>
        <radio op="I TIM" rat="LTE" q="90.00" rsrp="-89" sinr="21" rsrq="-11"/>
      </extensions>
    </trkpt>
    <trkpt lat="45.6177318" lon="10.4933495">
      <ele>222.50080946591555</ele>
      <time>2026-09-19T13:08:17.899+02:00</time>
      <extensions>
        <activity type="STILL" conf="100" state="still" tsMs="1789816087547"/>
        <radio op="vodafone IT" rat="LTE" q="52.80" rsrp="-103" sinr="19" rsrq="-13"/>
        <radio op="I TIM" rat="LTE" q="80.00" rsrp="-93" sinr="20" rsrq="-11"/>
      </extensions>
    </trkpt>
    <trkpt lat="45.6176349" lon="10.4941711">
      <ele>222.5469040867299</ele>
      <time>2026-09-19T13:08:49.147+02:00</time>
      <extensions>
        <activity type="STILL" conf="100" state="still" tsMs="1789816125493"/>
        <radio op="vodafone IT" rat="LTE" q="67.50" rsrp="-98" sinr="21" rsrq="-7"/>
        <radio op="I TIM" rat="LTE" q="80.00" rsrp="-93" sinr="22" rsrq="-11"/>
      </extensions>
    </trkpt>
    <trkpt lat="45.6177757" lon="10.4934909">
      <ele>222.51078834874446</ele>
      <time>2026-09-19T13:09:41.28+02:00</time>
      <extensions>
        <activity type="STILL" conf="99" state="still" tsMs="1789816176370"/>
        <radio op="vodafone IT" rat="LTE" q="56.00" rsrp="-97" sinr="15" rsrq="-8"/>
        <radio op="I TIM" rat="LTE" q="56.70" rsrp="-98" sinr="16" rsrq="-12"/>
      </extensions>
    </trkpt>
    <trkpt lat="45.6177317" lon="10.4934837">
      <ele>222.2132664409779</ele>
      <time>2026-09-19T13:11:13.12+02:00</time>
      <extensions>
        <activity type="STILL" conf="99" state="still" tsMs="1789816266978"/>
        <radio op="vodafone IT" rat="LTE" q="67.20" rsrp="-97" sinr="19" rsrq="-9"/>
        <radio op="I TIM" rat="LTE" q="66.00" rsrp="-95" sinr="17" rsrq="-11"/>
      </extensions>
    </trkpt>
    <trkpt lat="45.617769" lon="10.4933791">
      <ele>222.28240585396213</ele>
      <time>2026-09-19T13:11:51.863+02:00</time>
      <extensions>
        <activity type="STILL" conf="99" state="still" tsMs="1789816303373"/>
        <radio op="vodafone IT" rat="LTE" q="60.00" rsrp="-100" sinr="19" rsrq="-8"/>
        <radio op="I TIM" rat="LTE" q="74.40" rsrp="-94" sinr="19" rsrq="-11"/>
      </extensions>
    </trkpt>
    <trkpt lat="45.6177209" lon="10.4934768">
      <ele>222.51397644369678</ele>
      <time>2026-09-19T13:12:23.814+02:00</time>
      <extensions>
        <activity type="STILL" conf="99" state="still" tsMs="1789816343887"/>
        <radio op="vodafone IT" rat="LTE" q="67.50" rsrp="-98" sinr="22" rsrq="-8"/>
        <radio op="I TIM" rat="LTE" q="62.00" rsrp="-94" sinr="15" rsrq="-11"/>
      </extensions>
    </trkpt>
    <trkpt lat="45.6177434" lon="10.4940144">
      <ele>224.20001220703125</ele>
      <time>2026-09-19T13:14:28.579+02:00</time>
      <extensions>
        <activity type="UNKNOWN" conf="40" state="unknown" tsMs="1789816482384"/>
        <radio op="vodafone IT" rat="LTE" q="55.20" rsrp="-101" sinr="18" rsrq="-11"/>
        <radio op="I TIM" rat="LTE" q="39.90" rsrp="-104" sinr="14" rsrq="-12"/>
      </extensions>
    </trkpt>
    <trkpt lat="45.6177509" lon="10.4934565">
      <ele>222.470111316322</ele>
      <time>2026-09-19T13:15:11.96+02:00</time>
      <extensions>
        <activity type="UNKNOWN" conf="40" state="unknown" tsMs="1789816506050"/>
        <radio op="vodafone IT" rat="LTE" q="39.90" rsrp="-106" sinr="16" rsrq="-11"/>
        <radio op="I TIM" rat="LTE" q="57.20" rsrp="-99" sinr="17" rsrq="-11"/>
      </extensions>
    </trkpt>
    <trkpt lat="45.6177759" lon="10.4934099">
      <ele>224.20001220703125</ele>
      <time>2026-09-19T13:15:47.779+02:00</time>
      <extensions>
        <activity type="UNKNOWN" conf="40" state="unknown" tsMs="1789816536229"/>
        <radio op="vodafone IT" rat="LTE" q="40.00" rsrp="-105" sinr="15" rsrq="-10"/>
        <radio op="I TIM" rat="LTE" q="67.50" rsrp="-98" sinr="20" rsrq="-10"/>
      </extensions>
    </trkpt>
    <trkpt lat="45.6178793" lon="10.4935161">
      <ele>224.20001220703125</ele>
      <time>2026-09-19T13:16:27.032+02:00</time>
      <extensions>
        <activity type="UNKNOWN" conf="40" state="unknown" tsMs="1789816574418"/>
        <radio op="vodafone IT" rat="LTE" q="62.50" rsrp="-100" sinr="21" rsrq="-10"/>
        <radio op="I TIM" rat="LTE" q="52.50" rsrp="-100" sinr="16" rsrq="-11"/>
      </extensions>
    </trkpt>
    <trkpt lat="45.6177903" lon="10.4934861">
      <ele>224.50001525878906</ele>
      <time>2026-09-19T13:17:18.855+02:00</time>
      <extensions>
        <activity type="STILL" conf="61" state="still" tsMs="1789816638382"/>
        <radio op="vodafone IT" rat="LTE" q="72.50" rsrp="-96" sinr="21" rsrq="-10"/>
        <radio op="I TIM" rat="LTE" q="59.80" rsrp="-99" sinr="18" rsrq="-13"/>
      </extensions>
    </trkpt>
    <trkpt lat="45.6177417" lon="10.493592">
      <ele>224.20001220703125</ele>
      <time>2026-09-19T13:18:03.683+02:00</time>
      <extensions>
        <activity type="ON_FOOT" conf="88" state="moving" tsMs="1789816683397"/>
        <radio op="vodafone IT" rat="LTE" q="100.00" rsrp="-80" sinr="28" rsrq="-9"/>
        <radio op="I TIM" rat="LTE" q="62.40" rsrp="-99" sinr="19" rsrq="-12"/>
      </extensions>
    </trkpt>
    <trkpt lat="45.6176222" lon="10.4941828">
      <ele>224.20001220703125</ele>
      <time>2026-09-19T13:18:54.49+02:00</time>
      <extensions>
        <activity type="ON_FOOT" conf="92" state="moving" tsMs="1789816732827"/>
        <radio op="vodafone IT" rat="LTE" q="56.00" rsrp="-97" sinr="15" rsrq="-10"/>
        <radio op="I TIM" rat="LTE" q="44.40" rsrp="-88" sinr="7" rsrq="-11"/>
      </extensions>
    </trkpt>
    <trkpt lat="45.6176204" lon="10.494212">
      <ele>224.20001220703125</ele>
      <time>2026-09-19T13:19:24.504+02:00</time>
      <extensions>
        <activity type="STILL" conf="100" state="still" tsMs="1789816764814"/>
        <radio op="vodafone IT" rat="LTE" q="72.50" rsrp="-96" sinr="24" rsrq="-11"/>
        <radio op="I TIM" rat="LTE" q="88.00" rsrp="-85" sinr="17" rsrq="-10"/>
      </extensions>
    </trkpt>
    <trkpt lat="45.6176389" lon="10.4941774">
      <ele>224.20001220703125</ele>
      <time>2026-09-19T13:19:58.574+02:00</time>
      <extensions>
        <activity type="STILL" conf="38" state="still" tsMs="1789816781172"/>
        <radio op="vodafone IT" rat="LTE" q="75.00" rsrp="-95" sinr="21" rsrq="-9"/>
        <radio op="I TIM" rat="LTE" q="96.00" rsrp="-85" sinr="19" rsrq="-12"/>
      </extensions>
    </trkpt>
    <trkpt lat="45.6176323" lon="10.494212">
      <ele>224.20001220703125</ele>
      <time>2026-09-19T13:20:29.808+02:00</time>
      <extensions>
        <activity type="STILL" conf="100" state="still" tsMs="1789816820009"/>
        <radio op="vodafone IT" rat="LTE" q="30.80" rsrp="-103" sinr="9" rsrq="-7"/>
        <radio op="I TIM" rat="LTE" q="57.00" rsrp="-87" sinr="10" rsrq="-12"/>
      </extensions>
    </trkpt>
    <trkpt lat="45.6176047" lon="10.4941977">
      <ele>224.20001220703125</ele>
      <time>2026-09-19T13:21:01.073+02:00</time>
      <extensions>
        <activity type="STILL" conf="100" state="still" tsMs="1789816848519"/>
        <radio op="vodafone IT" rat="LTE" q="45.00" rsrp="-100" sinr="13" rsrq="-9"/>
        <radio op="I TIM" rat="LTE" q="87.50" rsrp="-90" sinr="21" rsrq="-10"/>
      </extensions>
    </trkpt>
    <trkpt lat="45.6176635" lon="10.4941852">
      <ele>224.20001220703125</ele>
      <time>2026-09-19T13:21:32.294+02:00</time>
      <extensions>
        <activity type="STILL" conf="100" state="still" tsMs="1789816883789"/>
        <radio op="vodafone IT" rat="LTE" q="48.00" rsrp="-93" sinr="10" rsrq="-8"/>
        <radio op="I TIM" rat="LTE" q="66.00" rsrp="-92" sinr="15" rsrq="-12"/>
      </extensions>
    </trkpt>
    <trkpt lat="45.6176161" lon="10.4942123">
      <ele>224.20001220703125</ele>
      <time>2026-09-19T13:22:03.651+02:00</time>
      <extensions>
        <activity type="STILL" conf="100" state="still" tsMs="1789816912101"/>
        <radio op="vodafone IT" rat="LTE" q="54.00" rsrp="-95" sinr="13" rsrq="-9"/>
        <radio op="I TIM" rat="LTE" q="54.40" rsrp="-91" sinr="11" rsrq="-10"/>
      </extensions>
    </trkpt>
    <trkpt lat="45.6177819" lon="10.4937011">
      <ele>224.20001220703125</ele>
      <time>2026-09-19T14:59:46.732+02:00</time>
      <extensions>
        <activity type="ON_FOOT" conf="97" state="moving" tsMs="1789822790380"/>
        <radio op="vodafone IT" rat="LTE" q="58.80" rsrp="-97" sinr="16" rsrq="-11"/>
        <radio op="I TIM" rat="LTE" q="36.00" rsrp="-105" sinr="13" rsrq="-12"/>
      </extensions>
    </trkpt>
    <trkpt lat="45.6178092" lon="10.4934173">
      <ele>224.20001220703125</ele>
      <time>2026-09-19T15:00:41.664+02:00</time>
      <extensions>
        <activity type="ON_FOOT" conf="93" state="moving" tsMs="1789822841698"/>
        <radio op="vodafone IT" rat="LTE" q="55.20" rsrp="-102" sinr="19" rsrq="-12"/>
        <radio op="I TIM" rat="LTE" q="37.80" rsrp="-98" sinr="9" rsrq="-12"/>
      </extensions>
    </trkpt>
    <trkpt lat="45.6177229" lon="10.4937687">
      <ele>224.20001220703125</ele>
      <time>2026-09-19T15:01:26.233+02:00</time>
      <extensions>
        <activity type="UNKNOWN" conf="40" state="unknown" tsMs="1789822882505"/>
        <radio op="vodafone IT" rat="LTE" q="52.90" rsrp="-102" sinr="18" rsrq="-9"/>
        <radio op="I TIM" rat="LTE" q="52.00" rsrp="-99" sinr="15" rsrq="-12"/>
      </extensions>
    </trkpt>
    <trkpt lat="45.6177183" lon="10.4936023">
      <ele>224.20001220703125</ele>
      <time>2026-09-19T15:02:15.64+02:00</time>
      <extensions>
        <activity type="UNKNOWN" conf="40" state="unknown" tsMs="1789822930298"/>
        <radio op="vodafone IT" rat="LTE" q="65.00" rsrp="-99" sinr="22" rsrq="-12"/>
        <radio op="I TIM" rat="LTE" q="64.40" rsrp="-97" sinr="18" rsrq="-12"/>
      </extensions>
    </trkpt>
    <trkpt lat="45.6177067" lon="10.4939063">
      <ele>224.20001220703125</ele>
      <time>2026-09-19T15:02:56.376+02:00</time>
      <extensions>
        <activity type="UNKNOWN" conf="40" state="unknown" tsMs="1789822970521"/>
        <radio op="vodafone IT" rat="LTE" q="44.00" rsrp="-105" sinr="17" rsrq="-10"/>
        <radio op="I TIM" rat="LTE" q="39.60" rsrp="-103" sinr="13" rsrq="-12"/>
      </extensions>
    </trkpt>
    <trkpt lat="45.6176673" lon="10.4941107">
      <ele>224.20001220703125</ele>
      <time>2026-09-19T15:03:36.266+02:00</time>
      <extensions>
        <activity type="STILL" conf="40" state="still" tsMs="1789822989584"/>
        <radio op="vodafone IT" rat="LTE" q="65.00" rsrp="-99" sinr="24" rsrq="-7"/>
        <radio op="I TIM" rat="LTE" q="50.40" rsrp="-104" sinr="19" rsrq="-11"/>
      </extensions>
    </trkpt>
    <trkpt lat="45.6177437" lon="10.4934763">
      <ele>224.20001220703125</ele>
      <time>2026-09-19T15:04:15.451+02:00</time>
      <extensions>
        <activity type="UNKNOWN" conf="40" state="unknown" tsMs="1789823044078"/>
        <radio op="vodafone IT" rat="LTE" q="60.00" rsrp="-101" sinr="22" rsrq="-10"/>
        <radio op="I TIM" rat="LTE" q="48.30" rsrp="-102" sinr="16" rsrq="-12"/>
      </extensions>
    </trkpt>
    <trkpt lat="45.6177204" lon="10.4938245">
      <ele>224.20001220703125</ele>
      <time>2026-09-19T15:04:59.238+02:00</time>
      <extensions>
        <activity type="UNKNOWN" conf="40" state="unknown" tsMs="1789823093508"/>
        <radio op="vodafone IT" rat="LTE" q="44.00" rsrp="-105" sinr="17" rsrq="-8"/>
        <radio op="I TIM" rat="LTE" q="32.30" rsrp="-108" sinr="14" rsrq="-12"/>
      </extensions>
    </trkpt>
    <trkpt lat="45.6176386" lon="10.4941363">
      <ele>222.04901296098848</ele>
      <time>2026-09-19T15:05:30.748+02:00</time>
      <extensions>
        <activity type="UNKNOWN" conf="40" state="unknown" tsMs="1789823129555"/>
        <radio op="vodafone IT" rat="LTE" q="50.00" rsrp="-105" sinr="20" rsrq="-10"/>
        <radio op="I TIM" rat="LTE" q="26.60" rsrp="-106" sinr="9" rsrq="-12"/>
      </extensions>
    </trkpt>
    <trkpt lat="45.6176498" lon="10.4941052">
      <ele>224.20001220703125</ele>
      <time>2026-09-19T15:07:36.31+02:00</time>
      <extensions>
        <activity type="UNKNOWN" conf="40" state="unknown" tsMs="1789823256505"/>
        <radio op="vodafone IT" rat="LTE" q="36.10" rsrp="-106" sinr="14" rsrq="-11"/>
        <radio op="I TIM" rat="LTE" q="47.50" rsrp="-106" sinr="20" rsrq="-12"/>
      </extensions>
    </trkpt>
    <trkpt lat="45.6177204" lon="10.4938245">
      <ele>224.20001220703125</ele>
      <time>2026-09-19T15:08:33.416+02:00</time>
      <extensions>
        <activity type="STILL" conf="96" state="still" tsMs="1789823313516"/>
        <radio op="vodafone IT" rat="LTE" q="41.80" rsrp="-106" sinr="17" rsrq="-9"/>
        <radio op="I TIM" rat="LTE" q="35.70" rsrp="-104" sinr="12" rsrq="-13"/>
      </extensions>
    </trkpt>
    <trkpt lat="45.6177488" lon="10.4939247">
      <ele>224.20001220703125</ele>
      <time>2026-09-19T15:09:56.045+02:00</time>
      <extensions>
        <activity type="UNKNOWN" conf="40" state="unknown" tsMs="1789823395893"/>
        <radio op="vodafone IT" rat="LTE" q="55.00" rsrp="-103" sinr="20" rsrq="-9"/>
        <radio op="I TIM" rat="LTE" q="48.00" rsrp="-101" sinr="15" rsrq="-11"/>
      </extensions>
    </trkpt>
    <trkpt lat="45.6176498" lon="10.4941052">
      <ele>224.20001220703125</ele>
      <time>2026-09-19T15:10:34.233+02:00</time>
      <extensions>
        <activity type="UNKNOWN" conf="40" state="unknown" tsMs="1789823430693"/>
        <radio op="vodafone IT" rat="LTE" q="24.00" rsrp="-109" sinr="10" rsrq="-9"/>
        <radio op="I TIM" rat="LTE" q="23.00" rsrp="-102" sinr="5" rsrq="-12"/>
      </extensions>
    </trkpt>
    <trkpt lat="45.6176388" lon="10.4941378">
      <ele>224.20001220703125</ele>
      <time>2026-09-19T15:11:55.386+02:00</time>
      <extensions>
        <activity type="UNKNOWN" conf="40" state="unknown" tsMs="1789823511516"/>
        <radio op="vodafone IT" rat="LTE" q="39.60" rsrp="-107" sinr="17" rsrq="-10"/>
        <radio op="I TIM" rat="LTE" q="26.00" rsrp="-105" sinr="8" rsrq="-11"/>
      </extensions>
    </trkpt>
    <trkpt lat="45.6176527" lon="10.4940943">
      <ele>224.20001220703125</ele>
      <time>2026-09-19T15:12:40.468+02:00</time>
      <extensions>
        <activity type="IN_VEHICLE" conf="95" state="moving" tsMs="1789823558521"/>
        <radio op="vodafone IT" rat="LTE" q="48.30" rsrp="-104" sinr="18" rsrq="-10"/>
        <radio op="I TIM" rat="LTE" q="26.40" rsrp="-103" sinr="7" rsrq="-12"/>
      </extensions>
    </trkpt>
    <trkpt lat="45.6176565" lon="10.4940761">
      <ele>224.20001220703125</ele>
      <time>2026-09-19T15:13:11.719+02:00</time>
      <extensions>
        <activity type="UNKNOWN" conf="40" state="unknown" tsMs="1789823577211"/>
        <radio op="vodafone IT" rat="LTE" q="34.00" rsrp="-105" sinr="12" rsrq="-8"/>
        <radio op="I TIM" rat="LTE" q="33.60" rsrp="-109" sinr="16" rsrq="-12"/>
      </extensions>
    </trkpt>
    <trkpt lat="45.6177024" lon="10.4938304">
      <ele>224.20001220703125</ele>
      <time>2026-09-19T15:13:42.967+02:00</time>
      <extensions>
        <activity type="STILL" conf="28" state="still" tsMs="1789823616251"/>
        <radio op="vodafone IT" rat="LTE" rsrp="-106" rsrq="-15"/>
        <radio op="I TIM" rat="LTE" q="30.60" rsrp="-108" sinr="13" rsrq="-11"/>
      </extensions>
    </trkpt>
    <trkpt lat="45.6177051" lon="10.4939865">
      <ele>224.20001220703125</ele>
      <time>2026-09-19T15:14:19.851+02:00</time>
      <extensions>
        <activity type="UNKNOWN" conf="40" state="unknown" tsMs="1789823642594"/>
        <radio op="vodafone IT" rat="LTE" q="25.60" rsrp="-109" sinr="11" rsrq="-8"/>
        <radio op="I TIM" rat="LTE" q="19.80" rsrp="-107" sinr="6" rsrq="-12"/>
      </extensions>
    </trkpt>
    <trkpt lat="45.6179839" lon="10.4929677">
      <ele>224.20001220703125</ele>
      <time>2026-09-19T15:14:58.018+02:00</time>
      <extensions>
        <activity type="IN_VEHICLE" conf="86" state="moving" tsMs="1789823694754"/>
        <radio op="vodafone IT" rat="LTE" rsrp="-107" rsrq="-12"/>
        <radio op="I TIM" rat="LTE" q="28.50" rsrp="-110" sinr="14" rsrq="-12"/>
      </extensions>
    </trkpt>
    <trkpt lat="45.615044" lon="10.4965674">
      <ele>224.20001220703125</ele>
      <time>2026-09-19T15:15:43.034+02:00</time>
      <extensions>
        <activity type="UNKNOWN" conf="40" state="unknown" tsMs="1789823733850"/>
        <radio op="vodafone IT" rat="LTE" q="82.50" rsrp="-92" sinr="25" rsrq="-11"/>
        <radio op="I TIM" rat="LTE" q="72.50" rsrp="-96" sinr="20" rsrq="-12"/>
      </extensions>
    </trkpt>
    <trkpt lat="45.6110466" lon="10.4956536">
      <ele>217.3000030517578</ele>
      <time>2026-09-19T15:16:27.183+02:00</time>
      <extensions>
        <activity type="IN_VEHICLE" conf="88" state="moving" tsMs="1789823787269"/>
        <radio op="vodafone IT" rat="LTE" q="28.80" rsrp="-109" sinr="13" rsrq="-7"/>
        <radio op="I TIM" rat="LTE" rsrp="-118" rsrq="-17"/>
      </extensions>
    </trkpt>
    <trkpt lat="45.6112974" lon="10.4953717">
      <ele>217.3000030517578</ele>
      <time>2026-09-19T15:16:35.034+02:00</time>
      <extensions>
        <activity type="STILL" conf="100" state="still" tsMs="1789823790974"/>
        <radio op="vodafone IT" rat="LTE" q="22.50" rsrp="-110" sinr="10" rsrq="-13"/>
        <radio op="I TIM" rat="LTE" rsrp="-115" rsrq="-16"/>
      </extensions>
    </trkpt>
    <trkpt lat="45.6115396" lon="10.4932866">
      <ele>224.20001220703125</ele>
      <time>2026-09-19T15:17:25.669+02:00</time>
      <extensions>
        <activity type="IN_VEHICLE" conf="90" state="moving" tsMs="1789823843515"/>
        <radio op="vodafone IT" rat="LTE" q="10.20" rsrp="-108" sinr="1" rsrq="-9"/>
        <radio op="I TIM" rat="LTE" rsrp="-131" rsrq="-20"/>
      </extensions>
    </trkpt>
    <trkpt lat="45.6122826" lon="10.4896677">
      <ele>236.48998231715058</ele>
      <time>2026-09-19T15:17:57.034+02:00</time>
      <extensions>
        <activity type="UNKNOWN" conf="40" state="unknown" tsMs="1789823862358"/>
        <radio op="vodafone IT" rat="LTE" rsrp="-124" rsrq="-21"/>
        <radio op="I TIM" rat="LTE" rsrp="-115" rsrq="-14"/>
      </extensions>
    </trkpt>
    <trkpt lat="45.6123728" lon="10.4887991">
      <ele>236.37468978446606</ele>
      <time>2026-09-19T15:18:02.034+02:00</time>
      <extensions>
        <activity type="UNKNOWN" conf="40" state="unknown" tsMs="1789823875353"/>
        <radio op="vodafone IT" rat="LTE" q="11.90" rsrp="-108" sinr="2" rsrq="-11"/>
        <radio op="I TIM" rat="LTE" rsrp="-123" rsrq="-20"/>
      </extensions>
    </trkpt>
    <trkpt lat="45.6064225" lon="10.4697111">
      <ele>260.44010385888595</ele>
      <time>2026-09-19T15:19:36.181+02:00</time>
      <extensions>
        <activity type="UNKNOWN" conf="40" state="unknown" tsMs="1789823966193"/>
        <radio op="vodafone IT" rat="LTE" q="50.00" rsrp="-100" sinr="15" rsrq="-7"/>
        <radio op="I TIM" rat="LTE" q="23.40" rsrp="-112" sinr="13" rsrq="-9"/>
      </extensions>
    </trkpt>
    <trkpt lat="45.6064225" lon="10.4697111">
      <ele>267.1010952616994</ele>
      <time>2026-09-19T15:19:46.632+02:00</time>
      <extensions>
        <activity type="IN_VEHICLE" conf="84" state="moving" tsMs="1789823979481"/>
        <radio op="vodafone IT" rat="LTE" q="72.50" rsrp="-96" sinr="22" rsrq="-7"/>
        <radio op="I TIM" rat="LTE" q="39.90" rsrp="-106" sinr="16" rsrq="-6"/>
      </extensions>
    </trkpt>
    <trkpt lat="45.6051281" lon="10.4650687">
      <ele>266.5428312167777</ele>
      <time>2026-09-19T15:21:19.542+02:00</time>
      <extensions>
        <activity type="UNKNOWN" conf="40" state="unknown" tsMs="1789824076015"/>
        <radio op="vodafone IT" rat="LTE" q="100.00" rsrp="-81" sinr="24" rsrq="-5"/>
        <radio op="I TIM" rat="LTE" q="22.00" rsrp="-105" sinr="6" rsrq="-8"/>
      </extensions>
    </trkpt>
    <trkpt lat="45.6038666" lon="10.4597427">
      <ele>264.20001220703125</ele>
      <time>2026-09-19T15:21:57.543+02:00</time>
      <extensions>
        <activity type="UNKNOWN" conf="40" state="unknown" tsMs="1789824105463"/>
        <radio op="vodafone IT" rat="LTE" q="95.00" rsrp="-87" sinr="30" rsrq="-9"/>
        <radio op="I TIM" rat="LTE" q="55.20" rsrp="-101" sinr="18" rsrq="-11"/>
      </extensions>
    </trkpt>
    <trkpt lat="45.6034084" lon="10.4586447">
      <ele>264.20001220703125</ele>
      <time>2026-09-19T15:22:06.035+02:00</time>
      <extensions>
        <activity type="IN_VEHICLE" conf="86" state="moving" tsMs="1789824118646"/>
        <radio op="vodafone IT" rat="LTE" q="100.00" rsrp="-82" sinr="26" rsrq="-11"/>
        <radio op="I TIM" rat="LTE" q="95.00" rsrp="-87" sinr="27" rsrq="-9"/>
      </extensions>
    </trkpt>
    <trkpt lat="45.6022382" lon="10.4545133">
      <ele>260.44326150054303</ele>
      <time>2026-09-19T15:22:54.253+02:00</time>
      <extensions>
        <activity type="IN_VEHICLE" conf="85" state="moving" tsMs="1789824174515"/>
        <radio op="vodafone IT" rat="LTE" rsrp="-117" rsrq="-9"/>
        <radio op="I TIM" rat="LTE" rsrp="-106" rsrq="-14"/>
      </extensions>
    </trkpt>
    <trkpt lat="45.6028715" lon="10.453325">
      <ele>261.20001220703125</ele>
      <time>2026-09-19T15:23:37.287+02:00</time>
      <extensions>
        <activity type="UNKNOWN" conf="40" state="unknown" tsMs="1789824217521"/>
        <radio op="vodafone IT" rat="LTE" q="25.50" rsrp="-108" sinr="10" rsrq="-11"/>
        <radio op="I TIM" rat="LTE" q="14.40" rsrp="-113" sinr="7" rsrq="-12"/>
      </extensions>
    </trkpt>
    <trkpt lat="45.6026477" lon="10.4538734">
      <ele>261.20001220703125</ele>
      <time>2026-09-19T15:24:35.032+02:00</time>
      <extensions>
        <activity type="TILTING" conf="100" state="moving" tsMs="1789824283100"/>
        <radio op="vodafone IT" rat="LTE" q="15.00" rsrp="-110" sinr="5" rsrq="-10"/>
        <radio op="I TIM" rat="LTE" q="19.00" rsrp="-106" sinr="5" rsrq="-12"/>
      </extensions>
    </trkpt>
    <trkpt lat="45.6025548" lon="10.4536803">
      <ele>261.6000061035156</ele>
      <time>2026-09-19T15:25:07.991+02:00</time>
      <extensions>
        <activity type="UNKNOWN" conf="40" state="unknown" tsMs="1789824302470"/>
        <radio op="vodafone IT" rat="LTE" q="10.40" rsrp="-112" sinr="3" rsrq="-13"/>
        <radio op="I TIM" rat="LTE" rsrp="-113" rsrq="-16"/>
      </extensions>
    </trkpt>
    <trkpt lat="45.6025605" lon="10.4536803">
      <ele>261.6000061035156</ele>
      <time>2026-09-19T15:25:39.048+02:00</time>
      <extensions>
        <activity type="UNKNOWN" conf="40" state="unknown" tsMs="1789824322143"/>
        <radio op="vodafone IT" rat="LTE" q="7.00" rsrp="-115" sinr="2" rsrq="-13"/>
        <radio op="I TIM" rat="LTE" q="5.50" rsrp="-120" sinr="6" rsrq="-13"/>
      </extensions>
    </trkpt>
    <trkpt lat="45.6025588" lon="10.4536777">
      <ele>261.6000061035156</ele>
      <time>2026-09-19T15:26:10.18+02:00</time>
      <extensions>
        <activity type="UNKNOWN" conf="40" state="unknown" tsMs="1789824357324"/>
        <radio op="vodafone IT" rat="LTE" q="2.80" rsrp="-121" sinr="2" rsrq="-14"/>
        <radio op="I TIM" rat="LTE" q="4.20" rsrp="-118" sinr="1" rsrq="-13"/>
      </extensions>
    </trkpt>
    <trkpt lat="45.6025574" lon="10.4536819">
      <ele>261.6000061035156</ele>
      <time>2026-09-19T15:26:41.379+02:00</time>
      <extensions>
        <activity type="UNKNOWN" conf="40" state="unknown" tsMs="1789824392664"/>
        <radio op="vodafone IT" rat="LTE" rsrp="-118" rsrq="-10"/>
        <radio op="I TIM" rat="LTE" rsrp="-125" rsrq="-13"/>
      </extensions>
    </trkpt>
    <trkpt lat="45.6025636" lon="10.4536851">
      <ele>261.6000061035156</ele>
      <time>2026-09-19T15:27:13.01+02:00</time>
      <extensions>
        <activity type="STILL" conf="46" state="still" tsMs="1789824423985"/>
        <radio op="vodafone IT" rat="LTE" rsrp="-122" rsrq="-16"/>
        <radio op="I TIM" rat="LTE" q="2.10" rsrp="-122" sinr="2" rsrq="-13"/>
      </extensions>
    </trkpt>
    <trkpt lat="45.6025691" lon="10.4536919">
      <ele>261.6000061035156</ele>
      <time>2026-09-19T15:27:54.376+02:00</time>
      <extensions>
        <activity type="UNKNOWN" conf="40" state="unknown" tsMs="1789824469575"/>
        <radio op="vodafone IT" rat="LTE" q="8.00" rsrp="-109" sinr="0" rsrq="-15"/>
        <radio op="I TIM" rat="LTE" q="18.90" rsrp="-104" sinr="4" rsrq="-12"/>
      </extensions>
    </trkpt>
  </trkseg></trk>
</gpx>
