<?xml version="1.0" encoding="UTF-8"?>
<gpx version="1.1" creator="CellGPX" xmlns="http://www.topografix.com/GPX/1/1">
  <trk><name>CellGPX</name><trkseg>
    <trkpt lat="45.602555" lon="10.4536754">
      <ele>261.6000061035156</ele>
      <time>2026-09-22T09:31:13.789+02:00</time>
      <extensions>
        <activity type="UNKNOWN" conf="40" state="unknown" tsMs="1790062276848"/>
        <radio op="vodafone IT" rat="LTE" q="9.60" rsrp="-113" sinr="3" rsrq="-12"/>
        <radio op="I TIM" rat="LTE" q="9.10" rsrp="-112" sinr="2" rsrq="-13"/>
      </extensions>
    </trkpt>
    <trkpt lat="45.6025556" lon="10.4536745">
      <ele>261.6000061035156</ele>
      <time>2026-09-22T09:31:48.22+02:00</time>
      <extensions>
        <activity type="UNKNOWN" conf="40" state="unknown" tsMs="1790062302852"/>
        <radio op="vodafone IT" rat="LTE" rsrp="-124" rsrq="-13"/>
        <radio op="I TIM" rat="LTE" q="0.00" rsrp="-127" sinr="1" rsrq="-14"/>
      </extensions>
    </trkpt>
    <trkpt lat="45.6025864" lon="10.4536698">
      <ele>261.6000061035156</ele>
      <time>2026-09-22T09:32:31.793+02:00</time>
      <extensions>
        <activity type="UNKNOWN" conf="40" state="unknown" tsMs="1790062345486"/>
        <radio op="vodafone IT" rat="LTE" q="25.30" rsrp="-102" sinr="6" rsrq="-7"/>
        <radio op="I TIM" rat="LTE" q="4.50" rsrp="-116" sinr="0" rsrq="-11"/>
      </extensions>
    </trkpt>
    <trkpt lat="45.603213" lon="10.4538925">
      <ele>262.0</ele>
      <time>2026-09-22T09:33:20.9+02:00</time>
      <extensions>
        <activity type="ON_FOOT" conf="96" state="moving" tsMs="1790062394199"/>
        <radio op="vodafone IT" rat="LTE" q="54.00" rsrp="-95" sinr="13" rsrq="-7"/>
        <radio op="I TIM" rat="LTE" q="70.40" rsrp="-93" sinr="17" rsrq="-9"/>
      </extensions>
    </trkpt>
    <trkpt lat="45.6033142" lon="10.4544851">
      <ele>262.5</ele>
      <time>2026-09-22T09:33:54.006+02:00</time>
      <extensions>
        <activity type="ON_FOOT" conf="96" state="moving" tsMs="1790062430198"/>
        <radio op="vodafone IT" rat="LTE" q="51.30" rsrp="-98" sinr="14" rsrq="-5"/>
        <radio op="I TIM" rat="LTE" q="80.00" rsrp="-93" sinr="21" rsrq="-9"/>
      </extensions>
    </trkpt>
    <trkpt lat="45.6031736" lon="10.4557093">
      <ele>262.5</ele>
      <time>2026-09-22T09:34:54.379+02:00</time>
      <extensions>
        <activity type="ON_FOOT" conf="98" state="moving" tsMs="1790062479685"/>
        <radio op="vodafone IT" rat="LTE" q="44.80" rsrp="-97" sinr="11" rsrq="-10"/>
        <radio op="I TIM" rat="LTE" q="25.50" rsrp="-110" sinr="12" rsrq="-12"/>
      </extensions>
    </trkpt>
    <trkpt lat="45.6032949" lon="10.4559599">
      <ele>261.9000244140625</ele>
      <time>2026-09-22T09:35:29.633+02:00</time>
      <extensions>
        <activity type="ON_FOOT" conf="96" state="moving" tsMs="1790062529210"/>
        <radio op="vodafone IT" rat="LTE" q="38.00" rsrp="-106" sinr="15" rsrq="-11"/>
        <radio op="I TIM" rat="LTE" q="24.20" rsrp="-103" sinr="6" rsrq="-8"/>
      </extensions>
    </trkpt>
    <trkpt lat="45.6034019" lon="10.4563962">
      <ele>262.4000244140625</ele>
      <time>2026-09-22T09:36:01.063+02:00</time>
      <extensions>
        <activity type="ON_FOOT" conf="97" state="moving" tsMs="1790062545731"/>
        <radio op="vodafone IT" rat="LTE" q="43.70" rsrp="-106" sinr="18" rsrq="-6"/>
        <radio op="I TIM" rat="LTE" q="65.00" rsrp="-99" sinr="24" rsrq="-12"/>
      </extensions>
    </trkpt>
    <trkpt lat="45.6033259" lon="10.4559942">
      <ele>261.9000244140625</ele>
      <time>2026-09-22T09:36:32.138+02:00</time>
      <extensions>
        <activity type="TILTING" conf="100" state="moving" tsMs="1790062585239"/>
        <radio op="vodafone IT" rat="LTE" q="50.00" rsrp="-100" sinr="15" rsrq="-6"/>
        <radio op="I TIM" rat="LTE" q="46.20" rsrp="-103" sinr="16" rsrq="-7"/>
      </extensions>
    </trkpt>
    <trkpt lat="45.6028342" lon="10.4560225">
      <ele>262.3000183105469</ele>
      <time>2026-09-22T09:37:12.04+02:00</time>
      <extensions>
        <activity type="ON_FOOT" conf="96" state="moving" tsMs="1790062618610"/>
        <radio op="vodafone IT" rat="LTE" q="26.60" rsrp="-106" sinr="9" rsrq="-8"/>
        <radio op="I TIM" rat="LTE" q="14.30" rsrp="-114" sinr="8" rsrq="-12"/>
      </extensions>
    </trkpt>
    <trkpt lat="45.602867" lon="10.4567278">
      <ele>262.8000183105469</ele>
      <time>2026-09-22T09:38:02.536+02:00</time>
      <extensions>
        <activity type="ON_FOOT" conf="96" state="moving" tsMs="1790062678219"/>
        <radio op="vodafone IT" rat="LTE" q="96.00" rsrp="-84" sinr="19" rsrq="-7"/>
        <radio op="I TIM" rat="LTE" q="66.00" rsrp="-92" sinr="15" rsrq="-8"/>
      </extensions>
    </trkpt>
    <trkpt lat="45.6030884" lon="10.4575883">
      <ele>263.3000183105469</ele>
      <time>2026-09-22T09:38:39.694+02:00</time>
      <extensions>
        <activity type="ON_FOOT" conf="97" state="moving" tsMs="1790062715194"/>
        <radio op="vodafone IT" rat="LTE" q="92.50" rsrp="-88" sinr="20" rsrq="-9"/>
        <radio op="I TIM" rat="LTE" q="92.50" rsrp="-88" sinr="22" rsrq="-12"/>
      </extensions>
    </trkpt>
    <trkpt lat="45.6040288" lon="10.458254">
      <ele>264.20001220703125</ele>
      <time>2026-09-22T09:39:58.775+02:00</time>
      <extensions>
        <activity type="ON_FOOT" conf="96" state="moving" tsMs="1790062795471"/>
        <radio op="vodafone IT" rat="LTE" q="75.00" rsrp="-95" sinr="25" rsrq="-7"/>
        <radio op="I TIM" rat="LTE" q="80.00" rsrp="-93" sinr="20" rsrq="-11"/>
      </extensions>
    </trkpt>
    <trkpt lat="45.6039527" lon="10.4581153">
      <ele>264.20001220703125</ele>
      <time>2026-09-22T09:40:02.649+02:00</time>
      <extensions>
        <activity type="ON_FOOT" conf="98" state="moving" tsMs="1790062801959"/>
        <radio op="vodafone IT" rat="LTE" q="72.50" rsrp="-96" sinr="21" rsrq="-6"/>
        <radio op="I TIM" rat="LTE" q="72.50" rsrp="-96" sinr="21" rsrq="-9"/>
      </extensions>
    </trkpt>
    <trkpt lat="45.6042758" lon="10.4583713">
      <ele>264.20001220703125</ele>
      <time>2026-09-22T09:40:40.565+02:00</time>
      <extensions>
        <activity type="ON_FOOT" conf="83" state="moving" tsMs="1790062836976"/>
        <radio op="vodafone IT" rat="LTE" q="27.00" rsrp="-110" sinr="13" rsrq="-7"/>
        <radio op="I TIM" rat="LTE" q="23.80" rsrp="-111" sinr="12" rsrq="-8"/>
      </extensions>
    </trkpt>
    <trkpt lat="45.6043048" lon="10.4581161">
      <ele>264.3000183105469</ele>
      <time>2026-09-22T09:41:07.189+02:00</time>
      <extensions>
        <activity type="UNKNOWN" conf="40" state="unknown" tsMs="1790062856054"/>
        <radio op="vodafone IT" rat="LTE" q="48.00" rsrp="-101" sinr="15" rsrq="-7"/>
        <radio op="I TIM" rat="LTE" q="48.00" rsrp="-101" sinr="15" rsrq="-13"/>
      </extensions>
    </trkpt>
    <trkpt lat="45.6039505" lon="10.4586008">
      <ele>267.20523376271456</ele>
      <time>2026-09-22T09:42:17.839+02:00</time>
      <extensions>
        <activity type="UNKNOWN" conf="40" state="unknown" tsMs="1790062934222"/>
        <radio op="vodafone IT" rat="LTE" q="52.50" rsrp="-104" sinr="20" rsrq="-9"/>
        <radio op="I TIM" rat="LTE" q="46.00" rsrp="-102" sinr="15" rsrq="-9"/>
      </extensions>
    </trkpt>
    <trkpt lat="45.6040615" lon="10.4584957">
      <ele>264.20001220703125</ele>
      <time>2026-09-22T09:42:48.76+02:00</time>
      <extensions>
        <activity type="STILL" conf="100" state="still" tsMs="1790062973551"/>
        <radio op="vodafone IT" rat="LTE" q="72.60" rsrp="-92" sinr="17" rsrq="-7"/>
        <radio op="I TIM" rat="LTE" q="62.70" rsrp="-92" sinr="14" rsrq="-10"/>
      </extensions>
    </trkpt>
    <trkpt lat="45.6041074" lon="10.4585909">
      <ele>264.20001220703125</ele>
      <time>2026-09-22T09:43:21.96+02:00</time>
      <extensions>
        <activity type="STILL" conf="49" state="still" tsMs="1790062992543"/>
        <radio op="vodafone IT" rat="LTE" q="85.00" rsrp="-91" sinr="22" rsrq="-8"/>
        <radio op="I TIM" rat="LTE" q="77.00" rsrp="-90" sinr="17" rsrq="-9"/>
      </extensions>
    </trkpt>
    <trkpt lat="45.6040954" lon="10.4585274">
      <ele>264.20001220703125</ele>
      <time>2026-09-22T09:43:57.261+02:00</time>
      <extensions>
        <activity type="STILL" conf="59" state="still" tsMs="1790063020296"/>
        <radio op="vodafone IT" rat="LTE" q="72.50" rsrp="-96" sinr="21" rsrq="-8"/>
        <radio op="I TIM" rat="LTE" q="82.50" rsrp="-92" sinr="20" rsrq="-11"/>
      </extensions>
    </trkpt>
    <trkpt lat="45.6040529" lon="10.4585703">
      <ele>264.20001220703125</ele>
      <time>2026-09-22T09:44:31.17+02:00</time>
      <extensions>
        <activity type="STILL" conf="100" state="still" tsMs="1790063054899"/>
        <radio op="vodafone IT" rat="LTE" q="70.40" rsrp="-93" sinr="17" rsrq="-8"/>
        <radio op="I TIM" rat="LTE" q="57.20" rsrp="-99" sinr="17" rsrq="-10"/>
      </extensions>
    </trkpt>
    <trkpt lat="45.6040609" lon="10.4585627">
      <ele>264.20001220703125</ele>
      <time>2026-09-22T09:45:02.49+02:00</time>
      <extensions>
        <activity type="STILL" conf="99" state="still" tsMs="1790063093521"/>
        <radio op="vodafone IT" rat="LTE" q="75.60" rsrp="-89" sinr="16" rsrq="-7"/>
        <radio op="I TIM" rat="LTE" q="62.70" rsrp="-92" sinr="14" rsrq="-9"/>
      </extensions>
    </trkpt>
    <trkpt lat="45.6041306" lon="10.4586212">
      <ele>264.20001220703125</ele>
      <time>2026-09-22T09:45:33.752+02:00</time>
      <extensions>
        <activity type="STILL" conf="100" state="still" tsMs="1790063125450"/>
        <radio op="vodafone IT" rat="LTE" q="79.20" rsrp="-92" sinr="19" rsrq="-7"/>
        <radio op="I TIM" rat="LTE" q="67.20" rsrp="-93" sinr="16" rsrq="-6"/>
      </extensions>
    </trkpt>
    <trkpt lat="45.6039649" lon="10.4586894">
      <ele>264.20001220703125</ele>
      <time>2026-09-22T09:46:05.087+02:00</time>
      <extensions>
        <activity type="STILL" conf="100" state="still" tsMs="1790063153897"/>
        <radio op="vodafone IT" rat="LTE" q="82.80" rsrp="-89" sinr="18" rsrq="-7"/>
        <radio op="I TIM" rat="LTE" q="72.60" rsrp="-92" sinr="17" rsrq="-9"/>
      </extensions>
    </trkpt>
    <trkpt lat="45.6039661" lon="10.4586116">
      <ele>264.20001220703125</ele>
      <time>2026-09-22T09:46:36.339+02:00</time>
      <extensions>
        <activity type="STILL" conf="99" state="still" tsMs="1790063191818"/>
        <radio op="vodafone IT" rat="LTE" q="68.00" rsrp="-91" sinr="15" rsrq="-6"/>
        <radio op="I TIM" rat="LTE" q="66.00" rsrp="-92" sinr="15" rsrq="-12"/>
      </extensions>
    </trkpt>
    <trkpt lat="45.6040165" lon="10.4584767">
      <ele>264.20001220703125</ele>
      <time>2026-09-22T09:47:07.601+02:00</time>
      <extensions>
        <activity type="UNKNOWN" conf="40" state="unknown" tsMs="1790063212333"/>
        <radio op="vodafone IT" rat="LTE" q="62.70" rsrp="-92" sinr="14" rsrq="-6"/>
        <radio op="I TIM" rat="LTE" q="52.70" rsrp="-94" sinr="12" rsrq="-11"/>
      </extensions>
    </trkpt>
    <trkpt lat="45.6039967" lon="10.4585515">
      <ele>264.20001220703125</ele>
      <time>2026-09-22T09:47:38.786+02:00</time>
      <extensions>
        <activity type="STILL" conf="100" state="still" tsMs="1790063247691"/>
        <radio op="vodafone IT" rat="LTE" q="59.50" rsrp="-90" sinr="12" rsrq="-6"/>
        <radio op="I TIM" rat="LTE" q="68.20" rsrp="-94" sinr="17" rsrq="-11"/>
      </extensions>
    </trkpt>
    <trkpt lat="45.6039524" lon="10.4587484">
      <ele>264.1000061035156</ele>
      <time>2026-09-22T09:48:10.089+02:00</time>
      <extensions>
        <activity type="STILL" conf="99" state="still" tsMs="1790063279640"/>
        <radio op="vodafone IT" rat="LTE" q="70.00" rsrp="-97" sinr="24" rsrq="-7"/>
        <radio op="I TIM" rat="LTE" q="64.00" rsrp="-93" sinr="15" rsrq="-9"/>
      </extensions>
    </trkpt>
    <trkpt lat="45.6040486" lon="10.4586356">
      <ele>264.20001220703125</ele>
      <time>2026-09-22T09:48:41.384+02:00</time>
      <extensions>
        <activity type="STILL" conf="100" state="still" tsMs="1790063308188"/>
        <radio op="vodafone IT" rat="LTE" q="72.50" rsrp="-96" sinr="22" rsrq="-6"/>
        <radio op="I TIM" rat="LTE" q="74.40" rsrp="-94" sinr="19" rsrq="-10"/>
      </extensions>
    </trkpt>
    <trkpt lat="45.6041896" lon="10.4585108">
      <ele>264.20001220703125</ele>
      <time>2026-09-22T09:49:12.612+02:00</time>
      <extensions>
        <activity type="STILL" conf="98" state="still" tsMs="1790063343551"/>
        <radio op="vodafone IT" rat="LTE" q="69.30" rsrp="-92" sinr="16" rsrq="-7"/>
        <radio op="I TIM" rat="LTE" q="55.10" rsrp="-96" sinr="14" rsrq="-10"/>
      </extensions>
    </trkpt>
    <trkpt lat="45.6040327" lon="10.4584627">
      <ele>264.20001220703125</ele>
      <time>2026-09-22T09:49:43.94+02:00</time>
      <extensions>
        <activity type="STILL" conf="100" state="still" tsMs="1790063371870"/>
        <radio op="vodafone IT" rat="LTE" q="68.40" rsrp="-89" sinr="14" rsrq="-6"/>
        <radio op="I TIM" rat="LTE" q="60.80" rsrp="-93" sinr="14" rsrq="-12"/>
      </extensions>
    </trkpt>
    <trkpt lat="45.6039333" lon="10.4585765">
      <ele>264.20001220703125</ele>
      <time>2026-09-22T09:50:15.234+02:00</time>
      <extensions>
        <activity type="STILL" conf="100" state="still" tsMs="1790063409907"/>
        <radio op="vodafone IT" rat="LTE" q="52.20" rsrp="-96" sinr="13" rsrq="-6"/>
        <radio op="I TIM" rat="LTE" q="52.70" rsrp="-94" sinr="12" rsrq="-10"/>
      </extensions>
    </trkpt>
    <trkpt lat="45.6041039" lon="10.4584676">
      <ele>264.20001220703125</ele>
      <time>2026-09-22T09:50:46.495+02:00</time>
      <extensions>
        <activity type="STILL" conf="100" state="still" tsMs="1790063437245"/>
        <radio op="vodafone IT" rat="LTE" q="66.00" rsrp="-92" sinr="15" rsrq="-6"/>
        <radio op="I TIM" rat="LTE" q="57.60" rsrp="-93" sinr="13" rsrq="-12"/>
      </extensions>
    </trkpt>
    <trkpt lat="45.6039835" lon="10.4586245">
      <ele>264.20001220703125</ele>
      <time>2026-09-22T09:51:17.814+02:00</time>
      <extensions>
        <activity type="STILL" conf="100" state="still" tsMs="1790063469029"/>
        <radio op="vodafone IT" rat="LTE" q="68.40" rsrp="-89" sinr="14" rsrq="-7"/>
        <radio op="I TIM" rat="LTE" q="57.60" rsrp="-93" sinr="13" rsrq="-10"/>
      </extensions>
    </trkpt>
    <trkpt lat="45.6040043" lon="10.4585096">
      <ele>264.20001220703125</ele>
      <time>2026-09-22T09:51:49.123+02:00</time>
      <extensions>
        <activity type="STILL" conf="100" state="still" tsMs="1790063497549"/>
        <radio op="vodafone IT" rat="LTE" q="57.80" rsrp="-91" sinr="12" rsrq="-7"/>
        <radio op="I TIM" rat="LTE" q="58.90" rsrp="-94" sinr="14" rsrq="-12"/>
      </extensions>
    </trkpt>
    <trkpt lat="45.6041007" lon="10.4586042">
      <ele>264.20001220703125</ele>
      <time>2026-09-22T09:52:20.506+02:00</time>
      <extensions>
        <activity type="STILL" conf="99" state="still" tsMs="1790063535650"/>
        <radio op="vodafone IT" rat="LTE" q="92.50" rsrp="-88" sinr="21" rsrq="-8"/>
        <radio op="I TIM" rat="LTE" q="77.00" rsrp="-90" sinr="17" rsrq="-9"/>
      </extensions>
    </trkpt>
    <trkpt lat="45.6041567" lon="10.4586365">
      <ele>264.20001220703125</ele>
      <time>2026-09-22T09:52:51.824+02:00</time>
      <extensions>
        <activity type="STILL" conf="100" state="still" tsMs="1790063562513"/>
        <radio op="vodafone IT" rat="LTE" q="68.20" rsrp="-94" sinr="17" rsrq="-7"/>
        <radio op="I TIM" rat="LTE" q="64.00" rsrp="-93" sinr="15" rsrq="-10"/>
      </extensions>
    </trkpt>
    <trkpt lat="45.6042189" lon="10.4585239">
      <ele>264.20001220703125</ele>
      <time>2026-09-22T09:53:23.056+02:00</time>
      <extensions>
        <activity type="STILL" conf="96" state="still" tsMs="1790063590981"/>
        <radio op="vodafone IT" rat="LTE" q="80.00" rsrp="-93" sinr="23" rsrq="-7"/>
        <radio op="I TIM" rat="LTE" q="71.30" rsrp="-94" sinr="18" rsrq="-10"/>
      </extensions>
    </trkpt>
    <trkpt lat="45.6040012" lon="10.4586061">
      <ele>264.20001220703125</ele>
      <time>2026-09-22T09:53:54.288+02:00</time>
      <extensions>
        <activity type="STILL" conf="99" state="still" tsMs="1790063619566"/>
        <radio op="vodafone IT" rat="LTE" q="54.40" rsrp="-91" sinr="11" rsrq="-7"/>
        <radio op="I TIM" rat="LTE" q="48.00" rsrp="-93" sinr="10" rsrq="-12"/>
      </extensions>
    </trkpt>
    <trkpt lat="45.6040373" lon="10.4586">
      <ele>264.20001220703125</ele>
      <time>2026-09-22T09:54:25.589+02:00</time>
      <extensions>
        <activity type="STILL" conf="98" state="still" tsMs="1790063661041"/>
        <radio op="vodafone IT" rat="LTE" q="63.00" rsrp="-95" sinr="16" rsrq="-8"/>
        <radio op="I TIM" rat="LTE" q="67.20" rsrp="-93" sinr="16" rsrq="-11"/>
      </extensions>
    </trkpt>
    <trkpt lat="45.6041065" lon="10.4585976">
      <ele>264.20001220703125</ele>
      <time>2026-09-22T09:54:56.794+02:00</time>
      <extensions>
        <activity type="STILL" conf="100" state="still" tsMs="1790063687579"/>
        <radio op="vodafone IT" rat="LTE" q="60.00" rsrp="-95" sinr="15" rsrq="-9"/>
        <radio op="I TIM" rat="LTE" q="71.40" rsrp="-91" sinr="16" rsrq="-11"/>
      </extensions>
    </trkpt>
    <trkpt lat="45.60427" lon="10.458566">
      <ele>264.20001220703125</ele>
      <time>2026-09-22T09:55:28.052+02:00</time>
      <extensions>
        <activity type="STILL" conf="100" state="still" tsMs="1790063706504"/>
        <radio op="vodafone IT" rat="LTE" q="77.00" rsrp="-90" sinr="17" rsrq="-6"/>
        <radio op="I TIM" rat="LTE" q="69.30" rsrp="-92" sinr="16" rsrq="-9"/>
      </extensions>
    </trkpt>
    <trkpt lat="45.6042055" lon="10.4584041">
      <ele>264.20001220703125</ele>
      <time>2026-09-22T09:55:59.28+02:00</time>
      <extensions>
        <activity type="STILL" conf="100" state="still" tsMs="1790063738709"/>
        <radio op="vodafone IT" rat="LTE" q="82.80" rsrp="-89" sinr="18" rsrq="-6"/>
        <radio op="I TIM" rat="LTE" q="74.80" rsrp="-91" sinr="17" rsrq="-12"/>
      </extensions>
    </trkpt>
    <trkpt lat="45.6036972" lon="10.4585478">
      <ele>264.20001220703125</ele>
      <time>2026-09-22T09:56:50.811+02:00</time>
      <extensions>
        <activity type="STILL" conf="100" state="still" tsMs="1790063800327"/>
        <radio op="vodafone IT" rat="LTE" q="65.10" rsrp="-94" sinr="16" rsrq="-8"/>
        <radio op="I TIM" rat="LTE" q="64.60" rsrp="-91" sinr="14" rsrq="-12"/>
      </extensions>
    </trkpt>
    <trkpt lat="45.6039642" lon="10.4584968">
      <ele>264.20001220703125</ele>
      <time>2026-09-22T09:57:52.555+02:00</time>
      <extensions>
        <activity type="STILL" conf="100" state="still" tsMs="1790063862177"/>
        <radio op="vodafone IT" rat="LTE" q="66.50" rsrp="-90" sinr="14" rsrq="-10"/>
        <radio op="I TIM" rat="LTE" q="68.40" rsrp="-89" sinr="14" rsrq="-12"/>
      </extensions>
    </trkpt>
    <trkpt lat="45.6040106" lon="10.4585739">
      <ele>264.20001220703125</ele>
      <time>2026-09-22T09:58:54.277+02:00</time>
      <extensions>
        <activity type="STILL" conf="100" state="still" tsMs="1790063923776"/>
        <radio op="vodafone IT" rat="LTE" q="87.40" rsrp="-87" sinr="18" rsrq="-7"/>
        <radio op="I TIM" rat="LTE" q="68.40" rsrp="-89" sinr="14" rsrq="-10"/>
      </extensions>
    </trkpt>
    <trkpt lat="45.6042162" lon="10.4584125">
      <ele>264.20001220703125</ele>
      <time>2026-09-22T09:59:55.987+02:00</time>
      <extensions>
        <activity type="STILL" conf="100" state="still" tsMs="1790063985567"/>
        <radio op="vodafone IT" rat="LTE" q="70.00" rsrp="-90" sinr="15" rsrq="-8"/>
        <radio op="I TIM" rat="LTE" q="62.70" rsrp="-92" sinr="14" rsrq="-11"/>
      </extensions>
    </trkpt>
    <trkpt lat="45.6042098" lon="10.4585214">
      <ele>264.20001220703125</ele>
      <time>2026-09-22T10:00:57.725+02:00</time>
      <extensions>
        <activity type="STILL" conf="100" state="still" tsMs="1790064047217"/>
        <radio op="vodafone IT" rat="LTE" q="77.00" rsrp="-90" sinr="17" rsrq="-9"/>
        <radio op="I TIM" rat="LTE" q="70.00" rsrp="-90" sinr="15" rsrq="-12"/>
      </extensions>
    </trkpt>
    <trkpt lat="45.6041985" lon="10.4585349">
      <ele>264.20001220703125</ele>
      <time>2026-09-22T10:01:59.442+02:00</time>
      <extensions>
        <activity type="STILL" conf="100" state="still" tsMs="1790064108986"/>
        <radio op="vodafone IT" rat="LTE" q="82.50" rsrp="-92" sinr="21" rsrq="-6"/>
        <radio op="I TIM" rat="LTE" q="64.00" rsrp="-93" sinr="15" rsrq="-11"/>
      </extensions>
    </trkpt>
    <trkpt lat="45.6041113" lon="10.4586226">
      <ele>264.20001220703125</ele>
      <time>2026-09-22T10:03:01.135+02:00</time>
      <extensions>
        <activity type="STILL" conf="100" state="still" tsMs="1790064170630"/>
        <radio op="vodafone IT" rat="LTE" q="85.00" rsrp="-91" sinr="22" rsrq="-6"/>
        <radio op="I TIM" rat="LTE" q="75.90" rsrp="-92" sinr="18" rsrq="-12"/>
      </extensions>
    </trkpt>
    <trkpt lat="45.6036907" lon="10.4579977">
      <ele>263.8000183105469</ele>
      <time>2026-09-22T10:35:12.414+02:00</time>
      <extensions>
        <activity type="ON_FOOT" conf="95" state="moving" tsMs="1790066083321"/>
        <radio op="vodafone IT" rat="LTE" q="85.00" rsrp="-91" sinr="22" rsrq="-5"/>
        <radio op="I TIM" rat="LTE" q="66.00" rsrp="-92" sinr="15" rsrq="-8"/>
      </extensions>
    </trkpt>
    <trkpt lat="45.603444" lon="10.4569634">
      <ele>263.1000061035156</ele>
      <time>2026-09-22T10:36:16.094+02:00</time>
      <extensions>
        <activity type="ON_FOOT" conf="91" state="moving" tsMs="1790066174517"/>
        <radio op="vodafone IT" rat="LTE" q="70.00" rsrp="-97" sinr="24" rsrq="-8"/>
        <radio op="I TIM" rat="LTE" q="74.40" rsrp="-94" sinr="19" rsrq="-8"/>
      </extensions>
    </trkpt>
    <trkpt lat="45.6033444" lon="10.4559781">
      <ele>261.9000244140625</ele>
      <time>2026-09-22T10:37:09.199+02:00</time>
      <extensions>
        <activity type="ON_FOOT" conf="93" state="moving" tsMs="1790066225280"/>
        <radio op="vodafone IT" rat="LTE" q="52.90" rsrp="-102" sinr="18" rsrq="-5"/>
        <radio op="I TIM" rat="LTE" q="72.50" rsrp="-96" sinr="26" rsrq="-11"/>
      </extensions>
    </trkpt>
    <trkpt lat="45.603263" lon="10.4558815">
      <ele>261.9000244140625</ele>
      <time>2026-09-22T10:37:15.644+02:00</time>
      <extensions>
        <activity type="ON_FOOT" conf="95" state="moving" tsMs="1790066231348"/>
        <radio op="vodafone IT" rat="LTE" q="36.00" rsrp="-107" sinr="15" rsrq="-6"/>
        <radio op="I TIM" rat="LTE" q="27.60" rsrp="-102" sinr="7" rsrq="-8"/>
      </extensions>
    </trkpt>
    <trkpt lat="45.603307" lon="10.4548032">
      <ele>262.6000061035156</ele>
      <time>2026-09-22T10:38:23.078+02:00</time>
      <extensions>
        <activity type="ON_FOOT" conf="97" state="moving" tsMs="1790066293769"/>
        <radio op="vodafone IT" rat="LTE" q="24.00" rsrp="-109" sinr="10" rsrq="-8"/>
        <radio op="I TIM" rat="LTE" q="24.00" rsrp="-109" sinr="10" rsrq="-9"/>
      </extensions>
    </trkpt>
    <trkpt lat="45.6030292" lon="10.4534695">
      <ele>261.70001220703125</ele>
      <time>2026-09-22T10:39:03.383+02:00</time>
      <extensions>
        <activity type="ON_FOOT" conf="94" state="moving" tsMs="1790066337920"/>
        <radio op="vodafone IT" rat="LTE" q="27.20" rsrp="-108" sinr="11" rsrq="-8"/>
        <radio op="I TIM" rat="LTE" q="44.00" rsrp="-103" sinr="15" rsrq="-9"/>
      </extensions>
    </trkpt>
    <trkpt lat="45.6031287" lon="10.4541151">
      <ele>261.70001220703125</ele>
      <time>2026-09-22T10:39:10.64+02:00</time>
      <extensions>
        <activity type="ON_FOOT" conf="94" state="moving" tsMs="1790066354665"/>
        <radio op="vodafone IT" rat="LTE" q="21.60" rsrp="-107" sinr="7" rsrq="-9"/>
        <radio op="I TIM" rat="LTE" q="31.50" rsrp="-104" sinr="10" rsrq="-10"/>
      </extensions>
    </trkpt>
    <trkpt lat="45.6031287" lon="10.4541151">
      <ele>261.3000183105469</ele>
      <time>2026-09-22T10:39:51.579+02:00</time>
      <extensions>
        <activity type="ON_FOOT" conf="94" state="moving" tsMs="1790066388463"/>
        <radio op="vodafone IT" rat="LTE" rsrp="-106" rsrq="-11"/>
        <radio op="I TIM" rat="LTE" q="15.00" rsrp="-110" sinr="5" rsrq="-13"/>
      </extensions>
    </trkpt>
    <trkpt lat="45.6025616" lon="10.4536685">
      <ele>261.6000061035156</ele>
      <time>2026-09-22T10:40:23.191+02:00</time>
      <extensions>
        <activity type="UNKNOWN" conf="40" state="unknown" tsMs="1790066407436"/>
        <radio op="vodafone IT" rat="LTE" rsrp="-114" rsrq="-11"/>
        <radio op="I TIM" rat="LTE" q="5.40" rsrp="-116" sinr="1" rsrq="-14"/>
      </extensions>
    </trkpt>
    <trkpt lat="45.6025557" lon="10.4536838">
      <ele>261.6000061035156</ele>
      <time>2026-09-22T10:40:54.788+02:00</time>
      <extensions>
        <activity type="STILL" conf="98" state="still" tsMs="1790066446454"/>
        <radio op="vodafone IT" rat="LTE" q="7.20" rsrp="-113" sinr="1" rsrq="-11"/>
        <radio op="I TIM" rat="LTE" rsrp="-117" rsrq="-12"/>
      </extensions>
    </trkpt>
    <trkpt lat="45.6025581" lon="10.4536798">
      <ele>261.6000061035156</ele>
      <time>2026-09-22T10:41:30.685+02:00</time>
      <extensions>
        <activity type="UNKNOWN" conf="40" state="unknown" tsMs="1790066481650"/>
        <radio op="vodafone IT" rat="LTE" q="12.60" rsrp="-116" sinr="9" rsrq="-12"/>
        <radio op="I TIM" rat="LTE" q="7.70" rsrp="-118" sinr="6" rsrq="-10"/>
      </extensions>
    </trkpt>
    <trkpt lat="45.6025546" lon="10.4536865">
      <ele>261.6000061035156</ele>
      <time>2026-09-22T10:42:04.58+02:00</time>
      <extensions>
        <activity type="STILL" conf="100" state="still" tsMs="1790066513722"/>
        <radio op="vodafone IT" rat="LTE" q="8.00" rsrp="-115" sinr="3" rsrq="-10"/>
        <radio op="I TIM" rat="LTE" q="7.80" rsrp="-119" sinr="8" rsrq="-13"/>
      </extensions>
    </trkpt>
    <trkpt lat="45.6025612" lon="10.4536815">
      <ele>261.6000061035156</ele>
      <time>2026-09-22T10:42:42.867+02:00</time>
      <extensions>
        <activity type="STILL" conf="99" state="still" tsMs="1790066552281"/>
        <radio op="vodafone IT" rat="LTE" q="17.00" rsrp="-115" sinr="12" rsrq="-9"/>
        <radio op="I TIM" rat="LTE" q="8.40" rsrp="-119" sinr="9" rsrq="-10"/>
      </extensions>
    </trkpt>
    <trkpt lat="45.6025755" lon="10.4537118">
      <ele>261.6000061035156</ele>
      <time>2026-09-22T10:43:14.272+02:00</time>
      <extensions>
        <activity type="STILL" conf="35" state="still" tsMs="1790066575398"/>
        <radio op="vodafone IT" rat="LTE" q="10.80" rsrp="-113" sinr="4" rsrq="-10"/>
        <radio op="I TIM" rat="LTE" rsrp="-119" rsrq="-13"/>
      </extensions>
    </trkpt>
    <trkpt lat="45.60258" lon="10.453887">
      <ele>262.0</ele>
      <time>2026-09-22T16:05:31.925+02:00</time>
      <extensions>
        <activity type="UNKNOWN" conf="40" state="unknown" tsMs="1790085951053"/>
        <radio op="vodafone IT" rat="LTE" q="11.00" rsrp="-114" sinr="5" rsrq="-11"/>
        <radio op="I TIM" rat="LTE" q="9.00" rsrp="-116" sinr="5" rsrq="-13"/>
      </extensions>
    </trkpt>
    <trkpt lat="45.6029704" lon="10.4536164">
      <ele>262.0</ele>
      <time>2026-09-22T16:06:10.203+02:00</time>
      <extensions>
        <activity type="UNKNOWN" conf="40" state="unknown" tsMs="1790085967651"/>
        <radio op="vodafone IT" rat="LTE" q="14.40" rsrp="-109" sinr="4" rsrq="-12"/>
        <radio op="I TIM" rat="LTE" q="27.00" rsrp="-107" sinr="10" rsrq="-13"/>
      </extensions>
    </trkpt>
    <trkpt lat="45.6025367" lon="10.4536732">
      <ele>261.6000061035156</ele>
      <time>2026-09-22T16:06:46.922+02:00</time>
      <extensions>
        <activity type="IN_VEHICLE" conf="86" state="moving" tsMs="1790085993510"/>
        <radio op="vodafone IT" rat="LTE" q="6.00" rsrp="-113" sinr="0" rsrq="-15"/>
        <radio op="I TIM" rat="LTE" q="10.80" rsrp="-113" sinr="4" rsrq="-12"/>
      </extensions>
    </trkpt>
    <trkpt lat="45.602138" lon="10.4534285">
      <ele>261.1000061035156</ele>
      <time>2026-09-22T16:07:18.041+02:00</time>
      <extensions>
        <activity type="UNKNOWN" conf="40" state="unknown" tsMs="1790086019481"/>
        <radio op="vodafone IT" rat="LTE" q="19.20" rsrp="-101" sinr="3" rsrq="-9"/>
        <radio op="I TIM" rat="LTE" q="58.90" rsrp="-94" sinr="14" rsrq="-12"/>
      </extensions>
    </trkpt>
    <trkpt lat="45.6027431" lon="10.4563716">
      <ele>264.89943313179583</ele>
      <time>2026-09-22T16:07:49.429+02:00</time>
      <extensions>
        <activity type="IN_VEHICLE" conf="97" state="moving" tsMs="1790086055003"/>
        <radio op="vodafone IT" rat="LTE" q="68.00" rsrp="-91" sinr="15" rsrq="-8"/>
        <radio op="I TIM" rat="LTE" q="63.00" rsrp="-95" sinr="16" rsrq="-12"/>
      </extensions>
    </trkpt>
    <trkpt lat="45.6029652" lon="10.4570971">
      <ele>264.89943313179583</ele>
      <time>2026-09-22T16:07:55.513+02:00</time>
      <extensions>
        <activity type="IN_VEHICLE" conf="96" state="moving" tsMs="1790086068026"/>
        <radio op="vodafone IT" rat="LTE" rsrp="-74" rsrq="-7"/>
        <radio op="I TIM" rat="LTE" q="100.00" rsrp="-73" sinr="25" rsrq="-12"/>
      </extensions>
    </trkpt>
    <trkpt lat="45.6043646" lon="10.4621961">
      <ele>269.6031861251571</ele>
      <time>2026-09-22T16:08:30.776+02:00</time>
      <extensions>
        <activity type="UNKNOWN" conf="40" state="unknown" tsMs="1790086100151"/>
        <radio op="vodafone IT" rat="LTE" q="100.00" rsrp="-78" sinr="22" rsrq="-7"/>
        <radio op="I TIM" rat="LTE" q="40.00" rsrp="-80" sinr="5" rsrq="-12"/>
      </extensions>
    </trkpt>
    <trkpt lat="45.6043366" lon="10.4659044">
      <ele>270.2322364055807</ele>
      <time>2026-09-22T16:09:05.202+02:00</time>
      <extensions>
        <activity type="IN_VEHICLE" conf="93" state="moving" tsMs="1790086145090"/>
        <radio op="vodafone IT" rat="LTE" q="67.20" rsrp="-93" sinr="16" rsrq="-7"/>
        <radio op="I TIM" rat="LTE" q="71.30" rsrp="-94" sinr="18" rsrq="-12"/>
      </extensions>
    </trkpt>
    <trkpt lat="45.6048529" lon="10.4681727">
      <ele>267.4000244140625</ele>
      <time>2026-09-22T16:09:28.202+02:00</time>
      <extensions>
        <activity type="IN_VEHICLE" conf="96" state="moving" tsMs="1790086167330"/>
        <radio op="vodafone IT" rat="LTE" q="72.50" rsrp="-96" sinr="24" rsrq="-6"/>
        <radio op="I TIM" rat="LTE" q="60.90" rsrp="-96" sinr="16" rsrq="-6"/>
      </extensions>
    </trkpt>
    <trkpt lat="45.6122606" lon="10.4880071">
      <ele>248.3417713167932</ele>
      <time>2026-09-22T16:11:10.203+02:00</time>
      <extensions>
        <activity type="IN_VEHICLE" conf="96" state="moving" tsMs="1790086273129"/>
        <radio op="vodafone IT" rat="OTHER"/>
        <radio op="I TIM" rat="LTE" q="16.20" rsrp="-107" sinr="4" rsrq="-15"/>
      </extensions>
    </trkpt>
    <trkpt lat="45.6113932" lon="10.4935795">
      <ele>226.7736243838944</ele>
      <time>2026-09-22T16:11:46.672+02:00</time>
      <extensions>
        <activity type="IN_VEHICLE" conf="96" state="moving" tsMs="1790086301862"/>
        <radio op="vodafone IT" rat="LTE" q="27.20" rsrp="-109" sinr="12" rsrq="-11"/>
        <radio op="I TIM" rat="LTE" rsrp="-118" rsrq="-17"/>
      </extensions>
    </trkpt>
    <trkpt lat="45.6140074" lon="10.4968599">
      <ele>229.13893651121253</ele>
      <time>2026-09-22T16:12:25.648+02:00</time>
      <extensions>
        <activity type="IN_VEHICLE" conf="98" state="moving" tsMs="1790086329131"/>
        <radio op="vodafone IT" rat="LTE" q="100.00" rsrp="-76" sinr="28" rsrq="-12"/>
        <radio op="I TIM" rat="LTE" rsrp="-114" rsrq="-17"/>
      </extensions>
    </trkpt>
    <trkpt lat="45.6180586" lon="10.4934017">
      <ele>227.48199443293322</ele>
      <time>2026-09-22T16:13:32.058+02:00</time>
      <extensions>
        <activity type="IN_VEHICLE" conf="96" state="moving" tsMs="1790086422185"/>
        <radio op="vodafone IT" rat="LTE" q="82.50" rsrp="-92" sinr="21" rsrq="-8"/>
        <radio op="I TIM" rat="LTE" q="60.00" rsrp="-95" sinr="15" rsrq="-12"/>
      </extensions>
    </trkpt>
    <trkpt lat="45.6177786" lon="10.4934673">
      <ele>224.20001220703125</ele>
      <time>2026-09-22T16:14:04.539+02:00</time>
      <extensions>
        <activity type="IN_VEHICLE" conf="86" state="moving" tsMs="1790086428281"/>
        <radio op="vodafone IT" rat="LTE" q="77.50" rsrp="-94" sinr="24" rsrq="-10"/>
        <radio op="I TIM" rat="LTE" q="66.70" rsrp="-96" sinr="18" rsrq="-13"/>
      </extensions>
    </trkpt>
    <trkpt lat="45.6175729" lon="10.4934285">
      <ele>224.20001220703125</ele>
      <time>2026-09-22T16:14:28.203+02:00</time>
      <extensions>
        <activity type="TILTING" conf="100" state="moving" tsMs="1790086461458"/>
        <radio op="vodafone IT" rat="LTE" q="75.00" rsrp="-95" sinr="20" rsrq="-8"/>
        <radio op="I TIM" rat="LTE" q="65.10" rsrp="-94" sinr="16" rsrq="-11"/>
      </extensions>
    </trkpt>
    <trkpt lat="45.6177374" lon="10.4933551">
      <ele>224.20001220703125</ele>
      <time>2026-09-22T16:15:01.478+02:00</time>
      <extensions>
        <activity type="UNKNOWN" conf="40" state="unknown" tsMs="1790086492688"/>
        <radio op="vodafone IT" rat="LTE" q="59.40" rsrp="-98" sinr="17" rsrq="-8"/>
        <radio op="I TIM" rat="LTE" q="82.50" rsrp="-92" sinr="21" rsrq="-11"/>
      </extensions>
    </trkpt>
    <trkpt lat="45.6178039" lon="10.49354">
      <ele>224.20001220703125</ele>
      <time>2026-09-22T16:15:30.292+02:00</time>
      <extensions>
        <activity type="ON_FOOT" conf="97" state="moving" tsMs="1790086513572"/>
        <radio op="vodafone IT" rat="LTE" q="45.00" rsrp="-107" sinr="22" rsrq="-14"/>
        <radio op="I TIM" rat="LTE" rsrp="-92" rsrq="-12"/>
      </extensions>
    </trkpt>
    <trkpt lat="45.6175958" lon="10.4942843">
      <ele>224.20001220703125</ele>
      <time>2026-09-22T16:16:03.484+02:00</time>
      <extensions>
        <activity type="ON_FOOT" conf="95" state="moving" tsMs="1790086552477"/>
        <radio op="vodafone IT" rat="LTE" q="55.00" rsrp="-103" sinr="21" rsrq="-10"/>
        <radio op="I TIM" rat="LTE" q="41.60" rsrp="-99" sinr="11" rsrq="-12"/>
      </extensions>
    </trkpt>
    <trkpt lat="45.617591" lon="10.4942309">
      <ele>224.20001220703125</ele>
      <time>2026-09-22T16:16:34.739+02:00</time>
      <extensions>
        <activity type="ON_FOOT" conf="97" state="moving" tsMs="1790086584471"/>
        <radio op="vodafone IT" rat="LTE" q="57.20" rsrp="-99" sinr="17" rsrq="-8"/>
        <radio op="I TIM" rat="LTE" q="90.00" rsrp="-89" sinr="24" rsrq="-8"/>
      </extensions>
    </trkpt>
    <trkpt lat="45.617621" lon="10.4942156">
      <ele>224.20001220703125</ele>
      <time>2026-09-22T16:17:06.012+02:00</time>
      <extensions>
        <activity type="UNKNOWN" conf="40" state="unknown" tsMs="1790086606936"/>
        <radio op="vodafone IT" rat="LTE" q="60.00" rsrp="-101" sinr="23" rsrq="-11"/>
        <radio op="I TIM" rat="LTE" q="87.50" rsrp="-90" sinr="21" rsrq="-10"/>
      </extensions>
    </trkpt>
    <trkpt lat="45.6175883" lon="10.4942143">
      <ele>224.20001220703125</ele>
      <time>2026-09-22T16:17:37.283+02:00</time>
      <extensions>
        <activity type="STILL" conf="100" state="still" tsMs="1790086652588"/>
        <radio op="vodafone IT" rat="LTE" q="55.00" rsrp="-103" sinr="21" rsrq="-11"/>
        <radio op="I TIM" rat="LTE" q="66.00" rsrp="-95" sinr="17" rsrq="-12"/>
      </extensions>
    </trkpt>
    <trkpt lat="45.6176166" lon="10.4941911">
      <ele>224.20001220703125</ele>
      <time>2026-09-22T16:18:08.587+02:00</time>
      <extensions>
        <activity type="STILL" conf="100" state="still" tsMs="1790086679860"/>
        <radio op="vodafone IT" rat="LTE" q="28.60" rsrp="-103" sinr="8" rsrq="-11"/>
        <radio op="I TIM" rat="LTE" q="60.90" rsrp="-96" sinr="16" rsrq="-11"/>
      </extensions>
    </trkpt>
    <trkpt lat="45.6176159" lon="10.494213">
      <ele>224.20001220703125</ele>
      <time>2026-09-22T16:18:39.846+02:00</time>
      <extensions>
        <activity type="STILL" conf="100" state="still" tsMs="1790086708406"/>
        <radio op="vodafone IT" rat="LTE" q="55.00" rsrp="-103" sinr="21" rsrq="-8"/>
        <radio op="I TIM" rat="LTE" q="72.50" rsrp="-96" sinr="20" rsrq="-11"/>
      </extensions>
    </trkpt>
    <trkpt lat="45.6176154" lon="10.4941978">
      <ele>224.20001220703125</ele>
      <time>2026-09-22T16:19:11.083+02:00</time>
      <extensions>
        <activity type="STILL" conf="100" state="still" tsMs="1790086746504"/>
        <radio op="vodafone IT" rat="LTE" q="57.60" rsrp="-101" sinr="19" rsrq="-7"/>
        <radio op="I TIM" rat="LTE" q="69.60" rsrp="-96" sinr="19" rsrq="-11"/>
      </extensions>
    </trkpt>
    <trkpt lat="45.6176885" lon="10.4941517">
      <ele>224.20001220703125</ele>
      <time>2026-09-22T16:20:48.275+02:00</time>
      <extensions>
        <activity type="UNKNOWN" conf="40" state="unknown" tsMs="1790086866211"/>
        <radio op="vodafone IT" rat="LTE" q="57.60" rsrp="-101" sinr="19" rsrq="-7"/>
        <radio op="I TIM" rat="LTE" q="85.00" rsrp="-91" sinr="21" rsrq="-13"/>
      </extensions>
    </trkpt>
    <trkpt lat="45.6177061" lon="10.4941882">
      <ele>224.20001220703125</ele>
      <time>2026-09-22T16:21:23.769+02:00</time>
      <extensions>
        <activity type="UNKNOWN" conf="40" state="unknown" tsMs="1790086866211"/>
        <radio op="vodafone IT" rat="LTE" q="55.20" rsrp="-102" sinr="19" rsrq="-9"/>
        <radio op="I TIM" rat="LTE" q="66.50" rsrp="-90" sinr="14" rsrq="-13"/>
      </extensions>
    </trkpt>
    <trkpt lat="45.6176236" lon="10.4942702">
      <ele>224.20001220703125</ele>
      <time>2026-09-22T16:21:55.681+02:00</time>
      <extensions>
        <activity type="UNKNOWN" conf="40" state="unknown" tsMs="1790086905074"/>
        <radio op="vodafone IT" rat="LTE" q="63.80" rsrp="-96" sinr="17" rsrq="-8"/>
        <radio op="I TIM" rat="LTE" q="90.00" rsrp="-89" sinr="20" rsrq="-11"/>
      </extensions>
    </trkpt>
    <trkpt lat="45.6176165" lon="10.4942099">
      <ele>224.20001220703125</ele>
      <time>2026-09-22T16:22:26.877+02:00</time>
      <extensions>
        <activity type="STILL" conf="99" state="still" tsMs="1790086940463"/>
        <radio op="vodafone IT" rat="LTE" q="67.50" rsrp="-98" sinr="26" rsrq="-10"/>
        <radio op="I TIM" rat="LTE" q="95.00" rsrp="-87" sinr="20" rsrq="-11"/>
      </extensions>
    </trkpt>
    <trkpt lat="45.6176076" lon="10.4942007">
      <ele>224.20001220703125</ele>
      <time>2026-09-22T16:22:58.003+02:00</time>
      <extensions>
        <activity type="ON_FOOT" conf="90" state="moving" tsMs="1790086962928"/>
        <radio op="vodafone IT" rat="LTE" q="59.40" rsrp="-98" sinr="17" rsrq="-9"/>
        <radio op="I TIM" rat="LTE" q="90.00" rsrp="-89" sinr="20" rsrq="-12"/>
      </extensions>
    </trkpt>
    <trkpt lat="45.6175856" lon="10.4942094">
      <ele>224.20001220703125</ele>
      <time>2026-09-22T16:23:29.291+02:00</time>
      <extensions>
        <activity type="ON_FOOT" conf="93" state="moving" tsMs="1790087001752"/>
        <radio op="vodafone IT" rat="LTE" q="67.50" rsrp="-98" sinr="20" rsrq="-7"/>
        <radio op="I TIM" rat="LTE" q="66.00" rsrp="-92" sinr="15" rsrq="-12"/>
      </extensions>
    </trkpt>
    <trkpt lat="45.61766" lon="10.4941838">
      <ele>224.20001220703125</ele>
      <time>2026-09-22T16:24:00.574+02:00</time>
      <extensions>
        <activity type="UNKNOWN" conf="40" state="unknown" tsMs="1790087025873"/>
        <radio op="vodafone IT" rat="LTE" q="57.50" rsrp="-102" sinr="20" rsrq="-7"/>
        <radio op="I TIM" rat="LTE" q="74.00" rsrp="-88" sinr="15" rsrq="-10"/>
      </extensions>
    </trkpt>
    <trkpt lat="45.6176098" lon="10.4943348">
      <ele>224.20001220703125</ele>
      <time>2026-09-22T16:24:31.817+02:00</time>
      <extensions>
        <activity type="UNKNOWN" conf="40" state="unknown" tsMs="1790087064721"/>
        <radio op="vodafone IT" rat="LTE" q="40.80" rsrp="-101" sinr="12" rsrq="-10"/>
        <radio op="I TIM" rat="LTE" q="79.20" rsrp="-92" sinr="19" rsrq="-9"/>
      </extensions>
    </trkpt>
    <trkpt lat="45.6176127" lon="10.4941681">
      <ele>224.20001220703125</ele>
      <time>2026-09-22T16:25:03.004+02:00</time>
      <extensions>
        <activity type="STILL" conf="42" state="still" tsMs="1790087087695"/>
        <radio op="vodafone IT" rat="LTE" q="27.50" rsrp="-100" sinr="6" rsrq="-12"/>
        <radio op="I TIM" rat="LTE" q="92.50" rsrp="-88" sinr="20" rsrq="-11"/>
      </extensions>
    </trkpt>
    <trkpt lat="45.6176822" lon="10.4941647">
      <ele>224.20001220703125</ele>
      <time>2026-09-22T16:25:34.286+02:00</time>
      <extensions>
        <activity type="UNKNOWN" conf="40" state="unknown" tsMs="1790087126516"/>
        <radio op="vodafone IT" rat="LTE" q="60.00" rsrp="-100" sinr="19" rsrq="-13"/>
        <radio op="I TIM" rat="LTE" q="87.50" rsrp="-90" sinr="23" rsrq="-11"/>
      </extensions>
    </trkpt>
    <trkpt lat="45.6176255" lon="10.4941901">
      <ele>224.20001220703125</ele>
      <time>2026-09-22T16:26:05.721+02:00</time>
      <extensions>
        <activity type="UNKNOWN" conf="40" state="unknown" tsMs="1790087150139"/>
        <radio op="vodafone IT" rat="LTE" q="39.90" rsrp="-104" sinr="14" rsrq="-8"/>
        <radio op="I TIM" rat="LTE" q="95.00" rsrp="-87" sinr="21" rsrq="-11"/>
      </extensions>
    </trkpt>
    <trkpt lat="45.6176219" lon="10.4942167">
      <ele>224.20001220703125</ele>
      <time>2026-09-22T16:26:36.895+02:00</time>
      <extensions>
        <activity type="STILL" conf="47" state="still" tsMs="1790087185480"/>
        <radio op="vodafone IT" rat="LTE" q="43.20" rsrp="-98" sinr="11" rsrq="-9"/>
        <radio op="I TIM" rat="LTE" q="92.50" rsrp="-88" sinr="21" rsrq="-12"/>
      </extensions>
    </trkpt>
    <trkpt lat="45.6176169" lon="10.4942275">
      <ele>224.20001220703125</ele>
      <time>2026-09-22T16:27:08.028+02:00</time>
      <extensions>
        <activity type="UNKNOWN" conf="40" state="unknown" tsMs="1790087211363"/>
        <radio op="vodafone IT" rat="LTE" q="46.20" rsrp="-104" sinr="17" rsrq="-9"/>
        <radio op="I TIM" rat="LTE" q="85.00" rsrp="-91" sinr="22" rsrq="-8"/>
      </extensions>
    </trkpt>
    <trkpt lat="45.6176833" lon="10.4941503">
      <ele>224.20001220703125</ele>
      <time>2026-09-22T16:27:39.133+02:00</time>
      <extensions>
        <activity type="STILL" conf="100" state="still" tsMs="1790087250096"/>
        <radio op="vodafone IT" rat="LTE" q="65.00" rsrp="-99" sinr="20" rsrq="-12"/>
        <radio op="I TIM" rat="LTE" q="92.50" rsrp="-88" sinr="21" rsrq="-10"/>
      </extensions>
    </trkpt>
    <trkpt lat="45.6176808" lon="10.4941574">
      <ele>224.20001220703125</ele>
      <time>2026-09-22T16:28:10.573+02:00</time>
      <extensions>
        <activity type="STILL" conf="100" state="still" tsMs="1790087278397"/>
        <radio op="vodafone IT" rat="LTE" q="35.00" rsrp="-100" sinr="9" rsrq="-10"/>
        <radio op="I TIM" rat="LTE" q="78.20" rsrp="-91" sinr="18" rsrq="-11"/>
      </extensions>
    </trkpt>
    <trkpt lat="45.6176615" lon="10.4943649">
      <ele>224.20001220703125</ele>
      <time>2026-09-22T16:28:41.867+02:00</time>
      <extensions>
        <activity type="UNKNOWN" conf="40" state="unknown" tsMs="1790087310255"/>
        <radio op="vodafone IT" rat="LTE" q="70.00" rsrp="-97" sinr="22" rsrq="-8"/>
        <radio op="I TIM" rat="LTE" q="93.60" rsrp="-86" sinr="19" rsrq="-11"/>
      </extensions>
    </trkpt>
    <trkpt lat="45.6176301" lon="10.4942268">
      <ele>224.20001220703125</ele>
      <time>2026-09-22T16:29:13.308+02:00</time>
      <extensions>
        <activity type="STILL" conf="100" state="still" tsMs="1790087345582"/>
        <radio op="vodafone IT" rat="LTE" q="57.60" rsrp="-101" sinr="19" rsrq="-12"/>
        <radio op="I TIM" rat="LTE" q="74.00" rsrp="-88" sinr="15" rsrq="-10"/>
      </extensions>
    </trkpt>
    <trkpt lat="45.6176665" lon="10.4941574">
      <ele>224.20001220703125</ele>
      <time>2026-09-22T16:29:44.683+02:00</time>
      <extensions>
        <activity type="STILL" conf="100" state="still" tsMs="1790087367975"/>
        <radio op="vodafone IT" rat="LTE" q="48.00" rsrp="-101" sinr="15" rsrq="-12"/>
        <radio op="I TIM" rat="LTE" q="83.60" rsrp="-87" sinr="17" rsrq="-13"/>
      </extensions>
    </trkpt>
    <trkpt lat="45.6176711" lon="10.4941668">
      <ele>224.20001220703125</ele>
      <time>2026-09-22T16:30:16.073+02:00</time>
      <extensions>
        <activity type="STILL" conf="97" state="still" tsMs="1790087406584"/>
        <radio op="vodafone IT" rat="LTE" q="58.80" rsrp="-97" sinr="16" rsrq="-13"/>
        <radio op="I TIM" rat="LTE" q="73.50" rsrp="-90" sinr="16" rsrq="-11"/>
      </extensions>
    </trkpt>
    <trkpt lat="45.6176882" lon="10.494166">
      <ele>224.20001220703125</ele>
      <time>2026-09-22T16:30:47.44+02:00</time>
      <extensions>
        <activity type="STILL" conf="100" state="still" tsMs="1790087428783"/>
        <radio op="vodafone IT" rat="LTE" q="36.40" rsrp="-99" sinr="9" rsrq="-8"/>
        <radio op="I TIM" rat="LTE" q="46.20" rsrp="-92" sinr="9" rsrq="-9"/>
      </extensions>
    </trkpt>
    <trkpt lat="45.6178707" lon="10.4936664">
      <ele>224.20001220703125</ele>
      <time>2026-09-22T16:31:18.745+02:00</time>
      <extensions>
        <activity type="STILL" conf="99" state="still" tsMs="1790087467475"/>
        <radio op="vodafone IT" rat="LTE" q="52.90" rsrp="-102" sinr="18" rsrq="-11"/>
        <radio op="I TIM" rat="LTE" q="46.20" rsrp="-92" sinr="9" rsrq="-11"/>
      </extensions>
    </trkpt>
    <trkpt lat="45.617663" lon="10.4941446">
      <ele>224.20001220703125</ele>
      <time>2026-09-22T16:31:50.057+02:00</time>
      <extensions>
        <activity type="STILL" conf="100" state="still" tsMs="1790087499225"/>
        <radio op="vodafone IT" rat="LTE" q="45.00" rsrp="-100" sinr="13" rsrq="-7"/>
        <radio op="I TIM" rat="LTE" q="79.20" rsrp="-89" sinr="17" rsrq="-10"/>
      </extensions>
    </trkpt>
    <trkpt lat="45.6176571" lon="10.4941831">
      <ele>224.20001220703125</ele>
      <time>2026-09-22T16:32:21.468+02:00</time>
      <extensions>
        <activity type="STILL" conf="50" state="still" tsMs="1790087531030"/>
        <radio op="vodafone IT" rat="LTE" q="62.40" rsrp="-99" sinr="19" rsrq="-8"/>
        <radio op="I TIM" rat="LTE" q="86.40" rsrp="-89" sinr="19" rsrq="-8"/>
      </extensions>
    </trkpt>
    <trkpt lat="45.6177653" lon="10.493887">
      <ele>224.20001220703125</ele>
      <time>2026-09-22T16:32:53.3+02:00</time>
      <extensions>
        <activity type="STILL" conf="96" state="still" tsMs="1790087566327"/>
        <radio op="vodafone IT" rat="LTE" q="63.00" rsrp="-95" sinr="16" rsrq="-7"/>
        <radio op="I TIM" rat="LTE" q="85.10" rsrp="-88" sinr="18" rsrq="-10"/>
      </extensions>
    </trkpt>
    <trkpt lat="45.6175876" lon="10.4942168">
      <ele>224.20001220703125</ele>
      <time>2026-09-22T16:33:24.802+02:00</time>
      <extensions>
        <activity type="STILL" conf="100" state="still" tsMs="1790087594531"/>
        <radio op="vodafone IT" rat="LTE" q="55.00" rsrp="-103" sinr="21" rsrq="-7"/>
        <radio op="I TIM" rat="LTE" q="69.60" rsrp="-96" sinr="19" rsrq="-12"/>
      </extensions>
    </trkpt>
    <trkpt lat="45.6176156" lon="10.4942109">
      <ele>224.20001220703125</ele>
      <time>2026-09-22T16:33:56.334+02:00</time>
      <extensions>
        <activity type="STILL" conf="100" state="still" tsMs="1790087623114"/>
        <radio op="vodafone IT" rat="LTE" q="52.50" rsrp="-104" sinr="20" rsrq="-6"/>
        <radio op="I TIM" rat="LTE" q="72.50" rsrp="-96" sinr="21" rsrq="-11"/>
      </extensions>
    </trkpt>
    <trkpt lat="45.6175873" lon="10.4942155">
      <ele>224.20001220703125</ele>
      <time>2026-09-22T16:34:27.884+02:00</time>
      <extensions>
        <activity type="STILL" conf="100" state="still" tsMs="1790087658542"/>
        <radio op="vodafone IT" rat="LTE" q="48.00" rsrp="-105" sinr="19" rsrq="-13"/>
        <radio op="I TIM" rat="LTE" q="26.10" rsrp="-96" sinr="4" rsrq="-12"/>
      </extensions>
    </trkpt>
    <trkpt lat="45.6176155" lon="10.4942106">
      <ele>224.20001220703125</ele>
      <time>2026-09-22T16:34:59.373+02:00</time>
      <extensions>
        <activity type="STILL" conf="100" state="still" tsMs="1790087687069"/>
        <radio op="vodafone IT" rat="LTE" q="52.50" rsrp="-104" sinr="21" rsrq="-7"/>
        <radio op="I TIM" rat="LTE" q="69.60" rsrp="-96" sinr="19" rsrq="-12"/>
      </extensions>
    </trkpt>
    <trkpt lat="45.6175879" lon="10.4942181">
      <ele>224.20001220703125</ele>
      <time>2026-09-22T16:35:30.913+02:00</time>
      <extensions>
        <activity type="STILL" conf="100" state="still" tsMs="1790087722672"/>
        <radio op="vodafone IT" rat="LTE" q="55.00" rsrp="-103" sinr="22" rsrq="-6"/>
        <radio op="I TIM" rat="LTE" q="55.10" rsrp="-96" sinr="14" rsrq="-11"/>
      </extensions>
    </trkpt>
    <trkpt lat="45.6175876" lon="10.4942146">
      <ele>224.20001220703125</ele>
      <time>2026-09-22T16:36:02.435+02:00</time>
      <extensions>
        <activity type="STILL" conf="100" state="still" tsMs="1790087751324"/>
        <radio op="vodafone IT" rat="LTE" q="55.00" rsrp="-103" sinr="22" rsrq="-8"/>
        <radio op="I TIM" rat="LTE" q="37.70" rsrp="-96" sinr="8" rsrq="-11"/>
      </extensions>
    </trkpt>
    <trkpt lat="45.6176167" lon="10.4942122">
      <ele>224.20001220703125</ele>
      <time>2026-09-22T16:36:33.943+02:00</time>
      <extensions>
        <activity type="STILL" conf="100" state="still" tsMs="1790087789367"/>
        <radio op="vodafone IT" rat="LTE" q="57.50" rsrp="-102" sinr="23" rsrq="-11"/>
        <radio op="I TIM" rat="LTE" q="69.60" rsrp="-96" sinr="19" rsrq="-11"/>
      </extensions>
    </trkpt>
    <trkpt lat="45.6177613" lon="10.4941261">
      <ele>224.20001220703125</ele>
      <time>2026-09-22T17:16:28.751+02:00</time>
      <extensions>
        <activity type="UNKNOWN" conf="40" state="unknown" tsMs="1790090191755"/>
        <radio op="vodafone IT" rat="LTE" q="82.80" rsrp="-89" sinr="18" rsrq="-11"/>
        <radio op="I TIM" rat="LTE" q="78.20" rsrp="-91" sinr="18" rsrq="-12"/>
      </extensions>
    </trkpt>
    <trkpt lat="45.6176236" lon="10.4942276">
      <ele>224.20001220703125</ele>
      <time>2026-09-22T17:17:00.057+02:00</time>
      <extensions>
        <activity type="UNKNOWN" conf="40" state="unknown" tsMs="1790090204645"/>
        <radio op="vodafone IT" rat="LTE" q="70.20" rsrp="-86" sinr="13" rsrq="-10"/>
        <radio op="I TIM" rat="LTE" q="72.00" rsrp="-89" sinr="15" rsrq="-11"/>
      </extensions>
    </trkpt>
    <trkpt lat="45.6176042" lon="10.4942023">
      <ele>224.20001220703125</ele>
      <time>2026-09-22T17:17:31.215+02:00</time>
      <extensions>
        <activity type="UNKNOWN" conf="40" state="unknown" tsMs="1790090243401"/>
        <radio op="vodafone IT" rat="LTE" q="50.40" rsrp="-89" sinr="9" rsrq="-8"/>
        <radio op="I TIM" rat="LTE" q="97.50" rsrp="-86" sinr="20" rsrq="-11"/>
      </extensions>
    </trkpt>
    <trkpt lat="45.617615" lon="10.4942119">
      <ele>224.20001220703125</ele>
      <time>2026-09-22T17:18:02.509+02:00</time>
      <extensions>
        <activity type="STILL" conf="100" state="still" tsMs="1790090273263"/>
        <radio op="vodafone IT" rat="LTE" q="51.80" rsrp="-88" sinr="9" rsrq="-10"/>
        <radio op="I TIM" rat="LTE" q="79.80" rsrp="-87" sinr="16" rsrq="-11"/>
      </extensions>
    </trkpt>
    <trkpt lat="45.6176053" lon="10.4941951">
      <ele>224.20001220703125</ele>
      <time>2026-09-22T17:18:33.863+02:00</time>
      <extensions>
        <activity type="STILL" conf="100" state="still" tsMs="1790090305113"/>
        <radio op="vodafone IT" rat="LTE" q="32.00" rsrp="-93" sinr="5" rsrq="-12"/>
        <radio op="I TIM" rat="LTE" q="78.20" rsrp="-91" sinr="18" rsrq="-12"/>
      </extensions>
    </trkpt>
    <trkpt lat="45.6176425" lon="10.4941924">
      <ele>224.20001220703125</ele>
      <time>2026-09-22T17:19:05.121+02:00</time>
      <extensions>
        <activity type="STILL" conf="47" state="still" tsMs="1790090329822"/>
        <radio op="vodafone IT" rat="LTE" q="37.40" rsrp="-91" sinr="6" rsrq="-11"/>
        <radio op="I TIM" rat="LTE" q="76.80" rsrp="-93" sinr="19" rsrq="-9"/>
      </extensions>
    </trkpt>
    <trkpt lat="45.6176907" lon="10.4941926">
      <ele>224.20001220703125</ele>
      <time>2026-09-22T17:19:36.375+02:00</time>
      <extensions>
        <activity type="UNKNOWN" conf="40" state="unknown" tsMs="1790090368696"/>
        <radio op="vodafone IT" rat="LTE" rsrp="-91" rsrq="-8"/>
        <radio op="I TIM" rat="LTE" q="90.00" rsrp="-89" sinr="21" rsrq="-11"/>
      </extensions>
    </trkpt>
    <trkpt lat="45.6176794" lon="10.494183">
      <ele>224.20001220703125</ele>
      <time>2026-09-22T17:20:07.735+02:00</time>
      <extensions>
        <activity type="STILL" conf="100" state="still" tsMs="1790090392308"/>
        <radio op="vodafone IT" rat="LTE" q="28.00" rsrp="-90" sinr="3" rsrq="-11"/>
        <radio op="I TIM" rat="LTE" q="81.60" rsrp="-91" sinr="19" rsrq="-11"/>
      </extensions>
    </trkpt>
    <trkpt lat="45.6175225" lon="10.4944171">
      <ele>224.20001220703125</ele>
      <time>2026-09-22T17:26:23.195+02:00</time>
      <extensions>
        <activity type="UNKNOWN" conf="40" state="unknown" tsMs="1790090771653"/>
        <radio op="vodafone IT" rat="LTE" q="46.00" rsrp="-102" sinr="15" rsrq="-11"/>
        <radio op="I TIM" rat="LTE" q="79.20" rsrp="-92" sinr="19" rsrq="-12"/>
      </extensions>
    </trkpt>
    <trkpt lat="45.6176343" lon="10.4941935">
      <ele>224.20001220703125</ele>
      <time>2026-09-22T17:27:01.875+02:00</time>
      <extensions>
        <activity type="STILL" conf="100" state="still" tsMs="1790090810186"/>
        <radio op="vodafone IT" rat="LTE" q="55.20" rsrp="-101" sinr="18" rsrq="-10"/>
        <radio op="I TIM" rat="LTE" q="87.50" rsrp="-90" sinr="20" rsrq="-10"/>
      </extensions>
    </trkpt>
    <trkpt lat="45.6176208" lon="10.49421">
      <ele>224.20001220703125</ele>
      <time>2026-09-22T17:27:33.253+02:00</time>
      <extensions>
        <activity type="STILL" conf="99" state="still" tsMs="1790090845559"/>
        <radio op="vodafone IT" rat="LTE" q="52.80" rsrp="-101" sinr="17" rsrq="-8"/>
        <radio op="I TIM" rat="LTE" q="86.40" rsrp="-89" sinr="19" rsrq="-13"/>
      </extensions>
    </trkpt>
    <trkpt lat="45.6176251" lon="10.4942259">
      <ele>224.20001220703125</ele>
      <time>2026-09-22T17:28:04.728+02:00</time>
      <extensions>
        <activity type="STILL" conf="100" state="still" tsMs="1790090869117"/>
        <radio op="vodafone IT" rat="LTE" q="68.20" rsrp="-94" sinr="17" rsrq="-8"/>
        <radio op="I TIM" rat="LTE" q="90.00" rsrp="-89" sinr="20" rsrq="-12"/>
      </extensions>
    </trkpt>
    <trkpt lat="45.617656" lon="10.4942016">
      <ele>224.20001220703125</ele>
      <time>2026-09-22T17:28:36.129+02:00</time>
      <extensions>
        <activity type="STILL" conf="100" state="still" tsMs="1790090907989"/>
        <radio op="vodafone IT" rat="LTE" q="63.80" rsrp="-96" sinr="17" rsrq="-10"/>
        <radio op="I TIM" rat="LTE" q="78.20" rsrp="-91" sinr="18" rsrq="-11"/>
      </extensions>
    </trkpt>
    <trkpt lat="45.617616" lon="10.4942127">
      <ele>224.20001220703125</ele>
      <time>2026-09-22T17:29:07.497+02:00</time>
      <extensions>
        <activity type="UNKNOWN" conf="40" state="unknown" tsMs="1790090928666"/>
        <radio op="vodafone IT" rat="LTE" q="70.00" rsrp="-97" sinr="21" rsrq="-8"/>
        <radio op="I TIM" rat="LTE" q="74.80" rsrp="-91" sinr="17" rsrq="-12"/>
      </extensions>
    </trkpt>
    <trkpt lat="45.617608" lon="10.4941903">
      <ele>224.20001220703125</ele>
      <time>2026-09-22T17:29:38.731+02:00</time>
      <extensions>
        <activity type="STILL" conf="46" state="still" tsMs="1790090967502"/>
        <radio op="vodafone IT" rat="LTE" q="52.50" rsrp="-100" sinr="16" rsrq="-7"/>
        <radio op="I TIM" rat="LTE" q="91.20" rsrp="-87" sinr="19" rsrq="-12"/>
      </extensions>
    </trkpt>
    <trkpt lat="45.6176061" lon="10.4941954">
      <ele>224.20001220703125</ele>
      <time>2026-09-22T17:30:09.901+02:00</time>
      <extensions>
        <activity type="UNKNOWN" conf="40" state="unknown" tsMs="1790090993474"/>
        <radio op="vodafone IT" rat="LTE" q="62.10" rsrp="-98" sinr="18" rsrq="-10"/>
        <radio op="I TIM" rat="LTE" q="88.80" rsrp="-88" sinr="19" rsrq="-12"/>
      </extensions>
    </trkpt>
    <trkpt lat="45.617809" lon="10.493536">
      <ele>224.20001220703125</ele>
      <time>2026-09-22T18:15:14.021+02:00</time>
      <extensions>
        <activity type="ON_FOOT" conf="97" state="moving" tsMs="1790093708559"/>
        <radio op="vodafone IT" rat="LTE" q="65.00" rsrp="-99" sinr="20" rsrq="-11"/>
        <radio op="I TIM" rat="LTE" q="43.20" rsrp="-98" sinr="11" rsrq="-13"/>
      </extensions>
    </trkpt>
    <trkpt lat="45.6178724" lon="10.4935662">
      <ele>224.20001220703125</ele>
      <time>2026-09-22T18:15:45.58+02:00</time>
      <extensions>
        <activity type="UNKNOWN" conf="40" state="unknown" tsMs="1790093729911"/>
        <radio op="vodafone IT" rat="LTE" q="70.00" rsrp="-97" sinr="25" rsrq="-7"/>
        <radio op="I TIM" rat="LTE" rsrp="-95" rsrq="-12"/>
      </extensions>
    </trkpt>
    <trkpt lat="45.6177207" lon="10.4936289">
      <ele>224.20001220703125</ele>
      <time>2026-09-22T18:16:16.9+02:00</time>
      <extensions>
        <activity type="UNKNOWN" conf="40" state="unknown" tsMs="1790093761730"/>
        <radio op="vodafone IT" rat="LTE" q="80.00" rsrp="-93" sinr="24" rsrq="-6"/>
        <radio op="I TIM" rat="LTE" q="33.00" rsrp="-95" sinr="6" rsrq="-12"/>
      </extensions>
    </trkpt>
    <trkpt lat="45.6177163" lon="10.4935184">
      <ele>224.20001220703125</ele>
      <time>2026-09-22T18:16:48.096+02:00</time>
      <extensions>
        <activity type="STILL" conf="99" state="still" tsMs="1790093797197"/>
        <radio op="vodafone IT" rat="LTE" q="43.70" rsrp="-106" sinr="18" rsrq="-12"/>
        <radio op="I TIM" rat="LTE" q="55.10" rsrp="-96" sinr="14" rsrq="-13"/>
      </extensions>
    </trkpt>
    <trkpt lat="45.6177119" lon="10.4936449">
      <ele>224.20001220703125</ele>
      <time>2026-09-22T18:17:19.45+02:00</time>
      <extensions>
        <activity type="STILL" conf="99" state="still" tsMs="1790093835179"/>
        <radio op="vodafone IT" rat="LTE" q="57.60" rsrp="-101" sinr="19" rsrq="-12"/>
        <radio op="I TIM" rat="LTE" q="16.20" rsrp="-98" sinr="1" rsrq="-12"/>
      </extensions>
    </trkpt>
    <trkpt lat="45.6177385" lon="10.4939628">
      <ele>224.20001220703125</ele>
      <time>2026-09-22T18:17:50.577+02:00</time>
      <extensions>
        <activity type="STILL" conf="100" state="still" tsMs="1790093861408"/>
        <radio op="vodafone IT" rat="LTE" q="55.20" rsrp="-102" sinr="19" rsrq="-12"/>
        <radio op="I TIM" rat="LTE" q="62.50" rsrp="-100" sinr="20" rsrq="-13"/>
      </extensions>
    </trkpt>
    <trkpt lat="45.6177179" lon="10.4934433">
      <ele>224.20001220703125</ele>
      <time>2026-09-22T18:18:21.962+02:00</time>
      <extensions>
        <activity type="STILL" conf="100" state="still" tsMs="1790093889828"/>
        <radio op="vodafone IT" rat="LTE" q="52.80" rsrp="-101" sinr="17" rsrq="-13"/>
        <radio op="I TIM" rat="LTE" q="64.40" rsrp="-97" sinr="18" rsrq="-12"/>
      </extensions>
    </trkpt>
    <trkpt lat="45.6177196" lon="10.4935074">
      <ele>224.20001220703125</ele>
      <time>2026-09-22T18:18:53.122+02:00</time>
      <extensions>
        <activity type="STILL" conf="41" state="still" tsMs="1790093918388"/>
        <radio op="vodafone IT" rat="LTE" q="32.50" rsrp="-100" sinr="8" rsrq="-8"/>
        <radio op="I TIM" rat="LTE" q="14.50" rsrp="-96" sinr="0" rsrq="-13"/>
      </extensions>
    </trkpt>
    <trkpt lat="45.6178063" lon="10.49349">
      <ele>224.20001220703125</ele>
      <time>2026-09-22T18:19:24.362+02:00</time>
      <extensions>
        <activity type="STILL" conf="99" state="still" tsMs="1790093959494"/>
        <radio op="vodafone IT" rat="LTE" q="54.60" rsrp="-99" sinr="16" rsrq="-12"/>
        <radio op="I TIM" rat="LTE" q="22.40" rsrp="-97" sinr="3" rsrq="-12"/>
      </extensions>
    </trkpt>
    <trkpt lat="45.6177658" lon="10.4935251">
      <ele>224.20001220703125</ele>
      <time>2026-09-22T18:19:55.763+02:00</time>
      <extensions>
        <activity type="STILL" conf="99" state="still" tsMs="1790093989554"/>
        <radio op="vodafone IT" rat="LTE" q="50.60" rsrp="-102" sinr="17" rsrq="-12"/>
        <radio op="I TIM" rat="LTE" q="65.00" rsrp="-99" sinr="20" rsrq="-11"/>
      </extensions>
    </trkpt>
    <trkpt lat="45.6177567" lon="10.4934465">
      <ele>224.20001220703125</ele>
      <time>2026-09-22T18:20:27.189+02:00</time>
      <extensions>
        <activity type="STILL" conf="98" state="still" tsMs="1790094017636"/>
        <radio op="vodafone IT" rat="LTE" q="59.40" rsrp="-98" sinr="17" rsrq="-11"/>
        <radio op="I TIM" rat="LTE" q="57.20" rsrp="-99" sinr="17" rsrq="-13"/>
      </extensions>
    </trkpt>
    <trkpt lat="45.6177653" lon="10.4933437">
      <ele>224.20001220703125</ele>
      <time>2026-09-22T18:20:58.686+02:00</time>
      <extensions>
        <activity type="STILL" conf="100" state="still" tsMs="1790094045684"/>
        <radio op="vodafone IT" rat="LTE" q="62.50" rsrp="-100" sinr="20" rsrq="-10"/>
        <radio op="I TIM" rat="LTE" q="65.00" rsrp="-99" sinr="21" rsrq="-13"/>
      </extensions>
    </trkpt>
    <trkpt lat="45.617759" lon="10.4934298">
      <ele>224.20001220703125</ele>
      <time>2026-09-22T18:21:30.095+02:00</time>
      <extensions>
        <activity type="STILL" conf="100" state="still" tsMs="1790094084331"/>
        <radio op="vodafone IT" rat="LTE" q="30.00" rsrp="-100" sinr="7" rsrq="-9"/>
        <radio op="I TIM" rat="LTE" q="31.20" rsrp="-99" sinr="7" rsrq="-13"/>
      </extensions>
    </trkpt>
    <trkpt lat="45.6177656" lon="10.4934242">
      <ele>224.20001220703125</ele>
      <time>2026-09-22T18:22:01.496+02:00</time>
      <extensions>
        <activity type="STILL" conf="100" state="still" tsMs="1790094111973"/>
        <radio op="vodafone IT" rat="LTE" q="62.40" rsrp="-99" sinr="19" rsrq="-11"/>
        <radio op="I TIM" rat="LTE" q="65.00" rsrp="-99" sinr="21" rsrq="-13"/>
      </extensions>
    </trkpt>
    <trkpt lat="45.6177495" lon="10.4932973">
      <ele>224.20001220703125</ele>
      <time>2026-09-22T18:22:32.957+02:00</time>
      <extensions>
        <activity type="STILL" conf="100" state="still" tsMs="1790094140192"/>
        <radio op="vodafone IT" rat="LTE" q="57.50" rsrp="-100" sinr="18" rsrq="-11"/>
        <radio op="I TIM" rat="LTE" q="65.00" rsrp="-99" sinr="20" rsrq="-13"/>
      </extensions>
    </trkpt>
    <trkpt lat="45.6177499" lon="10.4934067">
      <ele>224.20001220703125</ele>
      <time>2026-09-22T18:23:04.395+02:00</time>
      <extensions>
        <activity type="UNKNOWN" conf="40" state="unknown" tsMs="1790094175294"/>
        <radio op="vodafone IT" rat="LTE" q="65.00" rsrp="-99" sinr="21" rsrq="-8"/>
        <radio op="I TIM" rat="LTE" q="65.00" rsrp="-99" sinr="20" rsrq="-13"/>
      </extensions>
    </trkpt>
    <trkpt lat="45.6177111" lon="10.4935266">
      <ele>224.20001220703125</ele>
      <time>2026-09-22T18:23:35.915+02:00</time>
      <extensions>
        <activity type="STILL" conf="100" state="still" tsMs="1790094206199"/>
        <radio op="vodafone IT" rat="LTE" q="52.50" rsrp="-100" sinr="16" rsrq="-8"/>
        <radio op="I TIM" rat="LTE" q="57.20" rsrp="-99" sinr="17" rsrq="-13"/>
      </extensions>
    </trkpt>
    <trkpt lat="45.6177707" lon="10.4934817">
      <ele>224.20001220703125</ele>
      <time>2026-09-22T18:24:07.388+02:00</time>
      <extensions>
        <activity type="STILL" conf="100" state="still" tsMs="1790094234326"/>
        <radio op="vodafone IT" rat="LTE" q="62.10" rsrp="-98" sinr="18" rsrq="-8"/>
        <radio op="I TIM" rat="LTE" q="52.00" rsrp="-99" sinr="15" rsrq="-13"/>
      </extensions>
    </trkpt>
    <trkpt lat="45.6177506" lon="10.4933845">
      <ele>224.20001220703125</ele>
      <time>2026-09-22T18:24:38.95+02:00</time>
      <extensions>
        <activity type="STILL" conf="100" state="still" tsMs="1790094269537"/>
        <radio op="vodafone IT" rat="LTE" q="62.50" rsrp="-100" sinr="22" rsrq="-9"/>
        <radio op="I TIM" rat="LTE" q="65.00" rsrp="-99" sinr="20" rsrq="-13"/>
      </extensions>
    </trkpt>
    <trkpt lat="45.6177809" lon="10.4935068">
      <ele>224.50001525878906</ele>
      <time>2026-09-22T18:25:10.433+02:00</time>
      <extensions>
        <activity type="STILL" conf="100" state="still" tsMs="1790094297718"/>
        <radio op="vodafone IT" rat="LTE" q="46.00" rsrp="-102" sinr="15" rsrq="-12"/>
        <radio op="I TIM" rat="LTE" q="57.20" rsrp="-99" sinr="17" rsrq="-13"/>
      </extensions>
    </trkpt>
    <trkpt lat="45.6178071" lon="10.4935136">
      <ele>224.50001525878906</ele>
      <time>2026-09-22T18:25:41.705+02:00</time>
      <extensions>
        <activity type="STILL" conf="100" state="still" tsMs="1790094332827"/>
        <radio op="vodafone IT" rat="LTE" q="52.80" rsrp="-103" sinr="19" rsrq="-10"/>
        <radio op="I TIM" rat="LTE" q="65.00" rsrp="-99" sinr="22" rsrq="-13"/>
      </extensions>
    </trkpt>
    <trkpt lat="45.6177791" lon="10.493396">
      <ele>224.20001220703125</ele>
      <time>2026-09-22T18:26:13.017+02:00</time>
      <extensions>
        <activity type="STILL" conf="100" state="still" tsMs="1790094361083"/>
        <radio op="vodafone IT" rat="LTE" q="65.00" rsrp="-99" sinr="21" rsrq="-11"/>
        <radio op="I TIM" rat="LTE" q="59.80" rsrp="-99" sinr="18" rsrq="-13"/>
      </extensions>
    </trkpt>
    <trkpt lat="45.6177592" lon="10.4934045">
      <ele>224.20001220703125</ele>
      <time>2026-09-22T18:26:44.216+02:00</time>
      <extensions>
        <activity type="STILL" conf="100" state="still" tsMs="1790094398763"/>
        <radio op="vodafone IT" rat="LTE" q="57.20" rsrp="-99" sinr="17" rsrq="-7"/>
        <radio op="I TIM" rat="LTE" q="62.40" rsrp="-99" sinr="19" rsrq="-13"/>
      </extensions>
    </trkpt>
    <trkpt lat="45.6178106" lon="10.4935072">
      <ele>224.50001525878906</ele>
      <time>2026-09-22T18:27:15.546+02:00</time>
      <extensions>
        <activity type="STILL" conf="100" state="still" tsMs="1790094426102"/>
        <radio op="vodafone IT" rat="LTE" q="62.50" rsrp="-100" sinr="21" rsrq="-11"/>
        <radio op="I TIM" rat="LTE" q="57.20" rsrp="-99" sinr="17" rsrq="-13"/>
      </extensions>
    </trkpt>
    <trkpt lat="45.6178247" lon="10.4935028">
      <ele>224.50001525878906</ele>
      <time>2026-09-22T18:27:46.889+02:00</time>
      <extensions>
        <activity type="STILL" conf="100" state="still" tsMs="1790094454284"/>
        <radio op="vodafone IT" rat="LTE" q="62.40" rsrp="-99" sinr="19" rsrq="-13"/>
        <radio op="I TIM" rat="LTE" q="23.20" rsrp="-96" sinr="3" rsrq="-12"/>
      </extensions>
    </trkpt>
    <trkpt lat="45.6177787" lon="10.4934267">
      <ele>224.20001220703125</ele>
      <time>2026-09-22T18:28:18.121+02:00</time>
      <extensions>
        <activity type="STILL" conf="100" state="still" tsMs="1790094489374"/>
        <radio op="vodafone IT" rat="LTE" q="60.00" rsrp="-100" sinr="19" rsrq="-8"/>
        <radio op="I TIM" rat="LTE" q="69.00" rsrp="-95" sinr="18" rsrq="-12"/>
      </extensions>
    </trkpt>
    <trkpt lat="45.6177435" lon="10.4939387">
      <ele>224.20001220703125</ele>
      <time>2026-09-22T18:39:34.553+02:00</time>
      <extensions>
        <activity type="UNKNOWN" conf="40" state="unknown" tsMs="1790095160899"/>
        <radio op="vodafone IT" rat="LTE" q="48.30" rsrp="-102" sinr="16" rsrq="-11"/>
        <radio op="I TIM" rat="LTE" q="46.80" rsrp="-99" sinr="13" rsrq="-11"/>
      </extensions>
    </trkpt>
    <trkpt lat="45.6177436" lon="10.4939016">
      <ele>222.3310458920588</ele>
      <time>2026-09-22T18:40:05.855+02:00</time>
      <extensions>
        <activity type="IN_VEHICLE" conf="98" state="moving" tsMs="1790095186639"/>
        <radio op="vodafone IT" rat="LTE" q="41.80" rsrp="-106" sinr="17" rsrq="-12"/>
        <radio op="I TIM" rat="LTE" q="13.00" rsrp="-99" sinr="0" rsrq="-12"/>
      </extensions>
    </trkpt>
    <trkpt lat="45.6177723" lon="10.4937665">
      <ele>222.22085577296056</ele>
      <time>2026-09-22T18:40:37.023+02:00</time>
      <extensions>
        <activity type="UNKNOWN" conf="40" state="unknown" tsMs="1790095225153"/>
        <radio op="vodafone IT" rat="LTE" q="46.00" rsrp="-105" sinr="18" rsrq="-13"/>
        <radio op="I TIM" rat="LTE" q="46.80" rsrp="-99" sinr="13" rsrq="-12"/>
      </extensions>
    </trkpt>
    <trkpt lat="45.617737" lon="10.4941792">
      <ele>221.9521748726842</ele>
      <time>2026-09-22T18:41:08.082+02:00</time>
      <extensions>
        <activity type="UNKNOWN" conf="40" state="unknown" tsMs="1790095250678"/>
        <radio op="vodafone IT" rat="LTE" q="48.30" rsrp="-104" sinr="18" rsrq="-10"/>
        <radio op="I TIM" rat="LTE" q="42.50" rsrp="-100" sinr="12" rsrq="-12"/>
      </extensions>
    </trkpt>
    <trkpt lat="45.6177494" lon="10.4933665">
      <ele>222.07811799952225</ele>
      <time>2026-09-22T18:41:39.269+02:00</time>
      <extensions>
        <activity type="UNKNOWN" conf="40" state="unknown" tsMs="1790095288971"/>
        <radio op="vodafone IT" rat="LTE" q="60.00" rsrp="-101" sinr="22" rsrq="-11"/>
        <radio op="I TIM" rat="LTE" q="22.50" rsrp="-100" sinr="4" rsrq="-12"/>
      </extensions>
    </trkpt>
    <trkpt lat="45.6177655" lon="10.493133">
      <ele>224.20001220703125</ele>
      <time>2026-09-22T18:42:10.623+02:00</time>
      <extensions>
        <activity type="IN_VEHICLE" conf="96" state="moving" tsMs="1790095323366"/>
        <radio op="vodafone IT" rat="LTE" q="46.20" rsrp="-104" sinr="17" rsrq="-11"/>
        <radio op="I TIM" rat="LTE" q="57.00" rsrp="-95" sinr="14" rsrq="-11"/>
      </extensions>
    </trkpt>
    <trkpt lat="45.618201" lon="10.4934498">
      <ele>226.8000030517578</ele>
      <time>2026-09-22T18:42:42.103+02:00</time>
      <extensions>
        <activity type="IN_VEHICLE" conf="96" state="moving" tsMs="1790095351736"/>
        <radio op="vodafone IT" rat="LTE" q="30.60" rsrp="-107" sinr="12" rsrq="-11"/>
        <radio op="I TIM" rat="LTE" q="49.40" rsrp="-99" sinr="14" rsrq="-12"/>
      </extensions>
    </trkpt>
    <trkpt lat="45.619151" lon="10.4930923">
      <ele>226.8000030517578</ele>
      <time>2026-09-22T18:43:13.611+02:00</time>
      <extensions>
        <activity type="IN_VEHICLE" conf="95" state="moving" tsMs="1790095383565"/>
        <radio op="vodafone IT" rat="LTE" q="97.50" rsrp="-86" sinr="24" rsrq="-13"/>
        <radio op="I TIM" rat="LTE" q="66.60" rsrp="-88" sinr="13" rsrq="-9"/>
      </extensions>
    </trkpt>
    <trkpt lat="45.6139719" lon="10.4960523">
      <ele>229.5167559238405</ele>
      <time>2026-09-22T18:43:45.115+02:00</time>
      <extensions>
        <activity type="IN_VEHICLE" conf="96" state="moving" tsMs="1790095415443"/>
        <radio op="vodafone IT" rat="LTE" q="97.50" rsrp="-86" sinr="24" rsrq="-8"/>
        <radio op="I TIM" rat="LTE" q="40.60" rsrp="-96" sinr="9" rsrq="-12"/>
      </extensions>
    </trkpt>
    <trkpt lat="45.6129265" lon="10.4970579">
      <ele>229.64070896578102</ele>
      <time>2026-09-22T18:43:51.216+02:00</time>
      <extensions>
        <activity type="IN_VEHICLE" conf="96" state="moving" tsMs="1790095424888"/>
        <radio op="vodafone IT" rat="LTE" q="70.00" rsrp="-97" sinr="20" rsrq="-9"/>
        <radio op="I TIM" rat="LTE" rsrp="-112" rsrq="-20"/>
      </extensions>
    </trkpt>
    <trkpt lat="45.6114721" lon="10.4941354">
      <ele>225.70001220703125</ele>
      <time>2026-09-22T18:44:26.599+02:00</time>
      <extensions>
        <activity type="IN_VEHICLE" conf="97" state="moving" tsMs="1790095453251"/>
        <radio op="vodafone IT" rat="LTE" q="41.40" rsrp="-102" sinr="13" rsrq="-10"/>
        <radio op="I TIM" rat="LTE" rsrp="-112" rsrq="-13"/>
      </extensions>
    </trkpt>
    <trkpt lat="45.612036" lon="10.4901046">
      <ele>230.09241737201233</ele>
      <time>2026-09-22T18:44:58.124+02:00</time>
      <extensions>
        <activity type="IN_VEHICLE" conf="96" state="moving" tsMs="1790095488517"/>
        <radio op="vodafone IT" rat="LTE" q="13.20" rsrp="-113" sinr="6" rsrq="-11"/>
        <radio op="I TIM" rat="LTE" q="14.40" rsrp="-107" sinr="3" rsrq="-13"/>
      </extensions>
    </trkpt>
    <trkpt lat="45.6059794" lon="10.4680478">
      <ele>257.4895306829932</ele>
      <time>2026-09-22T18:46:22.386+02:00</time>
      <extensions>
        <activity type="IN_VEHICLE" conf="95" state="moving" tsMs="1790095571864"/>
        <radio op="vodafone IT" rat="LTE" q="55.00" rsrp="-103" sinr="21" rsrq="-7"/>
        <radio op="I TIM" rat="LTE" q="72.50" rsrp="-96" sinr="26" rsrq="-5"/>
      </extensions>
    </trkpt>
    <trkpt lat="45.6059794" lon="10.4680478">
      <ele>260.7928701573789</ele>
      <time>2026-09-22T18:46:27.396+02:00</time>
      <extensions>
        <activity type="IN_VEHICLE" conf="96" state="moving" tsMs="1790095581841"/>
        <radio op="vodafone IT" rat="LTE" q="36.10" rsrp="-106" sinr="14" rsrq="-6"/>
        <radio op="I TIM" rat="LTE" q="85.00" rsrp="-91" sinr="25" rsrq="-8"/>
      </extensions>
    </trkpt>
    <trkpt lat="45.6049901" lon="10.4673755">
      <ele>276.7793870546418</ele>
      <time>2026-09-22T18:47:08.361+02:00</time>
      <extensions>
        <activity type="STILL" conf="100" state="still" tsMs="1790095614334"/>
        <radio op="vodafone IT" rat="LTE" q="100.00" rsrp="-76" sinr="29" rsrq="-6"/>
        <radio op="I TIM" rat="LTE" q="100.00" rsrp="-69" sinr="21" rsrq="-10"/>
      </extensions>
    </trkpt>
    <trkpt lat="45.605328" lon="10.4660723">
      <ele>267.2303322514855</ele>
      <time>2026-09-22T18:47:42.215+02:00</time>
      <extensions>
        <activity type="IN_VEHICLE" conf="96" state="moving" tsMs="1790095659440"/>
        <radio op="vodafone IT" rat="LTE" q="100.00" rsrp="-70" sinr="22" rsrq="-6"/>
        <radio op="I TIM" rat="LTE" q="47.60" rsrp="-91" sinr="9" rsrq="-11"/>
      </extensions>
    </trkpt>
    <trkpt lat="45.604401" lon="10.4619963">
      <ele>267.4000244140625</ele>
      <time>2026-09-22T18:48:22.013+02:00</time>
      <extensions>
        <activity type="IN_VEHICLE" conf="96" state="moving" tsMs="1790095697557"/>
        <radio op="vodafone IT" rat="LTE" q="96.00" rsrp="-80" sinr="19" rsrq="-11"/>
        <radio op="I TIM" rat="LTE" rsrp="-95" rsrq="-14"/>
      </extensions>
    </trkpt>
    <trkpt lat="45.6041545" lon="10.4610167">
      <ele>267.4000244140625</ele>
      <time>2026-09-22T18:48:28.215+02:00</time>
      <extensions>
        <activity type="IN_VEHICLE" conf="96" state="moving" tsMs="1790095705122"/>
        <radio op="vodafone IT" rat="LTE" q="100.00" rsrp="-79" sinr="27" rsrq="-11"/>
        <radio op="I TIM" rat="LTE" q="52.80" rsrp="-92" sinr="11" rsrq="-12"/>
      </extensions>
    </trkpt>
    <trkpt lat="45.6028699" lon="10.4568065">
      <ele>262.9000244140625</ele>
      <time>2026-09-22T18:49:03.713+02:00</time>
      <extensions>
        <activity type="IN_VEHICLE" conf="96" state="moving" tsMs="1790095733667"/>
        <radio op="vodafone IT" rat="LTE" q="90.00" rsrp="-89" sinr="23" rsrq="-10"/>
        <radio op="I TIM" rat="LTE" q="72.20" rsrp="-87" sinr="14" rsrq="-12"/>
      </extensions>
    </trkpt>
    <trkpt lat="45.6026073" lon="10.4543904">
      <ele>262.1000061035156</ele>
      <time>2026-09-22T18:49:35.239+02:00</time>
      <extensions>
        <activity type="IN_VEHICLE" conf="96" state="moving" tsMs="1790095765619"/>
        <radio op="vodafone IT" rat="LTE" q="9.80" rsrp="-111" sinr="2" rsrq="-13"/>
        <radio op="I TIM" rat="LTE" q="11.20" rsrp="-109" sinr="2" rsrq="-16"/>
      </extensions>
    </trkpt>
    <trkpt lat="45.6028565" lon="10.45409">
      <ele>262.1000061035156</ele>
      <time>2026-09-22T18:49:41.215+02:00</time>
      <extensions>
        <activity type="IN_VEHICLE" conf="97" state="moving" tsMs="1790095775184"/>
        <radio op="vodafone IT" rat="LTE" q="19.00" rsrp="-106" sinr="5" rsrq="-11"/>
        <radio op="I TIM" rat="LTE" q="23.40" rsrp="-107" sinr="8" rsrq="-13"/>
      </extensions>
    </trkpt>
    <trkpt lat="45.6029624" lon="10.4538303">
      <ele>262.20001220703125</ele>
      <time>2026-09-22T18:50:17.386+02:00</time>
      <extensions>
        <activity type="IN_VEHICLE" conf="96" state="moving" tsMs="1790095807109"/>
        <radio op="vodafone IT" rat="LTE" q="9.00" rsrp="-110" sinr="1" rsrq="-14"/>
        <radio op="I TIM" rat="LTE" q="10.80" rsrp="-107" sinr="1" rsrq="-13"/>
      </extensions>
    </trkpt>
    <trkpt lat="45.6025822" lon="10.4538583">
      <ele>262.0</ele>
      <time>2026-09-22T18:50:48.456+02:00</time>
      <extensions>
        <activity type="IN_VEHICLE" conf="96" state="moving" tsMs="1790095835822"/>
        <radio op="vodafone IT" rat="LTE" rsrp="-111" rsrq="-14"/>
        <radio op="I TIM" rat="LTE" q="15.30" rsrp="-108" sinr="4" rsrq="-13"/>
      </extensions>
    </trkpt>
    <trkpt lat="45.6025797" lon="10.4538636">
      <ele>262.0</ele>
      <time>2026-09-22T18:51:19.889+02:00</time>
      <extensions>
        <activity type="UNKNOWN" conf="40" state="unknown" tsMs="1790095864368"/>
        <radio op="vodafone IT" rat="LTE" q="5.50" rsrp="-114" sinr="0" rsrq="-14"/>
        <radio op="I TIM" rat="LTE" q="15.30" rsrp="-108" sinr="4" rsrq="-13"/>
      </extensions>
    </trkpt>
    <trkpt lat="45.6025606" lon="10.453675">
      <ele>261.6000061035156</ele>
      <time>2026-09-22T18:51:56.539+02:00</time>
      <extensions>
        <activity type="ON_FOOT" conf="87" state="moving" tsMs="1790095913298"/>
        <radio op="vodafone IT" rat="LTE" q="31.20" rsrp="-99" sinr="7" rsrq="-12"/>
        <radio op="I TIM" rat="LTE" q="37.80" rsrp="-104" sinr="13" rsrq="-10"/>
      </extensions>
    </trkpt>
    <trkpt lat="45.6025518" lon="10.4536734">
      <ele>261.6000061035156</ele>
      <time>2026-09-22T18:52:27.725+02:00</time>
      <extensions>
        <activity type="UNKNOWN" conf="40" state="unknown" tsMs="1790095932497"/>
        <radio op="vodafone IT" rat="LTE" q="5.40" rsrp="-116" sinr="1" rsrq="-12"/>
        <radio op="I TIM" rat="LTE" q="7.50" rsrp="-120" sinr="10" rsrq="-11"/>
      </extensions>
    </trkpt>
    <trkpt lat="45.6025837" lon="10.4537161">
      <ele>261.6000061035156</ele>
      <time>2026-09-22T18:52:58.962+02:00</time>
      <extensions>
        <activity type="STILL" conf="100" state="still" tsMs="1790095971619"/>
        <radio op="vodafone IT" rat="LTE" rsrp="-119" rsrq="-13"/>
        <radio op="I TIM" rat="LTE" q="8.80" rsrp="-114" sinr="3" rsrq="-12"/>
      </extensions>
    </trkpt>
    <trkpt lat="45.6025575" lon="10.4536873">
      <ele>261.6000061035156</ele>
      <time>2026-09-22T18:53:33.266+02:00</time>
      <extensions>
        <activity type="UNKNOWN" conf="40" state="unknown" tsMs="1790096009890"/>
        <radio op="vodafone IT" rat="LTE" q="7.70" rsrp="-114" sinr="2" rsrq="-14"/>
        <radio op="I TIM" rat="LTE" q="4.00" rsrp="-117" sinr="0" rsrq="-14"/>
      </extensions>
    </trkpt>
    <trkpt lat="45.6025817" lon="10.4537151">
      <ele>261.6000061035156</ele>
      <time>2026-09-22T18:54:04.452+02:00</time>
      <extensions>
        <activity type="STILL" conf="100" state="still" tsMs="1790096038398"/>
        <radio op="vodafone IT" rat="LTE" q="8.40" rsrp="-111" sinr="1" rsrq="-14"/>
        <radio op="I TIM" rat="LTE" q="4.80" rsrp="-121" sinr="7" rsrq="-12"/>
      </extensions>
    </trkpt>
  </trkseg></trk>
</gpx>
