<?xml version="1.0" encoding="UTF-8"?>
<gpx version="1.1" creator="CellGPX" xmlns="http://www.topografix.com/GPX/1/1">
  <trk><name>CellGPX</name><trkseg>
    <trkpt lat="45.6025648" lon="10.4536475">
      <ele>262.0</ele>
      <time>2026-04-19T10:10:50.645+02:00</time>
      <extensions>
        <activity type="STILL" conf="100" state="still" tsMs="1776586240566"/>
        <radio op="vodafone IT" rat="LTE" q="12.00" rsrp="-110" sinr="3" rsrq="-13"/>
        <radio op="I TIM" rat="LTE" q="23.40" rsrp="-112" sinr="13" rsrq="-8"/>
      </extensions>
    </trkpt>
    <trkpt lat="45.6025647" lon="10.4536474">
      <ele>262.0</ele>
      <time>2026-04-19T10:11:52.232+02:00</time>
      <extensions>
        <activity type="STILL" conf="100" state="still" tsMs="1776586302129"/>
        <radio op="vodafone IT" rat="LTE" q="16.80" rsrp="-111" sinr="7" rsrq="-11"/>
        <radio op="I TIM" rat="LTE" q="26.60" rsrp="-111" sinr="14" rsrq="-11"/>
      </extensions>
    </trkpt>
    <trkpt lat="45.602258" lon="10.453424">
      <ele>261.8000183105469</ele>
      <time>2026-04-19T11:10:05.831+02:00</time>
      <extensions>
        <activity type="UNKNOWN" conf="40" state="unknown" tsMs="1776589789063"/>
        <radio op="vodafone IT" rat="LTE" q="7.20" rsrp="-113" sinr="1" rsrq="-12"/>
        <radio op="I TIM" rat="LTE" rsrp="-110" rsrq="-13"/>
      </extensions>
    </trkpt>
    <trkpt lat="45.60365" lon="10.4577958">
      <ele>263.4000244140625</ele>
      <time>2026-04-19T11:11:32.991+02:00</time>
      <extensions>
        <activity type="UNKNOWN" conf="40" state="unknown" tsMs="1776589888698"/>
        <radio op="vodafone IT" rat="LTE" rsrp="-83" rsrq="-8"/>
        <radio op="I TIM" rat="LTE" q="44.00" rsrp="-83" sinr="6" rsrq="-11"/>
      </extensions>
    </trkpt>
    <trkpt lat="45.6036177" lon="10.457996">
      <ele>263.4000244140625</ele>
      <time>2026-04-19T11:11:50.916+02:00</time>
      <extensions>
        <activity type="IN_VEHICLE" conf="87" state="moving" tsMs="1776589909114"/>
        <radio op="vodafone IT" rat="LTE" q="100.00" rsrp="-80" sinr="29" rsrq="-5"/>
        <radio op="I TIM" rat="LTE" q="100.00" rsrp="-82" sinr="26" rsrq="-12"/>
      </extensions>
    </trkpt>
    <trkpt lat="45.6038008" lon="10.4581313">
      <ele>265.9747802745839</ele>
      <time>2026-04-19T11:12:34.916+02:00</time>
      <extensions>
        <activity type="UNKNOWN" conf="40" state="unknown" tsMs="1776589948060"/>
        <radio op="vodafone IT" rat="LTE" q="80.00" rsrp="-93" sinr="26" rsrq="-10"/>
        <radio op="I TIM" rat="LTE" q="97.50" rsrp="-86" sinr="23" rsrq="-12"/>
      </extensions>
    </trkpt>
    <trkpt lat="45.6041917" lon="10.4583968">
      <ele>265.20001220703125</ele>
      <time>2026-04-19T11:13:24.804+02:00</time>
      <extensions>
        <activity type="ON_FOOT" conf="96" state="moving" tsMs="1776589986054"/>
        <radio op="vodafone IT" rat="LTE" q="66.00" rsrp="-95" sinr="17" rsrq="-12"/>
        <radio op="I TIM" rat="LTE" q="72.50" rsrp="-96" sinr="21" rsrq="-13"/>
      </extensions>
    </trkpt>
    <trkpt lat="45.604219" lon="10.4584361">
      <ele>264.4000244140625</ele>
      <time>2026-04-19T11:13:59.269+02:00</time>
      <extensions>
        <activity type="UNKNOWN" conf="40" state="unknown" tsMs="1776590039017"/>
        <radio op="vodafone IT" rat="LTE" q="30.60" rsrp="-108" sinr="13" rsrq="-8"/>
        <radio op="I TIM" rat="LTE" q="18.20" rsrp="-112" sinr="9" rsrq="-12"/>
      </extensions>
    </trkpt>
    <trkpt lat="45.6042277" lon="10.458375">
      <ele>264.5</ele>
      <time>2026-04-19T11:14:30.509+02:00</time>
      <extensions>
        <activity type="STILL" conf="46" state="still" tsMs="1776590070298"/>
        <radio op="vodafone IT" rat="LTE" q="22.10" rsrp="-112" sinr="12" rsrq="-7"/>
        <radio op="I TIM" rat="LTE" q="19.20" rsrp="-113" sinr="11" rsrq="-13"/>
      </extensions>
    </trkpt>
    <trkpt lat="45.6042044" lon="10.4583897">
      <ele>264.5</ele>
      <time>2026-04-19T11:15:01.082+02:00</time>
      <extensions>
        <activity type="UNKNOWN" conf="40" state="unknown" tsMs="1776590096186"/>
        <radio op="vodafone IT" rat="LTE" q="32.20" rsrp="-102" sinr="9" rsrq="-11"/>
        <radio op="I TIM" rat="LTE" q="25.20" rsrp="-104" sinr="7" rsrq="-12"/>
      </extensions>
    </trkpt>
    <trkpt lat="45.6042247" lon="10.4583962">
      <ele>262.6033112136057</ele>
      <time>2026-04-19T11:15:37.223+02:00</time>
      <extensions>
        <activity type="STILL" conf="25" state="still" tsMs="1776590134880"/>
        <radio op="vodafone IT" rat="LTE" q="16.80" rsrp="-113" sinr="9" rsrq="-10"/>
        <radio op="I TIM" rat="LTE" q="21.00" rsrp="-111" sinr="10" rsrq="-13"/>
      </extensions>
    </trkpt>
    <trkpt lat="45.6042275" lon="10.4583971">
      <ele>264.5</ele>
      <time>2026-04-19T11:16:08.674+02:00</time>
      <extensions>
        <activity type="STILL" conf="98" state="still" tsMs="1776590168226"/>
        <radio op="vodafone IT" rat="LTE" q="36.10" rsrp="-106" sinr="14" rsrq="-12"/>
        <radio op="I TIM" rat="LTE" q="28.80" rsrp="-107" sinr="11" rsrq="-12"/>
      </extensions>
    </trkpt>
    <trkpt lat="45.603712" lon="10.4586626">
      <ele>264.5</ele>
      <time>2026-04-19T11:32:56.524+02:00</time>
      <extensions>
        <activity type="ON_FOOT" conf="89" state="moving" tsMs="1776591182584"/>
        <radio op="vodafone IT" rat="LTE" q="72.50" rsrp="-96" sinr="20" rsrq="-7"/>
        <radio op="I TIM" rat="LTE" q="65.00" rsrp="-99" sinr="20" rsrq="-13"/>
      </extensions>
    </trkpt>
    <trkpt lat="45.6035435" lon="10.4588143">
      <ele>264.4000244140625</ele>
      <time>2026-04-19T11:33:27.632+02:00</time>
      <extensions>
        <activity type="ON_FOOT" conf="94" state="moving" tsMs="1776591204054"/>
        <radio op="vodafone IT" rat="LTE" q="70.00" rsrp="-97" sinr="21" rsrq="-7"/>
        <radio op="I TIM" rat="LTE" q="77.50" rsrp="-94" sinr="22" rsrq="-12"/>
      </extensions>
    </trkpt>
    <trkpt lat="45.6032426" lon="10.4584142">
      <ele>263.8000183105469</ele>
      <time>2026-04-19T11:34:18.552+02:00</time>
      <extensions>
        <activity type="ON_FOOT" conf="86" state="moving" tsMs="1776591257707"/>
        <radio op="vodafone IT" rat="LTE" q="85.00" rsrp="-91" sinr="26" rsrq="-12"/>
        <radio op="I TIM" rat="LTE" q="85.00" rsrp="-91" sinr="24" rsrq="-12"/>
      </extensions>
    </trkpt>
    <trkpt lat="45.6044613" lon="10.462406">
      <ele>267.5</ele>
      <time>2026-04-19T11:35:24.792+02:00</time>
      <extensions>
        <activity type="UNKNOWN" conf="40" state="unknown" tsMs="1776591323708"/>
        <radio op="vodafone IT" rat="LTE" q="87.50" rsrp="-90" sinr="28" rsrq="-9"/>
        <radio op="I TIM" rat="LTE" q="34.10" rsrp="-94" sinr="6" rsrq="-12"/>
      </extensions>
    </trkpt>
    <trkpt lat="45.6049251" lon="10.4636383">
      <ele>267.5</ele>
      <time>2026-04-19T11:35:33.916+02:00</time>
      <extensions>
        <activity type="UNKNOWN" conf="40" state="unknown" tsMs="1776591323708"/>
        <radio op="vodafone IT" rat="LTE" q="95.00" rsrp="-87" sinr="23" rsrq="-6"/>
        <radio op="I TIM" rat="LTE" q="57.60" rsrp="-93" sinr="13" rsrq="-10"/>
      </extensions>
    </trkpt>
    <trkpt lat="45.6122948" lon="10.4868823">
      <ele>239.55844533056825</ele>
      <time>2026-04-19T11:37:28.824+02:00</time>
      <extensions>
        <activity type="IN_VEHICLE" conf="92" state="moving" tsMs="1776591441038"/>
        <radio op="vodafone IT" rat="LTE" rsrq="-20"/>
        <radio op="I TIM" rat="LTE" rsrp="-137" rsrq="-21"/>
      </extensions>
    </trkpt>
    <trkpt lat="45.6131269" lon="10.4875655">
      <ele>245.2714625508943</ele>
      <time>2026-04-19T11:37:43.378+02:00</time>
      <extensions>
        <activity type="IN_VEHICLE" conf="87" state="moving" tsMs="1776591463474"/>
        <radio op="vodafone IT" rat="LTE" q="18.00" rsrp="-105" sinr="4" rsrq="-12"/>
        <radio op="I TIM" rat="LTE" rsrp="-117" rsrq="-20"/>
      </extensions>
    </trkpt>
    <trkpt lat="45.6097931" lon="10.4967977">
      <ele>209.03728228463103</ele>
      <time>2026-04-19T11:38:30.915+02:00</time>
      <extensions>
        <activity type="IN_VEHICLE" conf="84" state="moving" tsMs="1776591531902"/>
        <radio op="vodafone IT" rat="LTE" q="39.00" rsrp="-95" sinr="8" rsrq="-9"/>
        <radio op="I TIM" rat="LTE" rsrp="-109" rsrq="-12"/>
      </extensions>
    </trkpt>
    <trkpt lat="45.6099524" lon="10.4996773">
      <ele>194.00001525878906</ele>
      <time>2026-04-19T11:39:38.8+02:00</time>
      <extensions>
        <activity type="TILTING" conf="100" state="moving" tsMs="1776591571156"/>
        <radio op="vodafone IT" rat="LTE" q="40.60" rsrp="-96" sinr="9" rsrq="-8"/>
        <radio op="I TIM" rat="LTE" rsrp="-96" rsrq="-16"/>
      </extensions>
    </trkpt>
    <trkpt lat="45.6099136" lon="10.4995562">
      <ele>196.22498412725338</ele>
      <time>2026-04-19T11:40:18.015+02:00</time>
      <extensions>
        <activity type="ON_FOOT" conf="91" state="moving" tsMs="1776591612412"/>
        <radio op="vodafone IT" rat="LTE" q="39.00" rsrp="-99" sinr="10" rsrq="-9"/>
        <radio op="I TIM" rat="LTE" q="30.00" rsrp="-100" sinr="7" rsrq="-16"/>
      </extensions>
    </trkpt>
    <trkpt lat="45.6098674" lon="10.4996408">
      <ele>194.00001525878906</ele>
      <time>2026-04-19T11:40:50.48+02:00</time>
      <extensions>
        <activity type="ON_FOOT" conf="86" state="moving" tsMs="1776591649404"/>
        <radio op="vodafone IT" rat="LTE" q="54.60" rsrp="-86" sinr="9" rsrq="-8"/>
        <radio op="I TIM" rat="LTE" q="28.00" rsrp="-85" sinr="2" rsrq="-11"/>
      </extensions>
    </trkpt>
    <trkpt lat="45.6098775" lon="10.499653">
      <ele>194.50001525878906</ele>
      <time>2026-04-19T11:41:26.11+02:00</time>
      <extensions>
        <activity type="STILL" conf="83" state="still" tsMs="1776591682425"/>
        <radio op="vodafone IT" rat="LTE" q="72.00" rsrp="-84" sinr="13" rsrq="-9"/>
        <radio op="I TIM" rat="LTE" q="28.00" rsrp="-82" sinr="2" rsrq="-13"/>
      </extensions>
    </trkpt>
    <trkpt lat="45.6098785" lon="10.4996396">
      <ele>194.00001525878906</ele>
      <time>2026-04-19T11:41:57.352+02:00</time>
      <extensions>
        <activity type="STILL" conf="70" state="still" tsMs="1776591713517"/>
        <radio op="vodafone IT" rat="LTE" q="76.00" rsrp="-79" sinr="14" rsrq="-7"/>
        <radio op="I TIM" rat="LTE" q="40.00" rsrp="-81" sinr="5" rsrq="-10"/>
      </extensions>
    </trkpt>
    <trkpt lat="45.609854" lon="10.4996565">
      <ele>194.00001525878906</ele>
      <time>2026-04-19T11:42:28.662+02:00</time>
      <extensions>
        <activity type="STILL" conf="97" state="still" tsMs="1776591744951"/>
        <radio op="vodafone IT" rat="LTE" q="72.00" rsrp="-80" sinr="13" rsrq="-7"/>
        <radio op="I TIM" rat="LTE" q="36.00" rsrp="-81" sinr="4" rsrq="-12"/>
      </extensions>
    </trkpt>
    <trkpt lat="45.6098722" lon="10.4996278">
      <ele>194.00001525878906</ele>
      <time>2026-04-19T11:42:59.761+02:00</time>
      <extensions>
        <activity type="STILL" conf="98" state="still" tsMs="1776591775950"/>
        <radio op="vodafone IT" rat="LTE" q="76.00" rsrp="-81" sinr="14" rsrq="-8"/>
        <radio op="I TIM" rat="LTE" q="52.00" rsrp="-83" sinr="8" rsrq="-10"/>
      </extensions>
    </trkpt>
    <trkpt lat="45.6098783" lon="10.4996411">
      <ele>194.00001525878906</ele>
      <time>2026-04-19T11:43:30.869+02:00</time>
      <extensions>
        <activity type="STILL" conf="96" state="still" tsMs="1776591807066"/>
        <radio op="vodafone IT" rat="LTE" q="51.80" rsrp="-88" sinr="9" rsrq="-12"/>
        <radio op="I TIM" rat="LTE" rsrp="-89" rsrq="-13"/>
      </extensions>
    </trkpt>
    <trkpt lat="45.6098869" lon="10.4996282">
      <ele>194.00001525878906</ele>
      <time>2026-04-19T11:44:01.909+02:00</time>
      <extensions>
        <activity type="STILL" conf="53" state="still" tsMs="1776591838258"/>
        <radio op="vodafone IT" rat="LTE" q="72.00" rsrp="-79" sinr="13" rsrq="-7"/>
        <radio op="I TIM" rat="LTE" q="20.00" rsrp="-82" sinr="0" rsrq="-12"/>
      </extensions>
    </trkpt>
    <trkpt lat="45.609891" lon="10.4996296">
      <ele>194.00001525878906</ele>
      <time>2026-04-19T11:44:33.064+02:00</time>
      <extensions>
        <activity type="STILL" conf="96" state="still" tsMs="1776591869333"/>
        <radio op="vodafone IT" rat="LTE" q="56.00" rsrp="-85" sinr="9" rsrq="-12"/>
        <radio op="I TIM" rat="LTE" rsrp="-83" rsrq="-12"/>
      </extensions>
    </trkpt>
    <trkpt lat="45.6098873" lon="10.4996182">
      <ele>194.00001525878906</ele>
      <time>2026-04-19T11:45:04.134+02:00</time>
      <extensions>
        <activity type="STILL" conf="96" state="still" tsMs="1776591900395"/>
        <radio op="vodafone IT" rat="LTE" q="59.20" rsrp="-88" sinr="11" rsrq="-7"/>
        <radio op="I TIM" rat="LTE" q="27.30" rsrp="-86" sinr="2" rsrq="-13"/>
      </extensions>
    </trkpt>
    <trkpt lat="45.6098721" lon="10.4996445">
      <ele>194.00001525878906</ele>
      <time>2026-04-19T11:45:31.445+02:00</time>
      <extensions>
        <activity type="STILL" conf="99" state="still" tsMs="1776591931410"/>
        <radio op="vodafone IT" rat="LTE" q="43.20" rsrp="-89" sinr="7" rsrq="-8"/>
        <radio op="I TIM" rat="LTE" rsrp="-86" rsrq="-13"/>
      </extensions>
    </trkpt>
    <trkpt lat="45.6099255" lon="10.4996109">
      <ele>196.41851830785038</ele>
      <time>2026-04-19T12:02:12.51+02:00</time>
      <extensions>
        <activity type="ON_FOOT" conf="81" state="moving" tsMs="1776592932023"/>
        <radio op="vodafone IT" rat="LTE" q="22.00" rsrp="-103" sinr="5" rsrq="-8"/>
        <radio op="I TIM" rat="LTE" rsrp="-102" rsrq="-15"/>
      </extensions>
    </trkpt>
    <trkpt lat="45.6098855" lon="10.4996162">
      <ele>194.00001525878906</ele>
      <time>2026-04-19T12:02:47.116+02:00</time>
      <extensions>
        <activity type="UNKNOWN" conf="40" state="unknown" tsMs="1776592963737"/>
        <radio op="vodafone IT" rat="LTE" q="31.20" rsrp="-101" sinr="8" rsrq="-6"/>
        <radio op="I TIM" rat="LTE" q="42.00" rsrp="-90" sinr="7" rsrq="-11"/>
      </extensions>
    </trkpt>
    <trkpt lat="45.6099399" lon="10.4996729">
      <ele>194.00001525878906</ele>
      <time>2026-04-19T12:03:18.232+02:00</time>
      <extensions>
        <activity type="UNKNOWN" conf="40" state="unknown" tsMs="1776592994618"/>
        <radio op="vodafone IT" rat="LTE" q="46.50" rsrp="-94" sinr="10" rsrq="-9"/>
        <radio op="I TIM" rat="LTE" q="17.50" rsrp="-100" sinr="2" rsrq="-13"/>
      </extensions>
    </trkpt>
    <trkpt lat="45.609932" lon="10.4995797">
      <ele>194.40000915527344</ele>
      <time>2026-04-19T12:03:49.75+02:00</time>
      <extensions>
        <activity type="STILL" conf="65" state="still" tsMs="1776593026140"/>
        <radio op="vodafone IT" rat="LTE" q="26.00" rsrp="-105" sinr="8" rsrq="-13"/>
        <radio op="I TIM" rat="LTE" rsrp="-104" rsrq="-13"/>
      </extensions>
    </trkpt>
    <trkpt lat="45.6106213" lon="10.4979502">
      <ele>208.16865207384794</ele>
      <time>2026-04-19T12:04:59.914+02:00</time>
      <extensions>
        <activity type="IN_VEHICLE" conf="92" state="moving" tsMs="1776593114835"/>
        <radio op="vodafone IT" rat="LTE" q="47.60" rsrp="-91" sinr="9" rsrq="-12"/>
        <radio op="I TIM" rat="LTE" rsrp="-118" rsrq="-16"/>
      </extensions>
    </trkpt>
    <trkpt lat="45.6123509" lon="10.4960792">
      <ele>225.65837255551412</ele>
      <time>2026-04-19T12:05:38.914+02:00</time>
      <extensions>
        <activity type="UNKNOWN" conf="40" state="unknown" tsMs="1776593146574"/>
        <radio op="vodafone IT" rat="LTE" q="74.40" rsrp="-94" sinr="19" rsrq="-9"/>
        <radio op="I TIM" rat="LTE" rsrp="-120" rsrq="-16"/>
      </extensions>
    </trkpt>
    <trkpt lat="45.6175953" lon="10.4934396">
      <ele>225.60000610351562</ele>
      <time>2026-04-19T12:07:07.913+02:00</time>
      <extensions>
        <activity type="UNKNOWN" conf="40" state="unknown" tsMs="1776593213765"/>
        <radio op="vodafone IT" rat="LTE" q="34.20" rsrp="-106" sinr="13" rsrq="-11"/>
        <radio op="I TIM" rat="LTE" q="62.50" rsrp="-100" sinr="20" rsrq="-11"/>
      </extensions>
    </trkpt>
    <trkpt lat="45.6175119" lon="10.4934575">
      <ele>225.60000610351562</ele>
      <time>2026-04-19T12:07:20.913+02:00</time>
      <extensions>
        <activity type="UNKNOWN" conf="40" state="unknown" tsMs="1776593240701"/>
        <radio op="vodafone IT" rat="LTE" q="36.00" rsrp="-107" sinr="15" rsrq="-9"/>
        <radio op="I TIM" rat="LTE" q="62.50" rsrp="-100" sinr="21" rsrq="-10"/>
      </extensions>
    </trkpt>
    <trkpt lat="45.6179528" lon="10.4934821">
      <ele>225.60000610351562</ele>
      <time>2026-04-19T12:07:53.919+02:00</time>
      <extensions>
        <activity type="STILL" conf="96" state="still" tsMs="1776593272988"/>
        <radio op="vodafone IT" rat="LTE" q="38.00" rsrp="-105" sinr="14" rsrq="-8"/>
        <radio op="I TIM" rat="LTE" rsrp="-99" rsrq="-11"/>
      </extensions>
    </trkpt>
    <trkpt lat="45.6175909" lon="10.493541">
      <ele>225.60000610351562</ele>
      <time>2026-04-19T12:08:01.913+02:00</time>
      <extensions>
        <activity type="STILL" conf="96" state="still" tsMs="1776593272988"/>
        <radio op="vodafone IT" rat="LTE" q="56.00" rsrp="-97" sinr="15" rsrq="-11"/>
        <radio op="I TIM" rat="LTE" q="64.80" rsrp="-98" sinr="19" rsrq="-13"/>
      </extensions>
    </trkpt>
    <trkpt lat="45.6182763" lon="10.4936648">
      <ele>224.3000030517578</ele>
      <time>2026-04-19T12:08:35.556+02:00</time>
      <extensions>
        <activity type="ON_FOOT" conf="96" state="moving" tsMs="1776593310524"/>
        <radio op="vodafone IT" rat="LTE" q="52.50" rsrp="-104" sinr="24" rsrq="-12"/>
        <radio op="I TIM" rat="LTE" q="34.50" rsrp="-102" sinr="10" rsrq="-12"/>
      </extensions>
    </trkpt>
    <trkpt lat="45.617569" lon="10.4949968">
      <ele>224.3000030517578</ele>
      <time>2026-04-19T12:09:07.126+02:00</time>
      <extensions>
        <activity type="ON_FOOT" conf="95" state="moving" tsMs="1776593343379"/>
        <radio op="vodafone IT" rat="LTE" q="51.30" rsrp="-98" sinr="14" rsrq="-7"/>
        <radio op="I TIM" rat="LTE" q="85.00" rsrp="-91" sinr="24" rsrq="-11"/>
      </extensions>
    </trkpt>
    <trkpt lat="45.6179357" lon="10.4948182">
      <ele>224.3000030517578</ele>
      <time>2026-04-19T12:09:38.718+02:00</time>
      <extensions>
        <activity type="UNKNOWN" conf="40" state="unknown" tsMs="1776593374924"/>
        <radio op="vodafone IT" rat="LTE" q="59.80" rsrp="-99" sinr="18" rsrq="-8"/>
        <radio op="I TIM" rat="LTE" q="16.80" rsrp="-97" sinr="1" rsrq="-12"/>
      </extensions>
    </trkpt>
    <trkpt lat="45.6175449" lon="10.4950069">
      <ele>224.3000030517578</ele>
      <time>2026-04-19T12:10:10.343+02:00</time>
      <extensions>
        <activity type="UNKNOWN" conf="40" state="unknown" tsMs="1776593406451"/>
        <radio op="vodafone IT" rat="LTE" q="67.50" rsrp="-98" sinr="20" rsrq="-7"/>
        <radio op="I TIM" rat="LTE" rsrp="-101" rsrq="-12"/>
      </extensions>
    </trkpt>
    <trkpt lat="45.6175827" lon="10.4949879">
      <ele>224.3000030517578</ele>
      <time>2026-04-19T12:10:38.602+02:00</time>
      <extensions>
        <activity type="UNKNOWN" conf="40" state="unknown" tsMs="1776593436976"/>
        <radio op="vodafone IT" rat="LTE" q="66.70" rsrp="-96" sinr="18" rsrq="-9"/>
        <radio op="I TIM" rat="LTE" q="43.20" rsrp="-98" sinr="11" rsrq="-12"/>
      </extensions>
    </trkpt>
    <trkpt lat="45.6175698" lon="10.4950302">
      <ele>224.3000030517578</ele>
      <time>2026-04-19T12:11:12.556+02:00</time>
      <extensions>
        <activity type="UNKNOWN" conf="40" state="unknown" tsMs="1776593468868"/>
        <radio op="vodafone IT" rat="LTE" q="50.60" rsrp="-102" sinr="17" rsrq="-9"/>
        <radio op="I TIM" rat="LTE" q="72.00" rsrp="-95" sinr="19" rsrq="-13"/>
      </extensions>
    </trkpt>
    <trkpt lat="45.6175595" lon="10.4950433">
      <ele>224.3000030517578</ele>
      <time>2026-04-19T12:11:44.082+02:00</time>
      <extensions>
        <activity type="UNKNOWN" conf="40" state="unknown" tsMs="1776593500391"/>
        <radio op="vodafone IT" rat="LTE" q="50.40" rsrp="-104" sinr="19" rsrq="-8"/>
        <radio op="I TIM" rat="LTE" q="20.80" rsrp="-99" sinr="3" rsrq="-12"/>
      </extensions>
    </trkpt>
    <trkpt lat="45.6175561" lon="10.4950485">
      <ele>224.3000030517578</ele>
      <time>2026-04-19T12:12:15.668+02:00</time>
      <extensions>
        <activity type="STILL" conf="49" state="still" tsMs="1776593531911"/>
        <radio op="vodafone IT" rat="LTE" q="70.00" rsrp="-97" sinr="23" rsrq="-8"/>
        <radio op="I TIM" rat="LTE" q="52.00" rsrp="-99" sinr="15" rsrq="-12"/>
      </extensions>
    </trkpt>
    <trkpt lat="45.617586" lon="10.4940238">
      <ele>224.3000030517578</ele>
      <time>2026-04-19T12:12:48.813+02:00</time>
      <extensions>
        <activity type="STILL" conf="98" state="still" tsMs="1776593562264"/>
        <radio op="vodafone IT" rat="LTE" q="85.00" rsrp="-91" sinr="25" rsrq="-6"/>
        <radio op="I TIM" rat="LTE" q="57.80" rsrp="-91" sinr="12" rsrq="-12"/>
      </extensions>
    </trkpt>
    <trkpt lat="45.6174891" lon="10.4943014">
      <ele>224.3000030517578</ele>
      <time>2026-04-19T12:13:21.164+02:00</time>
      <extensions>
        <activity type="STILL" conf="99" state="still" tsMs="1776593595857"/>
        <radio op="vodafone IT" rat="LTE" q="80.00" rsrp="-93" sinr="24" rsrq="-9"/>
        <radio op="I TIM" rat="LTE" q="80.50" rsrp="-90" sinr="18" rsrq="-12"/>
      </extensions>
    </trkpt>
    <trkpt lat="45.6174891" lon="10.4943014">
      <ele>224.3000030517578</ele>
      <time>2026-04-19T12:13:51.855+02:00</time>
      <extensions>
        <activity type="STILL" conf="99" state="still" tsMs="1776593628185"/>
        <radio op="vodafone IT" rat="LTE" q="80.00" rsrp="-93" sinr="20" rsrq="-6"/>
        <radio op="I TIM" rat="LTE" q="73.50" rsrp="-90" sinr="16" rsrq="-11"/>
      </extensions>
    </trkpt>
    <trkpt lat="45.6175681" lon="10.4950204">
      <ele>224.3000030517578</ele>
      <time>2026-04-19T12:14:23.379+02:00</time>
      <extensions>
        <activity type="STILL" conf="99" state="still" tsMs="1776593659569"/>
        <radio op="vodafone IT" rat="LTE" q="80.00" rsrp="-93" sinr="25" rsrq="-6"/>
        <radio op="I TIM" rat="LTE" q="84.00" rsrp="-90" sinr="19" rsrq="-12"/>
      </extensions>
    </trkpt>
    <trkpt lat="45.6175709" lon="10.4949754">
      <ele>224.3000030517578</ele>
      <time>2026-04-19T12:14:54.835+02:00</time>
      <extensions>
        <activity type="STILL" conf="99" state="still" tsMs="1776593691075"/>
        <radio op="vodafone IT" rat="LTE" q="76.80" rsrp="-93" sinr="19" rsrq="-9"/>
        <radio op="I TIM" rat="LTE" q="77.00" rsrp="-90" sinr="17" rsrq="-11"/>
      </extensions>
    </trkpt>
    <trkpt lat="45.6175824" lon="10.4949515">
      <ele>224.3000030517578</ele>
      <time>2026-04-19T12:15:26.298+02:00</time>
      <extensions>
        <activity type="STILL" conf="99" state="still" tsMs="1776593722754"/>
        <radio op="vodafone IT" rat="LTE" q="74.40" rsrp="-94" sinr="19" rsrq="-10"/>
        <radio op="I TIM" rat="LTE" q="78.20" rsrp="-91" sinr="18" rsrq="-11"/>
      </extensions>
    </trkpt>
    <trkpt lat="45.617631" lon="10.4950973">
      <ele>224.3000030517578</ele>
      <time>2026-04-19T12:15:57.896+02:00</time>
      <extensions>
        <activity type="STILL" conf="99" state="still" tsMs="1776593754101"/>
        <radio op="vodafone IT" rat="LTE" q="77.50" rsrp="-94" sinr="20" rsrq="-7"/>
        <radio op="I TIM" rat="LTE" q="77.00" rsrp="-90" sinr="17" rsrq="-11"/>
      </extensions>
    </trkpt>
    <trkpt lat="45.6175885" lon="10.4950717">
      <ele>224.3000030517578</ele>
      <time>2026-04-19T12:16:29.423+02:00</time>
      <extensions>
        <activity type="STILL" conf="99" state="still" tsMs="1776593785660"/>
        <radio op="vodafone IT" rat="LTE" q="77.50" rsrp="-94" sinr="22" rsrq="-6"/>
        <radio op="I TIM" rat="LTE" q="70.00" rsrp="-90" sinr="15" rsrq="-11"/>
      </extensions>
    </trkpt>
    <trkpt lat="45.6175691" lon="10.4949417">
      <ele>224.3000030517578</ele>
      <time>2026-04-19T12:17:00.96+02:00</time>
      <extensions>
        <activity type="STILL" conf="99" state="still" tsMs="1776593817248"/>
        <radio op="vodafone IT" rat="LTE" q="77.50" rsrp="-94" sinr="25" rsrq="-8"/>
        <radio op="I TIM" rat="LTE" q="77.00" rsrp="-90" sinr="17" rsrq="-11"/>
      </extensions>
    </trkpt>
    <trkpt lat="45.617533" lon="10.4944128">
      <ele>224.3000030517578</ele>
      <time>2026-04-19T12:17:34.157+02:00</time>
      <extensions>
        <activity type="STILL" conf="99" state="still" tsMs="1776593848785"/>
        <radio op="vodafone IT" rat="LTE" q="62.50" rsrp="-100" sinr="21" rsrq="-8"/>
        <radio op="I TIM" rat="LTE" q="84.00" rsrp="-90" sinr="19" rsrq="-11"/>
      </extensions>
    </trkpt>
    <trkpt lat="45.6175798" lon="10.4949549">
      <ele>224.3000030517578</ele>
      <time>2026-04-19T12:18:04.973+02:00</time>
      <extensions>
        <activity type="STILL" conf="99" state="still" tsMs="1776593881123"/>
        <radio op="vodafone IT" rat="LTE" q="77.50" rsrp="-94" sinr="24" rsrq="-8"/>
        <radio op="I TIM" rat="LTE" q="80.50" rsrp="-90" sinr="18" rsrq="-11"/>
      </extensions>
    </trkpt>
    <trkpt lat="45.617625" lon="10.4950748">
      <ele>224.3000030517578</ele>
      <time>2026-04-19T12:18:36.354+02:00</time>
      <extensions>
        <activity type="STILL" conf="99" state="still" tsMs="1776593912418"/>
        <radio op="vodafone IT" rat="LTE" q="62.50" rsrp="-100" sinr="21" rsrq="-6"/>
        <radio op="I TIM" rat="LTE" q="80.50" rsrp="-90" sinr="18" rsrq="-12"/>
      </extensions>
    </trkpt>
    <trkpt lat="45.6175827" lon="10.4949372">
      <ele>224.3000030517578</ele>
      <time>2026-04-19T12:19:07.839+02:00</time>
      <extensions>
        <activity type="STILL" conf="99" state="still" tsMs="1776593943806"/>
        <radio op="vodafone IT" rat="LTE" q="64.80" rsrp="-98" sinr="19" rsrq="-10"/>
        <radio op="I TIM" rat="LTE" q="82.80" rsrp="-89" sinr="18" rsrq="-12"/>
      </extensions>
    </trkpt>
    <trkpt lat="45.6176759" lon="10.495011">
      <ele>224.3000030517578</ele>
      <time>2026-04-19T12:19:39.215+02:00</time>
      <extensions>
        <activity type="STILL" conf="99" state="still" tsMs="1776593975365"/>
        <radio op="vodafone IT" rat="LTE" q="74.40" rsrp="-94" sinr="19" rsrq="-11"/>
        <radio op="I TIM" rat="LTE" q="77.00" rsrp="-90" sinr="17" rsrq="-11"/>
      </extensions>
    </trkpt>
    <trkpt lat="45.6175992" lon="10.4950212">
      <ele>224.3000030517578</ele>
      <time>2026-04-19T12:20:07.065+02:00</time>
      <extensions>
        <activity type="STILL" conf="99" state="still" tsMs="1776594007007"/>
        <radio op="vodafone IT" rat="LTE" q="77.50" rsrp="-94" sinr="23" rsrq="-7"/>
        <radio op="I TIM" rat="LTE" q="80.50" rsrp="-90" sinr="18" rsrq="-11"/>
      </extensions>
    </trkpt>
    <trkpt lat="45.617576" lon="10.4949617">
      <ele>224.3000030517578</ele>
      <time>2026-04-19T12:20:51.545+02:00</time>
      <extensions>
        <activity type="STILL" conf="100" state="still" tsMs="1776594041294"/>
        <radio op="vodafone IT" rat="LTE" q="74.40" rsrp="-94" sinr="19" rsrq="-11"/>
        <radio op="I TIM" rat="LTE" q="87.50" rsrp="-90" sinr="20" rsrq="-12"/>
      </extensions>
    </trkpt>
    <trkpt lat="45.6175776" lon="10.4949534">
      <ele>224.3000030517578</ele>
      <time>2026-04-19T12:21:53.455+02:00</time>
      <extensions>
        <activity type="STILL" conf="100" state="still" tsMs="1776594103242"/>
        <radio op="vodafone IT" rat="LTE" q="65.00" rsrp="-99" sinr="20" rsrq="-13"/>
        <radio op="I TIM" rat="LTE" q="88.80" rsrp="-88" sinr="19" rsrq="-11"/>
      </extensions>
    </trkpt>
    <trkpt lat="45.6175658" lon="10.495011">
      <ele>224.3000030517578</ele>
      <time>2026-04-19T12:22:55.53+02:00</time>
      <extensions>
        <activity type="STILL" conf="100" state="still" tsMs="1776594165341"/>
        <radio op="vodafone IT" rat="LTE" q="77.50" rsrp="-94" sinr="20" rsrq="-9"/>
        <radio op="I TIM" rat="LTE" q="77.00" rsrp="-90" sinr="17" rsrq="-12"/>
      </extensions>
    </trkpt>
    <trkpt lat="45.6176437" lon="10.4950923">
      <ele>224.3000030517578</ele>
      <time>2026-04-19T12:23:57.552+02:00</time>
      <extensions>
        <activity type="STILL" conf="100" state="still" tsMs="1776594227323"/>
        <radio op="vodafone IT" rat="LTE" q="80.00" rsrp="-93" sinr="25" rsrq="-9"/>
        <radio op="I TIM" rat="LTE" q="81.60" rsrp="-91" sinr="19" rsrq="-12"/>
      </extensions>
    </trkpt>
    <trkpt lat="45.618156" lon="10.4937009">
      <ele>224.40000915527344</ele>
      <time>2026-04-19T13:05:33.939+02:00</time>
      <extensions>
        <activity type="STILL" conf="100" state="still" tsMs="1776596723722"/>
        <radio op="vodafone IT" rat="LTE" q="30.00" rsrp="-95" sinr="5" rsrq="-10"/>
        <radio op="I TIM" rat="LTE" q="75.60" rsrp="-89" sinr="16" rsrq="-12"/>
      </extensions>
    </trkpt>
    <trkpt lat="45.6175598" lon="10.495047">
      <ele>224.3000030517578</ele>
      <time>2026-04-19T13:06:35.995+02:00</time>
      <extensions>
        <activity type="STILL" conf="100" state="still" tsMs="1776596785745"/>
        <radio op="vodafone IT" rat="LTE" rsrp="-95" rsrq="-11"/>
        <radio op="I TIM" rat="LTE" q="72.00" rsrp="-89" sinr="15" rsrq="-13"/>
      </extensions>
    </trkpt>
    <trkpt lat="45.6175846" lon="10.4950216">
      <ele>224.3000030517578</ele>
      <time>2026-04-19T13:07:38.035+02:00</time>
      <extensions>
        <activity type="STILL" conf="100" state="still" tsMs="1776596847766"/>
        <radio op="vodafone IT" rat="LTE" rsrp="-96" rsrq="-14"/>
        <radio op="I TIM" rat="LTE" q="85.00" rsrp="-91" sinr="20" rsrq="-12"/>
      </extensions>
    </trkpt>
    <trkpt lat="45.6175925" lon="10.4949894">
      <ele>224.3000030517578</ele>
      <time>2026-04-19T13:08:39.946+02:00</time>
      <extensions>
        <activity type="STILL" conf="100" state="still" tsMs="1776596909731"/>
        <radio op="vodafone IT" rat="LTE" rsrp="-96" rsrq="-12"/>
        <radio op="I TIM" rat="LTE" q="82.50" rsrp="-92" sinr="20" rsrq="-12"/>
      </extensions>
    </trkpt>
    <trkpt lat="45.6175949" lon="10.4949856">
      <ele>224.3000030517578</ele>
      <time>2026-04-19T13:09:41.898+02:00</time>
      <extensions>
        <activity type="STILL" conf="100" state="still" tsMs="1776596971658"/>
        <radio op="vodafone IT" rat="LTE" q="14.00" rsrp="-97" sinr="0" rsrq="-13"/>
        <radio op="I TIM" rat="LTE" q="90.00" rsrp="-89" sinr="21" rsrq="-12"/>
      </extensions>
    </trkpt>
    <trkpt lat="45.6182627" lon="10.4944084">
      <ele>224.3000030517578</ele>
      <time>2026-04-19T13:39:10.145+02:00</time>
      <extensions>
        <activity type="ON_FOOT" conf="97" state="moving" tsMs="1776598753495"/>
        <radio op="vodafone IT" rat="LTE" q="75.00" rsrp="-95" sinr="26" rsrq="-12"/>
        <radio op="I TIM" rat="LTE" q="42.00" rsrp="-97" sinr="10" rsrq="-12"/>
      </extensions>
    </trkpt>
    <trkpt lat="45.6179581" lon="10.4934881">
      <ele>225.60000610351562</ele>
      <time>2026-04-19T13:39:48.116+02:00</time>
      <extensions>
        <activity type="ON_FOOT" conf="95" state="moving" tsMs="1776598770870"/>
        <radio op="vodafone IT" rat="LTE" q="58.00" rsrp="-96" sinr="15" rsrq="-12"/>
        <radio op="I TIM" rat="LTE" q="49.30" rsrp="-96" sinr="12" rsrq="-11"/>
      </extensions>
    </trkpt>
    <trkpt lat="45.6179584" lon="10.4934885">
      <ele>225.60000610351562</ele>
      <time>2026-04-19T13:40:19.555+02:00</time>
      <extensions>
        <activity type="UNKNOWN" conf="40" state="unknown" tsMs="1776598818786"/>
        <radio op="vodafone IT" rat="LTE" q="72.50" rsrp="-96" sinr="25" rsrq="-8"/>
        <radio op="I TIM" rat="LTE" q="85.00" rsrp="-91" sinr="21" rsrq="-12"/>
      </extensions>
    </trkpt>
    <trkpt lat="45.6180031" lon="10.4935515">
      <ele>225.60000610351562</ele>
      <time>2026-04-19T13:40:50.921+02:00</time>
      <extensions>
        <activity type="IN_VEHICLE" conf="97" state="moving" tsMs="1776598847156"/>
        <radio op="vodafone IT" rat="LTE" q="46.00" rsrp="-102" sinr="15" rsrq="-10"/>
        <radio op="I TIM" rat="LTE" q="85.00" rsrp="-91" sinr="24" rsrq="-12"/>
      </extensions>
    </trkpt>
    <trkpt lat="45.6165409" lon="10.4938745">
      <ele>228.91465569475383</ele>
      <time>2026-04-19T13:41:26.908+02:00</time>
      <extensions>
        <activity type="IN_VEHICLE" conf="96" state="moving" tsMs="1776598890339"/>
        <radio op="vodafone IT" rat="LTE" q="100.00" rsrp="-85" sinr="26" rsrq="-7"/>
        <radio op="I TIM" rat="LTE" q="57.60" rsrp="-93" sinr="13" rsrq="-12"/>
      </extensions>
    </trkpt>
    <trkpt lat="45.6136021" lon="10.497227">
      <ele>230.758029049596</ele>
      <time>2026-04-19T13:42:06.908+02:00</time>
      <extensions>
        <activity type="IN_VEHICLE" conf="97" state="moving" tsMs="1776598922214"/>
        <radio op="vodafone IT" rat="LTE" q="68.40" rsrp="-89" sinr="14" rsrq="-9"/>
        <radio op="I TIM" rat="LTE" q="69.30" rsrp="-92" sinr="16" rsrq="-12"/>
      </extensions>
    </trkpt>
    <trkpt lat="45.6133463" lon="10.4971762">
      <ele>230.758029049596</ele>
      <time>2026-04-19T13:42:08.908+02:00</time>
      <extensions>
        <activity type="IN_VEHICLE" conf="96" state="moving" tsMs="1776598928340"/>
        <radio op="vodafone IT" rat="LTE" q="56.70" rsrp="-98" sinr="16" rsrq="-11"/>
        <radio op="I TIM" rat="LTE" rsrp="-112" rsrq="-18"/>
      </extensions>
    </trkpt>
    <trkpt lat="45.6110461" lon="10.4957066">
      <ele>217.40000915527344</ele>
      <time>2026-04-19T13:42:47.699+02:00</time>
      <extensions>
        <activity type="IN_VEHICLE" conf="96" state="moving" tsMs="1776598963569"/>
        <radio op="vodafone IT" rat="LTE" q="64.80" rsrp="-98" sinr="19" rsrq="-8"/>
        <radio op="I TIM" rat="LTE" rsrp="-111" rsrq="-15"/>
      </extensions>
    </trkpt>
    <trkpt lat="45.6112704" lon="10.4954241">
      <ele>217.40000915527344</ele>
      <time>2026-04-19T13:42:53.907+02:00</time>
      <extensions>
        <activity type="UNKNOWN" conf="40" state="unknown" tsMs="1776598978479"/>
        <radio op="vodafone IT" rat="LTE" q="62.10" rsrp="-98" sinr="18" rsrq="-12"/>
        <radio op="I TIM" rat="LTE" rsrp="-111" rsrq="-15"/>
      </extensions>
    </trkpt>
    <trkpt lat="45.6108761" lon="10.496162">
      <ele>219.4415258319777</ele>
      <time>2026-04-19T13:43:29.28+02:00</time>
      <extensions>
        <activity type="IN_VEHICLE" conf="97" state="moving" tsMs="1776599005381"/>
        <radio op="vodafone IT" rat="LTE" q="27.30" rsrp="-104" sinr="8" rsrq="-10"/>
        <radio op="I TIM" rat="LTE" rsrp="-110" rsrq="-14"/>
      </extensions>
    </trkpt>
    <trkpt lat="45.6109595" lon="10.5003499">
      <ele>195.50001525878906</ele>
      <time>2026-04-19T13:44:03.908+02:00</time>
      <extensions>
        <activity type="IN_VEHICLE" conf="97" state="moving" tsMs="1776599051469"/>
        <radio op="vodafone IT" rat="LTE" rsrp="-110" rsrq="-13"/>
        <radio op="I TIM" rat="LTE" rsrp="-102" rsrq="-16"/>
      </extensions>
    </trkpt>
    <trkpt lat="45.6065738" lon="10.5020062">
      <ele>171.0707437205713</ele>
      <time>2026-04-19T13:44:43.835+02:00</time>
      <extensions>
        <activity type="IN_VEHICLE" conf="97" state="moving" tsMs="1776599083564"/>
        <radio op="vodafone IT" rat="LTE" q="57.60" rsrp="-93" sinr="13" rsrq="-11"/>
        <radio op="I TIM" rat="LTE" rsrp="-109" rsrq="-18"/>
      </extensions>
    </trkpt>
    <trkpt lat="45.6043615" lon="10.5057276">
      <ele>165.16223038563803</ele>
      <time>2026-04-19T13:45:15.665+02:00</time>
      <extensions>
        <activity type="IN_VEHICLE" conf="97" state="moving" tsMs="1776599111890"/>
        <radio op="vodafone IT" rat="LTE" q="16.10" rsrp="-102" sinr="2" rsrq="-12"/>
        <radio op="I TIM" rat="LTE" rsrp="-98" rsrq="-14"/>
      </extensions>
    </trkpt>
    <trkpt lat="45.5997022" lon="10.5075365">
      <ele>178.1713602391123</ele>
      <time>2026-04-19T13:45:48.908+02:00</time>
      <extensions>
        <activity type="IN_VEHICLE" conf="97" state="moving" tsMs="1776599142086"/>
        <radio op="vodafone IT" rat="LTE" q="29.90" rsrp="-102" sinr="8" rsrq="-10"/>
        <radio op="I TIM" rat="LTE" q="15.00" rsrp="-95" sinr="0" rsrq="-9"/>
      </extensions>
    </trkpt>
    <trkpt lat="45.5991701" lon="10.5075446">
      <ele>178.1713602391123</ele>
      <time>2026-04-19T13:45:52.908+02:00</time>
      <extensions>
        <activity type="IN_VEHICLE" conf="96" state="moving" tsMs="1776599157817"/>
        <radio op="vodafone IT" rat="LTE" q="35.00" rsrp="-100" sinr="9" rsrq="-10"/>
        <radio op="I TIM" rat="LTE" rsrp="-91" rsrq="-10"/>
      </extensions>
    </trkpt>
    <trkpt lat="45.5974178" lon="10.5081649">
      <ele>157.70001220703125</ele>
      <time>2026-04-19T13:46:04.908+02:00</time>
      <extensions>
        <activity type="IN_VEHICLE" conf="97" state="moving" tsMs="1776599168600"/>
        <radio op="vodafone IT" rat="LTE" rsrp="-110" rsrq="-12"/>
        <radio op="I TIM" rat="LTE" rsrp="-96" rsrq="-13"/>
      </extensions>
    </trkpt>
    <trkpt lat="45.5931775" lon="10.5123055">
      <ele>195.50001525878906</ele>
      <time>2026-04-19T13:46:41.422+02:00</time>
      <extensions>
        <activity type="IN_VEHICLE" conf="97" state="moving" tsMs="1776599195351"/>
        <radio op="vodafone IT" rat="LTE" rsrp="-103" rsrq="-13"/>
        <radio op="I TIM" rat="LTE" rsrp="-101" rsrq="-17"/>
      </extensions>
    </trkpt>
    <trkpt lat="45.5930798" lon="10.5190623">
      <ele>206.0544890364911</ele>
      <time>2026-04-19T13:47:13.908+02:00</time>
      <extensions>
        <activity type="IN_VEHICLE" conf="97" state="moving" tsMs="1776599231915"/>
        <radio op="vodafone IT" rat="LTE" rsrp="-105" rsrq="-14"/>
        <radio op="I TIM" rat="LTE" rsrp="-98" rsrq="-13"/>
      </extensions>
    </trkpt>
    <trkpt lat="45.5909743" lon="10.5229652">
      <ele>205.8000030517578</ele>
      <time>2026-04-19T13:47:44.553+02:00</time>
      <extensions>
        <activity type="IN_VEHICLE" conf="97" state="moving" tsMs="1776599260069"/>
        <radio op="vodafone IT" rat="LTE" q="20.00" rsrp="-105" sinr="5" rsrq="-11"/>
        <radio op="I TIM" rat="LTE" rsrp="-106" rsrq="-11"/>
      </extensions>
    </trkpt>
    <trkpt lat="45.5872133" lon="10.5186503">
      <ele>208.9638582285509</ele>
      <time>2026-04-19T13:48:16.164+02:00</time>
      <extensions>
        <activity type="IN_VEHICLE" conf="97" state="moving" tsMs="1776599291318"/>
        <radio op="vodafone IT" rat="LTE" q="74.10" rsrp="-86" sinr="14" rsrq="-8"/>
        <radio op="I TIM" rat="LTE" q="56.00" rsrp="-83" sinr="9" rsrq="-10"/>
      </extensions>
    </trkpt>
    <trkpt lat="45.5859805" lon="10.5174122">
      <ele>205.00001525878906</ele>
      <time>2026-04-19T13:48:48.158+02:00</time>
      <extensions>
        <activity type="IN_VEHICLE" conf="97" state="moving" tsMs="1776599322906"/>
        <radio op="vodafone IT" rat="LTE" q="79.80" rsrp="-87" sinr="16" rsrq="-6"/>
        <radio op="I TIM" rat="LTE" q="48.00" rsrp="-82" sinr="7" rsrq="-10"/>
      </extensions>
    </trkpt>
    <trkpt lat="45.5855297" lon="10.5175903">
      <ele>205.00001525878906</ele>
      <time>2026-04-19T13:48:53.907+02:00</time>
      <extensions>
        <activity type="IN_VEHICLE" conf="97" state="moving" tsMs="1776599338829"/>
        <radio op="vodafone IT" rat="LTE" q="100.00" rsrp="-81" sinr="24" rsrq="-5"/>
        <radio op="I TIM" rat="LTE" q="80.00" rsrp="-80" sinr="15" rsrq="-11"/>
      </extensions>
    </trkpt>
    <trkpt lat="45.5854334" lon="10.5175338">
      <ele>205.00001525878906</ele>
      <time>2026-04-19T13:49:04.908+02:00</time>
      <extensions>
        <activity type="IN_VEHICLE" conf="96" state="moving" tsMs="1776599344178"/>
        <radio op="vodafone IT" rat="LTE" q="100.00" rsrp="-80" sinr="22" rsrq="-7"/>
        <radio op="I TIM" rat="LTE" q="60.00" rsrp="-77" sinr="10" rsrq="-9"/>
      </extensions>
    </trkpt>
    <trkpt lat="45.5859557" lon="10.5190255">
      <ele>202.60000610351562</ele>
      <time>2026-04-19T13:49:39.847+02:00</time>
      <extensions>
        <activity type="STILL" conf="30" state="still" tsMs="1776599375556"/>
        <radio op="vodafone IT" rat="LTE" q="95.00" rsrp="-87" sinr="21" rsrq="-6"/>
        <radio op="I TIM" rat="LTE" q="60.00" rsrp="-82" sinr="10" rsrq="-11"/>
      </extensions>
    </trkpt>
    <trkpt lat="45.5858875" lon="10.5174482">
      <ele>204.60000610351562</ele>
      <time>2026-04-19T13:50:11.256+02:00</time>
      <extensions>
        <activity type="UNKNOWN" conf="40" state="unknown" tsMs="1776599405756"/>
        <radio op="vodafone IT" rat="LTE" q="75.90" rsrp="-92" sinr="18" rsrq="-7"/>
        <radio op="I TIM" rat="LTE" q="26.60" rsrp="-87" sinr="2" rsrq="-9"/>
      </extensions>
    </trkpt>
    <trkpt lat="45.5858138" lon="10.5173946">
      <ele>204.60000610351562</ele>
      <time>2026-04-19T13:50:16.908+02:00</time>
      <extensions>
        <activity type="ON_FOOT" conf="91" state="moving" tsMs="1776599411127"/>
        <radio op="vodafone IT" rat="LTE" q="85.00" rsrp="-91" sinr="21" rsrq="-6"/>
        <radio op="I TIM" rat="LTE" q="72.00" rsrp="-89" sinr="15" rsrq="-9"/>
      </extensions>
    </trkpt>
    <trkpt lat="45.5858741" lon="10.5173313">
      <ele>204.60000610351562</ele>
      <time>2026-04-19T13:50:29.908+02:00</time>
      <extensions>
        <activity type="ON_FOOT" conf="96" state="moving" tsMs="1776599428387"/>
        <radio op="vodafone IT" rat="LTE" q="46.20" rsrp="-103" sinr="16" rsrq="-9"/>
        <radio op="I TIM" rat="LTE" q="50.40" rsrp="-97" sinr="13" rsrq="-10"/>
      </extensions>
    </trkpt>
    <trkpt lat="45.5859822" lon="10.5172375">
      <ele>205.3000030517578</ele>
      <time>2026-04-19T13:51:02.812+02:00</time>
      <extensions>
        <activity type="UNKNOWN" conf="40" state="unknown" tsMs="1776599460502"/>
        <radio op="vodafone IT" rat="LTE" q="22.10" rsrp="-108" sinr="8" rsrq="-10"/>
        <radio op="I TIM" rat="LTE" q="15.20" rsrp="-106" sinr="3" rsrq="-11"/>
      </extensions>
    </trkpt>
    <trkpt lat="45.5859386" lon="10.5172633">
      <ele>205.3000030517578</ele>
      <time>2026-04-19T13:51:34.331+02:00</time>
      <extensions>
        <activity type="UNKNOWN" conf="40" state="unknown" tsMs="1776599493721"/>
        <radio op="vodafone IT" rat="LTE" q="30.00" rsrp="-105" sinr="10" rsrq="-10"/>
        <radio op="I TIM" rat="LTE" q="36.80" rsrp="-102" sinr="11" rsrq="-9"/>
      </extensions>
    </trkpt>
    <trkpt lat="45.5859317" lon="10.5172597">
      <ele>205.20001220703125</ele>
      <time>2026-04-19T13:52:00.57+02:00</time>
      <extensions>
        <activity type="UNKNOWN" conf="40" state="unknown" tsMs="1776599525215"/>
        <radio op="vodafone IT" rat="LTE" q="24.00" rsrp="-109" sinr="10" rsrq="-10"/>
        <radio op="I TIM" rat="LTE" q="28.60" rsrp="-103" sinr="8" rsrq="-9"/>
      </extensions>
    </trkpt>
    <trkpt lat="45.5859621" lon="10.5172598">
      <ele>205.3000030517578</ele>
      <time>2026-04-19T13:52:47.025+02:00</time>
      <extensions>
        <activity type="UNKNOWN" conf="40" state="unknown" tsMs="1776599562839"/>
        <radio op="vodafone IT" rat="LTE" rsrp="-110" rsrq="-8"/>
        <radio op="I TIM" rat="LTE" rsrp="-108" rsrq="-14"/>
      </extensions>
    </trkpt>
    <trkpt lat="45.5860988" lon="10.5171736">
      <ele>205.20001220703125</ele>
      <time>2026-04-19T13:53:15.446+02:00</time>
      <extensions>
        <activity type="ON_FOOT" conf="81" state="moving" tsMs="1776599595200"/>
        <radio op="vodafone IT" rat="LTE" q="19.20" rsrp="-109" sinr="7" rsrq="-10"/>
        <radio op="I TIM" rat="LTE" q="26.00" rsrp="-105" sinr="8" rsrq="-12"/>
      </extensions>
    </trkpt>
    <trkpt lat="45.5861694" lon="10.5171703">
      <ele>205.20001220703125</ele>
      <time>2026-04-19T13:53:30.836+02:00</time>
      <extensions>
        <activity type="ON_FOOT" conf="98" state="moving" tsMs="1776599598777"/>
        <radio op="vodafone IT" rat="LTE" q="54.00" rsrp="-95" sinr="13" rsrq="-8"/>
        <radio op="I TIM" rat="LTE" q="56.00" rsrp="-97" sinr="15" rsrq="-9"/>
      </extensions>
    </trkpt>
    <trkpt lat="45.586194" lon="10.5171315">
      <ele>205.20001220703125</ele>
      <time>2026-04-19T13:53:40.92+02:00</time>
      <extensions>
        <activity type="ON_FOOT" conf="98" state="moving" tsMs="1776599598777"/>
        <radio op="vodafone IT" rat="LTE" q="48.40" rsrp="-103" sinr="17" rsrq="-8"/>
        <radio op="I TIM" rat="LTE" q="39.60" rsrp="-103" sinr="13" rsrq="-12"/>
      </extensions>
    </trkpt>
    <trkpt lat="45.586272" lon="10.5171571">
      <ele>205.20001220703125</ele>
      <time>2026-04-19T13:53:51.139+02:00</time>
      <extensions>
        <activity type="ON_FOOT" conf="91" state="moving" tsMs="1776599614432"/>
        <radio op="vodafone IT" rat="LTE" q="36.00" rsrp="-107" sinr="15" rsrq="-11"/>
        <radio op="I TIM" rat="LTE" q="41.80" rsrp="-103" sinr="14" rsrq="-9"/>
      </extensions>
    </trkpt>
    <trkpt lat="45.5862404" lon="10.517158">
      <ele>205.20001220703125</ele>
      <time>2026-04-19T13:54:01.107+02:00</time>
      <extensions>
        <activity type="UNKNOWN" conf="40" state="unknown" tsMs="1776599629468"/>
        <radio op="vodafone IT" rat="LTE" q="37.80" rsrp="-104" sinr="13" rsrq="-8"/>
        <radio op="I TIM" rat="LTE" q="28.80" rsrp="-101" sinr="7" rsrq="-9"/>
      </extensions>
    </trkpt>
    <trkpt lat="45.5862162" lon="10.5171533">
      <ele>205.20001220703125</ele>
      <time>2026-04-19T13:54:11.189+02:00</time>
      <extensions>
        <activity type="UNKNOWN" conf="40" state="unknown" tsMs="1776599629468"/>
        <radio op="vodafone IT" rat="LTE" q="34.20" rsrp="-107" sinr="14" rsrq="-8"/>
        <radio op="I TIM" rat="LTE" q="50.60" rsrp="-103" sinr="18" rsrq="-11"/>
      </extensions>
    </trkpt>
    <trkpt lat="45.586227" lon="10.5171394">
      <ele>205.3000030517578</ele>
      <time>2026-04-19T13:54:21.277+02:00</time>
      <extensions>
        <activity type="STILL" conf="100" state="still" tsMs="1776599644494"/>
        <radio op="vodafone IT" rat="LTE" q="51.30" rsrp="-98" sinr="14" rsrq="-7"/>
        <radio op="I TIM" rat="LTE" q="60.90" rsrp="-96" sinr="16" rsrq="-13"/>
      </extensions>
    </trkpt>
    <trkpt lat="45.586247" lon="10.5171098">
      <ele>205.3000030517578</ele>
      <time>2026-04-19T13:54:31.238+02:00</time>
      <extensions>
        <activity type="UNKNOWN" conf="40" state="unknown" tsMs="1776599659531"/>
        <radio op="vodafone IT" rat="LTE" q="38.40" rsrp="-101" sinr="11" rsrq="-12"/>
        <radio op="I TIM" rat="LTE" q="48.00" rsrp="-101" sinr="15" rsrq="-12"/>
      </extensions>
    </trkpt>
    <trkpt lat="45.5862517" lon="10.5171151">
      <ele>205.3000030517578</ele>
      <time>2026-04-19T13:54:41.211+02:00</time>
      <extensions>
        <activity type="UNKNOWN" conf="40" state="unknown" tsMs="1776599659531"/>
        <radio op="vodafone IT" rat="LTE" q="25.50" rsrp="-110" sinr="12" rsrq="-8"/>
        <radio op="I TIM" rat="LTE" q="37.80" rsrp="-104" sinr="13" rsrq="-12"/>
      </extensions>
    </trkpt>
    <trkpt lat="45.5862912" lon="10.5170954">
      <ele>205.3000030517578</ele>
      <time>2026-04-19T13:54:51.642+02:00</time>
      <extensions>
        <activity type="UNKNOWN" conf="40" state="unknown" tsMs="1776599674559"/>
        <radio op="vodafone IT" rat="LTE" q="43.20" rsrp="-101" sinr="13" rsrq="-11"/>
        <radio op="I TIM" rat="LTE" q="47.60" rsrp="-97" sinr="12" rsrq="-10"/>
      </extensions>
    </trkpt>
    <trkpt lat="45.586319" lon="10.5170808">
      <ele>205.3000030517578</ele>
      <time>2026-04-19T13:55:01.661+02:00</time>
      <extensions>
        <activity type="ON_FOOT" conf="89" state="moving" tsMs="1776599689612"/>
        <radio op="vodafone IT" rat="LTE" q="46.20" rsrp="-104" sinr="17" rsrq="-9"/>
        <radio op="I TIM" rat="LTE" q="48.60" rsrp="-98" sinr="13" rsrq="-9"/>
      </extensions>
    </trkpt>
    <trkpt lat="45.5863247" lon="10.5170854">
      <ele>205.3000030517578</ele>
      <time>2026-04-19T13:55:11.364+02:00</time>
      <extensions>
        <activity type="ON_FOOT" conf="89" state="moving" tsMs="1776599689612"/>
        <radio op="vodafone IT" rat="LTE" q="36.00" rsrp="-101" sinr="10" rsrq="-11"/>
        <radio op="I TIM" rat="LTE" q="60.90" rsrp="-96" sinr="16" rsrq="-10"/>
      </extensions>
    </trkpt>
    <trkpt lat="45.5863218" lon="10.5170806">
      <ele>205.3000030517578</ele>
      <time>2026-04-19T13:55:21.329+02:00</time>
      <extensions>
        <activity type="UNKNOWN" conf="40" state="unknown" tsMs="1776599704644"/>
        <radio op="vodafone IT" rat="LTE" q="44.80" rsrp="-97" sinr="11" rsrq="-7"/>
        <radio op="I TIM" rat="LTE" q="42.50" rsrp="-100" sinr="12" rsrq="-11"/>
      </extensions>
    </trkpt>
    <trkpt lat="45.5863297" lon="10.5170719">
      <ele>205.3000030517578</ele>
      <time>2026-04-19T13:55:31.304+02:00</time>
      <extensions>
        <activity type="STILL" conf="97" state="still" tsMs="1776599719679"/>
        <radio op="vodafone IT" rat="LTE" q="54.00" rsrp="-98" sinr="15" rsrq="-8"/>
        <radio op="I TIM" rat="LTE" q="37.80" rsrp="-98" sinr="9" rsrq="-9"/>
      </extensions>
    </trkpt>
    <trkpt lat="45.5863616" lon="10.5170283">
      <ele>205.3000030517578</ele>
      <time>2026-04-19T13:55:42.061+02:00</time>
      <extensions>
        <activity type="UNKNOWN" conf="40" state="unknown" tsMs="1776599729702"/>
        <radio op="vodafone IT" rat="LTE" q="53.20" rsrp="-97" sinr="14" rsrq="-10"/>
        <radio op="I TIM" rat="LTE" q="27.00" rsrp="-95" sinr="4" rsrq="-11"/>
      </extensions>
    </trkpt>
    <trkpt lat="45.5863714" lon="10.517031">
      <ele>205.3000030517578</ele>
      <time>2026-04-19T13:55:52.151+02:00</time>
      <extensions>
        <activity type="UNKNOWN" conf="40" state="unknown" tsMs="1776599729702"/>
        <radio op="vodafone IT" rat="LTE" q="58.90" rsrp="-94" sinr="14" rsrq="-6"/>
        <radio op="I TIM" rat="LTE" q="36.40" rsrp="-97" sinr="8" rsrq="-14"/>
      </extensions>
    </trkpt>
    <trkpt lat="45.5863735" lon="10.517021">
      <ele>205.3000030517578</ele>
      <time>2026-04-19T13:56:02.218+02:00</time>
      <extensions>
        <activity type="UNKNOWN" conf="40" state="unknown" tsMs="1776599745392"/>
        <radio op="vodafone IT" rat="LTE" q="36.00" rsrp="-95" sinr="7" rsrq="-10"/>
        <radio op="I TIM" rat="LTE" q="40.30" rsrp="-94" sinr="8" rsrq="-13"/>
      </extensions>
    </trkpt>
    <trkpt lat="45.5863739" lon="10.5169642">
      <ele>205.3000030517578</ele>
      <time>2026-04-19T13:56:12.316+02:00</time>
      <extensions>
        <activity type="UNKNOWN" conf="40" state="unknown" tsMs="1776599760424"/>
        <radio op="vodafone IT" rat="LTE" q="54.40" rsrp="-93" sinr="12" rsrq="-9"/>
        <radio op="I TIM" rat="LTE" q="35.00" rsrp="-90" sinr="5" rsrq="-13"/>
      </extensions>
    </trkpt>
    <trkpt lat="45.5863668" lon="10.5169354">
      <ele>205.3000030517578</ele>
      <time>2026-04-19T13:56:22.623+02:00</time>
      <extensions>
        <activity type="UNKNOWN" conf="40" state="unknown" tsMs="1776599760424"/>
        <radio op="vodafone IT" rat="LTE" q="54.60" rsrp="-99" sinr="16" rsrq="-7"/>
        <radio op="I TIM" rat="LTE" q="60.90" rsrp="-96" sinr="16" rsrq="-14"/>
      </extensions>
    </trkpt>
    <trkpt lat="45.5863634" lon="10.5169422">
      <ele>205.3000030517578</ele>
      <time>2026-04-19T13:56:27.779+02:00</time>
      <extensions>
        <activity type="UNKNOWN" conf="40" state="unknown" tsMs="1776599775449"/>
        <radio op="vodafone IT" rat="LTE" q="38.40" rsrp="-101" sinr="11" rsrq="-8"/>
        <radio op="I TIM" rat="LTE" q="50.40" rsrp="-101" sinr="16" rsrq="-14"/>
      </extensions>
    </trkpt>
    <trkpt lat="45.5863655" lon="10.5169367">
      <ele>205.3000030517578</ele>
      <time>2026-04-19T13:56:41.876+02:00</time>
      <extensions>
        <activity type="UNKNOWN" conf="40" state="unknown" tsMs="1776599790716"/>
        <radio op="vodafone IT" rat="LTE" q="28.80" rsrp="-101" sinr="7" rsrq="-8"/>
        <radio op="I TIM" rat="LTE" q="44.20" rsrp="-99" sinr="12" rsrq="-12"/>
      </extensions>
    </trkpt>
    <trkpt lat="45.5863642" lon="10.5169419">
      <ele>205.3000030517578</ele>
      <time>2026-04-19T13:56:49.003+02:00</time>
      <extensions>
        <activity type="UNKNOWN" conf="40" state="unknown" tsMs="1776599790716"/>
        <radio op="vodafone IT" rat="LTE" q="30.80" rsrp="-103" sinr="9" rsrq="-8"/>
        <radio op="I TIM" rat="LTE" q="36.40" rsrp="-99" sinr="9" rsrq="-12"/>
      </extensions>
    </trkpt>
    <trkpt lat="45.5863637" lon="10.516956">
      <ele>205.3000030517578</ele>
      <time>2026-04-19T13:56:58.596+02:00</time>
      <extensions>
        <activity type="UNKNOWN" conf="40" state="unknown" tsMs="1776599806183"/>
        <radio op="vodafone IT" rat="LTE" q="60.80" rsrp="-93" sinr="14" rsrq="-8"/>
        <radio op="I TIM" rat="LTE" q="61.20" rsrp="-89" sinr="12" rsrq="-13"/>
      </extensions>
    </trkpt>
    <trkpt lat="45.5863683" lon="10.5169936">
      <ele>205.3000030517578</ele>
      <time>2026-04-19T13:57:10.62+02:00</time>
      <extensions>
        <activity type="UNKNOWN" conf="40" state="unknown" tsMs="1776599821608"/>
        <radio op="vodafone IT" rat="LTE" q="81.40" rsrp="-88" sinr="17" rsrq="-7"/>
        <radio op="I TIM" rat="LTE" q="31.50" rsrp="-90" sinr="4" rsrq="-11"/>
      </extensions>
    </trkpt>
    <trkpt lat="45.5863621" lon="10.5169218">
      <ele>205.3000030517578</ele>
      <time>2026-04-19T13:57:23.158+02:00</time>
      <extensions>
        <activity type="UNKNOWN" conf="40" state="unknown" tsMs="1776599821608"/>
        <radio op="vodafone IT" rat="LTE" q="58.00" rsrp="-96" sinr="15" rsrq="-9"/>
        <radio op="I TIM" rat="LTE" q="34.00" rsrp="-91" sinr="5" rsrq="-13"/>
      </extensions>
    </trkpt>
    <trkpt lat="45.5863621" lon="10.5168898">
      <ele>205.3000030517578</ele>
      <time>2026-04-19T13:57:29.546+02:00</time>
      <extensions>
        <activity type="ON_FOOT" conf="88" state="moving" tsMs="1776599837002"/>
        <radio op="vodafone IT" rat="LTE" q="57.00" rsrp="-95" sinr="14" rsrq="-8"/>
        <radio op="I TIM" rat="LTE" q="45.00" rsrp="-100" sinr="13" rsrq="-12"/>
      </extensions>
    </trkpt>
    <trkpt lat="45.5863536" lon="10.5169064">
      <ele>205.3000030517578</ele>
      <time>2026-04-19T13:57:43.339+02:00</time>
      <extensions>
        <activity type="STILL" conf="100" state="still" tsMs="1776599852471"/>
        <radio op="vodafone IT" rat="LTE" q="39.20" rsrp="-97" sinr="9" rsrq="-10"/>
        <radio op="I TIM" rat="LTE" q="52.20" rsrp="-96" sinr="13" rsrq="-9"/>
      </extensions>
    </trkpt>
    <trkpt lat="45.5863622" lon="10.5169267">
      <ele>205.3000030517578</ele>
      <time>2026-04-19T13:57:50.165+02:00</time>
      <extensions>
        <activity type="UNKNOWN" conf="40" state="unknown" tsMs="1776599862910"/>
        <radio op="vodafone IT" rat="LTE" q="52.00" rsrp="-99" sinr="15" rsrq="-7"/>
        <radio op="I TIM" rat="LTE" q="65.10" rsrp="-94" sinr="16" rsrq="-9"/>
      </extensions>
    </trkpt>
    <trkpt lat="45.5863716" lon="10.5169532">
      <ele>205.3000030517578</ele>
      <time>2026-04-19T13:58:03.562+02:00</time>
      <extensions>
        <activity type="UNKNOWN" conf="40" state="unknown" tsMs="1776599862910"/>
        <radio op="vodafone IT" rat="LTE" q="56.00" rsrp="-82" sinr="9" rsrq="-8"/>
        <radio op="I TIM" rat="LTE" q="37.20" rsrp="-94" sinr="7" rsrq="-10"/>
      </extensions>
    </trkpt>
    <trkpt lat="45.5863651" lon="10.5169372">
      <ele>205.3000030517578</ele>
      <time>2026-04-19T13:58:10.675+02:00</time>
      <extensions>
        <activity type="UNKNOWN" conf="40" state="unknown" tsMs="1776599878277"/>
        <radio op="vodafone IT" rat="LTE" q="54.00" rsrp="-95" sinr="13" rsrq="-8"/>
        <radio op="I TIM" rat="LTE" q="53.20" rsrp="-97" sinr="14" rsrq="-11"/>
      </extensions>
    </trkpt>
    <trkpt lat="45.5863513" lon="10.5168966">
      <ele>205.3000030517578</ele>
      <time>2026-04-19T13:58:13.768+02:00</time>
      <extensions>
        <activity type="UNKNOWN" conf="40" state="unknown" tsMs="1776599878277"/>
        <radio op="vodafone IT" rat="LTE" q="51.30" rsrp="-98" sinr="14" rsrq="-8"/>
        <radio op="I TIM" rat="LTE" q="60.90" rsrp="-96" sinr="16" rsrq="-8"/>
      </extensions>
    </trkpt>
    <trkpt lat="45.5863089" lon="10.5170198">
      <ele>205.3000030517578</ele>
      <time>2026-04-19T13:58:49.14+02:00</time>
      <extensions>
        <activity type="UNKNOWN" conf="40" state="unknown" tsMs="1776599923833"/>
        <radio op="vodafone IT" rat="LTE" q="64.40" rsrp="-97" sinr="18" rsrq="-9"/>
        <radio op="I TIM" rat="LTE" q="41.60" rsrp="-93" sinr="8" rsrq="-10"/>
      </extensions>
    </trkpt>
    <trkpt lat="45.5863312" lon="10.517011">
      <ele>205.3000030517578</ele>
      <time>2026-04-19T14:00:13.972+02:00</time>
      <extensions>
        <activity type="UNKNOWN" conf="40" state="unknown" tsMs="1776600008837"/>
        <radio op="vodafone IT" rat="LTE" q="64.80" rsrp="-89" sinr="13" rsrq="-8"/>
        <radio op="I TIM" rat="LTE" q="72.00" rsrp="-84" sinr="13" rsrq="-10"/>
      </extensions>
    </trkpt>
    <trkpt lat="45.5862579" lon="10.5170733">
      <ele>205.3000030517578</ele>
      <time>2026-04-19T14:01:43.568+02:00</time>
      <extensions>
        <activity type="UNKNOWN" conf="40" state="unknown" tsMs="1776600098850"/>
        <radio op="vodafone IT" rat="LTE" q="54.00" rsrp="-98" sinr="15" rsrq="-8"/>
        <radio op="I TIM" rat="LTE" q="33.60" rsrp="-104" sinr="11" rsrq="-9"/>
      </extensions>
    </trkpt>
    <trkpt lat="45.5860102" lon="10.5170666">
      <ele>205.3000030517578</ele>
      <time>2026-04-19T14:02:25.562+02:00</time>
      <extensions>
        <activity type="ON_FOOT" conf="90" state="moving" tsMs="1776600140005"/>
        <radio op="vodafone IT" rat="LTE" q="66.00" rsrp="-95" sinr="17" rsrq="-8"/>
        <radio op="I TIM" rat="LTE" q="38.40" rsrp="-93" sinr="7" rsrq="-9"/>
      </extensions>
    </trkpt>
    <trkpt lat="45.586151" lon="10.5169802">
      <ele>205.3000030517578</ele>
      <time>2026-04-19T14:03:06.698+02:00</time>
      <extensions>
        <activity type="ON_FOOT" conf="83" state="moving" tsMs="1776600183146"/>
        <radio op="vodafone IT" rat="LTE" q="40.30" rsrp="-94" sinr="8" rsrq="-7"/>
        <radio op="I TIM" rat="LTE" q="78.20" rsrp="-91" sinr="18" rsrq="-13"/>
      </extensions>
    </trkpt>
    <trkpt lat="45.5861656" lon="10.5170164">
      <ele>205.3000030517578</ele>
      <time>2026-04-19T14:03:39.774+02:00</time>
      <extensions>
        <activity type="ON_FOOT" conf="90" state="moving" tsMs="1776600214834"/>
        <radio op="vodafone IT" rat="LTE" q="40.50" rsrp="-98" sinr="10" rsrq="-8"/>
        <radio op="I TIM" rat="LTE" q="35.00" rsrp="-100" sinr="9" rsrq="-11"/>
      </extensions>
    </trkpt>
    <trkpt lat="45.5863032" lon="10.5168859">
      <ele>205.3000030517578</ele>
      <time>2026-04-19T14:04:25.861+02:00</time>
      <extensions>
        <activity type="UNKNOWN" conf="40" state="unknown" tsMs="1776600265831"/>
        <radio op="vodafone IT" rat="LTE" q="48.60" rsrp="-98" sinr="13" rsrq="-9"/>
        <radio op="I TIM" rat="LTE" q="58.00" rsrp="-96" sinr="15" rsrq="-13"/>
      </extensions>
    </trkpt>
    <trkpt lat="45.5860356" lon="10.5170483">
      <ele>205.3000030517578</ele>
      <time>2026-04-19T14:05:13.712+02:00</time>
      <extensions>
        <activity type="ON_FOOT" conf="88" state="moving" tsMs="1776600312230"/>
        <radio op="vodafone IT" rat="LTE" q="30.60" rsrp="-108" sinr="13" rsrq="-11"/>
        <radio op="I TIM" rat="LTE" q="24.20" rsrp="-103" sinr="6" rsrq="-13"/>
      </extensions>
    </trkpt>
    <trkpt lat="45.5859418" lon="10.5171369">
      <ele>205.3000030517578</ele>
      <time>2026-04-19T14:05:48.993+02:00</time>
      <extensions>
        <activity type="ON_FOOT" conf="92" state="moving" tsMs="1776600347842"/>
        <radio op="vodafone IT" rat="LTE" q="41.80" rsrp="-103" sinr="14" rsrq="-8"/>
        <radio op="I TIM" rat="LTE" q="56.70" rsrp="-98" sinr="16" rsrq="-13"/>
      </extensions>
    </trkpt>
    <trkpt lat="45.585941" lon="10.5171497">
      <ele>205.3000030517578</ele>
      <time>2026-04-19T14:07:15.983+02:00</time>
      <extensions>
        <activity type="STILL" conf="60" state="still" tsMs="1776600430134"/>
        <radio op="vodafone IT" rat="LTE" q="43.20" rsrp="-98" sinr="11" rsrq="-8"/>
        <radio op="I TIM" rat="LTE" q="50.00" rsrp="-100" sinr="15" rsrq="-10"/>
      </extensions>
    </trkpt>
    <trkpt lat="45.5859397" lon="10.5171474">
      <ele>205.3000030517578</ele>
      <time>2026-04-19T14:07:47.165+02:00</time>
      <extensions>
        <activity type="UNKNOWN" conf="40" state="unknown" tsMs="1776600467029"/>
        <radio op="vodafone IT" rat="LTE" q="49.60" rsrp="-94" sinr="11" rsrq="-8"/>
        <radio op="I TIM" rat="LTE" q="37.80" rsrp="-98" sinr="9" rsrq="-11"/>
      </extensions>
    </trkpt>
    <trkpt lat="45.5859901" lon="10.5171225">
      <ele>205.3000030517578</ele>
      <time>2026-04-19T14:08:28.971+02:00</time>
      <extensions>
        <activity type="ON_FOOT" conf="86" state="moving" tsMs="1776600503687"/>
        <radio op="vodafone IT" rat="LTE" q="49.40" rsrp="-99" sinr="14" rsrq="-8"/>
        <radio op="I TIM" rat="LTE" q="39.00" rsrp="-95" sinr="8" rsrq="-9"/>
      </extensions>
    </trkpt>
    <trkpt lat="45.5859761" lon="10.5170803">
      <ele>202.90718593792172</ele>
      <time>2026-04-19T14:09:12.971+02:00</time>
      <extensions>
        <activity type="UNKNOWN" conf="40" state="unknown" tsMs="1776600547848"/>
        <radio op="vodafone IT" rat="LTE" q="54.60" rsrp="-99" sinr="16" rsrq="-9"/>
        <radio op="I TIM" rat="LTE" q="33.60" rsrp="-97" sinr="7" rsrq="-11"/>
      </extensions>
    </trkpt>
    <trkpt lat="45.5860779" lon="10.517077">
      <ele>205.3000030517578</ele>
      <time>2026-04-19T14:09:51.045+02:00</time>
      <extensions>
        <activity type="UNKNOWN" conf="40" state="unknown" tsMs="1776600587948"/>
        <radio op="vodafone IT" rat="LTE" q="58.90" rsrp="-94" sinr="14" rsrq="-10"/>
        <radio op="I TIM" rat="LTE" q="59.20" rsrp="-88" sinr="11" rsrq="-14"/>
      </extensions>
    </trkpt>
    <trkpt lat="45.5861538" lon="10.5171615">
      <ele>207.2980942792282</ele>
      <time>2026-04-19T14:10:28.888+02:00</time>
      <extensions>
        <activity type="ON_FOOT" conf="84" state="moving" tsMs="1776600623260"/>
        <radio op="vodafone IT" rat="LTE" q="35.70" rsrp="-104" sinr="12" rsrq="-8"/>
        <radio op="I TIM" rat="LTE" q="26.40" rsrp="-101" sinr="6" rsrq="-14"/>
      </extensions>
    </trkpt>
    <trkpt lat="45.5860829" lon="10.5171389">
      <ele>205.20001220703125</ele>
      <time>2026-04-19T14:11:02.993+02:00</time>
      <extensions>
        <activity type="UNKNOWN" conf="40" state="unknown" tsMs="1776600662191"/>
        <radio op="vodafone IT" rat="LTE" q="21.00" rsrp="-110" sinr="9" rsrq="-8"/>
        <radio op="I TIM" rat="LTE" q="41.40" rsrp="-102" sinr="13" rsrq="-13"/>
      </extensions>
    </trkpt>
    <trkpt lat="45.586148" lon="10.5171454">
      <ele>205.20001220703125</ele>
      <time>2026-04-19T14:11:50.183+02:00</time>
      <extensions>
        <activity type="UNKNOWN" conf="40" state="unknown" tsMs="1776600710079"/>
        <radio op="vodafone IT" rat="LTE" q="36.00" rsrp="-95" sinr="7" rsrq="-10"/>
        <radio op="I TIM" rat="LTE" q="39.20" rsrp="-97" sinr="9" rsrq="-10"/>
      </extensions>
    </trkpt>
    <trkpt lat="45.5862084" lon="10.5170323">
      <ele>205.3000030517578</ele>
      <time>2026-04-19T14:12:29.413+02:00</time>
      <extensions>
        <activity type="ON_FOOT" conf="85" state="moving" tsMs="1776600741199"/>
        <radio op="vodafone IT" rat="LTE" q="46.50" rsrp="-94" sinr="10" rsrq="-10"/>
        <radio op="I TIM" rat="LTE" q="45.00" rsrp="-95" sinr="10" rsrq="-11"/>
      </extensions>
    </trkpt>
    <trkpt lat="45.5860067" lon="10.517102">
      <ele>205.3000030517578</ele>
      <time>2026-04-19T14:13:02.74+02:00</time>
      <extensions>
        <activity type="ON_FOOT" conf="87" state="moving" tsMs="1776600781877"/>
        <radio op="vodafone IT" rat="LTE" q="37.80" rsrp="-104" sinr="13" rsrq="-8"/>
        <radio op="I TIM" rat="LTE" q="42.50" rsrp="-100" sinr="12" rsrq="-12"/>
      </extensions>
    </trkpt>
    <trkpt lat="45.585939" lon="10.5171348">
      <ele>205.3000030517578</ele>
      <time>2026-04-19T14:13:34.557+02:00</time>
      <extensions>
        <activity type="ON_FOOT" conf="91" state="moving" tsMs="1776600814034"/>
        <radio op="vodafone IT" rat="LTE" q="57.80" rsrp="-91" sinr="12" rsrq="-8"/>
        <radio op="I TIM" rat="LTE" q="62.70" rsrp="-92" sinr="14" rsrq="-10"/>
      </extensions>
    </trkpt>
    <trkpt lat="45.5859506" lon="10.5171889">
      <ele>205.3000030517578</ele>
      <time>2026-04-19T14:14:21.142+02:00</time>
      <extensions>
        <activity type="UNKNOWN" conf="40" state="unknown" tsMs="1776600858021"/>
        <radio op="vodafone IT" rat="LTE" q="40.30" rsrp="-94" sinr="8" rsrq="-7"/>
        <radio op="I TIM" rat="LTE" q="32.00" rsrp="-93" sinr="5" rsrq="-13"/>
      </extensions>
    </trkpt>
    <trkpt lat="45.585947" lon="10.5171467">
      <ele>205.3000030517578</ele>
      <time>2026-04-19T14:14:52.297+02:00</time>
      <extensions>
        <activity type="UNKNOWN" conf="40" state="unknown" tsMs="1776600892081"/>
        <radio op="vodafone IT" rat="LTE" q="36.00" rsrp="-101" sinr="10" rsrq="-11"/>
        <radio op="I TIM" rat="LTE" q="14.00" rsrp="-97" sinr="0" rsrq="-11"/>
      </extensions>
    </trkpt>
    <trkpt lat="45.5859383" lon="10.5171618">
      <ele>207.72514307683295</ele>
      <time>2026-04-19T14:15:23.603+02:00</time>
      <extensions>
        <activity type="UNKNOWN" conf="40" state="unknown" tsMs="1776600923298"/>
        <radio op="vodafone IT" rat="LTE" q="14.70" rsrp="-104" sinr="2" rsrq="-14"/>
        <radio op="I TIM" rat="LTE" rsrp="-98" rsrq="-10"/>
      </extensions>
    </trkpt>
    <trkpt lat="45.5857684" lon="10.5176428">
      <ele>204.20001220703125</ele>
      <time>2026-04-19T14:16:17.347+02:00</time>
      <extensions>
        <activity type="ON_FOOT" conf="96" state="moving" tsMs="1776600975853"/>
        <radio op="vodafone IT" rat="LTE" q="79.20" rsrp="-89" sinr="17" rsrq="-8"/>
        <radio op="I TIM" rat="LTE" q="35.10" rsrp="-86" sinr="4" rsrq="-9"/>
      </extensions>
    </trkpt>
    <trkpt lat="45.5854063" lon="10.5176027">
      <ele>203.90000915527344</ele>
      <time>2026-04-19T14:17:07.914+02:00</time>
      <extensions>
        <activity type="UNKNOWN" conf="40" state="unknown" tsMs="1776601024510"/>
        <radio op="vodafone IT" rat="LTE" q="84.00" rsrp="-84" sinr="16" rsrq="-5"/>
        <radio op="I TIM" rat="LTE" q="68.00" rsrp="-79" sinr="12" rsrq="-10"/>
      </extensions>
    </trkpt>
    <trkpt lat="45.5853985" lon="10.5175982">
      <ele>203.90000915527344</ele>
      <time>2026-04-19T14:17:08.913+02:00</time>
      <extensions>
        <activity type="UNKNOWN" conf="40" state="unknown" tsMs="1776601024510"/>
        <radio op="vodafone IT" rat="LTE" q="89.70" rsrp="-86" sinr="18" rsrq="-7"/>
        <radio op="I TIM" rat="LTE" q="80.00" rsrp="-82" sinr="15" rsrq="-8"/>
      </extensions>
    </trkpt>
    <trkpt lat="45.5854473" lon="10.5175604">
      <ele>203.90000915527344</ele>
      <time>2026-04-19T14:17:50.539+02:00</time>
      <extensions>
        <activity type="IN_VEHICLE" conf="97" state="moving" tsMs="1776601066625"/>
        <radio op="vodafone IT" rat="LTE" q="80.00" rsrp="-85" sinr="15" rsrq="-6"/>
        <radio op="I TIM" rat="LTE" q="68.00" rsrp="-79" sinr="12" rsrq="-5"/>
      </extensions>
    </trkpt>
    <trkpt lat="45.5866877" lon="10.5170337">
      <ele>208.5971512535009</ele>
      <time>2026-04-19T14:18:21.184+02:00</time>
      <extensions>
        <activity type="IN_VEHICLE" conf="97" state="moving" tsMs="1776601096998"/>
        <radio op="vodafone IT" rat="LTE" q="30.00" rsrp="-100" sinr="7" rsrq="-10"/>
        <radio op="I TIM" rat="LTE" q="51.20" rsrp="-93" sinr="11" rsrq="-11"/>
      </extensions>
    </trkpt>
    <trkpt lat="45.5888657" lon="10.514967">
      <ele>208.13795628857292</ele>
      <time>2026-04-19T14:18:58.914+02:00</time>
      <extensions>
        <activity type="IN_VEHICLE" conf="97" state="moving" tsMs="1776601143301"/>
        <radio op="vodafone IT" rat="LTE" q="96.00" rsrp="-65" sinr="19" rsrq="-8"/>
        <radio op="I TIM" rat="LTE" q="92.00" rsrp="-76" sinr="18" rsrq="-9"/>
      </extensions>
    </trkpt>
    <trkpt lat="45.5915058" lon="10.509082">
      <ele>213.36298056216935</ele>
      <time>2026-04-19T14:19:35.66+02:00</time>
      <extensions>
        <activity type="IN_VEHICLE" conf="97" state="moving" tsMs="1776601170188"/>
        <radio op="vodafone IT" rat="LTE" q="100.00" rsrp="-50" sinr="29" rsrq="-6"/>
        <radio op="I TIM" rat="LTE" q="56.00" rsrp="-72" sinr="9" rsrq="-9"/>
      </extensions>
    </trkpt>
    <trkpt lat="45.5915991" lon="10.5083146">
      <ele>213.36298056216935</ele>
      <time>2026-04-19T14:19:41.914+02:00</time>
      <extensions>
        <activity type="IN_VEHICLE" conf="97" state="moving" tsMs="1776601175527"/>
        <radio op="vodafone IT" rat="LTE" q="72.50" rsrp="-96" sinr="23" rsrq="-7"/>
        <radio op="I TIM" rat="LTE" q="66.30" rsrp="-86" sinr="12" rsrq="-10"/>
      </extensions>
    </trkpt>
    <trkpt lat="45.5955025" lon="10.5040804">
      <ele>223.4455558859023</ele>
      <time>2026-04-19T14:20:21.914+02:00</time>
      <extensions>
        <activity type="IN_VEHICLE" conf="93" state="moving" tsMs="1776601214318"/>
        <radio op="vodafone IT" rat="LTE" rsrp="-87" rsrq="-14"/>
        <radio op="I TIM" rat="LTE" rsrp="-100" rsrq="-12"/>
      </extensions>
    </trkpt>
    <trkpt lat="45.6014528" lon="10.5024204">
      <ele>234.88408908805755</ele>
      <time>2026-04-19T14:21:01.794+02:00</time>
      <extensions>
        <activity type="IN_VEHICLE" conf="97" state="moving" tsMs="1776601259014"/>
        <radio op="vodafone IT" rat="LTE" q="72.00" rsrp="-80" sinr="13" rsrq="-10"/>
        <radio op="I TIM" rat="LTE" q="8.40" rsrp="-111" sinr="1" rsrq="-15"/>
      </extensions>
    </trkpt>
    <trkpt lat="45.6057933" lon="10.498546">
      <ele>240.9593630750106</ele>
      <time>2026-04-19T14:21:35.913+02:00</time>
      <extensions>
        <activity type="IN_VEHICLE" conf="97" state="moving" tsMs="1776601303232"/>
        <radio op="vodafone IT" rat="LTE" q="21.70" rsrp="-94" sinr="2" rsrq="-17"/>
        <radio op="I TIM" rat="LTE" rsrp="-109" rsrq="-17"/>
      </extensions>
    </trkpt>
    <trkpt lat="45.6055822" lon="10.4883484">
      <ele>258.1726751019494</ele>
      <time>2026-04-19T14:22:18.913+02:00</time>
      <extensions>
        <activity type="IN_VEHICLE" conf="96" state="moving" tsMs="1776601335378"/>
        <radio op="vodafone IT" rat="LTE" q="48.00" rsrp="-101" sinr="15" rsrq="-8"/>
        <radio op="I TIM" rat="LTE" rsrp="-110" rsrq="-19"/>
      </extensions>
    </trkpt>
    <trkpt lat="45.6056263" lon="10.4668998">
      <ele>273.35497022214315</ele>
      <time>2026-04-19T14:23:54.914+02:00</time>
      <extensions>
        <activity type="IN_VEHICLE" conf="97" state="moving" tsMs="1776601454258"/>
        <radio op="vodafone IT" rat="LTE" q="92.00" rsrp="-77" sinr="18" rsrq="-10"/>
        <radio op="I TIM" rat="LTE" q="97.50" rsrp="-86" sinr="23" rsrq="-9"/>
      </extensions>
    </trkpt>
    <trkpt lat="45.604568" lon="10.4646683">
      <ele>268.6000061035156</ele>
      <time>2026-04-19T14:24:34.714+02:00</time>
      <extensions>
        <activity type="IN_VEHICLE" conf="97" state="moving" tsMs="1776601470356"/>
        <radio op="vodafone IT" rat="LTE" rsrp="-58" rsrq="-6"/>
        <radio op="I TIM" rat="LTE" q="84.00" rsrp="-70" sinr="16" rsrq="-7"/>
      </extensions>
    </trkpt>
    <trkpt lat="45.6050015" lon="10.4638307">
      <ele>268.6000061035156</ele>
      <time>2026-04-19T14:24:40.914+02:00</time>
      <extensions>
        <activity type="IN_VEHICLE" conf="97" state="moving" tsMs="1776601485411"/>
        <radio op="vodafone IT" rat="LTE" q="60.00" rsrp="-67" sinr="10" rsrq="-6"/>
        <radio op="I TIM" rat="LTE" q="80.00" rsrp="-75" sinr="15" rsrq="-7"/>
      </extensions>
    </trkpt>
    <trkpt lat="45.6042609" lon="10.4613535">
      <ele>268.6000061035156</ele>
      <time>2026-04-19T14:24:54.909+02:00</time>
      <extensions>
        <activity type="IN_VEHICLE" conf="96" state="moving" tsMs="1776601495476"/>
        <radio op="vodafone IT" rat="LTE" q="100.00" rsrp="-65" sinr="21" rsrq="-7"/>
        <radio op="I TIM" rat="LTE" rsrp="-85" rsrq="-20"/>
      </extensions>
    </trkpt>
    <trkpt lat="45.602958" lon="10.4570578">
      <ele>264.9031221561095</ele>
      <time>2026-04-19T14:25:26.522+02:00</time>
      <extensions>
        <activity type="IN_VEHICLE" conf="97" state="moving" tsMs="1776601522280"/>
        <radio op="vodafone IT" rat="LTE" q="100.00" rsrp="-83" sinr="25" rsrq="-7"/>
        <radio op="I TIM" rat="LTE" q="80.00" rsrp="-83" sinr="15" rsrq="-12"/>
      </extensions>
    </trkpt>
    <trkpt lat="45.6027317" lon="10.4560018">
      <ele>264.8141495721828</ele>
      <time>2026-04-19T14:25:32.913+02:00</time>
      <extensions>
        <activity type="IN_VEHICLE" conf="97" state="moving" tsMs="1776601537179"/>
        <radio op="vodafone IT" rat="LTE" q="20.80" rsrp="-99" sinr="3" rsrq="-12"/>
        <radio op="I TIM" rat="LTE" q="15.60" rsrp="-99" sinr="1" rsrq="-13"/>
      </extensions>
    </trkpt>
    <trkpt lat="45.6019527" lon="10.4545043">
      <ele>262.9000244140625</ele>
      <time>2026-04-19T14:25:45.913+02:00</time>
      <extensions>
        <activity type="IN_VEHICLE" conf="97" state="moving" tsMs="1776601542506"/>
        <radio op="vodafone IT" rat="LTE" q="36.00" rsrp="-95" sinr="7" rsrq="-12"/>
        <radio op="I TIM" rat="LTE" q="15.60" rsrp="-99" sinr="1" rsrq="-13"/>
      </extensions>
    </trkpt>
    <trkpt lat="45.6021803" lon="10.4535215">
      <ele>261.70001220703125</ele>
      <time>2026-04-19T14:26:18.278+02:00</time>
      <extensions>
        <activity type="IN_VEHICLE" conf="97" state="moving" tsMs="1776601574612"/>
        <radio op="vodafone IT" rat="LTE" q="25.00" rsrp="-100" sinr="5" rsrq="-6"/>
        <radio op="I TIM" rat="LTE" q="62.00" rsrp="-94" sinr="15" rsrq="-11"/>
      </extensions>
    </trkpt>
    <trkpt lat="45.6020965" lon="10.4536488">
      <ele>261.70001220703125</ele>
      <time>2026-04-19T14:26:24.913+02:00</time>
      <extensions>
        <activity type="IN_VEHICLE" conf="97" state="moving" tsMs="1776601589055"/>
        <radio op="vodafone IT" rat="LTE" q="57.50" rsrp="-100" sinr="18" rsrq="-11"/>
        <radio op="I TIM" rat="LTE" q="58.90" rsrp="-94" sinr="14" rsrq="-12"/>
      </extensions>
    </trkpt>
    <trkpt lat="45.6022056" lon="10.45345">
      <ele>261.70001220703125</ele>
      <time>2026-04-19T14:27:00.005+02:00</time>
      <extensions>
        <activity type="STILL" conf="99" state="still" tsMs="1776601615738"/>
        <radio op="vodafone IT" rat="LTE" q="50.00" rsrp="-100" sinr="15" rsrq="-10"/>
        <radio op="I TIM" rat="LTE" q="27.00" rsrp="-95" sinr="4" rsrq="-12"/>
      </extensions>
    </trkpt>
    <trkpt lat="45.6022694" lon="10.453401">
      <ele>261.8000183105469</ele>
      <time>2026-04-19T14:27:28.227+02:00</time>
      <extensions>
        <activity type="STILL" conf="49" state="still" tsMs="1776601650424"/>
        <radio op="vodafone IT" rat="LTE" q="33.60" rsrp="-101" sinr="9" rsrq="-11"/>
        <radio op="I TIM" rat="LTE" q="43.50" rsrp="-96" sinr="10" rsrq="-12"/>
      </extensions>
    </trkpt>
    <trkpt lat="45.6022574" lon="10.4534245">
      <ele>261.8000183105469</ele>
      <time>2026-04-19T14:28:02.011+02:00</time>
      <extensions>
        <activity type="UNKNOWN" conf="40" state="unknown" tsMs="1776601676987"/>
        <radio op="vodafone IT" rat="LTE" q="30.00" rsrp="-105" sinr="10" rsrq="-12"/>
        <radio op="I TIM" rat="LTE" q="13.80" rsrp="-102" sinr="1" rsrq="-11"/>
      </extensions>
    </trkpt>
    <trkpt lat="45.6025633" lon="10.4536312">
      <ele>262.0</ele>
      <time>2026-04-19T14:28:33.272+02:00</time>
      <extensions>
        <activity type="ON_FOOT" conf="94" state="moving" tsMs="1776601708809"/>
        <radio op="vodafone IT" rat="LTE" q="20.40" rsrp="-108" sinr="7" rsrq="-10"/>
        <radio op="I TIM" rat="LTE" q="52.20" rsrp="-96" sinr="13" rsrq="-10"/>
      </extensions>
    </trkpt>
    <trkpt lat="45.6025557" lon="10.4536494">
      <ele>262.0</ele>
      <time>2026-04-19T14:29:04.533+02:00</time>
      <extensions>
        <activity type="ON_FOOT" conf="84" state="moving" tsMs="1776601740712"/>
        <radio op="vodafone IT" rat="LTE" q="2.00" rsrp="-121" sinr="0" rsrq="-14"/>
        <radio op="I TIM" rat="LTE" rsrp="-121" rsrq="-13"/>
      </extensions>
    </trkpt>
    <trkpt lat="45.6025681" lon="10.4536464">
      <ele>262.0</ele>
      <time>2026-04-19T14:29:36.193+02:00</time>
      <extensions>
        <activity type="STILL" conf="98" state="still" tsMs="1776601772423"/>
        <radio op="vodafone IT" rat="LTE" q="14.40" rsrp="-107" sinr="3" rsrq="-14"/>
        <radio op="I TIM" rat="LTE" q="20.80" rsrp="-112" sinr="11" rsrq="-9"/>
      </extensions>
    </trkpt>
    <trkpt lat="45.6025677" lon="10.4536482">
      <ele>262.0</ele>
      <time>2026-04-19T14:29:45.61+02:00</time>
      <extensions>
        <activity type="STILL" conf="99" state="still" tsMs="1776601796221"/>
        <radio op="vodafone IT" rat="LTE" q="9.50" rsrp="-106" sinr="0" rsrq="-14"/>
        <radio op="I TIM" rat="LTE" q="20.80" rsrp="-112" sinr="11" rsrq="-7"/>
      </extensions>
    </trkpt>
    <trkpt lat="45.6025683" lon="10.4536481">
      <ele>262.0</ele>
      <time>2026-04-19T14:30:18.019+02:00</time>
      <extensions>
        <activity type="STILL" conf="99" state="still" tsMs="1776601817674"/>
        <radio op="vodafone IT" rat="LTE" q="12.80" rsrp="-109" sinr="3" rsrq="-13"/>
        <radio op="I TIM" rat="LTE" q="11.20" rsrp="-117" sinr="9" rsrq="-11"/>
      </extensions>
    </trkpt>
    <trkpt lat="45.6025689" lon="10.4536482">
      <ele>262.0</ele>
      <time>2026-04-19T14:30:49.713+02:00</time>
      <extensions>
        <activity type="STILL" conf="99" state="still" tsMs="1776601845745"/>
        <radio op="vodafone IT" rat="LTE" q="11.00" rsrp="-103" sinr="0" rsrq="-13"/>
        <radio op="I TIM" rat="LTE" rsrp="-106" rsrq="-14"/>
      </extensions>
    </trkpt>
    <trkpt lat="45.6025696" lon="10.4536451">
      <ele>262.0</ele>
      <time>2026-04-19T14:31:21.355+02:00</time>
      <extensions>
        <activity type="STILL" conf="99" state="still" tsMs="1776601877451"/>
        <radio op="vodafone IT" rat="LTE" rsrp="-109" rsrq="-14"/>
        <radio op="I TIM" rat="LTE" q="19.80" rsrp="-114" sinr="13" rsrq="-13"/>
      </extensions>
    </trkpt>
    <trkpt lat="45.6025673" lon="10.4536465">
      <ele>262.0</ele>
      <time>2026-04-19T14:31:53.148+02:00</time>
      <extensions>
        <activity type="STILL" conf="99" state="still" tsMs="1776601909205"/>
        <radio op="vodafone IT" rat="LTE" rsrp="-110" rsrq="-14"/>
        <radio op="I TIM" rat="LTE" q="22.10" rsrp="-112" sinr="12" rsrq="-12"/>
      </extensions>
    </trkpt>
  </trkseg></trk>
</gpx>
