<?xml version="1.0" encoding="UTF-8"?>
<gpx version="1.1" creator="CellGPX" xmlns="http://www.topografix.com/GPX/1/1">
  <trk><name>CellGPX</name><trkseg>
    <trkpt lat="45.6033326" lon="10.4547021">
      <ele>261.0</ele>
      <time>2026-10-08T10:02:27.527+02:00</time>
      <extensions>
        <activity type="IN_VEHICLE" conf="87" state="moving" tsMs="1791446550701"/>
        <radio op="vodafone IT" rat="LTE" q="43.20" rsrp="-98" sinr="11" rsrq="-8"/>
        <radio op="I TIM" rat="LTE" q="65.00" rsrp="-99" sinr="20" rsrq="-11"/>
      </extensions>
    </trkpt>
    <trkpt lat="45.6017012" lon="10.4535792">
      <ele>260.4000244140625</ele>
      <time>2026-10-08T10:03:00.351+02:00</time>
      <extensions>
        <activity type="IN_VEHICLE" conf="95" state="moving" tsMs="1791446563757"/>
        <radio op="vodafone IT" rat="LTE" q="20.00" rsrp="-100" sinr="3" rsrq="-13"/>
        <radio op="I TIM" rat="LTE" q="17.50" rsrp="-100" sinr="2" rsrq="-10"/>
      </extensions>
    </trkpt>
    <trkpt lat="45.6027134" lon="10.4565159">
      <ele>262.1000061035156</ele>
      <time>2026-10-08T10:03:31.659+02:00</time>
      <extensions>
        <activity type="UNKNOWN" conf="40" state="unknown" tsMs="1791446602695"/>
        <radio op="vodafone IT" rat="LTE" q="17.50" rsrp="-100" sinr="2" rsrq="-7"/>
        <radio op="I TIM" rat="LTE" q="66.00" rsrp="-95" sinr="17" rsrq="-12"/>
      </extensions>
    </trkpt>
    <trkpt lat="45.6039637" lon="10.4600975">
      <ele>263.6000061035156</ele>
      <time>2026-10-08T10:04:02.983+02:00</time>
      <extensions>
        <activity type="UNKNOWN" conf="40" state="unknown" tsMs="1791446627920"/>
        <radio op="vodafone IT" rat="LTE" q="100.00" rsrp="-72" sinr="27" rsrq="-6"/>
        <radio op="I TIM" rat="LTE" q="68.00" rsrp="-78" sinr="12" rsrq="-9"/>
      </extensions>
    </trkpt>
    <trkpt lat="45.6047202" lon="10.4646965">
      <ele>266.70001220703125</ele>
      <time>2026-10-08T10:04:39.213+02:00</time>
      <extensions>
        <activity type="IN_VEHICLE" conf="90" state="moving" tsMs="1791446667044"/>
        <radio op="vodafone IT" rat="LTE" q="92.50" rsrp="-88" sinr="30" rsrq="-6"/>
        <radio op="I TIM" rat="LTE" q="100.00" rsrp="-81" sinr="28" rsrq="-10"/>
      </extensions>
    </trkpt>
    <trkpt lat="45.6072275" lon="10.4706903">
      <ele>270.7076281350795</ele>
      <time>2026-10-08T10:05:17.416+02:00</time>
      <extensions>
        <activity type="UNKNOWN" conf="40" state="unknown" tsMs="1791446705832"/>
        <radio op="vodafone IT" rat="LTE" q="55.00" rsrp="-103" sinr="20" rsrq="-9"/>
        <radio op="I TIM" rat="LTE" q="57.00" rsrp="-87" sinr="10" rsrq="-9"/>
      </extensions>
    </trkpt>
    <trkpt lat="45.6104818" lon="10.4789877">
      <ele>272.36216493515553</ele>
      <time>2026-10-08T10:06:00.415+02:00</time>
      <extensions>
        <activity type="IN_VEHICLE" conf="86" state="moving" tsMs="1791446744787"/>
        <radio op="vodafone IT" rat="LTE" q="36.80" rsrp="-109" sinr="18" rsrq="-11"/>
        <radio op="I TIM" rat="LTE" q="39.60" rsrp="-103" sinr="13" rsrq="-13"/>
      </extensions>
    </trkpt>
    <trkpt lat="45.614665" lon="10.4827076">
      <ele>274.0959322409975</ele>
      <time>2026-10-08T10:06:42.416+02:00</time>
      <extensions>
        <activity type="IN_VEHICLE" conf="94" state="moving" tsMs="1791446794162"/>
        <radio op="vodafone IT" rat="LTE" q="23.40" rsrp="-107" sinr="8" rsrq="-10"/>
        <radio op="I TIM" rat="LTE" rsrp="-123" rsrq="-17"/>
      </extensions>
    </trkpt>
    <trkpt lat="45.6202113" lon="10.4854038">
      <ele>276.73884044229567</ele>
      <time>2026-10-08T10:07:25.415+02:00</time>
      <extensions>
        <activity type="IN_VEHICLE" conf="91" state="moving" tsMs="1791446833150"/>
        <radio op="vodafone IT" rat="LTE" q="10.50" rsrp="-110" sinr="2" rsrq="-12"/>
        <radio op="I TIM" rat="LTE" q="4.20" rsrp="-118" sinr="1" rsrq="-15"/>
      </extensions>
    </trkpt>
    <trkpt lat="45.6236651" lon="10.4931973">
      <ele>277.7650793947322</ele>
      <time>2026-10-08T10:08:08.416+02:00</time>
      <extensions>
        <activity type="UNKNOWN" conf="40" state="unknown" tsMs="1791446880795"/>
        <radio op="vodafone IT" rat="LTE" q="8.00" rsrp="-115" sinr="3" rsrq="-13"/>
        <radio op="I TIM" rat="LTE" rsrp="-121" rsrq="-12"/>
      </extensions>
    </trkpt>
    <trkpt lat="45.6237485" lon="10.4932759">
      <ele>275.9857741701304</ele>
      <time>2026-10-08T10:08:40.761+02:00</time>
      <extensions>
        <activity type="TILTING" conf="100" state="moving" tsMs="1791446917752"/>
        <radio op="vodafone IT" rat="LTE" q="19.80" rsrp="-107" sinr="6" rsrq="-9"/>
        <radio op="I TIM" rat="LTE" q="14.40" rsrp="-113" sinr="7" rsrq="-10"/>
      </extensions>
    </trkpt>
    <trkpt lat="45.6236628" lon="10.493198">
      <ele>275.9260436907406</ele>
      <time>2026-10-08T10:08:46.416+02:00</time>
      <extensions>
        <activity type="UNKNOWN" conf="40" state="unknown" tsMs="1791446919825"/>
        <radio op="vodafone IT" rat="LTE" q="27.00" rsrp="-107" sinr="10" rsrq="-10"/>
        <radio op="I TIM" rat="LTE" q="24.00" rsrp="-110" sinr="11" rsrq="-9"/>
      </extensions>
    </trkpt>
    <trkpt lat="45.6236596" lon="10.4928921">
      <ele>275.4695458709493</ele>
      <time>2026-10-08T10:09:01.465+02:00</time>
      <extensions>
        <activity type="ON_FOOT" conf="96" state="moving" tsMs="1791446930437"/>
        <radio op="vodafone IT" rat="LTE" q="16.00" rsrp="-109" sinr="5" rsrq="-11"/>
        <radio op="I TIM" rat="LTE" q="20.80" rsrp="-112" sinr="11" rsrq="-8"/>
      </extensions>
    </trkpt>
    <trkpt lat="45.6236648" lon="10.492814">
      <ele>276.48416538162627</ele>
      <time>2026-10-08T10:09:11.442+02:00</time>
      <extensions>
        <activity type="UNKNOWN" conf="40" state="unknown" tsMs="1791446940963"/>
        <radio op="vodafone IT" rat="LTE" rsrp="-119" rsrq="-14"/>
        <radio op="I TIM" rat="LTE" q="4.80" rsrp="-119" sinr="3" rsrq="-11"/>
      </extensions>
    </trkpt>
    <trkpt lat="45.6236596" lon="10.4928134">
      <ele>277.1451860822134</ele>
      <time>2026-10-08T10:09:21.529+02:00</time>
      <extensions>
        <activity type="ON_FOOT" conf="86" state="moving" tsMs="1791446952973"/>
        <radio op="vodafone IT" rat="LTE" rsrp="-123" rsrq="-16"/>
        <radio op="I TIM" rat="LTE" rsrp="-127" rsrq="-13"/>
      </extensions>
    </trkpt>
    <trkpt lat="45.6236712" lon="10.4927964">
      <ele>277.7445546654302</ele>
      <time>2026-10-08T10:09:31.887+02:00</time>
      <extensions>
        <activity type="UNKNOWN" conf="40" state="unknown" tsMs="1791446964774"/>
        <radio op="vodafone IT" rat="LTE" rsrp="-122" rsrq="-12"/>
        <radio op="I TIM" rat="LTE" rsrp="-128" rsrq="-13"/>
      </extensions>
    </trkpt>
    <trkpt lat="45.6237917" lon="10.4927393">
      <ele>277.26672884596553</ele>
      <time>2026-10-08T10:09:40.884+02:00</time>
      <extensions>
        <activity type="ON_FOOT" conf="91" state="moving" tsMs="1791446974808"/>
        <radio op="vodafone IT" rat="LTE" q="5.40" rsrp="-119" sinr="4" rsrq="-10"/>
        <radio op="I TIM" rat="LTE" q="5.00" rsrp="-120" sinr="5" rsrq="-12"/>
      </extensions>
    </trkpt>
    <trkpt lat="45.6238213" lon="10.492651">
      <ele>281.7260464777347</ele>
      <time>2026-10-08T10:09:51.707+02:00</time>
      <extensions>
        <activity type="ON_FOOT" conf="91" state="moving" tsMs="1791446974808"/>
        <radio op="vodafone IT" rat="LTE" q="6.00" rsrp="-115" sinr="1" rsrq="-10"/>
        <radio op="I TIM" rat="LTE" q="7.00" rsrp="-118" sinr="5" rsrq="-10"/>
      </extensions>
    </trkpt>
    <trkpt lat="45.6237294" lon="10.4927509">
      <ele>301.8000183105469</ele>
      <time>2026-10-08T10:10:01.888+02:00</time>
      <extensions>
        <activity type="UNKNOWN" conf="40" state="unknown" tsMs="1791446987364"/>
        <radio op="vodafone IT" rat="LTE" q="6.00" rsrp="-120" sinr="7" rsrq="-11"/>
        <radio op="I TIM" rat="LTE" q="7.20" rsrp="-117" sinr="4" rsrq="-11"/>
      </extensions>
    </trkpt>
    <trkpt lat="45.6238172" lon="10.492707">
      <ele>301.8000183105469</ele>
      <time>2026-10-08T10:10:11.351+02:00</time>
      <extensions>
        <activity type="ON_FOOT" conf="96" state="moving" tsMs="1791446999944"/>
        <radio op="vodafone IT" rat="LTE" q="8.40" rsrp="-118" sinr="7" rsrq="-13"/>
        <radio op="I TIM" rat="LTE" q="19.60" rsrp="-111" sinr="9" rsrq="-9"/>
      </extensions>
    </trkpt>
    <trkpt lat="45.6238606" lon="10.4925033">
      <ele>305.28454192366326</ele>
      <time>2026-10-08T10:10:22.405+02:00</time>
      <extensions>
        <activity type="UNKNOWN" conf="40" state="unknown" tsMs="1791447007472"/>
        <radio op="vodafone IT" rat="LTE" q="6.00" rsrp="-119" sinr="5" rsrq="-13"/>
        <radio op="I TIM" rat="LTE" q="23.40" rsrp="-112" sinr="13" rsrq="-9"/>
      </extensions>
    </trkpt>
    <trkpt lat="45.623825" lon="10.4926456">
      <ele>301.8000183105469</ele>
      <time>2026-10-08T10:10:32.512+02:00</time>
      <extensions>
        <activity type="ON_FOOT" conf="89" state="moving" tsMs="1791447019265"/>
        <radio op="vodafone IT" rat="LTE" rsrp="-120" rsrq="-14"/>
        <radio op="I TIM" rat="LTE" q="15.40" rsrp="-111" sinr="6" rsrq="-8"/>
      </extensions>
    </trkpt>
    <trkpt lat="45.6237883" lon="10.4927461">
      <ele>301.8000183105469</ele>
      <time>2026-10-08T10:10:42.651+02:00</time>
      <extensions>
        <activity type="UNKNOWN" conf="40" state="unknown" tsMs="1791447031947"/>
        <radio op="vodafone IT" rat="LTE" q="5.00" rsrp="-115" sinr="0" rsrq="-13"/>
        <radio op="I TIM" rat="LTE" rsrp="-122" rsrq="-12"/>
      </extensions>
    </trkpt>
    <trkpt lat="45.6238495" lon="10.4926568">
      <ele>301.8000183105469</ele>
      <time>2026-10-08T10:10:52.686+02:00</time>
      <extensions>
        <activity type="ON_FOOT" conf="87" state="moving" tsMs="1791447044580"/>
        <radio op="vodafone IT" rat="LTE" q="5.40" rsrp="-119" sinr="4" rsrq="-14"/>
        <radio op="I TIM" rat="LTE" rsrp="-122" rsrq="-13"/>
      </extensions>
    </trkpt>
    <trkpt lat="45.6238313" lon="10.4926384">
      <ele>304.25327670813834</ele>
      <time>2026-10-08T10:11:00.039+02:00</time>
      <extensions>
        <activity type="ON_FOOT" conf="87" state="moving" tsMs="1791447044580"/>
        <radio op="vodafone IT" rat="LTE" q="7.70" rsrp="-118" sinr="6" rsrq="-12"/>
        <radio op="I TIM" rat="LTE" q="3.00" rsrp="-122" sinr="5" rsrq="-12"/>
      </extensions>
    </trkpt>
    <trkpt lat="45.6238323" lon="10.4926885">
      <ele>303.78238378000174</ele>
      <time>2026-10-08T10:11:13.072+02:00</time>
      <extensions>
        <activity type="UNKNOWN" conf="40" state="unknown" tsMs="1791447057195"/>
        <radio op="vodafone IT" rat="LTE" q="5.60" rsrp="-118" sinr="3" rsrq="-12"/>
        <radio op="I TIM" rat="LTE" rsrp="-125" rsrq="-13"/>
      </extensions>
    </trkpt>
    <trkpt lat="45.6238269" lon="10.4927223">
      <ele>303.76529707282</ele>
      <time>2026-10-08T10:11:23.246+02:00</time>
      <extensions>
        <activity type="UNKNOWN" conf="40" state="unknown" tsMs="1791447068023"/>
        <radio op="vodafone IT" rat="LTE" q="4.00" rsrp="-117" sinr="0" rsrq="-13"/>
        <radio op="I TIM" rat="LTE" rsrp="-121" rsrq="-12"/>
      </extensions>
    </trkpt>
    <trkpt lat="45.6238267" lon="10.492718">
      <ele>303.6884073106051</ele>
      <time>2026-10-08T10:11:27.927+02:00</time>
      <extensions>
        <activity type="UNKNOWN" conf="40" state="unknown" tsMs="1791447080650"/>
        <radio op="vodafone IT" rat="LTE" q="7.70" rsrp="-118" sinr="6" rsrq="-12"/>
        <radio op="I TIM" rat="LTE" q="2.40" rsrp="-121" sinr="1" rsrq="-11"/>
      </extensions>
    </trkpt>
    <trkpt lat="45.623824" lon="10.4927276">
      <ele>303.5901602815014</ele>
      <time>2026-10-08T10:11:41.93+02:00</time>
      <extensions>
        <activity type="UNKNOWN" conf="40" state="unknown" tsMs="1791447093294"/>
        <radio op="vodafone IT" rat="LTE" q="9.00" rsrp="-119" sinr="10" rsrq="-12"/>
        <radio op="I TIM" rat="LTE" q="3.00" rsrp="-120" sinr="1" rsrq="-12"/>
      </extensions>
    </trkpt>
    <trkpt lat="45.6238252" lon="10.4927358">
      <ele>301.8000183105469</ele>
      <time>2026-10-08T10:11:48.877+02:00</time>
      <extensions>
        <activity type="UNKNOWN" conf="40" state="unknown" tsMs="1791447105911"/>
        <radio op="vodafone IT" rat="LTE" q="4.00" rsrp="-120" sinr="3" rsrq="-12"/>
        <radio op="I TIM" rat="LTE" q="2.10" rsrp="-122" sinr="2" rsrq="-12"/>
      </extensions>
    </trkpt>
    <trkpt lat="45.6238235" lon="10.492743">
      <ele>301.8000183105469</ele>
      <time>2026-10-08T10:12:02.925+02:00</time>
      <extensions>
        <activity type="UNKNOWN" conf="40" state="unknown" tsMs="1791447116873"/>
        <radio op="vodafone IT" rat="LTE" rsrp="-122" rsrq="-13"/>
        <radio op="I TIM" rat="LTE" q="1.00" rsrp="-123" sinr="0" rsrq="-12"/>
      </extensions>
    </trkpt>
    <trkpt lat="45.6238208" lon="10.4927489">
      <ele>301.8000183105469</ele>
      <time>2026-10-08T10:12:09.936+02:00</time>
      <extensions>
        <activity type="STILL" conf="100" state="still" tsMs="1791447129444"/>
        <radio op="vodafone IT" rat="LTE" q="4.40" rsrp="-121" sinr="6" rsrq="-12"/>
        <radio op="I TIM" rat="LTE" rsrp="-124" rsrq="-12"/>
      </extensions>
    </trkpt>
    <trkpt lat="45.6238189" lon="10.4927571">
      <ele>301.8000183105469</ele>
      <time>2026-10-08T10:12:23.824+02:00</time>
      <extensions>
        <activity type="STILL" conf="100" state="still" tsMs="1791447137858"/>
        <radio op="vodafone IT" rat="LTE" q="2.80" rsrp="-121" sinr="2" rsrq="-11"/>
        <radio op="I TIM" rat="LTE" q="1.00" rsrp="-123" sinr="0" rsrq="-11"/>
      </extensions>
    </trkpt>
    <trkpt lat="45.6238177" lon="10.492761">
      <ele>301.8000183105469</ele>
      <time>2026-10-08T10:12:30.77+02:00</time>
      <extensions>
        <activity type="STILL" conf="100" state="still" tsMs="1791447144810"/>
        <radio op="vodafone IT" rat="LTE" q="4.50" rsrp="-120" sinr="4" rsrq="-13"/>
        <radio op="I TIM" rat="LTE" q="1.80" rsrp="-122" sinr="1" rsrq="-10"/>
      </extensions>
    </trkpt>
    <trkpt lat="45.6238174" lon="10.4927637">
      <ele>301.8000183105469</ele>
      <time>2026-10-08T10:12:37.941+02:00</time>
      <extensions>
        <activity type="STILL" conf="98" state="still" tsMs="1791447158858"/>
        <radio op="vodafone IT" rat="LTE" q="5.40" rsrp="-119" sinr="4" rsrq="-10"/>
        <radio op="I TIM" rat="LTE" rsrp="-125" rsrq="-12"/>
      </extensions>
    </trkpt>
    <trkpt lat="45.6238157" lon="10.4927656">
      <ele>301.8000183105469</ele>
      <time>2026-10-08T10:12:51.834+02:00</time>
      <extensions>
        <activity type="IN_VEHICLE" conf="77" state="moving" tsMs="1791447166010"/>
        <radio op="vodafone IT" rat="LTE" q="3.00" rsrp="-120" sinr="1" rsrq="-13"/>
        <radio op="I TIM" rat="LTE" q="1.00" rsrp="-123" sinr="0" rsrq="-11"/>
      </extensions>
    </trkpt>
    <trkpt lat="45.6237899" lon="10.4927806">
      <ele>301.8000183105469</ele>
      <time>2026-10-08T10:12:54.985+02:00</time>
      <extensions>
        <activity type="IN_VEHICLE" conf="77" state="moving" tsMs="1791447166010"/>
        <radio op="vodafone IT" rat="LTE" rsrp="-121" rsrq="-12"/>
        <radio op="I TIM" rat="LTE" rsrp="-125" rsrq="-12"/>
      </extensions>
    </trkpt>
    <trkpt lat="45.6238019" lon="10.4928118">
      <ele>301.8000183105469</ele>
      <time>2026-10-08T10:13:08.902+02:00</time>
      <extensions>
        <activity type="STILL" conf="100" state="still" tsMs="1791447191187"/>
        <radio op="vodafone IT" rat="LTE" rsrp="-121" rsrq="-12"/>
        <radio op="I TIM" rat="LTE" rsrp="-126" rsrq="-14"/>
      </extensions>
    </trkpt>
    <trkpt lat="45.6238225" lon="10.4927602">
      <ele>301.8000183105469</ele>
      <time>2026-10-08T10:13:15.893+02:00</time>
      <extensions>
        <activity type="STILL" conf="100" state="still" tsMs="1791447200483"/>
        <radio op="vodafone IT" rat="LTE" q="2.40" rsrp="-122" sinr="3" rsrq="-11"/>
        <radio op="I TIM" rat="LTE" rsrp="-124" rsrq="-14"/>
      </extensions>
    </trkpt>
    <trkpt lat="45.6238146" lon="10.4927724">
      <ele>301.8000183105469</ele>
      <time>2026-10-08T10:13:29.827+02:00</time>
      <extensions>
        <activity type="STILL" conf="100" state="still" tsMs="1791447207697"/>
        <radio op="vodafone IT" rat="LTE" rsrp="-123" rsrq="-14"/>
        <radio op="I TIM" rat="LTE" rsrp="-125" rsrq="-14"/>
      </extensions>
    </trkpt>
    <trkpt lat="45.623821" lon="10.4927626">
      <ele>301.8000183105469</ele>
      <time>2026-10-08T10:13:36.758+02:00</time>
      <extensions>
        <activity type="STILL" conf="100" state="still" tsMs="1791447221649"/>
        <radio op="vodafone IT" rat="LTE" rsrp="-123" rsrq="-14"/>
        <radio op="I TIM" rat="LTE" rsrp="-125" rsrq="-14"/>
      </extensions>
    </trkpt>
    <trkpt lat="45.6238025" lon="10.4928024">
      <ele>301.8000183105469</ele>
      <time>2026-10-08T10:13:50.688+02:00</time>
      <extensions>
        <activity type="STILL" conf="100" state="still" tsMs="1791447228583"/>
        <radio op="vodafone IT" rat="LTE" q="4.40" rsrp="-121" sinr="6" rsrq="-10"/>
        <radio op="I TIM" rat="LTE" rsrp="-124" rsrq="-13"/>
      </extensions>
    </trkpt>
    <trkpt lat="45.6238024" lon="10.4927682">
      <ele>301.8000183105469</ele>
      <time>2026-10-08T10:14:25.932+02:00</time>
      <extensions>
        <activity type="STILL" conf="100" state="still" tsMs="1791447254599"/>
        <radio op="vodafone IT" rat="LTE" q="2.80" rsrp="-121" sinr="2" rsrq="-11"/>
        <radio op="I TIM" rat="LTE" rsrp="-124" rsrq="-14"/>
      </extensions>
    </trkpt>
    <trkpt lat="45.6238198" lon="10.4927603">
      <ele>301.8000183105469</ele>
      <time>2026-10-08T10:14:57.486+02:00</time>
      <extensions>
        <activity type="STILL" conf="100" state="still" tsMs="1791447286664"/>
        <radio op="vodafone IT" rat="LTE" q="4.50" rsrp="-120" sinr="4" rsrq="-12"/>
        <radio op="I TIM" rat="LTE" rsrp="-127" rsrq="-14"/>
      </extensions>
    </trkpt>
    <trkpt lat="45.623817" lon="10.4927635">
      <ele>301.8000183105469</ele>
      <time>2026-10-08T10:15:45.317+02:00</time>
      <extensions>
        <activity type="STILL" conf="99" state="still" tsMs="1791447338053"/>
        <radio op="vodafone IT" rat="LTE" q="2.40" rsrp="-121" sinr="1" rsrq="-13"/>
        <radio op="I TIM" rat="LTE" rsrp="-127" rsrq="-14"/>
      </extensions>
    </trkpt>
    <trkpt lat="45.6236933" lon="10.4928491">
      <ele>299.0378633702831</ele>
      <time>2026-10-08T10:40:15.08+02:00</time>
      <extensions>
        <activity type="UNKNOWN" conf="40" state="unknown" tsMs="1791448814879"/>
        <radio op="vodafone IT" rat="LTE" q="32.00" rsrp="-109" sinr="15" rsrq="-8"/>
        <radio op="I TIM" rat="LTE" q="19.20" rsrp="-113" sinr="11" rsrq="-9"/>
      </extensions>
    </trkpt>
    <trkpt lat="45.6237618" lon="10.4928125">
      <ele>299.3688452350641</ele>
      <time>2026-10-08T10:40:53.301+02:00</time>
      <extensions>
        <activity type="STILL" conf="100" state="still" tsMs="1791448845366"/>
        <radio op="vodafone IT" rat="LTE" q="19.20" rsrp="-109" sinr="7" rsrq="-10"/>
        <radio op="I TIM" rat="LTE" q="15.00" rsrp="-115" sinr="10" rsrq="-9"/>
      </extensions>
    </trkpt>
    <trkpt lat="45.6236883" lon="10.4928451">
      <ele>299.5076288892776</ele>
      <time>2026-10-08T10:41:24.885+02:00</time>
      <extensions>
        <activity type="STILL" conf="100" state="still" tsMs="1791448877435"/>
        <radio op="vodafone IT" rat="LTE" q="28.00" rsrp="-105" sinr="9" rsrq="-11"/>
        <radio op="I TIM" rat="LTE" q="34.00" rsrp="-108" sinr="15" rsrq="-12"/>
      </extensions>
    </trkpt>
    <trkpt lat="45.6238004" lon="10.4927549">
      <ele>299.8812883214155</ele>
      <time>2026-10-08T10:42:00.782+02:00</time>
      <extensions>
        <activity type="UNKNOWN" conf="40" state="unknown" tsMs="1791448896470"/>
        <radio op="vodafone IT" rat="LTE" q="10.80" rsrp="-116" sinr="7" rsrq="-11"/>
        <radio op="I TIM" rat="LTE" q="2.10" rsrp="-122" sinr="2" rsrq="-12"/>
      </extensions>
    </trkpt>
    <trkpt lat="45.6238275" lon="10.4927461">
      <ele>301.8000183105469</ele>
      <time>2026-10-08T10:43:02.051+02:00</time>
      <extensions>
        <activity type="STILL" conf="99" state="still" tsMs="1791448977286"/>
        <radio op="vodafone IT" rat="LTE" q="8.40" rsrp="-118" sinr="7" rsrq="-13"/>
        <radio op="I TIM" rat="LTE" rsrp="-126" rsrq="-14"/>
      </extensions>
    </trkpt>
    <trkpt lat="45.6238212" lon="10.4927527">
      <ele>301.8000183105469</ele>
      <time>2026-10-08T10:43:33.501+02:00</time>
      <extensions>
        <activity type="STILL" conf="99" state="still" tsMs="1791449011284"/>
        <radio op="vodafone IT" rat="LTE" q="4.50" rsrp="-120" sinr="4" rsrq="-12"/>
        <radio op="I TIM" rat="LTE" rsrp="-125" rsrq="-11"/>
      </extensions>
    </trkpt>
    <trkpt lat="45.6238223" lon="10.4927517">
      <ele>301.8000183105469</ele>
      <time>2026-10-08T10:44:08.666+02:00</time>
      <extensions>
        <activity type="STILL" conf="100" state="still" tsMs="1791449041336"/>
        <radio op="vodafone IT" rat="LTE" q="3.60" rsrp="-121" sinr="4" rsrq="-13"/>
        <radio op="I TIM" rat="LTE" rsrp="-125" rsrq="-15"/>
      </extensions>
    </trkpt>
    <trkpt lat="45.623821" lon="10.49275">
      <ele>301.8000183105469</ele>
      <time>2026-10-08T10:44:43.362+02:00</time>
      <extensions>
        <activity type="STILL" conf="99" state="still" tsMs="1791449079001"/>
        <radio op="vodafone IT" rat="LTE" q="2.50" rsrp="-120" sinr="0" rsrq="-12"/>
        <radio op="I TIM" rat="OTHER"/>
      </extensions>
    </trkpt>
    <trkpt lat="45.623831" lon="10.4927582">
      <ele>301.8000183105469</ele>
      <time>2026-10-08T11:18:16.65+02:00</time>
      <extensions>
        <activity type="UNKNOWN" conf="40" state="unknown" tsMs="1791451080293"/>
        <radio op="vodafone IT" rat="LTE" q="1.60" rsrp="-123" sinr="3" rsrq="-14"/>
        <radio op="I TIM" rat="LTE" rsrp="-125" rsrq="-14"/>
      </extensions>
    </trkpt>
    <trkpt lat="45.6238228" lon="10.4927702">
      <ele>301.8000183105469</ele>
      <time>2026-10-08T11:18:24.766+02:00</time>
      <extensions>
        <activity type="UNKNOWN" conf="40" state="unknown" tsMs="1791451091416"/>
        <radio op="vodafone IT" rat="LTE" q="4.00" rsrp="-120" sinr="3" rsrq="-11"/>
        <radio op="I TIM" rat="LTE" q="0.00" rsrp="-125" sinr="1" rsrq="-14"/>
      </extensions>
    </trkpt>
    <trkpt lat="45.6238044" lon="10.4927699">
      <ele>301.8000183105469</ele>
      <time>2026-10-08T11:18:31.942+02:00</time>
      <extensions>
        <activity type="UNKNOWN" conf="40" state="unknown" tsMs="1791451104059"/>
        <radio op="vodafone IT" rat="LTE" q="7.00" rsrp="-118" sinr="5" rsrq="-12"/>
        <radio op="I TIM" rat="LTE" rsrp="-126" rsrq="-14"/>
      </extensions>
    </trkpt>
    <trkpt lat="45.6237939" lon="10.4927748">
      <ele>301.8000183105469</ele>
      <time>2026-10-08T11:18:46.294+02:00</time>
      <extensions>
        <activity type="UNKNOWN" conf="40" state="unknown" tsMs="1791451116625"/>
        <radio op="vodafone IT" rat="LTE" q="3.60" rsrp="-119" sinr="1" rsrq="-13"/>
        <radio op="I TIM" rat="LTE" rsrp="-129" rsrq="-17"/>
      </extensions>
    </trkpt>
    <trkpt lat="45.6237945" lon="10.4927752">
      <ele>301.8000183105469</ele>
      <time>2026-10-08T11:18:53.472+02:00</time>
      <extensions>
        <activity type="STILL" conf="55" state="still" tsMs="1791451127155"/>
        <radio op="vodafone IT" rat="LTE" rsrp="-120" rsrq="-12"/>
        <radio op="I TIM" rat="LTE" q="0.00" rsrp="-125" sinr="3" rsrq="-14"/>
      </extensions>
    </trkpt>
    <trkpt lat="45.6237944" lon="10.4927751">
      <ele>301.8000183105469</ele>
      <time>2026-10-08T11:19:02.736+02:00</time>
      <extensions>
        <activity type="UNKNOWN" conf="40" state="unknown" tsMs="1791451139752"/>
        <radio op="vodafone IT" rat="LTE" q="3.60" rsrp="-119" sinr="1" rsrq="-11"/>
        <radio op="I TIM" rat="LTE" q="2.20" rsrp="-123" sinr="6" rsrq="-12"/>
      </extensions>
    </trkpt>
    <trkpt lat="45.6237953" lon="10.4927747">
      <ele>301.8000183105469</ele>
      <time>2026-10-08T11:19:17.714+02:00</time>
      <extensions>
        <activity type="UNKNOWN" conf="40" state="unknown" tsMs="1791451139752"/>
        <radio op="vodafone IT" rat="LTE" rsrp="-117" rsrq="-12"/>
        <radio op="I TIM" rat="LTE" q="0.00" rsrp="-126" sinr="4" rsrq="-14"/>
      </extensions>
    </trkpt>
    <trkpt lat="45.6237959" lon="10.4927738">
      <ele>301.8000183105469</ele>
      <time>2026-10-08T11:19:27.668+02:00</time>
      <extensions>
        <activity type="UNKNOWN" conf="40" state="unknown" tsMs="1791451152384"/>
        <radio op="vodafone IT" rat="LTE" q="2.00" rsrp="-121" sinr="0" rsrq="-13"/>
        <radio op="I TIM" rat="LTE" q="0.00" rsrp="-126" sinr="8" rsrq="-13"/>
      </extensions>
    </trkpt>
    <trkpt lat="45.6237871" lon="10.4927687">
      <ele>301.8000183105469</ele>
      <time>2026-10-08T11:19:36.536+02:00</time>
      <extensions>
        <activity type="UNKNOWN" conf="40" state="unknown" tsMs="1791451162988"/>
        <radio op="vodafone IT" rat="LTE" q="12.60" rsrp="-111" sinr="4" rsrq="-9"/>
        <radio op="I TIM" rat="LTE" q="6.30" rsrp="-116" sinr="2" rsrq="-10"/>
      </extensions>
    </trkpt>
    <trkpt lat="45.6237896" lon="10.4927783">
      <ele>301.8000183105469</ele>
      <time>2026-10-08T11:19:39.675+02:00</time>
      <extensions>
        <activity type="UNKNOWN" conf="40" state="unknown" tsMs="1791451175650"/>
        <radio op="vodafone IT" rat="LTE" q="23.10" rsrp="-104" sinr="6" rsrq="-11"/>
        <radio op="I TIM" rat="LTE" q="17.60" rsrp="-114" sinr="11" rsrq="-10"/>
      </extensions>
    </trkpt>
    <trkpt lat="45.6236987" lon="10.4928333">
      <ele>301.8000183105469</ele>
      <time>2026-10-08T11:20:19.065+02:00</time>
      <extensions>
        <activity type="STILL" conf="100" state="still" tsMs="1791451210674"/>
        <radio op="vodafone IT" rat="LTE" q="36.00" rsrp="-101" sinr="10" rsrq="-9"/>
        <radio op="I TIM" rat="LTE" q="18.70" rsrp="-114" sinr="12" rsrq="-11"/>
      </extensions>
    </trkpt>
    <trkpt lat="45.6236818" lon="10.4928612">
      <ele>301.8000183105469</ele>
      <time>2026-10-08T11:20:57.818+02:00</time>
      <extensions>
        <activity type="STILL" conf="100" state="still" tsMs="1791451253666"/>
        <radio op="vodafone IT" rat="LTE" q="4.00" rsrp="-121" sinr="5" rsrq="-12"/>
        <radio op="I TIM" rat="LTE" rsrp="-121" rsrq="-13"/>
      </extensions>
    </trkpt>
    <trkpt lat="45.6236626" lon="10.4928357">
      <ele>301.8000183105469</ele>
      <time>2026-10-08T11:21:57.759+02:00</time>
      <extensions>
        <activity type="STILL" conf="61" state="still" tsMs="1791451309895"/>
        <radio op="vodafone IT" rat="LTE" q="16.90" rsrp="-112" sinr="8" rsrq="-10"/>
        <radio op="I TIM" rat="LTE" q="9.00" rsrp="-115" sinr="4" rsrq="-11"/>
      </extensions>
    </trkpt>
    <trkpt lat="45.6237471" lon="10.4927654">
      <ele>301.8000183105469</ele>
      <time>2026-10-08T11:22:46.211+02:00</time>
      <extensions>
        <activity type="ON_FOOT" conf="84" state="moving" tsMs="1791451358341"/>
        <radio op="vodafone IT" rat="LTE" q="7.70" rsrp="-114" sinr="2" rsrq="-10"/>
        <radio op="I TIM" rat="LTE" q="5.00" rsrp="-120" sinr="5" rsrq="-13"/>
      </extensions>
    </trkpt>
    <trkpt lat="45.6238199" lon="10.4927412">
      <ele>304.2309278015456</ele>
      <time>2026-10-08T11:23:38.059+02:00</time>
      <extensions>
        <activity type="UNKNOWN" conf="40" state="unknown" tsMs="1791451417500"/>
        <radio op="vodafone IT" rat="LTE" rsrp="-120" rsrq="-13"/>
        <radio op="I TIM" rat="LTE" rsrp="-125" rsrq="-13"/>
      </extensions>
    </trkpt>
    <trkpt lat="45.6238209" lon="10.4927452">
      <ele>304.20957763626814</ele>
      <time>2026-10-08T11:24:14.954+02:00</time>
      <extensions>
        <activity type="STILL" conf="99" state="still" tsMs="1791451449339"/>
        <radio op="vodafone IT" rat="LTE" q="4.20" rsrp="-119" sinr="2" rsrq="-10"/>
        <radio op="I TIM" rat="LTE" q="0.00" rsrp="-125" sinr="3" rsrq="-13"/>
      </extensions>
    </trkpt>
    <trkpt lat="45.6238218" lon="10.4927395">
      <ele>304.1065989018791</ele>
      <time>2026-10-08T11:24:51.703+02:00</time>
      <extensions>
        <activity type="STILL" conf="99" state="still" tsMs="1791451485342"/>
        <radio op="vodafone IT" rat="LTE" q="4.20" rsrp="-119" sinr="2" rsrq="-12"/>
        <radio op="I TIM" rat="LTE" rsrp="-125" rsrq="-12"/>
      </extensions>
    </trkpt>
    <trkpt lat="45.6238205" lon="10.4927436">
      <ele>304.18132495340836</ele>
      <time>2026-10-08T11:26:10.395+02:00</time>
      <extensions>
        <activity type="STILL" conf="99" state="still" tsMs="1791451550723"/>
        <radio op="vodafone IT" rat="LTE" rsrp="-119" rsrq="-12"/>
        <radio op="I TIM" rat="LTE" rsrp="-125" rsrq="-14"/>
      </extensions>
    </trkpt>
    <trkpt lat="45.62382" lon="10.4927536">
      <ele>304.18132495340836</ele>
      <time>2026-10-08T11:27:01.176+02:00</time>
      <extensions>
        <activity type="STILL" conf="99" state="still" tsMs="1791451620464"/>
        <radio op="vodafone IT" rat="LTE" q="3.60" rsrp="-119" sinr="1" rsrq="-11"/>
        <radio op="I TIM" rat="LTE" rsrp="-125" rsrq="-13"/>
      </extensions>
    </trkpt>
    <trkpt lat="45.623743" lon="10.4931513">
      <ele>282.4000244140625</ele>
      <time>2026-10-08T13:27:15.953+02:00</time>
      <extensions>
        <activity type="ON_FOOT" conf="82" state="moving" tsMs="1791458828774"/>
        <radio op="vodafone IT" rat="LTE" q="23.40" rsrp="-107" sinr="8" rsrq="-9"/>
        <radio op="I TIM" rat="LTE" q="35.20" rsrp="-109" sinr="17" rsrq="-12"/>
      </extensions>
    </trkpt>
    <trkpt lat="45.623711" lon="10.4933115">
      <ele>282.4000244140625</ele>
      <time>2026-10-08T13:27:47.177+02:00</time>
      <extensions>
        <activity type="ON_FOOT" conf="90" state="moving" tsMs="1791458847797"/>
        <radio op="vodafone IT" rat="LTE" rsrp="-119" rsrq="-17"/>
        <radio op="I TIM" rat="LTE" rsrp="-120" rsrq="-14"/>
      </extensions>
    </trkpt>
    <trkpt lat="45.622735" lon="10.4904476">
      <ele>284.5650821809955</ele>
      <time>2026-10-08T13:28:44.502+02:00</time>
      <extensions>
        <activity type="UNKNOWN" conf="40" state="unknown" tsMs="1791458936549"/>
        <radio op="vodafone IT" rat="LTE" q="14.40" rsrp="-109" sinr="4" rsrq="-11"/>
        <radio op="I TIM" rat="LTE" rsrp="-121" rsrq="-13"/>
      </extensions>
    </trkpt>
    <trkpt lat="45.6168931" lon="10.4835962">
      <ele>281.70001220703125</ele>
      <time>2026-10-08T13:29:52.576+02:00</time>
      <extensions>
        <activity type="UNKNOWN" conf="40" state="unknown" tsMs="1791458972172"/>
        <radio op="vodafone IT" rat="LTE" q="6.00" rsrp="-113" sinr="0" rsrq="-15"/>
        <radio op="I TIM" rat="LTE" rsrp="-116" rsrq="-13"/>
      </extensions>
    </trkpt>
    <trkpt lat="45.616657" lon="10.4831883">
      <ele>281.70001220703125</ele>
      <time>2026-10-08T13:29:55.502+02:00</time>
      <extensions>
        <activity type="IN_VEHICLE" conf="91" state="moving" tsMs="1791458995766"/>
        <radio op="vodafone IT" rat="LTE" q="30.00" rsrp="-105" sinr="10" rsrq="-10"/>
        <radio op="I TIM" rat="LTE" rsrp="-119" rsrq="-14"/>
      </extensions>
    </trkpt>
    <trkpt lat="45.6148735" lon="10.4827179">
      <ele>274.9000244140625</ele>
      <time>2026-10-08T13:30:08.501+02:00</time>
      <extensions>
        <activity type="IN_VEHICLE" conf="91" state="moving" tsMs="1791458995766"/>
        <radio op="vodafone IT" rat="LTE" q="23.80" rsrp="-111" sinr="12" rsrq="-10"/>
        <radio op="I TIM" rat="LTE" rsrp="-124" rsrq="-18"/>
      </extensions>
    </trkpt>
    <trkpt lat="45.6131535" lon="10.4815045">
      <ele>277.8986871507398</ele>
      <time>2026-10-08T13:30:58.812+02:00</time>
      <extensions>
        <activity type="STILL" conf="100" state="still" tsMs="1791459064698"/>
        <radio op="vodafone IT" rat="LTE" q="23.80" rsrp="-111" sinr="12" rsrq="-9"/>
        <radio op="I TIM" rat="LTE" rsrp="-117" rsrq="-17"/>
      </extensions>
    </trkpt>
    <trkpt lat="45.6124223" lon="10.4814217">
      <ele>270.1000061035156</ele>
      <time>2026-10-08T13:32:13.041+02:00</time>
      <extensions>
        <activity type="IN_VEHICLE" conf="92" state="moving" tsMs="1791459127514"/>
        <radio op="vodafone IT" rat="LTE" q="15.30" rsrp="-108" sinr="4" rsrq="-12"/>
        <radio op="I TIM" rat="LTE" q="16.50" rsrp="-110" sinr="6" rsrq="-13"/>
      </extensions>
    </trkpt>
    <trkpt lat="45.6123054" lon="10.4812661">
      <ele>270.3000183105469</ele>
      <time>2026-10-08T13:33:01.272+02:00</time>
      <extensions>
        <activity type="UNKNOWN" conf="40" state="unknown" tsMs="1791459180510"/>
        <radio op="vodafone IT" rat="LTE" rsrp="-105" rsrq="-12"/>
        <radio op="I TIM" rat="LTE" q="7.00" rsrp="-111" sinr="0" rsrq="-13"/>
      </extensions>
    </trkpt>
    <trkpt lat="45.6122984" lon="10.4812795">
      <ele>270.3000183105469</ele>
      <time>2026-10-08T13:33:32.489+02:00</time>
      <extensions>
        <activity type="UNKNOWN" conf="40" state="unknown" tsMs="1791459203606"/>
        <radio op="vodafone IT" rat="LTE" rsrp="-118" rsrq="-11"/>
        <radio op="I TIM" rat="LTE" q="8.80" rsrp="-114" sinr="3" rsrq="-12"/>
      </extensions>
    </trkpt>
    <trkpt lat="45.6121764" lon="10.4811398">
      <ele>270.20001220703125</ele>
      <time>2026-10-08T13:34:03.766+02:00</time>
      <extensions>
        <activity type="STILL" conf="100" state="still" tsMs="1791459238322"/>
        <radio op="vodafone IT" rat="LTE" rsrp="-117" rsrq="-13"/>
        <radio op="I TIM" rat="LTE" q="9.00" rsrp="-110" sinr="1" rsrq="-12"/>
      </extensions>
    </trkpt>
    <trkpt lat="45.6120726" lon="10.4812407">
      <ele>270.6000061035156</ele>
      <time>2026-10-08T13:34:35.035+02:00</time>
      <extensions>
        <activity type="UNKNOWN" conf="40" state="unknown" tsMs="1791459256405"/>
        <radio op="vodafone IT" rat="LTE" q="16.50" rsrp="-114" sinr="10" rsrq="-10"/>
        <radio op="I TIM" rat="LTE" q="19.50" rsrp="-110" sinr="8" rsrq="-12"/>
      </extensions>
    </trkpt>
    <trkpt lat="45.6087416" lon="10.4752912">
      <ele>269.4000244140625</ele>
      <time>2026-10-08T13:35:37.552+02:00</time>
      <extensions>
        <activity type="UNKNOWN" conf="40" state="unknown" tsMs="1791459334362"/>
        <radio op="vodafone IT" rat="LTE" q="80.00" rsrp="-93" sinr="22" rsrq="-6"/>
        <radio op="I TIM" rat="LTE" q="100.00" rsrp="-85" sinr="28" rsrq="-10"/>
      </extensions>
    </trkpt>
    <trkpt lat="45.6063861" lon="10.4683843">
      <ele>268.0</ele>
      <time>2026-10-08T13:36:15.502+02:00</time>
      <extensions>
        <activity type="IN_VEHICLE" conf="89" state="moving" tsMs="1791459372025"/>
        <radio op="vodafone IT" rat="LTE" q="80.00" rsrp="-93" sinr="24" rsrq="-5"/>
        <radio op="I TIM" rat="LTE" q="100.00" rsrp="-80" sinr="22" rsrq="-13"/>
      </extensions>
    </trkpt>
    <trkpt lat="45.6047209" lon="10.4645352">
      <ele>266.70001220703125</ele>
      <time>2026-10-08T13:36:51.992+02:00</time>
      <extensions>
        <activity type="UNKNOWN" conf="40" state="unknown" tsMs="1791459398159"/>
        <radio op="vodafone IT" rat="LTE" q="100.00" rsrp="-81" sinr="30" rsrq="-7"/>
        <radio op="I TIM" rat="LTE" q="100.00" rsrp="-76" sinr="28" rsrq="-9"/>
      </extensions>
    </trkpt>
    <trkpt lat="45.6043339" lon="10.4599433">
      <ele>263.6000061035156</ele>
      <time>2026-10-08T13:37:23.185+02:00</time>
      <extensions>
        <activity type="UNKNOWN" conf="40" state="unknown" tsMs="1791459424300"/>
        <radio op="vodafone IT" rat="LTE" q="91.20" rsrp="-87" sinr="19" rsrq="-6"/>
        <radio op="I TIM" rat="LTE" rsrp="-116" rsrq="-15"/>
      </extensions>
    </trkpt>
    <trkpt lat="45.6036347" lon="10.4593662">
      <ele>263.6000061035156</ele>
      <time>2026-10-08T13:37:31.502+02:00</time>
      <extensions>
        <activity type="UNKNOWN" conf="40" state="unknown" tsMs="1791459437273"/>
        <radio op="vodafone IT" rat="LTE" q="100.00" rsrp="-83" sinr="29" rsrq="-6"/>
        <radio op="I TIM" rat="LTE" q="90.00" rsrp="-89" sinr="25" rsrq="-6"/>
      </extensions>
    </trkpt>
    <trkpt lat="45.6029718" lon="10.4570981">
      <ele>261.225815612632</ele>
      <time>2026-10-08T13:38:04.665+02:00</time>
      <extensions>
        <activity type="UNKNOWN" conf="40" state="unknown" tsMs="1791459476352"/>
        <radio op="vodafone IT" rat="LTE" q="67.50" rsrp="-98" sinr="24" rsrq="-6"/>
        <radio op="I TIM" rat="LTE" q="70.40" rsrp="-93" sinr="17" rsrq="-10"/>
      </extensions>
    </trkpt>
    <trkpt lat="45.5990512" lon="10.4500621">
      <ele>257.8000183105469</ele>
      <time>2026-10-08T13:39:41.427+02:00</time>
      <extensions>
        <activity type="UNKNOWN" conf="40" state="unknown" tsMs="1791459579505"/>
        <radio op="vodafone IT" rat="LTE" q="25.20" rsrp="-104" sinr="7" rsrq="-9"/>
        <radio op="I TIM" rat="LTE" q="39.60" rsrp="-103" sinr="13" rsrq="-12"/>
      </extensions>
    </trkpt>
    <trkpt lat="45.5975095" lon="10.4482744">
      <ele>257.70001220703125</ele>
      <time>2026-10-08T13:40:14.397+02:00</time>
      <extensions>
        <activity type="IN_VEHICLE" conf="83" state="moving" tsMs="1791459608013"/>
        <radio op="vodafone IT" rat="LTE" q="16.80" rsrp="-111" sinr="7" rsrq="-10"/>
        <radio op="I TIM" rat="LTE" q="13.50" rsrp="-110" sinr="4" rsrq="-14"/>
      </extensions>
    </trkpt>
    <trkpt lat="45.595397" lon="10.4440924">
      <ele>257.0</ele>
      <time>2026-10-08T13:40:47.205+02:00</time>
      <extensions>
        <activity type="UNKNOWN" conf="40" state="unknown" tsMs="1791459642518"/>
        <radio op="vodafone IT" rat="LTE" q="27.00" rsrp="-95" sinr="4" rsrq="-12"/>
        <radio op="I TIM" rat="LTE" q="34.00" rsrp="-105" sinr="12" rsrq="-8"/>
      </extensions>
    </trkpt>
    <trkpt lat="45.5952517" lon="10.4434555">
      <ele>257.0</ele>
      <time>2026-10-08T13:40:54.507+02:00</time>
      <extensions>
        <activity type="IN_VEHICLE" conf="91" state="moving" tsMs="1791459648578"/>
        <radio op="vodafone IT" rat="LTE" q="62.40" rsrp="-86" sinr="11" rsrq="-11"/>
        <radio op="I TIM" rat="LTE" q="47.60" rsrp="-91" sinr="9" rsrq="-7"/>
      </extensions>
    </trkpt>
    <trkpt lat="45.595283" lon="10.442308">
      <ele>257.0</ele>
      <time>2026-10-08T13:41:32.502+02:00</time>
      <extensions>
        <activity type="UNKNOWN" conf="40" state="unknown" tsMs="1791459686723"/>
        <radio op="vodafone IT" rat="LTE" q="68.40" rsrp="-87" sinr="13" rsrq="-10"/>
        <radio op="I TIM" rat="LTE" q="92.00" rsrp="-80" sinr="18" rsrq="-8"/>
      </extensions>
    </trkpt>
    <trkpt lat="45.5954354" lon="10.4425131">
      <ele>255.90000915527344</ele>
      <time>2026-10-08T13:42:12.32+02:00</time>
      <extensions>
        <activity type="UNKNOWN" conf="40" state="unknown" tsMs="1791459723530"/>
        <radio op="vodafone IT" rat="LTE" q="30.60" rsrp="-107" sinr="12" rsrq="-7"/>
        <radio op="I TIM" rat="LTE" q="41.40" rsrp="-102" sinr="13" rsrq="-10"/>
      </extensions>
    </trkpt>
    <trkpt lat="45.5956107" lon="10.4424729">
      <ele>255.90000915527344</ele>
      <time>2026-10-08T13:42:43.159+02:00</time>
      <extensions>
        <activity type="UNKNOWN" conf="40" state="unknown" tsMs="1791459747907"/>
        <radio op="vodafone IT" rat="LTE" q="28.80" rsrp="-109" sinr="13" rsrq="-11"/>
        <radio op="I TIM" rat="LTE" q="24.70" rsrp="-106" sinr="8" rsrq="-11"/>
      </extensions>
    </trkpt>
    <trkpt lat="45.5957442" lon="10.4423655">
      <ele>255.90000915527344</ele>
      <time>2026-10-08T13:43:14.445+02:00</time>
      <extensions>
        <activity type="UNKNOWN" conf="40" state="unknown" tsMs="1791459786975"/>
        <radio op="vodafone IT" rat="LTE" q="8.50" rsrp="-108" sinr="0" rsrq="-14"/>
        <radio op="I TIM" rat="LTE" q="22.40" rsrp="-111" sinr="11" rsrq="-12"/>
      </extensions>
    </trkpt>
    <trkpt lat="45.595762" lon="10.4423523">
      <ele>255.90000915527344</ele>
      <time>2026-10-08T13:43:45.728+02:00</time>
      <extensions>
        <activity type="STILL" conf="100" state="still" tsMs="1791459810604"/>
        <radio op="vodafone IT" rat="LTE" q="13.60" rsrp="-108" sinr="3" rsrq="-12"/>
        <radio op="I TIM" rat="LTE" q="20.40" rsrp="-113" sinr="12" rsrq="-10"/>
      </extensions>
    </trkpt>
    <trkpt lat="45.5956615" lon="10.4424065">
      <ele>255.90000915527344</ele>
      <time>2026-10-08T13:44:17.06+02:00</time>
      <extensions>
        <activity type="UNKNOWN" conf="40" state="unknown" tsMs="1791459846106"/>
        <radio op="vodafone IT" rat="LTE" rsrp="-109" rsrq="-14"/>
        <radio op="I TIM" rat="LTE" q="21.00" rsrp="-110" sinr="9" rsrq="-8"/>
      </extensions>
    </trkpt>
    <trkpt lat="45.595726" lon="10.4423864">
      <ele>255.90000915527344</ele>
      <time>2026-10-08T13:44:48.371+02:00</time>
      <extensions>
        <activity type="UNKNOWN" conf="40" state="unknown" tsMs="1791459872092"/>
        <radio op="vodafone IT" rat="LTE" q="19.00" rsrp="-106" sinr="5" rsrq="-11"/>
        <radio op="I TIM" rat="LTE" q="36.10" rsrp="-106" sinr="14" rsrq="-6"/>
      </extensions>
    </trkpt>
    <trkpt lat="45.5957608" lon="10.4423268">
      <ele>255.90000915527344</ele>
      <time>2026-10-08T13:45:19.685+02:00</time>
      <extensions>
        <activity type="ON_FOOT" conf="91" state="moving" tsMs="1791459910858"/>
        <radio op="vodafone IT" rat="LTE" q="12.00" rsrp="-110" sinr="3" rsrq="-11"/>
        <radio op="I TIM" rat="LTE" q="32.30" rsrp="-108" sinr="14" rsrq="-10"/>
      </extensions>
    </trkpt>
    <trkpt lat="45.5956593" lon="10.4423886">
      <ele>255.90000915527344</ele>
      <time>2026-10-08T13:45:51.001+02:00</time>
      <extensions>
        <activity type="UNKNOWN" conf="40" state="unknown" tsMs="1791459935656"/>
        <radio op="vodafone IT" rat="LTE" q="23.40" rsrp="-107" sinr="8" rsrq="-9"/>
        <radio op="I TIM" rat="LTE" q="27.00" rsrp="-110" sinr="13" rsrq="-9"/>
      </extensions>
    </trkpt>
    <trkpt lat="45.5956525" lon="10.4423848">
      <ele>255.90000915527344</ele>
      <time>2026-10-08T13:46:22.267+02:00</time>
      <extensions>
        <activity type="UNKNOWN" conf="40" state="unknown" tsMs="1791459974689"/>
        <radio op="vodafone IT" rat="LTE" q="16.20" rsrp="-107" sinr="4" rsrq="-13"/>
        <radio op="I TIM" rat="LTE" q="21.00" rsrp="-111" sinr="10" rsrq="-12"/>
      </extensions>
    </trkpt>
    <trkpt lat="45.595662" lon="10.4424376">
      <ele>255.90000915527344</ele>
      <time>2026-10-08T13:46:53.531+02:00</time>
      <extensions>
        <activity type="UNKNOWN" conf="40" state="unknown" tsMs="1791459998320"/>
        <radio op="vodafone IT" rat="LTE" q="14.40" rsrp="-107" sinr="3" rsrq="-13"/>
        <radio op="I TIM" rat="LTE" q="22.50" rsrp="-110" sinr="10" rsrq="-9"/>
      </extensions>
    </trkpt>
    <trkpt lat="45.5956427" lon="10.4423986">
      <ele>255.90000915527344</ele>
      <time>2026-10-08T13:47:24.847+02:00</time>
      <extensions>
        <activity type="UNKNOWN" conf="40" state="unknown" tsMs="1791460033936"/>
        <radio op="vodafone IT" rat="LTE" q="16.00" rsrp="-105" sinr="3" rsrq="-11"/>
        <radio op="I TIM" rat="LTE" q="39.90" rsrp="-104" sinr="14" rsrq="-9"/>
      </extensions>
    </trkpt>
    <trkpt lat="45.5956928" lon="10.4424069">
      <ele>255.90000915527344</ele>
      <time>2026-10-08T13:47:56.18+02:00</time>
      <extensions>
        <activity type="UNKNOWN" conf="40" state="unknown" tsMs="1791460059935"/>
        <radio op="vodafone IT" rat="LTE" q="24.00" rsrp="-105" sinr="7" rsrq="-9"/>
        <radio op="I TIM" rat="LTE" q="32.00" rsrp="-105" sinr="11" rsrq="-9"/>
      </extensions>
    </trkpt>
    <trkpt lat="45.595567" lon="10.4424404">
      <ele>255.90000915527344</ele>
      <time>2026-10-08T13:48:27.484+02:00</time>
      <extensions>
        <activity type="UNKNOWN" conf="40" state="unknown" tsMs="1791460095375"/>
        <radio op="vodafone IT" rat="LTE" q="33.60" rsrp="-109" sinr="16" rsrq="-9"/>
        <radio op="I TIM" rat="LTE" q="48.40" rsrp="-103" sinr="17" rsrq="-8"/>
      </extensions>
    </trkpt>
    <trkpt lat="45.5957347" lon="10.4423556">
      <ele>255.90000915527344</ele>
      <time>2026-10-08T13:48:58.767+02:00</time>
      <extensions>
        <activity type="UNKNOWN" conf="40" state="unknown" tsMs="1791460121297"/>
        <radio op="vodafone IT" rat="LTE" q="22.10" rsrp="-112" sinr="12" rsrq="-8"/>
        <radio op="I TIM" rat="LTE" q="35.20" rsrp="-109" sinr="17" rsrq="-8"/>
      </extensions>
    </trkpt>
    <trkpt lat="45.5956965" lon="10.442422">
      <ele>255.90000915527344</ele>
      <time>2026-10-08T13:49:30.1+02:00</time>
      <extensions>
        <activity type="STILL" conf="99" state="still" tsMs="1791460160330"/>
        <radio op="vodafone IT" rat="LTE" q="24.00" rsrp="-110" sinr="11" rsrq="-8"/>
        <radio op="I TIM" rat="LTE" q="16.90" rsrp="-112" sinr="8" rsrq="-12"/>
      </extensions>
    </trkpt>
    <trkpt lat="45.5957236" lon="10.4423857">
      <ele>255.90000915527344</ele>
      <time>2026-10-08T13:50:10.396+02:00</time>
      <extensions>
        <activity type="STILL" conf="97" state="still" tsMs="1791460207553"/>
        <radio op="vodafone IT" rat="LTE" q="16.50" rsrp="-110" sinr="6" rsrq="-8"/>
        <radio op="I TIM" rat="LTE" q="24.00" rsrp="-109" sinr="10" rsrq="-7"/>
      </extensions>
    </trkpt>
    <trkpt lat="45.5957085" lon="10.4424083">
      <ele>255.90000915527344</ele>
      <time>2026-10-08T13:50:31.031+02:00</time>
      <extensions>
        <activity type="UNKNOWN" conf="40" state="unknown" tsMs="1791460213424"/>
        <radio op="vodafone IT" rat="LTE" q="21.00" rsrp="-110" sinr="9" rsrq="-7"/>
        <radio op="I TIM" rat="LTE" q="34.20" rsrp="-106" sinr="13" rsrq="-8"/>
      </extensions>
    </trkpt>
    <trkpt lat="45.5957142" lon="10.4424263">
      <ele>255.90000915527344</ele>
      <time>2026-10-08T13:51:06.157+02:00</time>
      <extensions>
        <activity type="UNKNOWN" conf="40" state="unknown" tsMs="1791460262547"/>
        <radio op="vodafone IT" rat="LTE" q="12.00" rsrp="-105" sinr="1" rsrq="-12"/>
        <radio op="I TIM" rat="LTE" q="25.20" rsrp="-107" sinr="9" rsrq="-7"/>
      </extensions>
    </trkpt>
    <trkpt lat="45.5956434" lon="10.4424153">
      <ele>255.90000915527344</ele>
      <time>2026-10-08T13:51:36.838+02:00</time>
      <extensions>
        <activity type="UNKNOWN" conf="40" state="unknown" tsMs="1791460290526"/>
        <radio op="vodafone IT" rat="LTE" q="17.10" rsrp="-106" sinr="4" rsrq="-12"/>
        <radio op="I TIM" rat="LTE" q="27.20" rsrp="-108" sinr="11" rsrq="-8"/>
      </extensions>
    </trkpt>
    <trkpt lat="45.5955974" lon="10.4424046">
      <ele>255.90000915527344</ele>
      <time>2026-10-08T13:52:34.931+02:00</time>
      <extensions>
        <activity type="UNKNOWN" conf="40" state="unknown" tsMs="1791460354223"/>
        <radio op="vodafone IT" rat="LTE" q="15.40" rsrp="-103" sinr="2" rsrq="-8"/>
        <radio op="I TIM" rat="LTE" q="34.20" rsrp="-107" sinr="14" rsrq="-9"/>
      </extensions>
    </trkpt>
    <trkpt lat="45.5956434" lon="10.4423801">
      <ele>255.90000915527344</ele>
      <time>2026-10-08T13:53:21.821+02:00</time>
      <extensions>
        <activity type="UNKNOWN" conf="40" state="unknown" tsMs="1791460401565"/>
        <radio op="vodafone IT" rat="LTE" q="6.50" rsrp="-112" sinr="0" rsrq="-11"/>
        <radio op="I TIM" rat="LTE" q="28.00" rsrp="-105" sinr="9" rsrq="-9"/>
      </extensions>
    </trkpt>
    <trkpt lat="45.5955048" lon="10.4424489">
      <ele>255.90000915527344</ele>
      <time>2026-10-08T13:54:20.31+02:00</time>
      <extensions>
        <activity type="ON_FOOT" conf="81" state="moving" tsMs="1791460455527"/>
        <radio op="vodafone IT" rat="LTE" q="72.50" rsrp="-96" sinr="22" rsrq="-6"/>
        <radio op="I TIM" rat="LTE" q="70.00" rsrp="-97" sinr="22" rsrq="-7"/>
      </extensions>
    </trkpt>
    <trkpt lat="45.5954775" lon="10.4424464">
      <ele>255.90000915527344</ele>
      <time>2026-10-08T13:55:04.374+02:00</time>
      <extensions>
        <activity type="UNKNOWN" conf="40" state="unknown" tsMs="1791460496278"/>
        <radio op="vodafone IT" rat="LTE" q="54.00" rsrp="-98" sinr="15" rsrq="-7"/>
        <radio op="I TIM" rat="LTE" q="57.00" rsrp="-95" sinr="14" rsrq="-9"/>
      </extensions>
    </trkpt>
    <trkpt lat="45.5954477" lon="10.4425012">
      <ele>255.90000915527344</ele>
      <time>2026-10-08T13:55:44.635+02:00</time>
      <extensions>
        <activity type="STILL" conf="51" state="still" tsMs="1791460530677"/>
        <radio op="vodafone IT" rat="LTE" q="44.20" rsrp="-99" sinr="12" rsrq="-7"/>
        <radio op="I TIM" rat="LTE" q="72.50" rsrp="-96" sinr="20" rsrq="-6"/>
      </extensions>
    </trkpt>
    <trkpt lat="45.595453" lon="10.4424791">
      <ele>255.90000915527344</ele>
      <time>2026-10-08T13:56:15.961+02:00</time>
      <extensions>
        <activity type="UNKNOWN" conf="40" state="unknown" tsMs="1791460556727"/>
        <radio op="vodafone IT" rat="LTE" q="32.20" rsrp="-102" sinr="9" rsrq="-8"/>
        <radio op="I TIM" rat="LTE" q="46.80" rsrp="-99" sinr="13" rsrq="-11"/>
      </extensions>
    </trkpt>
    <trkpt lat="45.5954422" lon="10.4424987">
      <ele>255.90000915527344</ele>
      <time>2026-10-08T13:56:47.146+02:00</time>
      <extensions>
        <activity type="UNKNOWN" conf="40" state="unknown" tsMs="1791460595926"/>
        <radio op="vodafone IT" rat="LTE" q="28.80" rsrp="-107" sinr="11" rsrq="-8"/>
        <radio op="I TIM" rat="LTE" q="60.00" rsrp="-95" sinr="15" rsrq="-11"/>
      </extensions>
    </trkpt>
    <trkpt lat="45.5954352" lon="10.4424937">
      <ele>255.90000915527344</ele>
      <time>2026-10-08T13:57:18.476+02:00</time>
      <extensions>
        <activity type="UNKNOWN" conf="40" state="unknown" tsMs="1791460621955"/>
        <radio op="vodafone IT" rat="LTE" q="25.50" rsrp="-108" sinr="10" rsrq="-10"/>
        <radio op="I TIM" rat="LTE" q="48.00" rsrp="-101" sinr="15" rsrq="-8"/>
      </extensions>
    </trkpt>
    <trkpt lat="45.5954142" lon="10.4425012">
      <ele>255.90000915527344</ele>
      <time>2026-10-08T13:58:51.65+02:00</time>
      <extensions>
        <activity type="UNKNOWN" conf="40" state="unknown" tsMs="1791460749382"/>
        <radio op="vodafone IT" rat="LTE" q="62.40" rsrp="-99" sinr="19" rsrq="-8"/>
        <radio op="I TIM" rat="LTE" q="47.50" rsrp="-100" sinr="14" rsrq="-7"/>
      </extensions>
    </trkpt>
    <trkpt lat="45.5954365" lon="10.442484">
      <ele>255.90000915527344</ele>
      <time>2026-10-08T13:59:30.964+02:00</time>
      <extensions>
        <activity type="UNKNOWN" conf="40" state="unknown" tsMs="1791460755481"/>
        <radio op="vodafone IT" rat="LTE" q="30.40" rsrp="-106" sinr="11" rsrq="-8"/>
        <radio op="I TIM" rat="LTE" q="57.20" rsrp="-99" sinr="17" rsrq="-13"/>
      </extensions>
    </trkpt>
    <trkpt lat="45.5954379" lon="10.4425113">
      <ele>255.90000915527344</ele>
      <time>2026-10-08T14:00:35.202+02:00</time>
      <extensions>
        <activity type="UNKNOWN" conf="40" state="unknown" tsMs="1791460829564"/>
        <radio op="vodafone IT" rat="LTE" q="38.00" rsrp="-105" sinr="14" rsrq="-9"/>
        <radio op="I TIM" rat="LTE" q="36.00" rsrp="-101" sinr="10" rsrq="-12"/>
      </extensions>
    </trkpt>
    <trkpt lat="45.5956193" lon="10.4425008">
      <ele>255.90000915527344</ele>
      <time>2026-10-08T14:01:20.361+02:00</time>
      <extensions>
        <activity type="UNKNOWN" conf="40" state="unknown" tsMs="1791460875536"/>
        <radio op="vodafone IT" rat="LTE" q="22.00" rsrp="-103" sinr="5" rsrq="-10"/>
        <radio op="I TIM" rat="LTE" q="38.00" rsrp="-105" sinr="14" rsrq="-13"/>
      </extensions>
    </trkpt>
    <trkpt lat="45.5956117" lon="10.4424307">
      <ele>255.90000915527344</ele>
      <time>2026-10-08T14:01:51.657+02:00</time>
      <extensions>
        <activity type="UNKNOWN" conf="40" state="unknown" tsMs="1791460894586"/>
        <radio op="vodafone IT" rat="LTE" q="19.50" rsrp="-112" sinr="10" rsrq="-8"/>
        <radio op="I TIM" rat="LTE" q="28.50" rsrp="-106" sinr="10" rsrq="-11"/>
      </extensions>
    </trkpt>
    <trkpt lat="45.5956265" lon="10.4424794">
      <ele>255.90000915527344</ele>
      <time>2026-10-08T14:02:22.825+02:00</time>
      <extensions>
        <activity type="UNKNOWN" conf="40" state="unknown" tsMs="1791460933456"/>
        <radio op="vodafone IT" rat="LTE" q="9.60" rsrp="-113" sinr="3" rsrq="-9"/>
        <radio op="I TIM" rat="LTE" q="36.10" rsrp="-106" sinr="14" rsrq="-11"/>
      </extensions>
    </trkpt>
    <trkpt lat="45.595613" lon="10.4424258">
      <ele>255.90000915527344</ele>
      <time>2026-10-08T14:02:53.999+02:00</time>
      <extensions>
        <activity type="UNKNOWN" conf="40" state="unknown" tsMs="1791460958905"/>
        <radio op="vodafone IT" rat="LTE" q="28.50" rsrp="-106" sinr="10" rsrq="-7"/>
        <radio op="I TIM" rat="LTE" q="22.00" rsrp="-105" sinr="6" rsrq="-8"/>
      </extensions>
    </trkpt>
    <trkpt lat="45.5957282" lon="10.442345">
      <ele>255.90000915527344</ele>
      <time>2026-10-08T14:03:25.254+02:00</time>
      <extensions>
        <activity type="STILL" conf="100" state="still" tsMs="1791460997930"/>
        <radio op="vodafone IT" rat="LTE" q="15.60" rsrp="-112" sinr="7" rsrq="-7"/>
        <radio op="I TIM" rat="LTE" q="20.80" rsrp="-112" sinr="11" rsrq="-8"/>
      </extensions>
    </trkpt>
    <trkpt lat="45.5956046" lon="10.4424088">
      <ele>255.90000915527344</ele>
      <time>2026-10-08T14:03:56.517+02:00</time>
      <extensions>
        <activity type="ON_FOOT" conf="89" state="moving" tsMs="1791461020436"/>
        <radio op="vodafone IT" rat="LTE" q="15.60" rsrp="-112" sinr="7" rsrq="-9"/>
        <radio op="I TIM" rat="LTE" q="28.90" rsrp="-108" sinr="12" rsrq="-12"/>
      </extensions>
    </trkpt>
    <trkpt lat="45.5956565" lon="10.4425448">
      <ele>255.90000915527344</ele>
      <time>2026-10-08T14:04:27.718+02:00</time>
      <extensions>
        <activity type="UNKNOWN" conf="40" state="unknown" tsMs="1791461059233"/>
        <radio op="vodafone IT" rat="LTE" q="21.00" rsrp="-110" sinr="9" rsrq="-11"/>
        <radio op="I TIM" rat="LTE" q="36.00" rsrp="-105" sinr="13" rsrq="-8"/>
      </extensions>
    </trkpt>
    <trkpt lat="45.5954278" lon="10.4425286">
      <ele>255.90000915527344</ele>
      <time>2026-10-08T14:04:58.988+02:00</time>
      <extensions>
        <activity type="ON_FOOT" conf="89" state="moving" tsMs="1791461083682"/>
        <radio op="vodafone IT" rat="LTE" q="15.30" rsrp="-108" sinr="4" rsrq="-8"/>
        <radio op="I TIM" rat="LTE" q="39.10" rsrp="-102" sinr="12" rsrq="-7"/>
      </extensions>
    </trkpt>
    <trkpt lat="45.5956651" lon="10.4425898">
      <ele>255.90000915527344</ele>
      <time>2026-10-08T14:05:30.359+02:00</time>
      <extensions>
        <activity type="ON_FOOT" conf="95" state="moving" tsMs="1791461122687"/>
        <radio op="vodafone IT" rat="LTE" q="20.80" rsrp="-109" sinr="8" rsrq="-10"/>
        <radio op="I TIM" rat="LTE" q="24.00" rsrp="-109" sinr="10" rsrq="-9"/>
      </extensions>
    </trkpt>
    <trkpt lat="45.595425" lon="10.4427032">
      <ele>255.90000915527344</ele>
      <time>2026-10-08T14:06:01.504+02:00</time>
      <extensions>
        <activity type="UNKNOWN" conf="40" state="unknown" tsMs="1791461142962"/>
        <radio op="vodafone IT" rat="LTE" q="22.80" rsrp="-106" sinr="7" rsrq="-10"/>
        <radio op="I TIM" rat="LTE" q="33.60" rsrp="-104" sinr="11" rsrq="-7"/>
      </extensions>
    </trkpt>
    <trkpt lat="45.5954228" lon="10.4426799">
      <ele>255.90000915527344</ele>
      <time>2026-10-08T14:06:48.043+02:00</time>
      <extensions>
        <activity type="UNKNOWN" conf="40" state="unknown" tsMs="1791461203626"/>
        <radio op="vodafone IT" rat="LTE" q="41.80" rsrp="-103" sinr="14" rsrq="-9"/>
        <radio op="I TIM" rat="LTE" q="52.50" rsrp="-100" sinr="16" rsrq="-7"/>
      </extensions>
    </trkpt>
    <trkpt lat="45.595467" lon="10.4425964">
      <ele>255.90000915527344</ele>
      <time>2026-10-08T14:07:19.359+02:00</time>
      <extensions>
        <activity type="UNKNOWN" conf="40" state="unknown" tsMs="1791461222604"/>
        <radio op="vodafone IT" rat="LTE" q="39.20" rsrp="-97" sinr="9" rsrq="-12"/>
        <radio op="I TIM" rat="LTE" q="63.00" rsrp="-95" sinr="16" rsrq="-10"/>
      </extensions>
    </trkpt>
    <trkpt lat="45.5954304" lon="10.4426078">
      <ele>255.90000915527344</ele>
      <time>2026-10-08T14:07:50.611+02:00</time>
      <extensions>
        <activity type="STILL" conf="100" state="still" tsMs="1791461261506"/>
        <radio op="vodafone IT" rat="LTE" q="67.50" rsrp="-98" sinr="20" rsrq="-5"/>
        <radio op="I TIM" rat="LTE" q="35.10" rsrp="-98" sinr="8" rsrq="-8"/>
      </extensions>
    </trkpt>
    <trkpt lat="45.5954268" lon="10.4425842">
      <ele>255.90000915527344</ele>
      <time>2026-10-08T14:08:21.946+02:00</time>
      <extensions>
        <activity type="STILL" conf="51" state="still" tsMs="1791461286627"/>
        <radio op="vodafone IT" rat="LTE" q="45.60" rsrp="-101" sinr="14" rsrq="-9"/>
        <radio op="I TIM" rat="LTE" q="65.10" rsrp="-94" sinr="16" rsrq="-7"/>
      </extensions>
    </trkpt>
    <trkpt lat="45.595456" lon="10.4425609">
      <ele>255.90000915527344</ele>
      <time>2026-10-08T14:08:56.549+02:00</time>
      <extensions>
        <activity type="UNKNOWN" conf="40" state="unknown" tsMs="1791461334768"/>
        <radio op="vodafone IT" rat="LTE" q="35.20" rsrp="-103" sinr="11" rsrq="-10"/>
        <radio op="I TIM" rat="LTE" q="39.00" rsrp="-95" sinr="8" rsrq="-10"/>
      </extensions>
    </trkpt>
    <trkpt lat="45.5954613" lon="10.4425807">
      <ele>255.90000915527344</ele>
      <time>2026-10-08T14:09:26.854+02:00</time>
      <extensions>
        <activity type="UNKNOWN" conf="40" state="unknown" tsMs="1791461360541"/>
        <radio op="vodafone IT" rat="LTE" q="45.60" rsrp="-101" sinr="14" rsrq="-9"/>
        <radio op="I TIM" rat="LTE" q="57.00" rsrp="-95" sinr="14" rsrq="-9"/>
      </extensions>
    </trkpt>
    <trkpt lat="45.5954392" lon="10.4426203">
      <ele>255.90000915527344</ele>
      <time>2026-10-08T14:09:57.897+02:00</time>
      <extensions>
        <activity type="STILL" conf="29" state="still" tsMs="1791461382912"/>
        <radio op="vodafone IT" rat="LTE" q="40.80" rsrp="-101" sinr="12" rsrq="-7"/>
        <radio op="I TIM" rat="LTE" q="70.40" rsrp="-93" sinr="17" rsrq="-10"/>
      </extensions>
    </trkpt>
    <trkpt lat="45.5954392" lon="10.4426203">
      <ele>255.90000915527344</ele>
      <time>2026-10-08T14:10:30.092+02:00</time>
      <extensions>
        <activity type="ON_FOOT" conf="83" state="moving" tsMs="1791461414163"/>
        <radio op="vodafone IT" rat="LTE" q="65.10" rsrp="-94" sinr="16" rsrq="-12"/>
        <radio op="I TIM" rat="LTE" q="35.00" rsrp="-90" sinr="5" rsrq="-10"/>
      </extensions>
    </trkpt>
    <trkpt lat="45.5951624" lon="10.4426122">
      <ele>255.90000915527344</ele>
      <time>2026-10-08T14:11:10.505+02:00</time>
      <extensions>
        <activity type="UNKNOWN" conf="40" state="unknown" tsMs="1791461467586"/>
        <radio op="vodafone IT" rat="LTE" q="29.90" rsrp="-102" sinr="8" rsrq="-8"/>
        <radio op="I TIM" rat="LTE" q="40.80" rsrp="-91" sinr="7" rsrq="-11"/>
      </extensions>
    </trkpt>
    <trkpt lat="45.5956133" lon="10.4443504">
      <ele>257.0</ele>
      <time>2026-10-08T14:11:41.861+02:00</time>
      <extensions>
        <activity type="UNKNOWN" conf="40" state="unknown" tsMs="1791461480786"/>
        <radio op="vodafone IT" rat="LTE" q="20.80" rsrp="-109" sinr="8" rsrq="-11"/>
        <radio op="I TIM" rat="LTE" q="30.80" rsrp="-103" sinr="9" rsrq="-9"/>
      </extensions>
    </trkpt>
    <trkpt lat="45.6002073" lon="10.4518592">
      <ele>258.70001220703125</ele>
      <time>2026-10-08T14:12:52.658+02:00</time>
      <extensions>
        <activity type="UNKNOWN" conf="40" state="unknown" tsMs="1791461567568"/>
        <radio op="vodafone IT" rat="LTE" q="33.60" rsrp="-104" sinr="11" rsrq="-8"/>
        <radio op="I TIM" rat="LTE" q="18.40" rsrp="-102" sinr="3" rsrq="-12"/>
      </extensions>
    </trkpt>
    <trkpt lat="45.6008423" lon="10.4526691">
      <ele>258.70001220703125</ele>
      <time>2026-10-08T14:13:02.505+02:00</time>
      <extensions>
        <activity type="IN_VEHICLE" conf="83" state="moving" tsMs="1791461572458"/>
        <radio op="vodafone IT" rat="LTE" q="30.60" rsrp="-107" sinr="12" rsrq="-8"/>
        <radio op="I TIM" rat="LTE" q="13.20" rsrp="-103" sinr="1" rsrq="-12"/>
      </extensions>
    </trkpt>
    <trkpt lat="45.6014019" lon="10.4537152">
      <ele>260.1000061035156</ele>
      <time>2026-10-08T14:13:33.065+02:00</time>
      <extensions>
        <activity type="UNKNOWN" conf="40" state="unknown" tsMs="1791461612220"/>
        <radio op="vodafone IT" rat="LTE" q="43.70" rsrp="-106" sinr="18" rsrq="-11"/>
        <radio op="I TIM" rat="LTE" q="22.00" rsrp="-103" sinr="5" rsrq="-14"/>
      </extensions>
    </trkpt>
    <trkpt lat="45.6027596" lon="10.4535167">
      <ele>260.8000183105469</ele>
      <time>2026-10-08T14:14:06.682+02:00</time>
      <extensions>
        <activity type="IN_VEHICLE" conf="93" state="moving" tsMs="1791461639585"/>
        <radio op="vodafone IT" rat="LTE" q="9.00" rsrp="-115" sinr="4" rsrq="-15"/>
        <radio op="I TIM" rat="LTE" q="11.20" rsrp="-111" sinr="3" rsrq="-14"/>
      </extensions>
    </trkpt>
    <trkpt lat="45.603002" lon="10.4534821">
      <ele>260.8000183105469</ele>
      <time>2026-10-08T14:14:14.504+02:00</time>
      <extensions>
        <activity type="IN_VEHICLE" conf="93" state="moving" tsMs="1791461645650"/>
        <radio op="vodafone IT" rat="LTE" q="50.00" rsrp="-100" sinr="15" rsrq="-12"/>
        <radio op="I TIM" rat="LTE" q="25.20" rsrp="-104" sinr="7" rsrq="-12"/>
      </extensions>
    </trkpt>
    <trkpt lat="45.6025738" lon="10.4539416">
      <ele>261.0</ele>
      <time>2026-10-08T14:15:05.506+02:00</time>
      <extensions>
        <activity type="IN_VEHICLE" conf="83" state="moving" tsMs="1791461702245"/>
        <radio op="vodafone IT" rat="LTE" q="24.00" rsrp="-105" sinr="7" rsrq="-11"/>
        <radio op="I TIM" rat="LTE" q="8.40" rsrp="-111" sinr="1" rsrq="-13"/>
      </extensions>
    </trkpt>
    <trkpt lat="45.6025603" lon="10.4536503">
      <ele>261.0</ele>
      <time>2026-10-08T14:15:36.716+02:00</time>
      <extensions>
        <activity type="UNKNOWN" conf="40" state="unknown" tsMs="1791461721763"/>
        <radio op="vodafone IT" rat="LTE" rsrp="-108" rsrq="-12"/>
        <radio op="I TIM" rat="LTE" q="15.40" rsrp="-111" sinr="6" rsrq="-14"/>
      </extensions>
    </trkpt>
    <trkpt lat="45.602557" lon="10.4536781">
      <ele>261.0</ele>
      <time>2026-10-08T14:16:08.693+02:00</time>
      <extensions>
        <activity type="UNKNOWN" conf="40" state="unknown" tsMs="1791461747803"/>
        <radio op="vodafone IT" rat="LTE" q="6.00" rsrp="-115" sinr="1" rsrq="-12"/>
        <radio op="I TIM" rat="LTE" rsrp="-120" rsrq="-17"/>
      </extensions>
    </trkpt>
    <trkpt lat="45.6025617" lon="10.4536671">
      <ele>261.0</ele>
      <time>2026-10-08T14:16:57.06+02:00</time>
      <extensions>
        <activity type="UNKNOWN" conf="40" state="unknown" tsMs="1791461814565"/>
        <radio op="vodafone IT" rat="LTE" q="6.60" rsrp="-114" sinr="1" rsrq="-13"/>
        <radio op="I TIM" rat="LTE" q="15.40" rsrp="-111" sinr="6" rsrq="-11"/>
      </extensions>
    </trkpt>
    <trkpt lat="45.6025617" lon="10.453679">
      <ele>261.0</ele>
      <time>2026-10-08T14:17:31.963+02:00</time>
      <extensions>
        <activity type="UNKNOWN" conf="40" state="unknown" tsMs="1791461838726"/>
        <radio op="vodafone IT" rat="LTE" q="3.00" rsrp="-120" sinr="1" rsrq="-13"/>
        <radio op="I TIM" rat="LTE" rsrp="-117" rsrq="-14"/>
      </extensions>
    </trkpt>
    <trkpt lat="45.6025628" lon="10.4536808">
      <ele>261.0</ele>
      <time>2026-10-08T14:17:58.47+02:00</time>
      <extensions>
        <activity type="UNKNOWN" conf="40" state="unknown" tsMs="1791461875515"/>
        <radio op="vodafone IT" rat="LTE" rsrp="-115" rsrq="-12"/>
        <radio op="I TIM" rat="LTE" rsrp="-123" rsrq="-15"/>
      </extensions>
    </trkpt>
    <trkpt lat="45.602596" lon="10.4537208">
      <ele>261.0</ele>
      <time>2026-10-08T14:20:47.853+02:00</time>
      <extensions>
        <activity type="ON_FOOT" conf="82" state="moving" tsMs="1791462063584"/>
        <radio op="vodafone IT" rat="LTE" q="2.50" rsrp="-120" sinr="0" rsrq="-15"/>
        <radio op="I TIM" rat="LTE" q="0.00" rsrp="-126" sinr="0" rsrq="-15"/>
      </extensions>
    </trkpt>
    <trkpt lat="45.6025599" lon="10.4536784">
      <ele>261.0</ele>
      <time>2026-10-08T14:21:24.407+02:00</time>
      <extensions>
        <activity type="UNKNOWN" conf="40" state="unknown" tsMs="1791462069670"/>
        <radio op="vodafone IT" rat="LTE" q="5.60" rsrp="-118" sinr="3" rsrq="-13"/>
        <radio op="I TIM" rat="LTE" q="1.80" rsrp="-122" sinr="1" rsrq="-16"/>
      </extensions>
    </trkpt>
    <trkpt lat="45.602561" lon="10.4536659">
      <ele>261.0</ele>
      <time>2026-10-08T14:21:55.972+02:00</time>
      <extensions>
        <activity type="STILL" conf="100" state="still" tsMs="1791462111140"/>
        <radio op="vodafone IT" rat="LTE" q="4.90" rsrp="-118" sinr="2" rsrq="-14"/>
        <radio op="I TIM" rat="LTE" rsrp="-120" rsrq="-13"/>
      </extensions>
    </trkpt>
    <trkpt lat="45.6025646" lon="10.4536816">
      <ele>261.0</ele>
      <time>2026-10-08T14:22:27.59+02:00</time>
      <extensions>
        <activity type="STILL" conf="100" state="still" tsMs="1791462138031"/>
        <radio op="vodafone IT" rat="LTE" q="5.60" rsrp="-117" sinr="2" rsrq="-11"/>
        <radio op="I TIM" rat="LTE" q="0.80" rsrp="-124" sinr="3" rsrq="-14"/>
      </extensions>
    </trkpt>
    <trkpt lat="45.6025604" lon="10.4536661">
      <ele>263.3323000797073</ele>
      <time>2026-10-08T14:22:59.149+02:00</time>
      <extensions>
        <activity type="UNKNOWN" conf="40" state="unknown" tsMs="1791462170004"/>
        <radio op="vodafone IT" rat="LTE" q="3.50" rsrp="-120" sinr="2" rsrq="-13"/>
        <radio op="I TIM" rat="LTE" q="6.30" rsrp="-116" sinr="2" rsrq="-12"/>
      </extensions>
    </trkpt>
    <trkpt lat="45.6025644" lon="10.4536742">
      <ele>261.0</ele>
      <time>2026-10-08T14:23:30.708+02:00</time>
      <extensions>
        <activity type="STILL" conf="43" state="still" tsMs="1791462195118"/>
        <radio op="vodafone IT" rat="LTE" q="7.20" rsrp="-113" sinr="1" rsrq="-12"/>
        <radio op="I TIM" rat="LTE" q="8.00" rsrp="-117" sinr="5" rsrq="-14"/>
      </extensions>
    </trkpt>
    <trkpt lat="45.6025768" lon="10.4536903">
      <ele>261.0</ele>
      <time>2026-10-08T14:24:02.232+02:00</time>
      <extensions>
        <activity type="STILL" conf="28" state="still" tsMs="1791462230655"/>
        <radio op="vodafone IT" rat="LTE" q="5.40" rsrp="-116" sinr="1" rsrq="-13"/>
        <radio op="I TIM" rat="LTE" q="4.80" rsrp="-117" sinr="1" rsrq="-13"/>
      </extensions>
    </trkpt>
    <trkpt lat="45.6025922" lon="10.4538498">
      <ele>261.0</ele>
      <time>2026-10-08T17:17:57.545+02:00</time>
      <extensions>
        <activity type="UNKNOWN" conf="40" state="unknown" tsMs="1791472674933"/>
        <radio op="vodafone IT" rat="LTE" q="10.00" rsrp="-115" sinr="5" rsrq="-12"/>
        <radio op="I TIM" rat="LTE" q="13.50" rsrp="-110" sinr="4" rsrq="-13"/>
      </extensions>
    </trkpt>
    <trkpt lat="45.6025957" lon="10.4538951">
      <ele>261.0</ele>
      <time>2026-10-08T17:18:28.339+02:00</time>
      <extensions>
        <activity type="UNKNOWN" conf="40" state="unknown" tsMs="1791472688066"/>
        <radio op="vodafone IT" rat="LTE" q="21.00" rsrp="-110" sinr="9" rsrq="-11"/>
        <radio op="I TIM" rat="LTE" q="6.60" rsrp="-114" sinr="1" rsrq="-13"/>
      </extensions>
    </trkpt>
    <trkpt lat="45.6025364" lon="10.4557671">
      <ele>261.5</ele>
      <time>2026-10-08T17:19:24.932+02:00</time>
      <extensions>
        <activity type="IN_VEHICLE" conf="84" state="moving" tsMs="1791472763535"/>
        <radio op="vodafone IT" rat="LTE" q="34.00" rsrp="-105" sinr="12" rsrq="-7"/>
        <radio op="I TIM" rat="LTE" q="6.40" rsrp="-117" sinr="3" rsrq="-14"/>
      </extensions>
    </trkpt>
    <trkpt lat="45.602877" lon="10.4569239">
      <ele>261.5</ele>
      <time>2026-10-08T17:19:36.546+02:00</time>
      <extensions>
        <activity type="UNKNOWN" conf="40" state="unknown" tsMs="1791472768181"/>
        <radio op="vodafone IT" rat="LTE" q="72.50" rsrp="-96" sinr="20" rsrq="-8"/>
        <radio op="I TIM" rat="LTE" rsrp="-122" rsrq="-12"/>
      </extensions>
    </trkpt>
    <trkpt lat="45.6031079" lon="10.457617">
      <ele>261.5</ele>
      <time>2026-10-08T17:19:46.545+02:00</time>
      <extensions>
        <activity type="UNKNOWN" conf="40" state="unknown" tsMs="1791472768181"/>
        <radio op="vodafone IT" rat="LTE" q="95.00" rsrp="-87" sinr="29" rsrq="-8"/>
        <radio op="I TIM" rat="LTE" rsrp="-123" rsrq="-15"/>
      </extensions>
    </trkpt>
    <trkpt lat="45.6031566" lon="10.4578479">
      <ele>261.5</ele>
      <time>2026-10-08T17:19:56.545+02:00</time>
      <extensions>
        <activity type="UNKNOWN" conf="40" state="unknown" tsMs="1791472781244"/>
        <radio op="vodafone IT" rat="LTE" q="100.00" rsrp="-83" sinr="28" rsrq="-10"/>
        <radio op="I TIM" rat="LTE" q="92.00" rsrp="-84" sinr="18" rsrq="-8"/>
      </extensions>
    </trkpt>
    <trkpt lat="45.6034289" lon="10.458748">
      <ele>261.5</ele>
      <time>2026-10-08T17:20:06.546+02:00</time>
      <extensions>
        <activity type="UNKNOWN" conf="40" state="unknown" tsMs="1791472794368"/>
        <radio op="vodafone IT" rat="LTE" q="100.00" rsrp="-84" sinr="29" rsrq="-9"/>
        <radio op="I TIM" rat="LTE" q="100.00" rsrp="-84" sinr="21" rsrq="-11"/>
      </extensions>
    </trkpt>
    <trkpt lat="45.603793" lon="10.459996">
      <ele>261.5</ele>
      <time>2026-10-08T17:20:16.546+02:00</time>
      <extensions>
        <activity type="UNKNOWN" conf="40" state="unknown" tsMs="1791472807411"/>
        <radio op="vodafone IT" rat="LTE" q="100.00" rsrp="-81" sinr="24" rsrq="-10"/>
        <radio op="I TIM" rat="LTE" q="46.80" rsrp="-89" sinr="8" rsrq="-10"/>
      </extensions>
    </trkpt>
    <trkpt lat="45.6042185" lon="10.4613981">
      <ele>261.5</ele>
      <time>2026-10-08T17:20:26.545+02:00</time>
      <extensions>
        <activity type="UNKNOWN" conf="40" state="unknown" tsMs="1791472807411"/>
        <radio op="vodafone IT" rat="LTE" q="95.00" rsrp="-87" sinr="27" rsrq="-8"/>
        <radio op="I TIM" rat="LTE" q="43.50" rsrp="-96" sinr="10" rsrq="-12"/>
      </extensions>
    </trkpt>
    <trkpt lat="45.6042633" lon="10.4615518">
      <ele>261.5</ele>
      <time>2026-10-08T17:20:27.545+02:00</time>
      <extensions>
        <activity type="IN_VEHICLE" conf="94" state="moving" tsMs="1791472820477"/>
        <radio op="vodafone IT" rat="LTE" q="44.20" rsrp="-91" sinr="8" rsrq="-10"/>
        <radio op="I TIM" rat="LTE" rsrp="-92" rsrq="-14"/>
      </extensions>
    </trkpt>
    <trkpt lat="45.6048639" lon="10.4650587">
      <ele>266.0</ele>
      <time>2026-10-08T17:20:57.546+02:00</time>
      <extensions>
        <activity type="UNKNOWN" conf="40" state="unknown" tsMs="1791472846658"/>
        <radio op="vodafone IT" rat="LTE" q="100.00" rsrp="-82" sinr="26" rsrq="-9"/>
        <radio op="I TIM" rat="LTE" q="16.80" rsrp="-101" sinr="2" rsrq="-9"/>
      </extensions>
    </trkpt>
    <trkpt lat="45.6043031" lon="10.4655515">
      <ele>266.5</ele>
      <time>2026-10-08T17:21:07.545+02:00</time>
      <extensions>
        <activity type="UNKNOWN" conf="40" state="unknown" tsMs="1791472859690"/>
        <radio op="vodafone IT" rat="LTE" q="37.40" rsrp="-103" sinr="12" rsrq="-7"/>
        <radio op="I TIM" rat="LTE" q="20.80" rsrp="-109" sinr="8" rsrq="-11"/>
      </extensions>
    </trkpt>
    <trkpt lat="45.6047029" lon="10.4669886">
      <ele>266.5</ele>
      <time>2026-10-08T17:21:17.545+02:00</time>
      <extensions>
        <activity type="UNKNOWN" conf="40" state="unknown" tsMs="1791472859690"/>
        <radio op="vodafone IT" rat="LTE" q="80.00" rsrp="-93" sinr="27" rsrq="-6"/>
        <radio op="I TIM" rat="LTE" q="36.00" rsrp="-101" sinr="10" rsrq="-8"/>
      </extensions>
    </trkpt>
    <trkpt lat="45.6048758" lon="10.467929">
      <ele>266.5</ele>
      <time>2026-10-08T17:21:24.545+02:00</time>
      <extensions>
        <activity type="IN_VEHICLE" conf="97" state="moving" tsMs="1791472872908"/>
        <radio op="vodafone IT" rat="LTE" q="63.80" rsrp="-96" sinr="17" rsrq="-7"/>
        <radio op="I TIM" rat="LTE" q="67.50" rsrp="-98" sinr="20" rsrq="-9"/>
      </extensions>
    </trkpt>
    <trkpt lat="45.6129055" lon="10.4867334">
      <ele>240.56715872283587</ele>
      <time>2026-10-08T17:22:57.709+02:00</time>
      <extensions>
        <activity type="UNKNOWN" conf="40" state="unknown" tsMs="1791472975661"/>
        <radio op="vodafone IT" rat="LTE" rsrq="-24"/>
        <radio op="I TIM" rat="LTE" rsrq="-20"/>
      </extensions>
    </trkpt>
    <trkpt lat="45.6121839" lon="10.4874486">
      <ele>242.83661342432026</ele>
      <time>2026-10-08T17:23:11.543+02:00</time>
      <extensions>
        <activity type="UNKNOWN" conf="40" state="unknown" tsMs="1791472975661"/>
        <radio op="vodafone IT" rat="LTE" q="9.60" rsrp="-109" sinr="1" rsrq="-11"/>
        <radio op="I TIM" rat="LTE" rsrp="-116" rsrq="-18"/>
      </extensions>
    </trkpt>
    <trkpt lat="45.6117455" lon="10.4916445">
      <ele>228.64536321453915</ele>
      <time>2026-10-08T17:23:53.54+02:00</time>
      <extensions>
        <activity type="UNKNOWN" conf="40" state="unknown" tsMs="1791473032111"/>
        <radio op="vodafone IT" rat="LTE" rsrp="-125" rsrq="-18"/>
        <radio op="I TIM" rat="LTE" rsrp="-121" rsrq="-14"/>
      </extensions>
    </trkpt>
    <trkpt lat="45.6109977" lon="10.4951957">
      <ele>217.90000915527344</ele>
      <time>2026-10-08T17:24:31.959+02:00</time>
      <extensions>
        <activity type="UNKNOWN" conf="40" state="unknown" tsMs="1791473058165"/>
        <radio op="vodafone IT" rat="LTE" q="44.10" rsrp="-104" sinr="16" rsrq="-11"/>
        <radio op="I TIM" rat="LTE" rsrp="-118" rsrq="-16"/>
      </extensions>
    </trkpt>
    <trkpt lat="45.6137428" lon="10.4972752">
      <ele>224.50473554285742</ele>
      <time>2026-10-08T17:25:07.552+02:00</time>
      <extensions>
        <activity type="IN_VEHICLE" conf="86" state="moving" tsMs="1791473097075"/>
        <radio op="vodafone IT" rat="LTE" q="60.80" rsrp="-93" sinr="14" rsrq="-10"/>
        <radio op="I TIM" rat="LTE" q="34.00" rsrp="-105" sinr="12" rsrq="-11"/>
      </extensions>
    </trkpt>
    <trkpt lat="45.6161871" lon="10.4938927">
      <ele>222.66203370332852</ele>
      <time>2026-10-08T17:25:50.546+02:00</time>
      <extensions>
        <activity type="IN_VEHICLE" conf="93" state="moving" tsMs="1791473149306"/>
        <radio op="vodafone IT" rat="LTE" q="33.60" rsrp="-104" sinr="11" rsrq="-10"/>
        <radio op="I TIM" rat="LTE" q="48.00" rsrp="-101" sinr="15" rsrq="-8"/>
      </extensions>
    </trkpt>
    <trkpt lat="45.6176175" lon="10.4941366">
      <ele>224.10000610351562</ele>
      <time>2026-10-08T17:26:54.145+02:00</time>
      <extensions>
        <activity type="UNKNOWN" conf="40" state="unknown" tsMs="1791473214870"/>
        <radio op="vodafone IT" rat="LTE" rsrp="-84" rsrq="-9"/>
        <radio op="I TIM" rat="LTE" q="70.00" rsrp="-97" sinr="20" rsrq="-9"/>
      </extensions>
    </trkpt>
    <trkpt lat="45.6176408" lon="10.4941962">
      <ele>225.88224870800207</ele>
      <time>2026-10-08T17:27:25.501+02:00</time>
      <extensions>
        <activity type="ON_FOOT" conf="94" state="moving" tsMs="1791473225354"/>
        <radio op="vodafone IT" rat="LTE" q="69.00" rsrp="-95" sinr="18" rsrq="-11"/>
        <radio op="I TIM" rat="LTE" q="36.00" rsrp="-101" sinr="10" rsrq="-9"/>
      </extensions>
    </trkpt>
    <trkpt lat="45.6176049" lon="10.4942084">
      <ele>224.10000610351562</ele>
      <time>2026-10-08T17:27:56.771+02:00</time>
      <extensions>
        <activity type="ON_FOOT" conf="91" state="moving" tsMs="1791473261764"/>
        <radio op="vodafone IT" rat="LTE" q="77.50" rsrp="-94" sinr="22" rsrq="-12"/>
        <radio op="I TIM" rat="LTE" q="87.50" rsrp="-90" sinr="27" rsrq="-10"/>
      </extensions>
    </trkpt>
    <trkpt lat="45.6175523" lon="10.4943393">
      <ele>224.10000610351562</ele>
      <time>2026-10-08T17:28:25.546+02:00</time>
      <extensions>
        <activity type="UNKNOWN" conf="40" state="unknown" tsMs="1791473287741"/>
        <radio op="vodafone IT" rat="LTE" q="39.60" rsrp="-103" sinr="13" rsrq="-11"/>
        <radio op="I TIM" rat="LTE" q="43.40" rsrp="-94" sinr="9" rsrq="-6"/>
      </extensions>
    </trkpt>
    <trkpt lat="45.6177064" lon="10.4941246">
      <ele>224.10000610351562</ele>
      <time>2026-10-08T17:28:58.248+02:00</time>
      <extensions>
        <activity type="STILL" conf="100" state="still" tsMs="1791473326665"/>
        <radio op="vodafone IT" rat="LTE" q="80.00" rsrp="-93" sinr="25" rsrq="-11"/>
        <radio op="I TIM" rat="LTE" q="65.00" rsrp="-99" sinr="24" rsrq="-6"/>
      </extensions>
    </trkpt>
    <trkpt lat="45.6176848" lon="10.4941529">
      <ele>224.10000610351562</ele>
      <time>2026-10-08T17:29:29.441+02:00</time>
      <extensions>
        <activity type="ON_FOOT" conf="87" state="moving" tsMs="1791473361944"/>
        <radio op="vodafone IT" rat="LTE" q="70.00" rsrp="-97" sinr="22" rsrq="-10"/>
        <radio op="I TIM" rat="LTE" q="75.00" rsrp="-95" sinr="25" rsrq="-8"/>
      </extensions>
    </trkpt>
    <trkpt lat="45.6176249" lon="10.4941763">
      <ele>224.10000610351562</ele>
      <time>2026-10-08T17:30:00.524+02:00</time>
      <extensions>
        <activity type="UNKNOWN" conf="40" state="unknown" tsMs="1791473385518"/>
        <radio op="vodafone IT" rat="LTE" q="43.20" rsrp="-98" sinr="11" rsrq="-9"/>
        <radio op="I TIM" rat="LTE" q="59.40" rsrp="-92" sinr="13" rsrq="-7"/>
      </extensions>
    </trkpt>
    <trkpt lat="45.6176347" lon="10.4942202">
      <ele>224.10000610351562</ele>
      <time>2026-10-08T17:30:31.61+02:00</time>
      <extensions>
        <activity type="UNKNOWN" conf="40" state="unknown" tsMs="1791473424322"/>
        <radio op="vodafone IT" rat="LTE" q="33.80" rsrp="-99" sinr="8" rsrq="-9"/>
        <radio op="I TIM" rat="LTE" q="68.20" rsrp="-94" sinr="17" rsrq="-9"/>
      </extensions>
    </trkpt>
    <trkpt lat="45.617663" lon="10.4941488">
      <ele>224.10000610351562</ele>
      <time>2026-10-08T17:31:02.786+02:00</time>
      <extensions>
        <activity type="UNKNOWN" conf="40" state="unknown" tsMs="1791473447619"/>
        <radio op="vodafone IT" rat="LTE" q="36.00" rsrp="-101" sinr="10" rsrq="-8"/>
        <radio op="I TIM" rat="LTE" q="78.20" rsrp="-91" sinr="18" rsrq="-7"/>
      </extensions>
    </trkpt>
    <trkpt lat="45.6176369" lon="10.4941371">
      <ele>224.10000610351562</ele>
      <time>2026-10-08T17:31:33.989+02:00</time>
      <extensions>
        <activity type="STILL" conf="96" state="still" tsMs="1791473486446"/>
        <radio op="vodafone IT" rat="LTE" q="57.50" rsrp="-100" sinr="18" rsrq="-12"/>
        <radio op="I TIM" rat="LTE" q="52.00" rsrp="-99" sinr="15" rsrq="-7"/>
      </extensions>
    </trkpt>
    <trkpt lat="45.6177022" lon="10.4941753">
      <ele>224.10000610351562</ele>
      <time>2026-10-08T17:32:05.366+02:00</time>
      <extensions>
        <activity type="STILL" conf="55" state="still" tsMs="1791473508821"/>
        <radio op="vodafone IT" rat="LTE" q="54.60" rsrp="-99" sinr="16" rsrq="-11"/>
        <radio op="I TIM" rat="LTE" q="77.50" rsrp="-94" sinr="20" rsrq="-8"/>
      </extensions>
    </trkpt>
    <trkpt lat="45.6177034" lon="10.4941512">
      <ele>224.10000610351562</ele>
      <time>2026-10-08T17:32:36.646+02:00</time>
      <extensions>
        <activity type="STILL" conf="100" state="still" tsMs="1791473547567"/>
        <radio op="vodafone IT" rat="LTE" q="57.20" rsrp="-99" sinr="17" rsrq="-11"/>
        <radio op="I TIM" rat="LTE" q="76.80" rsrp="-93" sinr="19" rsrq="-7"/>
      </extensions>
    </trkpt>
    <trkpt lat="45.6176286" lon="10.4941955">
      <ele>224.10000610351562</ele>
      <time>2026-10-08T17:33:07.93+02:00</time>
      <extensions>
        <activity type="STILL" conf="100" state="still" tsMs="1791473579325"/>
        <radio op="vodafone IT" rat="LTE" q="74.40" rsrp="-94" sinr="19" rsrq="-11"/>
        <radio op="I TIM" rat="LTE" rsrp="-96" rsrq="-7"/>
      </extensions>
    </trkpt>
    <trkpt lat="45.6176716" lon="10.4941725">
      <ele>224.10000610351562</ele>
      <time>2026-10-08T17:33:57.798+02:00</time>
      <extensions>
        <activity type="STILL" conf="99" state="still" tsMs="1791473636407"/>
        <radio op="vodafone IT" rat="LTE" q="55.00" rsrp="-103" sinr="21" rsrq="-12"/>
        <radio op="I TIM" rat="LTE" q="48.00" rsrp="-93" sinr="10" rsrq="-5"/>
      </extensions>
    </trkpt>
    <trkpt lat="45.6176858" lon="10.4941694">
      <ele>224.10000610351562</ele>
      <time>2026-10-08T17:34:33.29+02:00</time>
      <extensions>
        <activity type="STILL" conf="99" state="still" tsMs="1791473671434"/>
        <radio op="vodafone IT" rat="LTE" q="67.50" rsrp="-98" sinr="22" rsrq="-9"/>
        <radio op="I TIM" rat="LTE" q="61.20" rsrp="-91" sinr="13" rsrq="-10"/>
      </extensions>
    </trkpt>
    <trkpt lat="45.6177782" lon="10.4936736">
      <ele>224.10000610351562</ele>
      <time>2026-10-08T17:42:03.438+02:00</time>
      <extensions>
        <activity type="UNKNOWN" conf="40" state="unknown" tsMs="1791474123576"/>
        <radio op="vodafone IT" rat="LTE" q="62.10" rsrp="-98" sinr="18" rsrq="-9"/>
        <radio op="I TIM" rat="LTE" q="72.50" rsrp="-96" sinr="28" rsrq="-7"/>
      </extensions>
    </trkpt>
    <trkpt lat="45.6174707" lon="10.4944139">
      <ele>224.10000610351562</ele>
      <time>2026-10-08T17:42:37.551+02:00</time>
      <extensions>
        <activity type="STILL" conf="47" state="still" tsMs="1791474157770"/>
        <radio op="vodafone IT" rat="LTE" q="65.00" rsrp="-99" sinr="21" rsrq="-11"/>
        <radio op="I TIM" rat="LTE" q="75.00" rsrp="-95" sinr="22" rsrq="-9"/>
      </extensions>
    </trkpt>
    <trkpt lat="45.6176786" lon="10.4941774">
      <ele>224.10000610351562</ele>
      <time>2026-10-08T17:43:17.657+02:00</time>
      <extensions>
        <activity type="STILL" conf="100" state="still" tsMs="1791474183699"/>
        <radio op="vodafone IT" rat="LTE" q="60.00" rsrp="-100" sinr="19" rsrq="-12"/>
        <radio op="I TIM" rat="LTE" q="68.20" rsrp="-94" sinr="17" rsrq="-9"/>
      </extensions>
    </trkpt>
    <trkpt lat="45.6176224" lon="10.494181">
      <ele>224.10000610351562</ele>
      <time>2026-10-08T17:43:48.858+02:00</time>
      <extensions>
        <activity type="STILL" conf="33" state="still" tsMs="1791474209521"/>
        <radio op="vodafone IT" rat="LTE" q="57.20" rsrp="-99" sinr="17" rsrq="-8"/>
        <radio op="I TIM" rat="LTE" q="75.00" rsrp="-95" sinr="23" rsrq="-9"/>
      </extensions>
    </trkpt>
    <trkpt lat="45.6176328" lon="10.4942135">
      <ele>224.10000610351562</ele>
      <time>2026-10-08T17:44:19.958+02:00</time>
      <extensions>
        <activity type="STILL" conf="100" state="still" tsMs="1791474255358"/>
        <radio op="vodafone IT" rat="LTE" q="52.50" rsrp="-104" sinr="21" rsrq="-10"/>
        <radio op="I TIM" rat="LTE" q="70.00" rsrp="-97" sinr="22" rsrq="-11"/>
      </extensions>
    </trkpt>
    <trkpt lat="45.6176441" lon="10.4942245">
      <ele>224.10000610351562</ele>
      <time>2026-10-08T17:44:51.069+02:00</time>
      <extensions>
        <activity type="STILL" conf="100" state="still" tsMs="1791474275996"/>
        <radio op="vodafone IT" rat="LTE" q="44.00" rsrp="-103" sinr="15" rsrq="-10"/>
        <radio op="I TIM" rat="LTE" q="70.00" rsrp="-97" sinr="23" rsrq="-8"/>
      </extensions>
    </trkpt>
    <trkpt lat="45.6176669" lon="10.49415">
      <ele>224.10000610351562</ele>
      <time>2026-10-08T17:45:22.216+02:00</time>
      <extensions>
        <activity type="STILL" conf="33" state="still" tsMs="1791474301888"/>
        <radio op="vodafone IT" rat="LTE" q="57.50" rsrp="-100" sinr="18" rsrq="-9"/>
        <radio op="I TIM" rat="LTE" q="71.30" rsrp="-94" sinr="18" rsrq="-11"/>
      </extensions>
    </trkpt>
    <trkpt lat="45.6176747" lon="10.4941249">
      <ele>224.10000610351562</ele>
      <time>2026-10-08T17:45:53.43+02:00</time>
      <extensions>
        <activity type="STILL" conf="99" state="still" tsMs="1791474344284"/>
        <radio op="vodafone IT" rat="LTE" q="50.40" rsrp="-97" sinr="13" rsrq="-8"/>
        <radio op="I TIM" rat="LTE" q="69.30" rsrp="-92" sinr="16" rsrq="-12"/>
      </extensions>
    </trkpt>
    <trkpt lat="45.6176531" lon="10.494192">
      <ele>224.10000610351562</ele>
      <time>2026-10-08T18:13:59.463+02:00</time>
      <extensions>
        <activity type="STILL" conf="100" state="still" tsMs="1791476018851"/>
        <radio op="vodafone IT" rat="LTE" q="52.00" rsrp="-99" sinr="15" rsrq="-11"/>
        <radio op="I TIM" rat="LTE" q="90.00" rsrp="-89" sinr="26" rsrq="-10"/>
      </extensions>
    </trkpt>
    <trkpt lat="45.6176613" lon="10.4947258">
      <ele>224.10000610351562</ele>
      <time>2026-10-08T18:14:50.866+02:00</time>
      <extensions>
        <activity type="STILL" conf="100" state="still" tsMs="1791476080454"/>
        <radio op="vodafone IT" rat="LTE" q="66.70" rsrp="-96" sinr="18" rsrq="-12"/>
        <radio op="I TIM" rat="LTE" q="92.50" rsrp="-88" sinr="24" rsrq="-11"/>
      </extensions>
    </trkpt>
    <trkpt lat="45.6176633" lon="10.4941312">
      <ele>224.10000610351562</ele>
      <time>2026-10-08T18:15:52.481+02:00</time>
      <extensions>
        <activity type="STILL" conf="100" state="still" tsMs="1791476142067"/>
        <radio op="vodafone IT" rat="LTE" q="48.40" rsrp="-103" sinr="17" rsrq="-12"/>
        <radio op="I TIM" rat="LTE" q="66.00" rsrp="-95" sinr="17" rsrq="-8"/>
      </extensions>
    </trkpt>
    <trkpt lat="45.6176447" lon="10.4941811">
      <ele>224.10000610351562</ele>
      <time>2026-10-08T18:16:54.159+02:00</time>
      <extensions>
        <activity type="STILL" conf="100" state="still" tsMs="1791476203805"/>
        <radio op="vodafone IT" rat="LTE" q="39.90" rsrp="-106" sinr="16" rsrq="-11"/>
        <radio op="I TIM" rat="LTE" q="60.00" rsrp="-95" sinr="15" rsrq="-12"/>
      </extensions>
    </trkpt>
    <trkpt lat="45.6177065" lon="10.4942138">
      <ele>224.10000610351562</ele>
      <time>2026-10-08T18:17:55.785+02:00</time>
      <extensions>
        <activity type="STILL" conf="100" state="still" tsMs="1791476265358"/>
        <radio op="vodafone IT" rat="LTE" q="47.50" rsrp="-100" sinr="14" rsrq="-10"/>
        <radio op="I TIM" rat="LTE" q="84.00" rsrp="-90" sinr="19" rsrq="-12"/>
      </extensions>
    </trkpt>
    <trkpt lat="45.617673" lon="10.4941334">
      <ele>224.10000610351562</ele>
      <time>2026-10-08T18:18:57.443+02:00</time>
      <extensions>
        <activity type="STILL" conf="100" state="still" tsMs="1791476327008"/>
        <radio op="vodafone IT" rat="LTE" q="60.00" rsrp="-101" sinr="23" rsrq="-9"/>
        <radio op="I TIM" rat="LTE" q="73.50" rsrp="-90" sinr="16" rsrq="-12"/>
      </extensions>
    </trkpt>
    <trkpt lat="45.6176444" lon="10.4939904">
      <ele>224.10000610351562</ele>
      <time>2026-10-08T19:04:11.553+02:00</time>
      <extensions>
        <activity type="ON_FOOT" conf="98" state="moving" tsMs="1791479039341"/>
        <radio op="vodafone IT" rat="LTE" q="48.00" rsrp="-101" sinr="15" rsrq="-8"/>
        <radio op="I TIM" rat="LTE" q="18.00" rsrp="-107" sinr="5" rsrq="-7"/>
      </extensions>
    </trkpt>
    <trkpt lat="45.6176599" lon="10.494018">
      <ele>224.10000610351562</ele>
      <time>2026-10-08T19:04:12.554+02:00</time>
      <extensions>
        <activity type="ON_FOOT" conf="97" state="moving" tsMs="1791479051282"/>
        <radio op="vodafone IT" rat="LTE" q="56.70" rsrp="-98" sinr="16" rsrq="-9"/>
        <radio op="I TIM" rat="LTE" q="30.40" rsrp="-106" sinr="11" rsrq="-8"/>
      </extensions>
    </trkpt>
    <trkpt lat="45.617692" lon="10.4941083">
      <ele>224.10000610351562</ele>
      <time>2026-10-08T19:04:52.844+02:00</time>
      <extensions>
        <activity type="UNKNOWN" conf="40" state="unknown" tsMs="1791479077338"/>
        <radio op="vodafone IT" rat="LTE" q="52.80" rsrp="-101" sinr="17" rsrq="-11"/>
        <radio op="I TIM" rat="LTE" q="16.50" rsrp="-110" sinr="6" rsrq="-9"/>
      </extensions>
    </trkpt>
    <trkpt lat="45.6177382" lon="10.4940144">
      <ele>224.10000610351562</ele>
      <time>2026-10-08T19:05:24.318+02:00</time>
      <extensions>
        <activity type="UNKNOWN" conf="40" state="unknown" tsMs="1791479116500"/>
        <radio op="vodafone IT" rat="LTE" q="34.20" rsrp="-107" sinr="14" rsrq="-12"/>
        <radio op="I TIM" rat="LTE" q="23.80" rsrp="-108" sinr="9" rsrq="-8"/>
      </extensions>
    </trkpt>
    <trkpt lat="45.6176974" lon="10.4940828">
      <ele>224.10000610351562</ele>
      <time>2026-10-08T19:05:55.701+02:00</time>
      <extensions>
        <activity type="UNKNOWN" conf="40" state="unknown" tsMs="1791479140384"/>
        <radio op="vodafone IT" rat="LTE" q="40.00" rsrp="-105" sinr="15" rsrq="-10"/>
        <radio op="I TIM" rat="LTE" q="32.30" rsrp="-108" sinr="14" rsrq="-10"/>
      </extensions>
    </trkpt>
    <trkpt lat="45.616625" lon="10.4938622">
      <ele>224.10000610351562</ele>
      <time>2026-10-08T19:06:33.554+02:00</time>
      <extensions>
        <activity type="UNKNOWN" conf="40" state="unknown" tsMs="1791479190235"/>
        <radio op="vodafone IT" rat="LTE" q="31.20" rsrp="-101" sinr="8" rsrq="-13"/>
        <radio op="I TIM" rat="LTE" q="15.40" rsrp="-103" sinr="2" rsrq="-8"/>
      </extensions>
    </trkpt>
    <trkpt lat="45.6132815" lon="10.4972252">
      <ele>225.20001220703125</ele>
      <time>2026-10-08T19:07:13.555+02:00</time>
      <extensions>
        <activity type="UNKNOWN" conf="40" state="unknown" tsMs="1791479229149"/>
        <radio op="vodafone IT" rat="LTE" q="40.00" rsrp="-100" sinr="11" rsrq="-8"/>
        <radio op="I TIM" rat="LTE" rsrp="-122" rsrq="-15"/>
      </extensions>
    </trkpt>
    <trkpt lat="45.6113295" lon="10.4944863">
      <ele>219.90000915527344</ele>
      <time>2026-10-08T19:07:53.193+02:00</time>
      <extensions>
        <activity type="UNKNOWN" conf="40" state="unknown" tsMs="1791479255067"/>
        <radio op="vodafone IT" rat="LTE" q="12.60" rsrp="-111" sinr="4" rsrq="-10"/>
        <radio op="I TIM" rat="LTE" rsrp="-124" rsrq="-18"/>
      </extensions>
    </trkpt>
    <trkpt lat="45.6118442" lon="10.4909086">
      <ele>229.70001220703125</ele>
      <time>2026-10-08T19:08:31.554+02:00</time>
      <extensions>
        <activity type="UNKNOWN" conf="40" state="unknown" tsMs="1791479306899"/>
        <radio op="vodafone IT" rat="LTE" rsrp="-121" rsrq="-15"/>
        <radio op="I TIM" rat="LTE" rsrp="-123" rsrq="-16"/>
      </extensions>
    </trkpt>
    <trkpt lat="45.6071206" lon="10.4718436">
      <ele>257.56060879224185</ele>
      <time>2026-10-08T19:10:06.154+02:00</time>
      <extensions>
        <activity type="UNKNOWN" conf="40" state="unknown" tsMs="1791479397984"/>
        <radio op="vodafone IT" rat="LTE" q="23.80" rsrp="-111" sinr="12" rsrq="-8"/>
        <radio op="I TIM" rat="LTE" q="52.50" rsrp="-104" sinr="25" rsrq="-10"/>
      </extensions>
    </trkpt>
    <trkpt lat="45.6057156" lon="10.4671008">
      <ele>269.96014183437046</ele>
      <time>2026-10-08T19:10:58.542+02:00</time>
      <extensions>
        <activity type="IN_VEHICLE" conf="95" state="moving" tsMs="1791479461217"/>
        <radio op="vodafone IT" rat="LTE" q="43.20" rsrp="-101" sinr="13" rsrq="-6"/>
        <radio op="I TIM" rat="LTE" q="25.20" rsrp="-107" sinr="9" rsrq="-11"/>
      </extensions>
    </trkpt>
    <trkpt lat="45.6049882" lon="10.4652922">
      <ele>266.536987134543</ele>
      <time>2026-10-08T19:11:48.554+02:00</time>
      <extensions>
        <activity type="UNKNOWN" conf="40" state="unknown" tsMs="1791479499978"/>
        <radio op="vodafone IT" rat="LTE" q="92.50" rsrp="-88" sinr="23" rsrq="-7"/>
        <radio op="I TIM" rat="LTE" q="17.60" rsrp="-103" sinr="3" rsrq="-9"/>
      </extensions>
    </trkpt>
    <trkpt lat="45.6050555" lon="10.4651865">
      <ele>265.8767966767143</ele>
      <time>2026-10-08T19:11:51.553+02:00</time>
      <extensions>
        <activity type="UNKNOWN" conf="40" state="unknown" tsMs="1791479499978"/>
        <radio op="vodafone IT" rat="LTE" q="95.00" rsrp="-87" sinr="26" rsrq="-7"/>
        <radio op="I TIM" rat="LTE" q="30.00" rsrp="-100" sinr="7" rsrq="-9"/>
      </extensions>
    </trkpt>
    <trkpt lat="45.603955" lon="10.4597069">
      <ele>265.76180094108645</ele>
      <time>2026-10-08T19:12:30.15+02:00</time>
      <extensions>
        <activity type="UNKNOWN" conf="40" state="unknown" tsMs="1791479539041"/>
        <radio op="vodafone IT" rat="LTE" rsrp="-79" rsrq="-7"/>
        <radio op="I TIM" rat="LTE" q="51.30" rsrp="-98" sinr="14" rsrq="-12"/>
      </extensions>
    </trkpt>
    <trkpt lat="45.6026618" lon="10.4560726">
      <ele>261.4000244140625</ele>
      <time>2026-10-08T19:13:01.9+02:00</time>
      <extensions>
        <activity type="IN_VEHICLE" conf="88" state="moving" tsMs="1791479564999"/>
        <radio op="vodafone IT" rat="LTE" q="34.00" rsrp="-105" sinr="12" rsrq="-10"/>
        <radio op="I TIM" rat="LTE" q="13.20" rsrp="-103" sinr="1" rsrq="-12"/>
      </extensions>
    </trkpt>
    <trkpt lat="45.6022518" lon="10.4550099">
      <ele>261.4000244140625</ele>
      <time>2026-10-08T19:13:11.554+02:00</time>
      <extensions>
        <activity type="UNKNOWN" conf="40" state="unknown" tsMs="1791479577958"/>
        <radio op="vodafone IT" rat="LTE" q="8.50" rsrp="-108" sinr="0" rsrq="-11"/>
        <radio op="I TIM" rat="LTE" rsrp="-112" rsrq="-15"/>
      </extensions>
    </trkpt>
    <trkpt lat="45.6025688" lon="10.4539719">
      <ele>260.8000183105469</ele>
      <time>2026-10-08T19:14:21.554+02:00</time>
      <extensions>
        <activity type="UNKNOWN" conf="40" state="unknown" tsMs="1791479668873"/>
        <radio op="vodafone IT" rat="LTE" q="12.00" rsrp="-113" sinr="5" rsrq="-11"/>
        <radio op="I TIM" rat="LTE" q="11.70" rsrp="-112" sinr="4" rsrq="-12"/>
      </extensions>
    </trkpt>
    <trkpt lat="45.6026189" lon="10.454046">
      <ele>261.20001220703125</ele>
      <time>2026-10-08T19:14:58.486+02:00</time>
      <extensions>
        <activity type="UNKNOWN" conf="40" state="unknown" tsMs="1791479681865"/>
        <radio op="vodafone IT" rat="LTE" q="5.50" rsrp="-114" sinr="0" rsrq="-10"/>
        <radio op="I TIM" rat="LTE" q="14.40" rsrp="-113" sinr="7" rsrq="-13"/>
      </extensions>
    </trkpt>
    <trkpt lat="45.6025365" lon="10.4535431">
      <ele>260.6000061035156</ele>
      <time>2026-10-08T19:15:29.933+02:00</time>
      <extensions>
        <activity type="STILL" conf="99" state="still" tsMs="1791479718420"/>
        <radio op="vodafone IT" rat="LTE" q="9.10" rsrp="-112" sinr="2" rsrq="-12"/>
        <radio op="I TIM" rat="LTE" q="14.40" rsrp="-109" sinr="4" rsrq="-12"/>
      </extensions>
    </trkpt>
    <trkpt lat="45.6025533" lon="10.4536918">
      <ele>261.20001220703125</ele>
      <time>2026-10-08T19:16:01.167+02:00</time>
      <extensions>
        <activity type="STILL" conf="87" state="still" tsMs="1791479751406"/>
        <radio op="vodafone IT" rat="LTE" rsrp="-125" rsrq="-18"/>
        <radio op="I TIM" rat="LTE" q="3.00" rsrp="-122" sinr="5" rsrq="-13"/>
      </extensions>
    </trkpt>
    <trkpt lat="45.6025775" lon="10.453706">
      <ele>261.20001220703125</ele>
      <time>2026-10-08T19:16:32.833+02:00</time>
      <extensions>
        <activity type="UNKNOWN" conf="40" state="unknown" tsMs="1791479777214"/>
        <radio op="vodafone IT" rat="LTE" q="13.30" rsrp="-106" sinr="2" rsrq="-12"/>
        <radio op="I TIM" rat="LTE" q="37.80" rsrp="-107" sinr="16" rsrq="-9"/>
      </extensions>
    </trkpt>
    <trkpt lat="45.6025707" lon="10.4537033">
      <ele>261.20001220703125</ele>
      <time>2026-10-08T19:17:04.424+02:00</time>
      <extensions>
        <activity type="STILL" conf="100" state="still" tsMs="1791479816217"/>
        <radio op="vodafone IT" rat="LTE" q="22.10" rsrp="-108" sinr="8" rsrq="-11"/>
        <radio op="I TIM" rat="LTE" q="41.80" rsrp="-106" sinr="17" rsrq="-10"/>
      </extensions>
    </trkpt>
    <trkpt lat="45.602559" lon="10.4536873">
      <ele>261.20001220703125</ele>
      <time>2026-10-08T19:17:36.043+02:00</time>
      <extensions>
        <activity type="STILL" conf="100" state="still" tsMs="1791479844949"/>
        <radio op="vodafone IT" rat="LTE" q="23.40" rsrp="-107" sinr="8" rsrq="-11"/>
        <radio op="I TIM" rat="LTE" q="38.00" rsrp="-106" sinr="15" rsrq="-11"/>
      </extensions>
    </trkpt>
    <trkpt lat="45.6025684" lon="10.4536998">
      <ele>261.20001220703125</ele>
      <time>2026-10-08T19:18:07.623+02:00</time>
      <extensions>
        <activity type="STILL" conf="100" state="still" tsMs="1791479883108"/>
        <radio op="vodafone IT" rat="LTE" q="34.20" rsrp="-106" sinr="13" rsrq="-12"/>
        <radio op="I TIM" rat="LTE" q="39.90" rsrp="-106" sinr="16" rsrq="-10"/>
      </extensions>
    </trkpt>
    <trkpt lat="45.6025733" lon="10.4537032">
      <ele>261.20001220703125</ele>
      <time>2026-10-08T19:18:39.145+02:00</time>
      <extensions>
        <activity type="STILL" conf="100" state="still" tsMs="1791479909812"/>
        <radio op="vodafone IT" rat="LTE" q="20.90" rsrp="-106" sinr="6" rsrq="-10"/>
        <radio op="I TIM" rat="LTE" q="41.80" rsrp="-106" sinr="17" rsrq="-11"/>
      </extensions>
    </trkpt>
  </trkseg></trk>
</gpx>
