<?xml version="1.0" encoding="UTF-8"?>
<gpx version="1.1" creator="CellGPX" xmlns="http://www.topografix.com/GPX/1/1">
  <trk><name>CellGPX</name><trkseg>
    <trkpt lat="45.6025147" lon="10.4536684">
      <ele>261.70001220703125</ele>
      <time>2026-06-21T21:31:59.89+02:00</time>
      <extensions>
        <activity type="UNKNOWN" conf="40" state="unknown" tsMs="1782070317337"/>
        <radio op="vodafone IT" rat="LTE" q="5.00" rsrp="-120" sinr="5" rsrq="-13"/>
        <radio op="I TIM" rat="LTE" q="2.40" rsrp="-121" sinr="1" rsrq="-16"/>
      </extensions>
    </trkpt>
    <trkpt lat="45.6025101" lon="10.4536675">
      <ele>261.70001220703125</ele>
      <time>2026-06-21T21:32:09.808+02:00</time>
      <extensions>
        <activity type="UNKNOWN" conf="40" state="unknown" tsMs="1782070322767"/>
        <radio op="vodafone IT" rat="LTE" q="2.50" rsrp="-120" sinr="0" rsrq="-12"/>
        <radio op="I TIM" rat="LTE" rsrp="-122" rsrq="-16"/>
      </extensions>
    </trkpt>
    <trkpt lat="45.6025098" lon="10.4536703">
      <ele>261.70001220703125</ele>
      <time>2026-06-21T21:32:18.188+02:00</time>
      <extensions>
        <activity type="UNKNOWN" conf="40" state="unknown" tsMs="1782070322767"/>
        <radio op="vodafone IT" rat="LTE" q="4.40" rsrp="-121" sinr="6" rsrq="-15"/>
        <radio op="I TIM" rat="LTE" rsrp="-117" rsrq="-14"/>
      </extensions>
    </trkpt>
    <trkpt lat="45.6025399" lon="10.4536682">
      <ele>261.70001220703125</ele>
      <time>2026-06-21T21:32:25.061+02:00</time>
      <extensions>
        <activity type="UNKNOWN" conf="40" state="unknown" tsMs="1782070346621"/>
        <radio op="vodafone IT" rat="LTE" q="2.40" rsrp="-122" sinr="3" rsrq="-15"/>
        <radio op="I TIM" rat="LTE" rsrp="-118" rsrq="-14"/>
      </extensions>
    </trkpt>
    <trkpt lat="45.6025412" lon="10.4536668">
      <ele>261.70001220703125</ele>
      <time>2026-06-21T21:32:32.461+02:00</time>
      <extensions>
        <activity type="STILL" conf="33" state="still" tsMs="1782070351970"/>
        <radio op="vodafone IT" rat="LTE" q="6.00" rsrp="-113" sinr="0" rsrq="-13"/>
        <radio op="I TIM" rat="LTE" q="4.80" rsrp="-119" sinr="3" rsrq="-13"/>
      </extensions>
    </trkpt>
    <trkpt lat="45.6025398" lon="10.4536665">
      <ele>261.70001220703125</ele>
      <time>2026-06-21T21:32:39.809+02:00</time>
      <extensions>
        <activity type="STILL" conf="33" state="still" tsMs="1782070351970"/>
        <radio op="vodafone IT" rat="LTE" rsrp="-120" rsrq="-12"/>
        <radio op="I TIM" rat="LTE" q="5.40" rsrp="-116" sinr="1" rsrq="-11"/>
      </extensions>
    </trkpt>
    <trkpt lat="45.6025404" lon="10.4536667">
      <ele>261.70001220703125</ele>
      <time>2026-06-21T21:32:51.611+02:00</time>
      <extensions>
        <activity type="STILL" conf="50" state="still" tsMs="1782070376110"/>
        <radio op="vodafone IT" rat="LTE" rsrp="-118" rsrq="-11"/>
        <radio op="I TIM" rat="LTE" q="4.90" rsrp="-118" sinr="2" rsrq="-13"/>
      </extensions>
    </trkpt>
    <trkpt lat="45.6025602" lon="10.4536575">
      <ele>261.70001220703125</ele>
      <time>2026-06-21T21:33:06.976+02:00</time>
      <extensions>
        <activity type="STILL" conf="96" state="still" tsMs="1782070386687"/>
        <radio op="vodafone IT" rat="LTE" rsrp="-118" rsrq="-17"/>
        <radio op="I TIM" rat="LTE" rsrp="-115" rsrq="-17"/>
      </extensions>
    </trkpt>
    <trkpt lat="45.6025968" lon="10.4536583">
      <ele>261.70001220703125</ele>
      <time>2026-06-21T21:33:21.239+02:00</time>
      <extensions>
        <activity type="STILL" conf="96" state="still" tsMs="1782070386687"/>
        <radio op="vodafone IT" rat="LTE" rsrp="-114" rsrq="-13"/>
        <radio op="I TIM" rat="LTE" rsrp="-104" rsrq="-11"/>
      </extensions>
    </trkpt>
    <trkpt lat="45.6026805" lon="10.4535033">
      <ele>261.70001220703125</ele>
      <time>2026-06-21T21:33:31.595+02:00</time>
      <extensions>
        <activity type="ON_FOOT" conf="98" state="moving" tsMs="1782070410516"/>
        <radio op="vodafone IT" rat="LTE" q="14.30" rsrp="-112" sinr="6" rsrq="-10"/>
        <radio op="I TIM" rat="LTE" q="25.20" rsrp="-104" sinr="7" rsrq="-13"/>
      </extensions>
    </trkpt>
    <trkpt lat="45.6026127" lon="10.4533343">
      <ele>261.5</ele>
      <time>2026-06-21T21:33:40.464+02:00</time>
      <extensions>
        <activity type="ON_FOOT" conf="96" state="moving" tsMs="1782070415886"/>
        <radio op="vodafone IT" rat="LTE" rsrp="-111" rsrq="-13"/>
        <radio op="I TIM" rat="LTE" q="9.50" rsrp="-106" sinr="0" rsrq="-14"/>
      </extensions>
    </trkpt>
    <trkpt lat="45.6025041" lon="10.4529721">
      <ele>261.5</ele>
      <time>2026-06-21T21:34:00.24+02:00</time>
      <extensions>
        <activity type="ON_FOOT" conf="95" state="moving" tsMs="1782070421181"/>
        <radio op="vodafone IT" rat="LTE" q="26.40" rsrp="-103" sinr="7" rsrq="-10"/>
        <radio op="I TIM" rat="LTE" q="33.60" rsrp="-101" sinr="9" rsrq="-12"/>
      </extensions>
    </trkpt>
    <trkpt lat="45.6022708" lon="10.4524504">
      <ele>261.5</ele>
      <time>2026-06-21T21:34:34.022+02:00</time>
      <extensions>
        <activity type="ON_FOOT" conf="96" state="moving" tsMs="1782070467555"/>
        <radio op="vodafone IT" rat="LTE" rsrp="-104" rsrq="-16"/>
        <radio op="I TIM" rat="LTE" q="26.40" rsrp="-103" sinr="7" rsrq="-11"/>
      </extensions>
    </trkpt>
    <trkpt lat="45.6022708" lon="10.4524504">
      <ele>261.5</ele>
      <time>2026-06-21T21:35:12.344+02:00</time>
      <extensions>
        <activity type="ON_FOOT" conf="93" state="moving" tsMs="1782070508806"/>
        <radio op="vodafone IT" rat="LTE" rsrp="-101" rsrq="-12"/>
        <radio op="I TIM" rat="LTE" q="46.00" rsrp="-102" sinr="15" rsrq="-11"/>
      </extensions>
    </trkpt>
    <trkpt lat="45.6018148" lon="10.4511754">
      <ele>260.9000244140625</ele>
      <time>2026-06-21T21:35:48.268+02:00</time>
      <extensions>
        <activity type="ON_FOOT" conf="93" state="moving" tsMs="1782070545305"/>
        <radio op="vodafone IT" rat="LTE" q="29.00" rsrp="-96" sinr="5" rsrq="-11"/>
        <radio op="I TIM" rat="LTE" q="48.00" rsrp="-101" sinr="15" rsrq="-12"/>
      </extensions>
    </trkpt>
    <trkpt lat="45.6016793" lon="10.4500485">
      <ele>260.3000183105469</ele>
      <time>2026-06-21T21:36:42.232+02:00</time>
      <extensions>
        <activity type="ON_FOOT" conf="96" state="moving" tsMs="1782070600878"/>
        <radio op="vodafone IT" rat="LTE" q="30.80" rsrp="-103" sinr="9" rsrq="-9"/>
        <radio op="I TIM" rat="LTE" q="27.00" rsrp="-98" sinr="5" rsrq="-13"/>
      </extensions>
    </trkpt>
    <trkpt lat="45.6015639" lon="10.4500989">
      <ele>260.3000183105469</ele>
      <time>2026-06-21T21:36:48.241+02:00</time>
      <extensions>
        <activity type="ON_FOOT" conf="96" state="moving" tsMs="1782070600878"/>
        <radio op="vodafone IT" rat="LTE" q="34.00" rsrp="-105" sinr="12" rsrq="-7"/>
        <radio op="I TIM" rat="LTE" rsrp="-102" rsrq="-13"/>
      </extensions>
    </trkpt>
    <trkpt lat="45.6014254" lon="10.4494731">
      <ele>260.20001220703125</ele>
      <time>2026-06-21T21:37:23.677+02:00</time>
      <extensions>
        <activity type="ON_FOOT" conf="95" state="moving" tsMs="1782070638546"/>
        <radio op="vodafone IT" rat="LTE" q="10.50" rsrp="-110" sinr="2" rsrq="-13"/>
        <radio op="I TIM" rat="LTE" q="29.90" rsrp="-102" sinr="8" rsrq="-13"/>
      </extensions>
    </trkpt>
    <trkpt lat="45.601441" lon="10.4489955">
      <ele>260.3000183105469</ele>
      <time>2026-06-21T21:38:06.457+02:00</time>
      <extensions>
        <activity type="ON_FOOT" conf="96" state="moving" tsMs="1782070682373"/>
        <radio op="vodafone IT" rat="LTE" q="11.00" rsrp="-103" sinr="0" rsrq="-15"/>
        <radio op="I TIM" rat="LTE" q="19.60" rsrp="-97" sinr="2" rsrq="-16"/>
      </extensions>
    </trkpt>
    <trkpt lat="45.6008861" lon="10.4485421">
      <ele>259.5</ele>
      <time>2026-06-21T21:38:37.733+02:00</time>
      <extensions>
        <activity type="ON_FOOT" conf="97" state="moving" tsMs="1782070713986"/>
        <radio op="vodafone IT" rat="LTE" rsrp="-105" rsrq="-12"/>
        <radio op="I TIM" rat="LTE" rsrp="-96" rsrq="-14"/>
      </extensions>
    </trkpt>
    <trkpt lat="45.6002199" lon="10.4481589">
      <ele>259.3000183105469</ele>
      <time>2026-06-21T21:39:09.517+02:00</time>
      <extensions>
        <activity type="ON_FOOT" conf="96" state="moving" tsMs="1782070745777"/>
        <radio op="vodafone IT" rat="LTE" rsrp="-106" rsrq="-13"/>
        <radio op="I TIM" rat="LTE" q="18.90" rsrp="-98" sinr="2" rsrq="-13"/>
      </extensions>
    </trkpt>
    <trkpt lat="45.6000238" lon="10.4484706">
      <ele>259.20001220703125</ele>
      <time>2026-06-21T21:39:40.772+02:00</time>
      <extensions>
        <activity type="ON_FOOT" conf="88" state="moving" tsMs="1782070777024"/>
        <radio op="vodafone IT" rat="LTE" q="10.00" rsrp="-105" sinr="0" rsrq="-13"/>
        <radio op="I TIM" rat="LTE" q="42.00" rsrp="-97" sinr="10" rsrq="-12"/>
      </extensions>
    </trkpt>
    <trkpt lat="45.5996781" lon="10.4488617">
      <ele>258.6000061035156</ele>
      <time>2026-06-21T21:40:13.907+02:00</time>
      <extensions>
        <activity type="ON_FOOT" conf="96" state="moving" tsMs="1782070808522"/>
        <radio op="vodafone IT" rat="LTE" q="22.50" rsrp="-100" sinr="4" rsrq="-11"/>
        <radio op="I TIM" rat="LTE" q="86.40" rsrp="-89" sinr="19" rsrq="-12"/>
      </extensions>
    </trkpt>
    <trkpt lat="45.5992656" lon="10.4493492">
      <ele>258.20001220703125</ele>
      <time>2026-06-21T21:40:49.115+02:00</time>
      <extensions>
        <activity type="ON_FOOT" conf="94" state="moving" tsMs="1782070846825"/>
        <radio op="vodafone IT" rat="LTE" q="29.00" rsrp="-96" sinr="5" rsrq="-11"/>
        <radio op="I TIM" rat="LTE" q="46.50" rsrp="-94" sinr="10" rsrq="-12"/>
      </extensions>
    </trkpt>
    <trkpt lat="45.5984702" lon="10.4495887">
      <ele>257.9000244140625</ele>
      <time>2026-06-21T21:41:20.376+02:00</time>
      <extensions>
        <activity type="ON_FOOT" conf="95" state="moving" tsMs="1782070877001"/>
        <radio op="vodafone IT" rat="LTE" q="37.80" rsrp="-98" sinr="9" rsrq="-12"/>
        <radio op="I TIM" rat="LTE" q="44.80" rsrp="-93" sinr="9" rsrq="-12"/>
      </extensions>
    </trkpt>
    <trkpt lat="45.5981541" lon="10.4490662">
      <ele>257.8000183105469</ele>
      <time>2026-06-21T21:41:51.697+02:00</time>
      <extensions>
        <activity type="ON_FOOT" conf="96" state="moving" tsMs="1782070908218"/>
        <radio op="vodafone IT" rat="LTE" q="22.50" rsrp="-100" sinr="4" rsrq="-11"/>
        <radio op="I TIM" rat="LTE" q="85.10" rsrp="-88" sinr="18" rsrq="-11"/>
      </extensions>
    </trkpt>
    <trkpt lat="45.5979132" lon="10.4485943">
      <ele>257.8000183105469</ele>
      <time>2026-06-21T21:42:28.833+02:00</time>
      <extensions>
        <activity type="ON_FOOT" conf="96" state="moving" tsMs="1782070942603"/>
        <radio op="vodafone IT" rat="LTE" rsrp="-105" rsrq="-16"/>
        <radio op="I TIM" rat="LTE" q="46.20" rsrp="-92" sinr="9" rsrq="-13"/>
      </extensions>
    </trkpt>
    <trkpt lat="45.5976105" lon="10.4484485">
      <ele>257.8000183105469</ele>
      <time>2026-06-21T21:43:01.749+02:00</time>
      <extensions>
        <activity type="ON_FOOT" conf="96" state="moving" tsMs="1782070979921"/>
        <radio op="vodafone IT" rat="LTE" q="19.20" rsrp="-93" sinr="1" rsrq="-8"/>
        <radio op="I TIM" rat="LTE" q="33.60" rsrp="-97" sinr="7" rsrq="-13"/>
      </extensions>
    </trkpt>
    <trkpt lat="45.5973613" lon="10.4472498">
      <ele>257.8000183105469</ele>
      <time>2026-06-21T21:43:38.975+02:00</time>
      <extensions>
        <activity type="ON_FOOT" conf="96" state="moving" tsMs="1782071015040"/>
        <radio op="vodafone IT" rat="LTE" q="20.00" rsrp="-100" sinr="3" rsrq="-10"/>
        <radio op="I TIM" rat="LTE" q="13.50" rsrp="-98" sinr="0" rsrq="-13"/>
      </extensions>
    </trkpt>
    <trkpt lat="45.5970468" lon="10.4471578">
      <ele>257.20001220703125</ele>
      <time>2026-06-21T21:44:14.422+02:00</time>
      <extensions>
        <activity type="ON_FOOT" conf="96" state="moving" tsMs="1782071051895"/>
        <radio op="vodafone IT" rat="LTE" q="14.40" rsrp="-101" sinr="1" rsrq="-14"/>
        <radio op="I TIM" rat="LTE" q="27.00" rsrp="-95" sinr="4" rsrq="-9"/>
      </extensions>
    </trkpt>
    <trkpt lat="45.5965194" lon="10.4450289">
      <ele>256.8999938964844</ele>
      <time>2026-06-21T21:44:54.545+02:00</time>
      <extensions>
        <activity type="ON_FOOT" conf="93" state="moving" tsMs="1782071093343"/>
        <radio op="vodafone IT" rat="LTE" q="30.00" rsrp="-100" sinr="7" rsrq="-14"/>
        <radio op="I TIM" rat="LTE" rsrp="-96" rsrq="-14"/>
      </extensions>
    </trkpt>
    <trkpt lat="45.596592" lon="10.4457255">
      <ele>256.8999938964844</ele>
      <time>2026-06-21T21:45:27.246+02:00</time>
      <extensions>
        <activity type="ON_FOOT" conf="96" state="moving" tsMs="1782071127690"/>
        <radio op="vodafone IT" rat="LTE" q="34.20" rsrp="-87" sinr="4" rsrq="-11"/>
        <radio op="I TIM" rat="LTE" rsrp="-91" rsrq="-11"/>
      </extensions>
    </trkpt>
    <trkpt lat="45.596592" lon="10.4457255">
      <ele>256.1000061035156</ele>
      <time>2026-06-21T21:46:09.834+02:00</time>
      <extensions>
        <activity type="ON_FOOT" conf="90" state="moving" tsMs="1782071165299"/>
        <radio op="vodafone IT" rat="LTE" q="37.20" rsrp="-94" sinr="7" rsrq="-9"/>
        <radio op="I TIM" rat="LTE" q="41.60" rsrp="-93" sinr="8" rsrq="-12"/>
      </extensions>
    </trkpt>
    <trkpt lat="45.595772" lon="10.4446488">
      <ele>256.20001220703125</ele>
      <time>2026-06-21T21:46:53.733+02:00</time>
      <extensions>
        <activity type="ON_FOOT" conf="93" state="moving" tsMs="1782071208032"/>
        <radio op="vodafone IT" rat="LTE" q="22.40" rsrp="-97" sinr="3" rsrq="-11"/>
        <radio op="I TIM" rat="LTE" q="25.00" rsrp="-100" sinr="5" rsrq="-12"/>
      </extensions>
    </trkpt>
    <trkpt lat="45.5954002" lon="10.4439822">
      <ele>256.1000061035156</ele>
      <time>2026-06-21T21:47:36.083+02:00</time>
      <extensions>
        <activity type="ON_FOOT" conf="97" state="moving" tsMs="1782071250522"/>
        <radio op="vodafone IT" rat="LTE" q="28.00" rsrp="-97" sinr="5" rsrq="-10"/>
        <radio op="I TIM" rat="LTE" q="49.60" rsrp="-94" sinr="11" rsrq="-12"/>
      </extensions>
    </trkpt>
    <trkpt lat="45.5953266" lon="10.4440046">
      <ele>256.1000061035156</ele>
      <time>2026-06-21T21:47:43.243+02:00</time>
      <extensions>
        <activity type="ON_FOOT" conf="96" state="moving" tsMs="1782071261982"/>
        <radio op="vodafone IT" rat="LTE" q="18.90" rsrp="-98" sinr="2" rsrq="-12"/>
        <radio op="I TIM" rat="LTE" q="22.40" rsrp="-93" sinr="2" rsrq="-12"/>
      </extensions>
    </trkpt>
    <trkpt lat="45.5950566" lon="10.4433024">
      <ele>256.1000061035156</ele>
      <time>2026-06-21T21:48:21.169+02:00</time>
      <extensions>
        <activity type="ON_FOOT" conf="96" state="moving" tsMs="1782071300101"/>
        <radio op="vodafone IT" rat="LTE" q="31.50" rsrp="-90" sinr="4" rsrq="-11"/>
        <radio op="I TIM" rat="LTE" q="56.00" rsrp="-81" sinr="9" rsrq="-9"/>
      </extensions>
    </trkpt>
    <trkpt lat="45.5952651" lon="10.4440697">
      <ele>256.1000061035156</ele>
      <time>2026-06-21T21:49:03.612+02:00</time>
      <extensions>
        <activity type="ON_FOOT" conf="97" state="moving" tsMs="1782071340538"/>
        <radio op="vodafone IT" rat="LTE" q="62.40" rsrp="-86" sinr="11" rsrq="-9"/>
        <radio op="I TIM" rat="LTE" q="72.00" rsrp="-77" sinr="13" rsrq="-10"/>
      </extensions>
    </trkpt>
    <trkpt lat="45.5951365" lon="10.4437774">
      <ele>256.20001220703125</ele>
      <time>2026-06-21T21:49:46.852+02:00</time>
      <extensions>
        <activity type="ON_FOOT" conf="96" state="moving" tsMs="1782071380282"/>
        <radio op="vodafone IT" rat="LTE" q="52.80" rsrp="-92" sinr="11" rsrq="-9"/>
        <radio op="I TIM" rat="LTE" q="81.40" rsrp="-88" sinr="17" rsrq="-11"/>
      </extensions>
    </trkpt>
    <trkpt lat="45.5955336" lon="10.4443028">
      <ele>256.3999938964844</ele>
      <time>2026-06-21T21:50:30.298+02:00</time>
      <extensions>
        <activity type="ON_FOOT" conf="93" state="moving" tsMs="1782071429787"/>
        <radio op="vodafone IT" rat="LTE" rsrp="-102" rsrq="-13"/>
        <radio op="I TIM" rat="LTE" q="29.70" rsrp="-98" sinr="6" rsrq="-10"/>
      </extensions>
    </trkpt>
    <trkpt lat="45.5957772" lon="10.4446298">
      <ele>256.20001220703125</ele>
      <time>2026-06-21T21:51:00.835+02:00</time>
      <extensions>
        <activity type="ON_FOOT" conf="96" state="moving" tsMs="1782071456563"/>
        <radio op="vodafone IT" rat="LTE" rsrp="-107" rsrq="-13"/>
        <radio op="I TIM" rat="LTE" rsrp="-107" rsrq="-13"/>
      </extensions>
    </trkpt>
    <trkpt lat="45.5960907" lon="10.4452204">
      <ele>256.29998779296875</ele>
      <time>2026-06-21T21:51:33.442+02:00</time>
      <extensions>
        <activity type="ON_FOOT" conf="96" state="moving" tsMs="1782071488546"/>
        <radio op="vodafone IT" rat="LTE" q="17.10" rsrp="-106" sinr="4" rsrq="-13"/>
        <radio op="I TIM" rat="LTE" rsrp="-105" rsrq="-11"/>
      </extensions>
    </trkpt>
    <trkpt lat="45.5962145" lon="10.4451958">
      <ele>256.29998779296875</ele>
      <time>2026-06-21T21:51:42.24+02:00</time>
      <extensions>
        <activity type="ON_FOOT" conf="97" state="moving" tsMs="1782071499719"/>
        <radio op="vodafone IT" rat="LTE" q="23.00" rsrp="-102" sinr="5" rsrq="-11"/>
        <radio op="I TIM" rat="LTE" rsrp="-106" rsrq="-11"/>
      </extensions>
    </trkpt>
    <trkpt lat="45.5965744" lon="10.4453145">
      <ele>256.8999938964844</ele>
      <time>2026-06-21T21:52:27.266+02:00</time>
      <extensions>
        <activity type="ON_FOOT" conf="91" state="moving" tsMs="1782071542940"/>
        <radio op="vodafone IT" rat="LTE" q="37.80" rsrp="-98" sinr="9" rsrq="-11"/>
        <radio op="I TIM" rat="LTE" q="20.30" rsrp="-96" sinr="2" rsrq="-11"/>
      </extensions>
    </trkpt>
    <trkpt lat="45.5966178" lon="10.4459095">
      <ele>256.79998779296875</ele>
      <time>2026-06-21T21:53:05.59+02:00</time>
      <extensions>
        <activity type="ON_FOOT" conf="96" state="moving" tsMs="1782071581279"/>
        <radio op="vodafone IT" rat="LTE" q="19.20" rsrp="-101" sinr="3" rsrq="-12"/>
        <radio op="I TIM" rat="LTE" q="24.80" rsrp="-94" sinr="3" rsrq="-13"/>
      </extensions>
    </trkpt>
    <trkpt lat="45.5978372" lon="10.4471018">
      <ele>257.3999938964844</ele>
      <time>2026-06-21T21:53:48.325+02:00</time>
      <extensions>
        <activity type="ON_FOOT" conf="97" state="moving" tsMs="1782071624689"/>
        <radio op="vodafone IT" rat="LTE" q="11.00" rsrp="-103" sinr="0" rsrq="-11"/>
        <radio op="I TIM" rat="LTE" q="24.00" rsrp="-83" sinr="1" rsrq="-9"/>
      </extensions>
    </trkpt>
    <trkpt lat="45.5976915" lon="10.4480056">
      <ele>257.8000183105469</ele>
      <time>2026-06-21T21:54:26.575+02:00</time>
      <extensions>
        <activity type="ON_FOOT" conf="96" state="moving" tsMs="1782071661907"/>
        <radio op="vodafone IT" rat="LTE" q="12.60" rsrp="-107" sinr="2" rsrq="-14"/>
        <radio op="I TIM" rat="LTE" q="20.80" rsrp="-99" sinr="3" rsrq="-13"/>
      </extensions>
    </trkpt>
    <trkpt lat="45.5980093" lon="10.448645">
      <ele>257.8000183105469</ele>
      <time>2026-06-21T21:55:05.58+02:00</time>
      <extensions>
        <activity type="ON_FOOT" conf="97" state="moving" tsMs="1782071704752"/>
        <radio op="vodafone IT" rat="LTE" q="35.10" rsrp="-86" sinr="4" rsrq="-9"/>
        <radio op="I TIM" rat="LTE" q="79.20" rsrp="-89" sinr="17" rsrq="-11"/>
      </extensions>
    </trkpt>
    <trkpt lat="45.5985584" lon="10.4488269">
      <ele>256.79998779296875</ele>
      <time>2026-06-21T21:55:41.259+02:00</time>
      <extensions>
        <activity type="ON_FOOT" conf="92" state="moving" tsMs="1782071740636"/>
        <radio op="vodafone IT" rat="LTE" q="36.30" rsrp="-92" sinr="6" rsrq="-11"/>
        <radio op="I TIM" rat="LTE" q="68.00" rsrp="-80" sinr="12" rsrq="-12"/>
      </extensions>
    </trkpt>
    <trkpt lat="45.5989277" lon="10.4494007">
      <ele>257.8000183105469</ele>
      <time>2026-06-21T21:56:18.016+02:00</time>
      <extensions>
        <activity type="ON_FOOT" conf="96" state="moving" tsMs="1782071767360"/>
        <radio op="vodafone IT" rat="LTE" rsrp="-101" rsrq="-13"/>
        <radio op="I TIM" rat="LTE" q="92.00" rsrp="-84" sinr="18" rsrq="-10"/>
      </extensions>
    </trkpt>
    <trkpt lat="45.5990531" lon="10.4494442">
      <ele>257.9000244140625</ele>
      <time>2026-06-21T21:56:50.033+02:00</time>
      <extensions>
        <activity type="ON_FOOT" conf="96" state="moving" tsMs="1782071805562"/>
        <radio op="vodafone IT" rat="LTE" q="13.50" rsrp="-98" sinr="0" rsrq="-13"/>
        <radio op="I TIM" rat="LTE" q="58.00" rsrp="-96" sinr="15" rsrq="-10"/>
      </extensions>
    </trkpt>
    <trkpt lat="45.5992748" lon="10.4501854">
      <ele>257.8000183105469</ele>
      <time>2026-06-21T21:57:24.844+02:00</time>
      <extensions>
        <activity type="ON_FOOT" conf="97" state="moving" tsMs="1782071843537"/>
        <radio op="vodafone IT" rat="LTE" q="21.60" rsrp="-101" sinr="4" rsrq="-11"/>
        <radio op="I TIM" rat="LTE" q="24.00" rsrp="-95" sinr="3" rsrq="-13"/>
      </extensions>
    </trkpt>
    <trkpt lat="45.5997197" lon="10.4508148">
      <ele>259.0</ele>
      <time>2026-06-21T21:58:05.106+02:00</time>
      <extensions>
        <activity type="ON_FOOT" conf="97" state="moving" tsMs="1782071881217"/>
        <radio op="vodafone IT" rat="LTE" q="23.40" rsrp="-107" sinr="8" rsrq="-12"/>
        <radio op="I TIM" rat="LTE" q="18.90" rsrp="-104" sinr="4" rsrq="-11"/>
      </extensions>
    </trkpt>
    <trkpt lat="45.5998602" lon="10.4510794">
      <ele>258.3000183105469</ele>
      <time>2026-06-21T21:58:39.602+02:00</time>
      <extensions>
        <activity type="ON_FOOT" conf="96" state="moving" tsMs="1782071918078"/>
        <radio op="vodafone IT" rat="LTE" q="34.50" rsrp="-102" sinr="10" rsrq="-12"/>
        <radio op="I TIM" rat="LTE" q="49.40" rsrp="-99" sinr="14" rsrq="-11"/>
      </extensions>
    </trkpt>
    <trkpt lat="45.6005149" lon="10.4516447">
      <ele>259.5</ele>
      <time>2026-06-21T21:59:20.606+02:00</time>
      <extensions>
        <activity type="ON_FOOT" conf="96" state="moving" tsMs="1782071955943"/>
        <radio op="vodafone IT" rat="LTE" q="44.20" rsrp="-99" sinr="12" rsrq="-11"/>
        <radio op="I TIM" rat="LTE" q="50.40" rsrp="-97" sinr="13" rsrq="-9"/>
      </extensions>
    </trkpt>
    <trkpt lat="45.600726" lon="10.4523671">
      <ele>259.5</ele>
      <time>2026-06-21T21:59:55.766+02:00</time>
      <extensions>
        <activity type="ON_FOOT" conf="96" state="moving" tsMs="1782071993708"/>
        <radio op="vodafone IT" rat="LTE" q="33.00" rsrp="-103" sinr="10" rsrq="-10"/>
        <radio op="I TIM" rat="LTE" q="52.80" rsrp="-101" sinr="17" rsrq="-11"/>
      </extensions>
    </trkpt>
    <trkpt lat="45.6010178" lon="10.4528463">
      <ele>260.4000244140625</ele>
      <time>2026-06-21T22:00:38.858+02:00</time>
      <extensions>
        <activity type="ON_FOOT" conf="96" state="moving" tsMs="1782072029958"/>
        <radio op="vodafone IT" rat="LTE" q="48.60" rsrp="-98" sinr="13" rsrq="-11"/>
        <radio op="I TIM" rat="LTE" q="43.50" rsrp="-96" sinr="10" rsrq="-11"/>
      </extensions>
    </trkpt>
    <trkpt lat="45.6014647" lon="10.4536746">
      <ele>260.70001220703125</ele>
      <time>2026-06-21T22:01:27.658+02:00</time>
      <extensions>
        <activity type="ON_FOOT" conf="96" state="moving" tsMs="1782072086947"/>
        <radio op="vodafone IT" rat="LTE" q="50.00" rsrp="-100" sinr="15" rsrq="-8"/>
        <radio op="I TIM" rat="LTE" q="40.30" rsrp="-94" sinr="8" rsrq="-11"/>
      </extensions>
    </trkpt>
    <trkpt lat="45.6021261" lon="10.4533073">
      <ele>261.8000183105469</ele>
      <time>2026-06-21T22:01:59.673+02:00</time>
      <extensions>
        <activity type="ON_FOOT" conf="95" state="moving" tsMs="1782072118525"/>
        <radio op="vodafone IT" rat="LTE" q="74.00" rsrp="-88" sinr="15" rsrq="-7"/>
        <radio op="I TIM" rat="LTE" q="24.80" rsrp="-94" sinr="3" rsrq="-10"/>
      </extensions>
    </trkpt>
    <trkpt lat="45.6019564" lon="10.4533279">
      <ele>261.8000183105469</ele>
      <time>2026-06-21T22:02:07.238+02:00</time>
      <extensions>
        <activity type="ON_FOOT" conf="95" state="moving" tsMs="1782072118525"/>
        <radio op="vodafone IT" rat="LTE" q="36.80" rsrp="-102" sinr="11" rsrq="-12"/>
        <radio op="I TIM" rat="LTE" q="28.80" rsrp="-93" sinr="4" rsrq="-8"/>
      </extensions>
    </trkpt>
    <trkpt lat="45.6019595" lon="10.4533055">
      <ele>261.70001220703125</ele>
      <time>2026-06-21T22:02:45.911+02:00</time>
      <extensions>
        <activity type="ON_FOOT" conf="96" state="moving" tsMs="1782072164548"/>
        <radio op="vodafone IT" rat="LTE" q="9.10" rsrp="-112" sinr="2" rsrq="-13"/>
        <radio op="I TIM" rat="LTE" q="30.60" rsrp="-107" sinr="12" rsrq="-12"/>
      </extensions>
    </trkpt>
    <trkpt lat="45.6025462" lon="10.4536636">
      <ele>261.70001220703125</ele>
      <time>2026-06-21T22:03:26.227+02:00</time>
      <extensions>
        <activity type="ON_FOOT" conf="89" state="moving" tsMs="1782072202252"/>
        <radio op="vodafone IT" rat="LTE" q="6.60" rsrp="-114" sinr="1" rsrq="-13"/>
        <radio op="I TIM" rat="LTE" q="7.70" rsrp="-114" sinr="2" rsrq="-12"/>
      </extensions>
    </trkpt>
    <trkpt lat="45.6025444" lon="10.4536639">
      <ele>261.70001220703125</ele>
      <time>2026-06-21T22:03:49.825+02:00</time>
      <extensions>
        <activity type="UNKNOWN" conf="40" state="unknown" tsMs="1782072228628"/>
        <radio op="vodafone IT" rat="LTE" rsrp="-115" rsrq="-15"/>
        <radio op="I TIM" rat="LTE" q="10.20" rsrp="-108" sinr="1" rsrq="-12"/>
      </extensions>
    </trkpt>
    <trkpt lat="45.6025412" lon="10.4536674">
      <ele>261.70001220703125</ele>
      <time>2026-06-21T22:04:28.428+02:00</time>
      <extensions>
        <activity type="STILL" conf="99" state="still" tsMs="1782072263001"/>
        <radio op="vodafone IT" rat="LTE" q="36.00" rsrp="-110" sinr="19" rsrq="-9"/>
        <radio op="I TIM" rat="LTE" q="16.20" rsrp="-107" sinr="4" rsrq="-13"/>
      </extensions>
    </trkpt>
    <trkpt lat="45.6025396" lon="10.4536687">
      <ele>261.70001220703125</ele>
      <time>2026-06-21T22:05:00.188+02:00</time>
      <extensions>
        <activity type="STILL" conf="72" state="still" tsMs="1782072296214"/>
        <radio op="vodafone IT" rat="LTE" q="7.50" rsrp="-110" sinr="0" rsrq="-12"/>
        <radio op="I TIM" rat="LTE" rsrp="-111" rsrq="-13"/>
      </extensions>
    </trkpt>
    <trkpt lat="45.6025374" lon="10.4536681">
      <ele>261.70001220703125</ele>
      <time>2026-06-21T22:05:29.649+02:00</time>
      <extensions>
        <activity type="STILL" conf="43" state="still" tsMs="1782072327783"/>
        <radio op="vodafone IT" rat="LTE" q="5.50" rsrp="-114" sinr="0" rsrq="-12"/>
        <radio op="I TIM" rat="LTE" q="5.40" rsrp="-116" sinr="1" rsrq="-12"/>
      </extensions>
    </trkpt>
    <trkpt lat="45.602539" lon="10.4536682">
      <ele>261.70001220703125</ele>
      <time>2026-06-21T22:06:02.367+02:00</time>
      <extensions>
        <activity type="STILL" conf="70" state="still" tsMs="1782072358424"/>
        <radio op="vodafone IT" rat="LTE" q="11.00" rsrp="-115" sinr="6" rsrq="-13"/>
        <radio op="I TIM" rat="LTE" q="6.60" rsrp="-119" sinr="6" rsrq="-11"/>
      </extensions>
    </trkpt>
    <trkpt lat="45.602541" lon="10.4536674">
      <ele>261.70001220703125</ele>
      <time>2026-06-21T22:06:33.938+02:00</time>
      <extensions>
        <activity type="STILL" conf="96" state="still" tsMs="1782072390005"/>
        <radio op="vodafone IT" rat="LTE" q="11.00" rsrp="-115" sinr="6" rsrq="-13"/>
        <radio op="I TIM" rat="LTE" q="5.40" rsrp="-119" sinr="4" rsrq="-11"/>
      </extensions>
    </trkpt>
  </trkseg></trk>
</gpx>
