<?xml version="1.0" encoding="UTF-8"?>
<gpx version="1.1" creator="CellGPX" xmlns="http://www.topografix.com/GPX/1/1">
  <trk><name>CellGPX</name><trkseg>
    <trkpt lat="45.6025849" lon="10.4536017">
      <ele>261.6000061035156</ele>
      <time>2026-08-10T13:59:37.601+02:00</time>
      <extensions>
        <activity type="UNKNOWN" conf="40" state="unknown" tsMs="1786363163141"/>
        <radio op="vodafone IT" rat="LTE" q="8.00" rsrp="-117" sinr="5" rsrq="-12"/>
        <radio op="I TIM" rat="LTE" rsrp="-116" rsrq="-13"/>
      </extensions>
    </trkpt>
    <trkpt lat="45.6025506" lon="10.4536703">
      <ele>261.6000061035156</ele>
      <time>2026-08-10T13:59:40.673+02:00</time>
      <extensions>
        <activity type="UNKNOWN" conf="40" state="unknown" tsMs="1786363163141"/>
        <radio op="vodafone IT" rat="LTE" q="5.50" rsrp="-120" sinr="6" rsrq="-11"/>
        <radio op="I TIM" rat="LTE" q="4.50" rsrp="-120" sinr="4" rsrq="-14"/>
      </extensions>
    </trkpt>
    <trkpt lat="45.602548" lon="10.4536823">
      <ele>261.6000061035156</ele>
      <time>2026-08-10T13:59:52.081+02:00</time>
      <extensions>
        <activity type="STILL" conf="97" state="still" tsMs="1786363196916"/>
        <radio op="vodafone IT" rat="LTE" q="8.80" rsrp="-117" sinr="6" rsrq="-10"/>
        <radio op="I TIM" rat="LTE" q="4.80" rsrp="-117" sinr="1" rsrq="-11"/>
      </extensions>
    </trkpt>
    <trkpt lat="45.6025461" lon="10.4536875">
      <ele>261.6000061035156</ele>
      <time>2026-08-10T14:00:06.857+02:00</time>
      <extensions>
        <activity type="UNKNOWN" conf="40" state="unknown" tsMs="1786363202263"/>
        <radio op="vodafone IT" rat="LTE" rsrp="-118" rsrq="-12"/>
        <radio op="I TIM" rat="LTE" q="10.80" rsrp="-116" sinr="7" rsrq="-13"/>
      </extensions>
    </trkpt>
    <trkpt lat="45.6025459" lon="10.4536881">
      <ele>261.6000061035156</ele>
      <time>2026-08-10T14:00:18.12+02:00</time>
      <extensions>
        <activity type="UNKNOWN" conf="40" state="unknown" tsMs="1786363202263"/>
        <radio op="vodafone IT" rat="LTE" q="8.00" rsrp="-117" sinr="5" rsrq="-9"/>
        <radio op="I TIM" rat="LTE" rsrp="-116" rsrq="-14"/>
      </extensions>
    </trkpt>
    <trkpt lat="45.6025443" lon="10.4536851">
      <ele>261.6000061035156</ele>
      <time>2026-08-10T14:00:28.713+02:00</time>
      <extensions>
        <activity type="UNKNOWN" conf="40" state="unknown" tsMs="1786363226190"/>
        <radio op="vodafone IT" rat="LTE" q="24.00" rsrp="-109" sinr="10" rsrq="-10"/>
        <radio op="I TIM" rat="LTE" q="15.60" rsrp="-112" sinr="7" rsrq="-13"/>
      </extensions>
    </trkpt>
    <trkpt lat="45.6025337" lon="10.4536868">
      <ele>261.6000061035156</ele>
      <time>2026-08-10T14:00:35.998+02:00</time>
      <extensions>
        <activity type="UNKNOWN" conf="40" state="unknown" tsMs="1786363231569"/>
        <radio op="vodafone IT" rat="LTE" q="18.70" rsrp="-108" sinr="6" rsrq="-10"/>
        <radio op="I TIM" rat="LTE" q="20.80" rsrp="-112" sinr="11" rsrq="-12"/>
      </extensions>
    </trkpt>
    <trkpt lat="45.6025361" lon="10.4536889">
      <ele>261.6000061035156</ele>
      <time>2026-08-10T14:00:43.173+02:00</time>
      <extensions>
        <activity type="UNKNOWN" conf="40" state="unknown" tsMs="1786363231569"/>
        <radio op="vodafone IT" rat="LTE" q="16.50" rsrp="-110" sinr="6" rsrq="-10"/>
        <radio op="I TIM" rat="LTE" q="15.60" rsrp="-112" sinr="7" rsrq="-10"/>
      </extensions>
    </trkpt>
    <trkpt lat="45.6025349" lon="10.4536873">
      <ele>261.6000061035156</ele>
      <time>2026-08-10T14:00:57.743+02:00</time>
      <extensions>
        <activity type="UNKNOWN" conf="40" state="unknown" tsMs="1786363255285"/>
        <radio op="vodafone IT" rat="LTE" q="12.60" rsrp="-111" sinr="4" rsrq="-10"/>
        <radio op="I TIM" rat="LTE" q="13.00" rsrp="-112" sinr="5" rsrq="-11"/>
      </extensions>
    </trkpt>
    <trkpt lat="45.6025496" lon="10.4536846">
      <ele>261.6000061035156</ele>
      <time>2026-08-10T14:01:08.925+02:00</time>
      <extensions>
        <activity type="UNKNOWN" conf="40" state="unknown" tsMs="1786363260674"/>
        <radio op="vodafone IT" rat="LTE" q="20.40" rsrp="-108" sinr="7" rsrq="-10"/>
        <radio op="I TIM" rat="LTE" q="27.00" rsrp="-110" sinr="13" rsrq="-12"/>
      </extensions>
    </trkpt>
    <trkpt lat="45.6025524" lon="10.4536635">
      <ele>261.6000061035156</ele>
      <time>2026-08-10T14:01:19.304+02:00</time>
      <extensions>
        <activity type="UNKNOWN" conf="40" state="unknown" tsMs="1786363260674"/>
        <radio op="vodafone IT" rat="LTE" rsrp="-117" rsrq="-10"/>
        <radio op="I TIM" rat="LTE" rsrp="-115" rsrq="-13"/>
      </extensions>
    </trkpt>
    <trkpt lat="45.6025564" lon="10.4536665">
      <ele>261.6000061035156</ele>
      <time>2026-08-10T14:01:26.874+02:00</time>
      <extensions>
        <activity type="UNKNOWN" conf="40" state="unknown" tsMs="1786363284474"/>
        <radio op="vodafone IT" rat="LTE" q="6.30" rsrp="-116" sinr="2" rsrq="-11"/>
        <radio op="I TIM" rat="LTE" q="8.80" rsrp="-117" sinr="6" rsrq="-13"/>
      </extensions>
    </trkpt>
    <trkpt lat="45.6025503" lon="10.4536769">
      <ele>261.6000061035156</ele>
      <time>2026-08-10T14:01:30.004+02:00</time>
      <extensions>
        <activity type="ON_BICYCLE" conf="68" state="moving" tsMs="1786363289879"/>
        <radio op="vodafone IT" rat="LTE" q="4.80" rsrp="-119" sinr="3" rsrq="-13"/>
        <radio op="I TIM" rat="LTE" q="4.00" rsrp="-121" sinr="5" rsrq="-12"/>
      </extensions>
    </trkpt>
    <trkpt lat="45.6025426" lon="10.4536896">
      <ele>261.6000061035156</ele>
      <time>2026-08-10T14:01:44.567+02:00</time>
      <extensions>
        <activity type="UNKNOWN" conf="40" state="unknown" tsMs="1786363295015"/>
        <radio op="vodafone IT" rat="LTE" q="7.20" rsrp="-119" sinr="7" rsrq="-10"/>
        <radio op="I TIM" rat="LTE" q="0.60" rsrp="-124" sinr="1" rsrq="-14"/>
      </extensions>
    </trkpt>
    <trkpt lat="45.6025421" lon="10.4536893">
      <ele>261.6000061035156</ele>
      <time>2026-08-10T14:01:51.838+02:00</time>
      <extensions>
        <activity type="UNKNOWN" conf="40" state="unknown" tsMs="1786363318906"/>
        <radio op="vodafone IT" rat="LTE" q="3.00" rsrp="-119" sinr="0" rsrq="-9"/>
        <radio op="I TIM" rat="LTE" q="1.00" rsrp="-124" sinr="5" rsrq="-13"/>
      </extensions>
    </trkpt>
    <trkpt lat="45.6025391" lon="10.4536884">
      <ele>261.6000061035156</ele>
      <time>2026-08-10T14:01:59.107+02:00</time>
      <extensions>
        <activity type="UNKNOWN" conf="40" state="unknown" tsMs="1786363318906"/>
        <radio op="vodafone IT" rat="LTE" q="4.80" rsrp="-117" sinr="1" rsrq="-12"/>
        <radio op="I TIM" rat="LTE" q="8.80" rsrp="-117" sinr="6" rsrq="-11"/>
      </extensions>
    </trkpt>
    <trkpt lat="45.6025574" lon="10.4536981">
      <ele>261.6000061035156</ele>
      <time>2026-08-10T14:02:13.658+02:00</time>
      <extensions>
        <activity type="UNKNOWN" conf="40" state="unknown" tsMs="1786363324102"/>
        <radio op="vodafone IT" rat="LTE" rsrp="-121" rsrq="-12"/>
        <radio op="I TIM" rat="LTE" rsrp="-120" rsrq="-13"/>
      </extensions>
    </trkpt>
    <trkpt lat="45.6025425" lon="10.4536785">
      <ele>261.6000061035156</ele>
      <time>2026-08-10T14:02:22.981+02:00</time>
      <extensions>
        <activity type="UNKNOWN" conf="40" state="unknown" tsMs="1786363347723"/>
        <radio op="vodafone IT" rat="LTE" q="2.20" rsrp="-123" sinr="6" rsrq="-13"/>
        <radio op="I TIM" rat="LTE" q="2.70" rsrp="-122" sinr="4" rsrq="-14"/>
      </extensions>
    </trkpt>
    <trkpt lat="45.6025237" lon="10.4537206">
      <ele>261.6000061035156</ele>
      <time>2026-08-10T14:04:11.124+02:00</time>
      <extensions>
        <activity type="ON_FOOT" conf="86" state="moving" tsMs="1786363440398"/>
        <radio op="vodafone IT" rat="LTE" q="4.80" rsrp="-119" sinr="3" rsrq="-12"/>
        <radio op="I TIM" rat="LTE" q="6.00" rsrp="-119" sinr="5" rsrq="-12"/>
      </extensions>
    </trkpt>
    <trkpt lat="45.6024913" lon="10.4537241">
      <ele>261.6000061035156</ele>
      <time>2026-08-10T14:04:19.182+02:00</time>
      <extensions>
        <activity type="UNKNOWN" conf="40" state="unknown" tsMs="1786363445450"/>
        <radio op="vodafone IT" rat="LTE" q="14.30" rsrp="-112" sinr="6" rsrq="-11"/>
        <radio op="I TIM" rat="LTE" q="8.40" rsrp="-113" sinr="2" rsrq="-12"/>
      </extensions>
    </trkpt>
    <trkpt lat="45.6025421" lon="10.4536894">
      <ele>261.6000061035156</ele>
      <time>2026-08-10T14:05:22.479+02:00</time>
      <extensions>
        <activity type="UNKNOWN" conf="40" state="unknown" tsMs="1786363516744"/>
        <radio op="vodafone IT" rat="LTE" rsrp="-117" rsrq="-11"/>
        <radio op="I TIM" rat="LTE" q="7.20" rsrp="-117" sinr="4" rsrq="-13"/>
      </extensions>
    </trkpt>
    <trkpt lat="45.6023105" lon="10.4534307">
      <ele>261.5</ele>
      <time>2026-08-10T14:06:23.095+02:00</time>
      <extensions>
        <activity type="ON_FOOT" conf="96" state="moving" tsMs="1786363600665"/>
        <radio op="vodafone IT" rat="LTE" q="23.00" rsrp="-102" sinr="5" rsrq="-10"/>
        <radio op="I TIM" rat="LTE" q="39.20" rsrp="-97" sinr="9" rsrq="-12"/>
      </extensions>
    </trkpt>
    <trkpt lat="45.6021628" lon="10.4531316">
      <ele>261.6000061035156</ele>
      <time>2026-08-10T14:06:58.268+02:00</time>
      <extensions>
        <activity type="ON_FOOT" conf="96" state="moving" tsMs="1786363616870"/>
        <radio op="vodafone IT" rat="LTE" q="27.50" rsrp="-100" sinr="6" rsrq="-8"/>
        <radio op="I TIM" rat="LTE" q="25.20" rsrp="-97" sinr="4" rsrq="-10"/>
      </extensions>
    </trkpt>
    <trkpt lat="45.6022286" lon="10.4533282">
      <ele>261.6000061035156</ele>
      <time>2026-08-10T14:07:34.372+02:00</time>
      <extensions>
        <activity type="ON_FOOT" conf="85" state="moving" tsMs="1786363649634"/>
        <radio op="vodafone IT" rat="LTE" q="46.80" rsrp="-99" sinr="13" rsrq="-8"/>
        <radio op="I TIM" rat="LTE" q="56.00" rsrp="-97" sinr="15" rsrq="-10"/>
      </extensions>
    </trkpt>
    <trkpt lat="45.602328" lon="10.4535632">
      <ele>258.85456895911045</ele>
      <time>2026-08-10T14:08:20.032+02:00</time>
      <extensions>
        <activity type="UNKNOWN" conf="40" state="unknown" tsMs="1786363699706"/>
        <radio op="vodafone IT" rat="LTE" q="23.10" rsrp="-104" sinr="6" rsrq="-12"/>
        <radio op="I TIM" rat="LTE" q="9.90" rsrp="-114" sinr="4" rsrq="-13"/>
      </extensions>
    </trkpt>
    <trkpt lat="45.6024603" lon="10.4554664">
      <ele>262.0</ele>
      <time>2026-08-10T14:09:11.388+02:00</time>
      <extensions>
        <activity type="UNKNOWN" conf="40" state="unknown" tsMs="1786363747683"/>
        <radio op="vodafone IT" rat="LTE" q="17.60" rsrp="-114" sinr="11" rsrq="-9"/>
        <radio op="I TIM" rat="LTE" q="25.50" rsrp="-110" sinr="12" rsrq="-9"/>
      </extensions>
    </trkpt>
    <trkpt lat="45.6037114" lon="10.4578589">
      <ele>263.4000244140625</ele>
      <time>2026-08-10T14:09:44.317+02:00</time>
      <extensions>
        <activity type="IN_VEHICLE" conf="86" state="moving" tsMs="1786363782513"/>
        <radio op="vodafone IT" rat="LTE" q="75.00" rsrp="-95" sinr="24" rsrq="-6"/>
        <radio op="I TIM" rat="LTE" q="70.00" rsrp="-97" sinr="22" rsrq="-10"/>
      </extensions>
    </trkpt>
    <trkpt lat="45.6035505" lon="10.4581866">
      <ele>263.4000244140625</ele>
      <time>2026-08-10T14:09:54.161+02:00</time>
      <extensions>
        <activity type="IN_VEHICLE" conf="86" state="moving" tsMs="1786363782513"/>
        <radio op="vodafone IT" rat="LTE" q="95.00" rsrp="-87" sinr="29" rsrq="-6"/>
        <radio op="I TIM" rat="LTE" q="77.50" rsrp="-94" sinr="23" rsrq="-10"/>
      </extensions>
    </trkpt>
    <trkpt lat="45.6036142" lon="10.4582508">
      <ele>263.4000244140625</ele>
      <time>2026-08-10T14:09:55.156+02:00</time>
      <extensions>
        <activity type="UNKNOWN" conf="40" state="unknown" tsMs="1786363787614"/>
        <radio op="vodafone IT" rat="LTE" q="34.50" rsrp="-110" sinr="18" rsrq="-7"/>
        <radio op="I TIM" rat="LTE" q="31.50" rsrp="-110" sinr="16" rsrq="-14"/>
      </extensions>
    </trkpt>
    <trkpt lat="45.6030192" lon="10.4613319">
      <ele>262.0</ele>
      <time>2026-08-10T14:11:25.289+02:00</time>
      <extensions>
        <activity type="UNKNOWN" conf="40" state="unknown" tsMs="1786363877998"/>
        <radio op="vodafone IT" rat="LTE" q="17.10" rsrp="-116" sinr="14" rsrq="-9"/>
        <radio op="I TIM" rat="LTE" q="24.70" rsrp="-112" sinr="14" rsrq="-11"/>
      </extensions>
    </trkpt>
    <trkpt lat="45.6030192" lon="10.4613319">
      <ele>262.0</ele>
      <time>2026-08-10T14:11:32.565+02:00</time>
      <extensions>
        <activity type="ON_FOOT" conf="95" state="moving" tsMs="1786363908261"/>
        <radio op="vodafone IT" rat="LTE" q="11.70" rsrp="-116" sinr="8" rsrq="-9"/>
        <radio op="I TIM" rat="LTE" q="12.00" rsrp="-117" sinr="10" rsrq="-11"/>
      </extensions>
    </trkpt>
    <trkpt lat="45.6042507" lon="10.4593692">
      <ele>264.4000244140625</ele>
      <time>2026-08-10T14:12:55.389+02:00</time>
      <extensions>
        <activity type="ON_FOOT" conf="96" state="moving" tsMs="1786363974666"/>
        <radio op="vodafone IT" rat="LTE" q="20.80" rsrp="-109" sinr="8" rsrq="-8"/>
        <radio op="I TIM" rat="LTE" q="65.00" rsrp="-99" sinr="28" rsrq="-9"/>
      </extensions>
    </trkpt>
    <trkpt lat="45.6042096" lon="10.459475">
      <ele>264.4000244140625</ele>
      <time>2026-08-10T14:13:38.505+02:00</time>
      <extensions>
        <activity type="UNKNOWN" conf="40" state="unknown" tsMs="1786364012087"/>
        <radio op="vodafone IT" rat="LTE" q="14.00" rsrp="-115" sinr="9" rsrq="-8"/>
        <radio op="I TIM" rat="LTE" q="60.00" rsrp="-101" sinr="21" rsrq="-10"/>
      </extensions>
    </trkpt>
    <trkpt lat="45.6041899" lon="10.4594786">
      <ele>264.4000244140625</ele>
      <time>2026-08-10T14:14:06.298+02:00</time>
      <extensions>
        <activity type="UNKNOWN" conf="40" state="unknown" tsMs="1786364047516"/>
        <radio op="vodafone IT" rat="LTE" q="82.50" rsrp="-92" sinr="27" rsrq="-10"/>
        <radio op="I TIM" rat="LTE" q="67.50" rsrp="-98" sinr="26" rsrq="-12"/>
      </extensions>
    </trkpt>
    <trkpt lat="45.6042192" lon="10.4594767">
      <ele>264.4000244140625</ele>
      <time>2026-08-10T14:14:45.171+02:00</time>
      <extensions>
        <activity type="STILL" conf="27" state="still" tsMs="1786364079698"/>
        <radio op="vodafone IT" rat="LTE" q="62.50" rsrp="-100" sinr="20" rsrq="-8"/>
        <radio op="I TIM" rat="LTE" q="8.00" rsrp="-117" sinr="5" rsrq="-13"/>
      </extensions>
    </trkpt>
    <trkpt lat="45.6041375" lon="10.4593314">
      <ele>264.4000244140625</ele>
      <time>2026-08-10T14:15:19.07+02:00</time>
      <extensions>
        <activity type="UNKNOWN" conf="40" state="unknown" tsMs="1786364120881"/>
        <radio op="vodafone IT" rat="LTE" q="72.50" rsrp="-96" sinr="23" rsrq="-9"/>
        <radio op="I TIM" rat="LTE" q="18.20" rsrp="-112" sinr="9" rsrq="-13"/>
      </extensions>
    </trkpt>
    <trkpt lat="45.6041214" lon="10.4593639">
      <ele>264.4000244140625</ele>
      <time>2026-08-10T14:15:53.487+02:00</time>
      <extensions>
        <activity type="STILL" conf="97" state="still" tsMs="1786364150692"/>
        <radio op="vodafone IT" rat="LTE" q="77.50" rsrp="-94" sinr="23" rsrq="-9"/>
        <radio op="I TIM" rat="LTE" q="27.20" rsrp="-109" sinr="12" rsrq="-13"/>
      </extensions>
    </trkpt>
    <trkpt lat="45.6041286" lon="10.4593357">
      <ele>264.4000244140625</ele>
      <time>2026-08-10T14:16:24.74+02:00</time>
      <extensions>
        <activity type="STILL" conf="98" state="still" tsMs="1786364181197"/>
        <radio op="vodafone IT" rat="LTE" q="26.00" rsrp="-112" sinr="15" rsrq="-8"/>
        <radio op="I TIM" rat="LTE" q="16.80" rsrp="-113" sinr="9" rsrq="-13"/>
      </extensions>
    </trkpt>
    <trkpt lat="45.6041248" lon="10.4593352">
      <ele>264.4000244140625</ele>
      <time>2026-08-10T14:16:56.078+02:00</time>
      <extensions>
        <activity type="STILL" conf="99" state="still" tsMs="1786364212160"/>
        <radio op="vodafone IT" rat="LTE" q="27.00" rsrp="-110" sinr="13" rsrq="-6"/>
        <radio op="I TIM" rat="LTE" q="21.00" rsrp="-111" sinr="10" rsrq="-13"/>
      </extensions>
    </trkpt>
    <trkpt lat="45.6041273" lon="10.4593504">
      <ele>264.4000244140625</ele>
      <time>2026-08-10T14:17:27.264+02:00</time>
      <extensions>
        <activity type="STILL" conf="84" state="still" tsMs="1786364243533"/>
        <radio op="vodafone IT" rat="LTE" q="34.00" rsrp="-108" sinr="15" rsrq="-10"/>
        <radio op="I TIM" rat="LTE" q="27.20" rsrp="-109" sinr="12" rsrq="-13"/>
      </extensions>
    </trkpt>
    <trkpt lat="45.604115" lon="10.4593586">
      <ele>264.4000244140625</ele>
      <time>2026-08-10T14:17:58.321+02:00</time>
      <extensions>
        <activity type="STILL" conf="97" state="still" tsMs="1786364274418"/>
        <radio op="vodafone IT" rat="LTE" q="33.60" rsrp="-109" sinr="16" rsrq="-10"/>
        <radio op="I TIM" rat="LTE" q="24.00" rsrp="-110" sinr="11" rsrq="-13"/>
      </extensions>
    </trkpt>
    <trkpt lat="45.6041283" lon="10.4593361">
      <ele>264.4000244140625</ele>
      <time>2026-08-10T14:18:29.636+02:00</time>
      <extensions>
        <activity type="STILL" conf="97" state="still" tsMs="1786364305630"/>
        <radio op="vodafone IT" rat="LTE" q="31.50" rsrp="-110" sinr="16" rsrq="-8"/>
        <radio op="I TIM" rat="LTE" q="24.00" rsrp="-110" sinr="11" rsrq="-13"/>
      </extensions>
    </trkpt>
    <trkpt lat="45.6044599" lon="10.4596768">
      <ele>264.4000244140625</ele>
      <time>2026-08-10T15:15:19.894+02:00</time>
      <extensions>
        <activity type="UNKNOWN" conf="40" state="unknown" tsMs="1786367723484"/>
        <radio op="vodafone IT" rat="LTE" q="25.20" rsrp="-111" sinr="13" rsrq="-6"/>
        <radio op="I TIM" rat="LTE" q="19.60" rsrp="-111" sinr="9" rsrq="-10"/>
      </extensions>
    </trkpt>
    <trkpt lat="45.6043101" lon="10.4591403">
      <ele>264.4000244140625</ele>
      <time>2026-08-10T15:15:55.356+02:00</time>
      <extensions>
        <activity type="ON_FOOT" conf="89" state="moving" tsMs="1786367751342"/>
        <radio op="vodafone IT" rat="LTE" q="77.50" rsrp="-94" sinr="28" rsrq="-7"/>
        <radio op="I TIM" rat="LTE" q="25.20" rsrp="-111" sinr="13" rsrq="-12"/>
      </extensions>
    </trkpt>
    <trkpt lat="45.6044492" lon="10.4585422">
      <ele>264.4000244140625</ele>
      <time>2026-08-10T15:16:37.693+02:00</time>
      <extensions>
        <activity type="ON_FOOT" conf="95" state="moving" tsMs="1786367794338"/>
        <radio op="vodafone IT" rat="LTE" q="37.40" rsrp="-108" sinr="17" rsrq="-10"/>
        <radio op="I TIM" rat="LTE" q="8.80" rsrp="-114" sinr="3" rsrq="-13"/>
      </extensions>
    </trkpt>
    <trkpt lat="45.6044426" lon="10.458498">
      <ele>264.4000244140625</ele>
      <time>2026-08-10T15:17:27.858+02:00</time>
      <extensions>
        <activity type="UNKNOWN" conf="40" state="unknown" tsMs="1786367845335"/>
        <radio op="vodafone IT" rat="LTE" q="32.40" rsrp="-107" sinr="13" rsrq="-8"/>
        <radio op="I TIM" rat="LTE" q="21.00" rsrp="-110" sinr="9" rsrq="-13"/>
      </extensions>
    </trkpt>
    <trkpt lat="45.6044802" lon="10.4585362">
      <ele>264.4000244140625</ele>
      <time>2026-08-10T15:17:58.989+02:00</time>
      <extensions>
        <activity type="UNKNOWN" conf="40" state="unknown" tsMs="1786367874340"/>
        <radio op="vodafone IT" rat="LTE" q="20.80" rsrp="-112" sinr="11" rsrq="-11"/>
        <radio op="I TIM" rat="LTE" q="27.00" rsrp="-110" sinr="13" rsrq="-13"/>
      </extensions>
    </trkpt>
    <trkpt lat="45.6044882" lon="10.4584836">
      <ele>264.4000244140625</ele>
      <time>2026-08-10T15:18:40.248+02:00</time>
      <extensions>
        <activity type="UNKNOWN" conf="40" state="unknown" tsMs="1786367919690"/>
        <radio op="vodafone IT" rat="LTE" q="25.20" rsrp="-111" sinr="13" rsrq="-9"/>
        <radio op="I TIM" rat="LTE" q="19.60" rsrp="-111" sinr="9" rsrq="-11"/>
      </extensions>
    </trkpt>
    <trkpt lat="45.6044484" lon="10.458473">
      <ele>264.4000244140625</ele>
      <time>2026-08-10T15:19:11.378+02:00</time>
      <extensions>
        <activity type="STILL" conf="46" state="still" tsMs="1786367951085"/>
        <radio op="vodafone IT" rat="LTE" q="26.00" rsrp="-112" sinr="15" rsrq="-11"/>
        <radio op="I TIM" rat="LTE" q="39.10" rsrp="-108" sinr="18" rsrq="-12"/>
      </extensions>
    </trkpt>
    <trkpt lat="45.6044367" lon="10.4585118">
      <ele>264.4000244140625</ele>
      <time>2026-08-10T15:19:47.505+02:00</time>
      <extensions>
        <activity type="STILL" conf="55" state="still" tsMs="1786367986343"/>
        <radio op="vodafone IT" rat="LTE" q="33.00" rsrp="-110" sinr="17" rsrq="-12"/>
        <radio op="I TIM" rat="LTE" q="22.10" rsrp="-112" sinr="12" rsrq="-10"/>
      </extensions>
    </trkpt>
    <trkpt lat="45.6044177" lon="10.4588733">
      <ele>264.4000244140625</ele>
      <time>2026-08-10T15:26:11.514+02:00</time>
      <extensions>
        <activity type="ON_FOOT" conf="93" state="moving" tsMs="1786368388782"/>
        <radio op="vodafone IT" rat="LTE" q="55.20" rsrp="-102" sinr="19" rsrq="-6"/>
        <radio op="I TIM" rat="LTE" q="87.50" rsrp="-90" sinr="24" rsrq="-11"/>
      </extensions>
    </trkpt>
    <trkpt lat="45.6043584" lon="10.45891">
      <ele>260.9714879822118</ele>
      <time>2026-08-10T15:26:55.472+02:00</time>
      <extensions>
        <activity type="ON_FOOT" conf="93" state="moving" tsMs="1786368411689"/>
        <radio op="vodafone IT" rat="LTE" q="37.40" rsrp="-108" sinr="17" rsrq="-9"/>
        <radio op="I TIM" rat="LTE" q="67.50" rsrp="-98" sinr="28" rsrq="-10"/>
      </extensions>
    </trkpt>
    <trkpt lat="45.6043584" lon="10.45891">
      <ele>261.11135824148244</ele>
      <time>2026-08-10T15:27:34.113+02:00</time>
      <extensions>
        <activity type="ON_FOOT" conf="93" state="moving" tsMs="1786368459280"/>
        <radio op="vodafone IT" rat="LTE" q="17.00" rsrp="-115" sinr="12" rsrq="-11"/>
        <radio op="I TIM" rat="LTE" q="15.00" rsrp="-115" sinr="10" rsrq="-11"/>
      </extensions>
    </trkpt>
    <trkpt lat="45.6043584" lon="10.45891">
      <ele>260.37388613441544</ele>
      <time>2026-08-10T15:27:45.369+02:00</time>
      <extensions>
        <activity type="ON_FOOT" conf="93" state="moving" tsMs="1786368459280"/>
        <radio op="vodafone IT" rat="LTE" q="28.50" rsrp="-110" sinr="14" rsrq="-10"/>
        <radio op="I TIM" rat="LTE" q="30.40" rsrp="-109" sinr="14" rsrq="-10"/>
      </extensions>
    </trkpt>
    <trkpt lat="45.6032288" lon="10.4585986">
      <ele>263.70001220703125</ele>
      <time>2026-08-10T15:29:24.092+02:00</time>
      <extensions>
        <activity type="IN_VEHICLE" conf="91" state="moving" tsMs="1786368563369"/>
        <radio op="vodafone IT" rat="LTE" rsrp="-76" rsrq="-9"/>
        <radio op="I TIM" rat="LTE" q="100.00" rsrp="-74" sinr="29" rsrq="-8"/>
      </extensions>
    </trkpt>
    <trkpt lat="45.6046901" lon="10.4645565">
      <ele>267.3000183105469</ele>
      <time>2026-08-10T15:30:00.698+02:00</time>
      <extensions>
        <activity type="IN_VEHICLE" conf="96" state="moving" tsMs="1786368600396"/>
        <radio op="vodafone IT" rat="LTE" q="100.00" rsrp="-78" sinr="22" rsrq="-6"/>
        <radio op="I TIM" rat="LTE" q="52.80" rsrp="-92" sinr="11" rsrq="-6"/>
      </extensions>
    </trkpt>
    <trkpt lat="45.6045292" lon="10.4652629">
      <ele>267.3000183105469</ele>
      <time>2026-08-10T15:30:11.14+02:00</time>
      <extensions>
        <activity type="IN_VEHICLE" conf="96" state="moving" tsMs="1786368600396"/>
        <radio op="vodafone IT" rat="LTE" q="100.00" rsrp="-77" sinr="23" rsrq="-6"/>
        <radio op="I TIM" rat="LTE" q="17.10" rsrp="-106" sinr="4" rsrq="-8"/>
      </extensions>
    </trkpt>
    <trkpt lat="45.6044076" lon="10.4664257">
      <ele>267.3000183105469</ele>
      <time>2026-08-10T15:30:21.141+02:00</time>
      <extensions>
        <activity type="IN_VEHICLE" conf="89" state="moving" tsMs="1786368604064"/>
        <radio op="vodafone IT" rat="LTE" q="57.20" rsrp="-99" sinr="17" rsrq="-6"/>
        <radio op="I TIM" rat="LTE" q="32.30" rsrp="-108" sinr="14" rsrq="-8"/>
      </extensions>
    </trkpt>
    <trkpt lat="45.6048207" lon="10.4680533">
      <ele>267.3000183105469</ele>
      <time>2026-08-10T15:30:31.14+02:00</time>
      <extensions>
        <activity type="IN_VEHICLE" conf="93" state="moving" tsMs="1786368626450"/>
        <radio op="vodafone IT" rat="LTE" q="100.00" rsrp="-85" sinr="21" rsrq="-5"/>
        <radio op="I TIM" rat="LTE" q="32.50" rsrp="-100" sinr="8" rsrq="-10"/>
      </extensions>
    </trkpt>
    <trkpt lat="45.6048132" lon="10.4682557">
      <ele>267.3000183105469</ele>
      <time>2026-08-10T15:30:32.14+02:00</time>
      <extensions>
        <activity type="IN_VEHICLE" conf="92" state="moving" tsMs="1786368637318"/>
        <radio op="vodafone IT" rat="LTE" q="77.50" rsrp="-94" sinr="23" rsrq="-6"/>
        <radio op="I TIM" rat="LTE" q="62.40" rsrp="-99" sinr="19" rsrq="-8"/>
      </extensions>
    </trkpt>
    <trkpt lat="45.6118373" lon="10.4916776">
      <ele>231.58161794514544</ele>
      <time>2026-08-10T15:32:26.14+02:00</time>
      <extensions>
        <activity type="IN_VEHICLE" conf="97" state="moving" tsMs="1786368762711"/>
        <radio op="vodafone IT" rat="OTHER"/>
        <radio op="I TIM" rat="LTE" q="7.00" rsrp="-115" sinr="2" rsrq="-15"/>
      </extensions>
    </trkpt>
    <trkpt lat="45.6158121" lon="10.4947701">
      <ele>223.20001220703125</ele>
      <time>2026-08-10T15:33:41.14+02:00</time>
      <extensions>
        <activity type="IN_VEHICLE" conf="96" state="moving" tsMs="1786368836899"/>
        <radio op="vodafone IT" rat="LTE" q="42.50" rsrp="-108" sinr="22" rsrq="-12"/>
        <radio op="I TIM" rat="LTE" rsrp="-128" rsrq="-20"/>
      </extensions>
    </trkpt>
    <trkpt lat="45.617697" lon="10.4940787">
      <ele>226.63292277457305</ele>
      <time>2026-08-10T15:35:09.467+02:00</time>
      <extensions>
        <activity type="IN_VEHICLE" conf="71" state="moving" tsMs="1786368907071"/>
        <radio op="vodafone IT" rat="LTE" q="50.60" rsrp="-103" sinr="18" rsrq="-12"/>
        <radio op="I TIM" rat="LTE" rsrq="-20"/>
      </extensions>
    </trkpt>
    <trkpt lat="45.6179471" lon="10.4936447">
      <ele>227.39717863974482</ele>
      <time>2026-08-10T15:35:59.567+02:00</time>
      <extensions>
        <activity type="TILTING" conf="100" state="moving" tsMs="1786368956648"/>
        <radio op="vodafone IT" rat="LTE" q="57.50" rsrp="-102" sinr="22" rsrq="-13"/>
        <radio op="I TIM" rat="LTE" rsrp="-122" rsrq="-18"/>
      </extensions>
    </trkpt>
    <trkpt lat="45.6176251" lon="10.4942136">
      <ele>227.16284501513223</ele>
      <time>2026-08-10T15:37:08.385+02:00</time>
      <extensions>
        <activity type="STILL" conf="50" state="still" tsMs="1786369026348"/>
        <radio op="vodafone IT" rat="LTE" q="70.00" rsrp="-97" sinr="25" rsrq="-7"/>
        <radio op="I TIM" rat="OTHER"/>
      </extensions>
    </trkpt>
    <trkpt lat="45.6176084" lon="10.4943435">
      <ele>227.819417504515</ele>
      <time>2026-08-10T15:37:50.005+02:00</time>
      <extensions>
        <activity type="ON_FOOT" conf="95" state="moving" tsMs="1786369067784"/>
        <radio op="vodafone IT" rat="LTE" q="65.00" rsrp="-99" sinr="21" rsrq="-13"/>
        <radio op="I TIM" rat="LTE" rsrp="-124" rsrq="-18"/>
      </extensions>
    </trkpt>
    <trkpt lat="45.617619" lon="10.4942531">
      <ele>227.12695664546473</ele>
      <time>2026-08-10T15:38:21.377+02:00</time>
      <extensions>
        <activity type="ON_FOOT" conf="89" state="moving" tsMs="1786369100908"/>
        <radio op="vodafone IT" rat="LTE" q="80.00" rsrp="-93" sinr="25" rsrq="-11"/>
        <radio op="I TIM" rat="LTE" rsrp="-119" rsrq="-15"/>
      </extensions>
    </trkpt>
    <trkpt lat="45.6176078" lon="10.4942346">
      <ele>227.16067108793493</ele>
      <time>2026-08-10T15:38:52.59+02:00</time>
      <extensions>
        <activity type="UNKNOWN" conf="40" state="unknown" tsMs="1786369126917"/>
        <radio op="vodafone IT" rat="LTE" q="67.50" rsrp="-98" sinr="21" rsrq="-10"/>
        <radio op="I TIM" rat="LTE" q="4.80" rsrp="-119" sinr="3" rsrq="-14"/>
      </extensions>
    </trkpt>
    <trkpt lat="45.6174966" lon="10.4943553">
      <ele>227.0340697958829</ele>
      <time>2026-08-10T15:39:03.141+02:00</time>
      <extensions>
        <activity type="UNKNOWN" conf="40" state="unknown" tsMs="1786369132310"/>
        <radio op="vodafone IT" rat="LTE" q="43.20" rsrp="-101" sinr="13" rsrq="-9"/>
        <radio op="I TIM" rat="LTE" q="7.20" rsrp="-113" sinr="1" rsrq="-13"/>
      </extensions>
    </trkpt>
    <trkpt lat="45.6174877" lon="10.4943557">
      <ele>224.10000610351562</ele>
      <time>2026-08-10T15:39:04.14+02:00</time>
      <extensions>
        <activity type="UNKNOWN" conf="40" state="unknown" tsMs="1786369135771"/>
        <radio op="vodafone IT" rat="LTE" q="36.80" rsrp="-102" sinr="11" rsrq="-11"/>
        <radio op="I TIM" rat="LTE" q="6.00" rsrp="-115" sinr="1" rsrq="-13"/>
      </extensions>
    </trkpt>
    <trkpt lat="45.6176285" lon="10.4945611">
      <ele>226.66152800897325</ele>
      <time>2026-08-10T15:39:44.279+02:00</time>
      <extensions>
        <activity type="UNKNOWN" conf="40" state="unknown" tsMs="1786369179487"/>
        <radio op="vodafone IT" rat="LTE" q="56.10" rsrp="-92" sinr="12" rsrq="-9"/>
        <radio op="I TIM" rat="LTE" q="6.00" rsrp="-115" sinr="1" rsrq="-10"/>
      </extensions>
    </trkpt>
    <trkpt lat="45.6176398" lon="10.4942477">
      <ele>227.66996907028377</ele>
      <time>2026-08-10T15:40:15.604+02:00</time>
      <extensions>
        <activity type="UNKNOWN" conf="40" state="unknown" tsMs="1786369211782"/>
        <radio op="vodafone IT" rat="LTE" q="41.60" rsrp="-99" sinr="11" rsrq="-8"/>
        <radio op="I TIM" rat="LTE" q="7.70" rsrp="-114" sinr="2" rsrq="-11"/>
      </extensions>
    </trkpt>
    <trkpt lat="45.6176271" lon="10.4942111">
      <ele>227.60874408169866</ele>
      <time>2026-08-10T15:40:46.857+02:00</time>
      <extensions>
        <activity type="STILL" conf="39" state="still" tsMs="1786369243109"/>
        <radio op="vodafone IT" rat="LTE" q="41.40" rsrp="-102" sinr="13" rsrq="-12"/>
        <radio op="I TIM" rat="LTE" q="6.60" rsrp="-114" sinr="1" rsrq="-13"/>
      </extensions>
    </trkpt>
    <trkpt lat="45.6179874" lon="10.4938439">
      <ele>227.69952611732592</ele>
      <time>2026-08-10T15:41:18.094+02:00</time>
      <extensions>
        <activity type="UNKNOWN" conf="40" state="unknown" tsMs="1786369257706"/>
        <radio op="vodafone IT" rat="LTE" q="52.00" rsrp="-99" sinr="15" rsrq="-8"/>
        <radio op="I TIM" rat="LTE" q="7.70" rsrp="-114" sinr="2" rsrq="-10"/>
      </extensions>
    </trkpt>
    <trkpt lat="45.6176484" lon="10.4942744">
      <ele>227.6657466432834</ele>
      <time>2026-08-10T15:41:49.621+02:00</time>
      <extensions>
        <activity type="STILL" conf="38" state="still" tsMs="1786369305607"/>
        <radio op="vodafone IT" rat="LTE" q="48.00" rsrp="-95" sinr="11" rsrq="-10"/>
        <radio op="I TIM" rat="LTE" q="9.10" rsrp="-112" sinr="2" rsrq="-10"/>
      </extensions>
    </trkpt>
    <trkpt lat="45.617663" lon="10.4942305">
      <ele>226.86037413066012</ele>
      <time>2026-08-10T15:42:21.116+02:00</time>
      <extensions>
        <activity type="UNKNOWN" conf="40" state="unknown" tsMs="1786369337242"/>
        <radio op="vodafone IT" rat="LTE" q="72.50" rsrp="-96" sinr="24" rsrq="-11"/>
        <radio op="I TIM" rat="LTE" q="11.20" rsrp="-111" sinr="3" rsrq="-9"/>
      </extensions>
    </trkpt>
    <trkpt lat="45.6176192" lon="10.4942518">
      <ele>227.39593353739954</ele>
      <time>2026-08-10T15:42:52.515+02:00</time>
      <extensions>
        <activity type="UNKNOWN" conf="40" state="unknown" tsMs="1786369368697"/>
        <radio op="vodafone IT" rat="LTE" q="52.00" rsrp="-99" sinr="15" rsrq="-8"/>
        <radio op="I TIM" rat="LTE" rsrp="-114" rsrq="-13"/>
      </extensions>
    </trkpt>
    <trkpt lat="45.6176676" lon="10.4942348">
      <ele>228.00188178605518</ele>
      <time>2026-08-10T15:43:24.007+02:00</time>
      <extensions>
        <activity type="STILL" conf="38" state="still" tsMs="1786369400163"/>
        <radio op="vodafone IT" rat="LTE" q="43.70" rsrp="-102" sinr="14" rsrq="-12"/>
        <radio op="I TIM" rat="LTE" rsrp="-113" rsrq="-10"/>
      </extensions>
    </trkpt>
    <trkpt lat="45.6176098" lon="10.4942343">
      <ele>226.76892871030864</ele>
      <time>2026-08-10T15:43:55.548+02:00</time>
      <extensions>
        <activity type="UNKNOWN" conf="40" state="unknown" tsMs="1786369431931"/>
        <radio op="vodafone IT" rat="LTE" q="75.00" rsrp="-95" sinr="23" rsrq="-6"/>
        <radio op="I TIM" rat="LTE" rsrp="-110" rsrq="-12"/>
      </extensions>
    </trkpt>
    <trkpt lat="45.6176609" lon="10.4942306">
      <ele>226.96102836079274</ele>
      <time>2026-08-10T15:44:27.064+02:00</time>
      <extensions>
        <activity type="STILL" conf="99" state="still" tsMs="1786369463317"/>
        <radio op="vodafone IT" rat="LTE" q="75.00" rsrp="-95" sinr="23" rsrq="-7"/>
        <radio op="I TIM" rat="LTE" q="15.00" rsrp="-110" sinr="5" rsrq="-9"/>
      </extensions>
    </trkpt>
    <trkpt lat="45.6176135" lon="10.4942529">
      <ele>224.10000610351562</ele>
      <time>2026-08-10T15:44:58.568+02:00</time>
      <extensions>
        <activity type="STILL" conf="99" state="still" tsMs="1786369494826"/>
        <radio op="vodafone IT" rat="LTE" q="67.50" rsrp="-98" sinr="21" rsrq="-11"/>
        <radio op="I TIM" rat="LTE" q="17.60" rsrp="-109" sinr="6" rsrq="-11"/>
      </extensions>
    </trkpt>
    <trkpt lat="45.6176028" lon="10.4945075">
      <ele>224.10000610351562</ele>
      <time>2026-08-10T16:45:28.976+02:00</time>
      <extensions>
        <activity type="UNKNOWN" conf="40" state="unknown" tsMs="1786373128409"/>
        <radio op="vodafone IT" rat="LTE" q="48.00" rsrp="-95" sinr="11" rsrq="-6"/>
        <radio op="I TIM" rat="LTE" q="6.30" rsrp="-118" sinr="4" rsrq="-13"/>
      </extensions>
    </trkpt>
    <trkpt lat="45.6176349" lon="10.494228">
      <ele>224.10000610351562</ele>
      <time>2026-08-10T16:46:00.431+02:00</time>
      <extensions>
        <activity type="UNKNOWN" conf="40" state="unknown" tsMs="1786373159987"/>
        <radio op="vodafone IT" rat="LTE" q="17.60" rsrp="-103" sinr="3" rsrq="-13"/>
        <radio op="I TIM" rat="LTE" q="4.20" rsrp="-118" sinr="1" rsrq="-15"/>
      </extensions>
    </trkpt>
    <trkpt lat="45.617592" lon="10.4942681">
      <ele>224.10000610351562</ele>
      <time>2026-08-10T16:46:31.963+02:00</time>
      <extensions>
        <activity type="UNKNOWN" conf="40" state="unknown" tsMs="1786373191399"/>
        <radio op="vodafone IT" rat="LTE" q="17.50" rsrp="-100" sinr="2" rsrq="-12"/>
        <radio op="I TIM" rat="LTE" q="6.00" rsrp="-115" sinr="1" rsrq="-10"/>
      </extensions>
    </trkpt>
    <trkpt lat="45.6176149" lon="10.4943033">
      <ele>224.10000610351562</ele>
      <time>2026-08-10T16:47:03.37+02:00</time>
      <extensions>
        <activity type="ON_FOOT" conf="87" state="moving" tsMs="1786373222944"/>
        <radio op="vodafone IT" rat="LTE" q="20.80" rsrp="-99" sinr="3" rsrq="-12"/>
        <radio op="I TIM" rat="LTE" q="5.40" rsrp="-119" sinr="4" rsrq="-14"/>
      </extensions>
    </trkpt>
    <trkpt lat="45.6176914" lon="10.494193">
      <ele>224.10000610351562</ele>
      <time>2026-08-10T16:47:34.859+02:00</time>
      <extensions>
        <activity type="UNKNOWN" conf="40" state="unknown" tsMs="1786373254363"/>
        <radio op="vodafone IT" rat="LTE" rsrp="-96" rsrq="-14"/>
        <radio op="I TIM" rat="LTE" q="4.50" rsrp="-116" sinr="0" rsrq="-12"/>
      </extensions>
    </trkpt>
    <trkpt lat="45.6176298" lon="10.4942207">
      <ele>224.10000610351562</ele>
      <time>2026-08-10T16:48:06.394+02:00</time>
      <extensions>
        <activity type="STILL" conf="99" state="still" tsMs="1786373282735"/>
        <radio op="vodafone IT" rat="LTE" q="16.80" rsrp="-97" sinr="1" rsrq="-13"/>
        <radio op="I TIM" rat="LTE" q="10.80" rsrp="-113" sinr="4" rsrq="-12"/>
      </extensions>
    </trkpt>
    <trkpt lat="45.6176621" lon="10.4941687">
      <ele>224.10000610351562</ele>
      <time>2026-08-10T16:48:37.934+02:00</time>
      <extensions>
        <activity type="STILL" conf="99" state="still" tsMs="1786373314187"/>
        <radio op="vodafone IT" rat="LTE" rsrp="-97" rsrq="-11"/>
        <radio op="I TIM" rat="LTE" q="8.80" rsrp="-114" sinr="3" rsrq="-11"/>
      </extensions>
    </trkpt>
    <trkpt lat="45.617695" lon="10.4942172">
      <ele>222.42863482858158</ele>
      <time>2026-08-10T16:49:09.411+02:00</time>
      <extensions>
        <activity type="STILL" conf="99" state="still" tsMs="1786373345780"/>
        <radio op="vodafone IT" rat="LTE" q="18.60" rsrp="-94" sinr="1" rsrq="-13"/>
        <radio op="I TIM" rat="LTE" q="7.00" rsrp="-111" sinr="0" rsrq="-12"/>
      </extensions>
    </trkpt>
    <trkpt lat="45.6176608" lon="10.4941735">
      <ele>222.30725862008754</ele>
      <time>2026-08-10T16:49:40.898+02:00</time>
      <extensions>
        <activity type="STILL" conf="69" state="still" tsMs="1786373377190"/>
        <radio op="vodafone IT" rat="LTE" q="22.00" rsrp="-105" sinr="6" rsrq="-12"/>
        <radio op="I TIM" rat="LTE" rsrp="-121" rsrq="-16"/>
      </extensions>
    </trkpt>
    <trkpt lat="45.6178072" lon="10.4940475">
      <ele>224.10000610351562</ele>
      <time>2026-08-10T16:50:12.294+02:00</time>
      <extensions>
        <activity type="ON_FOOT" conf="95" state="moving" tsMs="1786373408761"/>
        <radio op="vodafone IT" rat="LTE" q="39.10" rsrp="-102" sinr="12" rsrq="-11"/>
        <radio op="I TIM" rat="LTE" rsrp="-122" rsrq="-15"/>
      </extensions>
    </trkpt>
    <trkpt lat="45.6179171" lon="10.4936549">
      <ele>224.70001220703125</ele>
      <time>2026-08-10T16:50:43.904+02:00</time>
      <extensions>
        <activity type="ON_FOOT" conf="91" state="moving" tsMs="1786373440085"/>
        <radio op="vodafone IT" rat="LTE" q="22.80" rsrp="-106" sinr="7" rsrq="-9"/>
        <radio op="I TIM" rat="LTE" rsrp="-123" rsrq="-20"/>
      </extensions>
    </trkpt>
    <trkpt lat="45.6178923" lon="10.4936636">
      <ele>224.10000610351562</ele>
      <time>2026-08-10T16:51:15.366+02:00</time>
      <extensions>
        <activity type="UNKNOWN" conf="40" state="unknown" tsMs="1786373471780"/>
        <radio op="vodafone IT" rat="LTE" q="20.90" rsrp="-106" sinr="6" rsrq="-12"/>
        <radio op="I TIM" rat="LTE" rsrp="-128" rsrq="-21"/>
      </extensions>
    </trkpt>
    <trkpt lat="45.6176155" lon="10.4942327">
      <ele>220.8786786366069</ele>
      <time>2026-08-10T16:51:46.814+02:00</time>
      <extensions>
        <activity type="UNKNOWN" conf="40" state="unknown" tsMs="1786373503151"/>
        <radio op="vodafone IT" rat="LTE" q="16.00" rsrp="-109" sinr="5" rsrq="-11"/>
        <radio op="I TIM" rat="LTE" q="0.50" rsrp="-124" sinr="0" rsrq="-17"/>
      </extensions>
    </trkpt>
    <trkpt lat="45.6178008" lon="10.4937283">
      <ele>220.3720746394802</ele>
      <time>2026-08-10T16:52:08.149+02:00</time>
      <extensions>
        <activity type="IN_VEHICLE" conf="72" state="moving" tsMs="1786373532999"/>
        <radio op="vodafone IT" rat="LTE" q="33.60" rsrp="-101" sinr="9" rsrq="-10"/>
        <radio op="I TIM" rat="LTE" rsrp="-119" rsrq="-19"/>
      </extensions>
    </trkpt>
    <trkpt lat="45.6175638" lon="10.4935434">
      <ele>220.9791532673814</ele>
      <time>2026-08-10T16:52:27.13+02:00</time>
      <extensions>
        <activity type="UNKNOWN" conf="40" state="unknown" tsMs="1786373543782"/>
        <radio op="vodafone IT" rat="LTE" q="32.20" rsrp="-102" sinr="9" rsrq="-12"/>
        <radio op="I TIM" rat="LTE" rsrp="-125" rsrq="-20"/>
      </extensions>
    </trkpt>
    <trkpt lat="45.6175638" lon="10.4935434">
      <ele>221.11002371807277</ele>
      <time>2026-08-10T16:52:33.13+02:00</time>
      <extensions>
        <activity type="STILL" conf="57" state="still" tsMs="1786373548793"/>
        <radio op="vodafone IT" rat="LTE" q="30.80" rsrp="-97" sinr="6" rsrq="-11"/>
        <radio op="I TIM" rat="LTE" rsrp="-121" rsrq="-19"/>
      </extensions>
    </trkpt>
    <trkpt lat="45.6176869" lon="10.4940597">
      <ele>224.10000610351562</ele>
      <time>2026-08-10T16:53:08.929+02:00</time>
      <extensions>
        <activity type="IN_VEHICLE" conf="96" state="moving" tsMs="1786373585011"/>
        <radio op="vodafone IT" rat="LTE" q="39.00" rsrp="-99" sinr="10" rsrq="-10"/>
        <radio op="I TIM" rat="LTE" rsrp="-119" rsrq="-19"/>
      </extensions>
    </trkpt>
    <trkpt lat="45.6178692" lon="10.4934876">
      <ele>224.10000610351562</ele>
      <time>2026-08-10T16:53:40.321+02:00</time>
      <extensions>
        <activity type="IN_VEHICLE" conf="88" state="moving" tsMs="1786373615786"/>
        <radio op="vodafone IT" rat="LTE" q="22.40" rsrp="-97" sinr="3" rsrq="-10"/>
        <radio op="I TIM" rat="LTE" rsrp="-118" rsrq="-19"/>
      </extensions>
    </trkpt>
    <trkpt lat="45.6180252" lon="10.4937664">
      <ele>224.10000610351562</ele>
      <time>2026-08-10T16:54:11.725+02:00</time>
      <extensions>
        <activity type="IN_VEHICLE" conf="96" state="moving" tsMs="1786373650433"/>
        <radio op="vodafone IT" rat="LTE" rsrp="-103" rsrq="-11"/>
        <radio op="I TIM" rat="LTE" rsrp="-119" rsrq="-19"/>
      </extensions>
    </trkpt>
    <trkpt lat="45.6157062" lon="10.4955193">
      <ele>221.60000610351562</ele>
      <time>2026-08-10T16:54:45.129+02:00</time>
      <extensions>
        <activity type="IN_VEHICLE" conf="97" state="moving" tsMs="1786373679597"/>
        <radio op="vodafone IT" rat="LTE" rsrp="-91" rsrq="-13"/>
        <radio op="I TIM" rat="LTE" rsrp="-108" rsrq="-15"/>
      </extensions>
    </trkpt>
    <trkpt lat="45.6154458" lon="10.4960887">
      <ele>221.60000610351562</ele>
      <time>2026-08-10T16:54:49.13+02:00</time>
      <extensions>
        <activity type="IN_VEHICLE" conf="97" state="moving" tsMs="1786373693699"/>
        <radio op="vodafone IT" rat="LTE" q="57.00" rsrp="-87" sinr="10" rsrq="-13"/>
        <radio op="I TIM" rat="LTE" rsrp="-116" rsrq="-19"/>
      </extensions>
    </trkpt>
    <trkpt lat="45.6109989" lon="10.4956108">
      <ele>219.92441447557374</ele>
      <time>2026-08-10T16:55:26.156+02:00</time>
      <extensions>
        <activity type="IN_VEHICLE" conf="97" state="moving" tsMs="1786373725747"/>
        <radio op="vodafone IT" rat="LTE" q="55.80" rsrp="-94" sinr="13" rsrq="-8"/>
        <radio op="I TIM" rat="LTE" rsrp="-109" rsrq="-17"/>
      </extensions>
    </trkpt>
    <trkpt lat="45.6112953" lon="10.4954544">
      <ele>219.92441447557374</ele>
      <time>2026-08-10T16:55:32.129+02:00</time>
      <extensions>
        <activity type="IN_VEHICLE" conf="97" state="moving" tsMs="1786373725747"/>
        <radio op="vodafone IT" rat="LTE" q="33.80" rsrp="-99" sinr="8" rsrq="-8"/>
        <radio op="I TIM" rat="LTE" rsrp="-109" rsrq="-16"/>
      </extensions>
    </trkpt>
    <trkpt lat="45.6117162" lon="10.4922109">
      <ele>225.50001525878906</ele>
      <time>2026-08-10T16:56:07.864+02:00</time>
      <extensions>
        <activity type="IN_VEHICLE" conf="97" state="moving" tsMs="1786373764532"/>
        <radio op="vodafone IT" rat="LTE" q="30.40" rsrp="-106" sinr="11" rsrq="-10"/>
        <radio op="I TIM" rat="LTE" rsrp="-115" rsrq="-17"/>
      </extensions>
    </trkpt>
    <trkpt lat="45.6120015" lon="10.491106">
      <ele>229.70001220703125</ele>
      <time>2026-08-10T16:56:40.181+02:00</time>
      <extensions>
        <activity type="UNKNOWN" conf="40" state="unknown" tsMs="1786373795665"/>
        <radio op="vodafone IT" rat="LTE" q="20.30" rsrp="-96" sinr="2" rsrq="-12"/>
        <radio op="I TIM" rat="LTE" rsrp="-119" rsrq="-17"/>
      </extensions>
    </trkpt>
    <trkpt lat="45.6123377" lon="10.4886033">
      <ele>242.26301827372916</ele>
      <time>2026-08-10T16:57:11.377+02:00</time>
      <extensions>
        <activity type="IN_VEHICLE" conf="92" state="moving" tsMs="1786373826608"/>
        <radio op="vodafone IT" rat="LTE" rsrp="-105" rsrq="-16"/>
        <radio op="I TIM" rat="LTE" rsrp="-117" rsrq="-20"/>
      </extensions>
    </trkpt>
    <trkpt lat="45.607355" lon="10.469306">
      <ele>259.98578721584227</ele>
      <time>2026-08-10T16:58:35.749+02:00</time>
      <extensions>
        <activity type="IN_VEHICLE" conf="97" state="moving" tsMs="1786373940587"/>
        <radio op="vodafone IT" rat="OTHER"/>
        <radio op="I TIM" rat="LTE" q="67.50" rsrp="-98" sinr="24" rsrq="-11"/>
      </extensions>
    </trkpt>
    <trkpt lat="45.607355" lon="10.469306">
      <ele>265.81238646981626</ele>
      <time>2026-08-10T16:59:01.077+02:00</time>
      <extensions>
        <activity type="IN_VEHICLE" conf="97" state="moving" tsMs="1786373940587"/>
        <radio op="vodafone IT" rat="LTE" q="88.00" rsrp="-73" sinr="17" rsrq="-8"/>
        <radio op="I TIM" rat="LTE" q="46.80" rsrp="-89" sinr="8" rsrq="-8"/>
      </extensions>
    </trkpt>
    <trkpt lat="45.6064239" lon="10.4685996">
      <ele>267.20001220703125</ele>
      <time>2026-08-10T16:59:31.587+02:00</time>
      <extensions>
        <activity type="IN_VEHICLE" conf="97" state="moving" tsMs="1786373969060"/>
        <radio op="vodafone IT" rat="LTE" q="100.00" rsrp="-73" sinr="25" rsrq="-7"/>
        <radio op="I TIM" rat="LTE" q="57.60" rsrp="-89" sinr="11" rsrq="-11"/>
      </extensions>
    </trkpt>
    <trkpt lat="45.6055305" lon="10.4680915">
      <ele>267.20001220703125</ele>
      <time>2026-08-10T16:59:39.13+02:00</time>
      <extensions>
        <activity type="IN_VEHICLE" conf="97" state="moving" tsMs="1786373969060"/>
        <radio op="vodafone IT" rat="LTE" q="100.00" rsrp="-81" sinr="24" rsrq="-8"/>
        <radio op="I TIM" rat="LTE" q="58.00" rsrp="-96" sinr="15" rsrq="-7"/>
      </extensions>
    </trkpt>
    <trkpt lat="45.6046148" lon="10.4645852">
      <ele>267.3000183105469</ele>
      <time>2026-08-10T17:00:12.794+02:00</time>
      <extensions>
        <activity type="IN_VEHICLE" conf="97" state="moving" tsMs="1786374010089"/>
        <radio op="vodafone IT" rat="LTE" q="100.00" rsrp="-60" sinr="20" rsrq="-7"/>
        <radio op="I TIM" rat="LTE" q="38.50" rsrp="-90" sinr="6" rsrq="-9"/>
      </extensions>
    </trkpt>
    <trkpt lat="45.6036678" lon="10.4588405">
      <ele>267.20001220703125</ele>
      <time>2026-08-10T17:00:44.064+02:00</time>
      <extensions>
        <activity type="IN_VEHICLE" conf="93" state="moving" tsMs="1786374040624"/>
        <radio op="vodafone IT" rat="LTE" q="100.00" rsrp="-74" sinr="24" rsrq="-8"/>
        <radio op="I TIM" rat="LTE" q="100.00" rsrp="-80" sinr="23" rsrq="-10"/>
      </extensions>
    </trkpt>
    <trkpt lat="45.6033197" lon="10.4581415">
      <ele>267.20001220703125</ele>
      <time>2026-08-10T17:00:51.13+02:00</time>
      <extensions>
        <activity type="IN_VEHICLE" conf="97" state="moving" tsMs="1786374054620"/>
        <radio op="vodafone IT" rat="LTE" q="100.00" rsrp="-67" sinr="25" rsrq="-10"/>
        <radio op="I TIM" rat="LTE" q="100.00" rsrp="-76" sinr="26" rsrq="-10"/>
      </extensions>
    </trkpt>
    <trkpt lat="45.601629" lon="10.4547181">
      <ele>261.6000061035156</ele>
      <time>2026-08-10T17:01:25.589+02:00</time>
      <extensions>
        <activity type="IN_VEHICLE" conf="97" state="moving" tsMs="1786374081342"/>
        <radio op="vodafone IT" rat="LTE" q="20.00" rsrp="-100" sinr="3" rsrq="-13"/>
        <radio op="I TIM" rat="LTE" rsrp="-99" rsrq="-15"/>
      </extensions>
    </trkpt>
    <trkpt lat="45.6010422" lon="10.4531605">
      <ele>260.4000244140625</ele>
      <time>2026-08-10T17:01:56.828+02:00</time>
      <extensions>
        <activity type="IN_VEHICLE" conf="91" state="moving" tsMs="1786374112275"/>
        <radio op="vodafone IT" rat="LTE" q="71.30" rsrp="-94" sinr="18" rsrq="-7"/>
        <radio op="I TIM" rat="LTE" q="88.80" rsrp="-88" sinr="19" rsrq="-10"/>
      </extensions>
    </trkpt>
    <trkpt lat="45.5988916" lon="10.4490603">
      <ele>257.70001220703125</ele>
      <time>2026-08-10T17:02:28.147+02:00</time>
      <extensions>
        <activity type="IN_VEHICLE" conf="97" state="moving" tsMs="1786374143459"/>
        <radio op="vodafone IT" rat="LTE" q="21.00" rsrp="-95" sinr="2" rsrq="-11"/>
        <radio op="I TIM" rat="LTE" q="66.30" rsrp="-86" sinr="12" rsrq="-12"/>
      </extensions>
    </trkpt>
    <trkpt lat="45.5958359" lon="10.4447712">
      <ele>258.2467631271412</ele>
      <time>2026-08-10T17:02:59.299+02:00</time>
      <extensions>
        <activity type="IN_VEHICLE" conf="97" state="moving" tsMs="1786374174724"/>
        <radio op="vodafone IT" rat="LTE" q="14.00" rsrp="-105" sinr="2" rsrq="-13"/>
        <radio op="I TIM" rat="LTE" rsrp="-99" rsrq="-15"/>
      </extensions>
    </trkpt>
    <trkpt lat="45.5952249" lon="10.4428223">
      <ele>255.90000915527344</ele>
      <time>2026-08-10T17:03:20.047+02:00</time>
      <extensions>
        <activity type="IN_VEHICLE" conf="97" state="moving" tsMs="1786374194977"/>
        <radio op="vodafone IT" rat="LTE" q="59.40" rsrp="-92" sinr="13" rsrq="-8"/>
        <radio op="I TIM" rat="LTE" q="32.00" rsrp="-84" sinr="3" rsrq="-10"/>
      </extensions>
    </trkpt>
    <trkpt lat="45.59518" lon="10.442711">
      <ele>255.90000915527344</ele>
      <time>2026-08-10T17:03:22.129+02:00</time>
      <extensions>
        <activity type="IN_VEHICLE" conf="97" state="moving" tsMs="1786374205664"/>
        <radio op="vodafone IT" rat="LTE" q="52.00" rsrp="-85" sinr="8" rsrq="-9"/>
        <radio op="I TIM" rat="LTE" q="60.00" rsrp="-79" sinr="10" rsrq="-7"/>
      </extensions>
    </trkpt>
    <trkpt lat="45.5950624" lon="10.4428563">
      <ele>256.29998779296875</ele>
      <time>2026-08-10T17:04:02.552+02:00</time>
      <extensions>
        <activity type="IN_VEHICLE" conf="95" state="moving" tsMs="1786374236745"/>
        <radio op="vodafone IT" rat="LTE" q="76.00" rsrp="-84" sinr="14" rsrq="-8"/>
        <radio op="I TIM" rat="LTE" q="48.00" rsrp="-74" sinr="7" rsrq="-6"/>
      </extensions>
    </trkpt>
    <trkpt lat="45.5944333" lon="10.4427573">
      <ele>254.90000915527344</ele>
      <time>2026-08-10T17:04:33.322+02:00</time>
      <extensions>
        <activity type="ON_FOOT" conf="96" state="moving" tsMs="1786374269043"/>
        <radio op="vodafone IT" rat="LTE" q="81.60" rsrp="-91" sinr="19" rsrq="-12"/>
        <radio op="I TIM" rat="LTE" q="88.00" rsrp="-81" sinr="17" rsrq="-6"/>
      </extensions>
    </trkpt>
    <trkpt lat="45.5954565" lon="10.4425442">
      <ele>256.29998779296875</ele>
      <time>2026-08-10T17:05:04.609+02:00</time>
      <extensions>
        <activity type="ON_FOOT" conf="92" state="moving" tsMs="1786374300938"/>
        <radio op="vodafone IT" rat="LTE" q="40.50" rsrp="-98" sinr="10" rsrq="-7"/>
        <radio op="I TIM" rat="LTE" q="79.20" rsrp="-92" sinr="19" rsrq="-6"/>
      </extensions>
    </trkpt>
    <trkpt lat="45.5954688" lon="10.4425071">
      <ele>256.29998779296875</ele>
      <time>2026-08-10T17:05:36.081+02:00</time>
      <extensions>
        <activity type="UNKNOWN" conf="40" state="unknown" tsMs="1786374332444"/>
        <radio op="vodafone IT" rat="LTE" q="67.50" rsrp="-98" sinr="20" rsrq="-7"/>
        <radio op="I TIM" rat="LTE" q="59.80" rsrp="-99" sinr="18" rsrq="-10"/>
      </extensions>
    </trkpt>
    <trkpt lat="45.5956766" lon="10.4424004">
      <ele>256.20001220703125</ele>
      <time>2026-08-10T17:06:07.667+02:00</time>
      <extensions>
        <activity type="ON_FOOT" conf="92" state="moving" tsMs="1786374363991"/>
        <radio op="vodafone IT" rat="LTE" q="27.20" rsrp="-108" sinr="11" rsrq="-12"/>
        <radio op="I TIM" rat="LTE" q="28.50" rsrp="-110" sinr="14" rsrq="-9"/>
      </extensions>
    </trkpt>
    <trkpt lat="45.5956993" lon="10.4423961">
      <ele>256.20001220703125</ele>
      <time>2026-08-10T17:06:39.017+02:00</time>
      <extensions>
        <activity type="ON_FOOT" conf="86" state="moving" tsMs="1786374395602"/>
        <radio op="vodafone IT" rat="LTE" rsrp="-105" rsrq="-13"/>
        <radio op="I TIM" rat="LTE" q="8.40" rsrp="-111" sinr="1" rsrq="-11"/>
      </extensions>
    </trkpt>
    <trkpt lat="45.5956868" lon="10.4424074">
      <ele>256.20001220703125</ele>
      <time>2026-08-10T17:07:10.527+02:00</time>
      <extensions>
        <activity type="ON_FOOT" conf="87" state="moving" tsMs="1786374426849"/>
        <radio op="vodafone IT" rat="LTE" q="8.50" rsrp="-108" sinr="0" rsrq="-12"/>
        <radio op="I TIM" rat="LTE" q="11.00" rsrp="-114" sinr="5" rsrq="-9"/>
      </extensions>
    </trkpt>
    <trkpt lat="45.5955719" lon="10.4424519">
      <ele>258.1648211746312</ele>
      <time>2026-08-10T17:07:41.985+02:00</time>
      <extensions>
        <activity type="UNKNOWN" conf="40" state="unknown" tsMs="1786374458424"/>
        <radio op="vodafone IT" rat="LTE" rsrp="-116" rsrq="-12"/>
        <radio op="I TIM" rat="LTE" rsrp="-117" rsrq="-11"/>
      </extensions>
    </trkpt>
    <trkpt lat="45.5956839" lon="10.4424013">
      <ele>256.29998779296875</ele>
      <time>2026-08-10T17:08:13.328+02:00</time>
      <extensions>
        <activity type="ON_FOOT" conf="84" state="moving" tsMs="1786374489729"/>
        <radio op="vodafone IT" rat="LTE" q="15.60" rsrp="-113" sinr="8" rsrq="-12"/>
        <radio op="I TIM" rat="LTE" q="28.90" rsrp="-108" sinr="12" rsrq="-8"/>
      </extensions>
    </trkpt>
    <trkpt lat="45.5956968" lon="10.4423958">
      <ele>256.20001220703125</ele>
      <time>2026-08-10T17:08:44.787+02:00</time>
      <extensions>
        <activity type="UNKNOWN" conf="40" state="unknown" tsMs="1786374521101"/>
        <radio op="vodafone IT" rat="LTE" q="14.00" rsrp="-111" sinr="5" rsrq="-10"/>
        <radio op="I TIM" rat="LTE" q="20.80" rsrp="-112" sinr="11" rsrq="-7"/>
      </extensions>
    </trkpt>
    <trkpt lat="45.5956959" lon="10.4423811">
      <ele>256.20001220703125</ele>
      <time>2026-08-10T17:09:16.188+02:00</time>
      <extensions>
        <activity type="UNKNOWN" conf="40" state="unknown" tsMs="1786374552679"/>
        <radio op="vodafone IT" rat="LTE" q="26.00" rsrp="-105" sinr="8" rsrq="-13"/>
        <radio op="I TIM" rat="LTE" q="27.20" rsrp="-109" sinr="12" rsrq="-8"/>
      </extensions>
    </trkpt>
    <trkpt lat="45.5954405" lon="10.4425447">
      <ele>256.29998779296875</ele>
      <time>2026-08-10T17:09:47.702+02:00</time>
      <extensions>
        <activity type="UNKNOWN" conf="40" state="unknown" tsMs="1786374583981"/>
        <radio op="vodafone IT" rat="LTE" q="6.30" rsrp="-116" sinr="2" rsrq="-14"/>
        <radio op="I TIM" rat="LTE" q="30.00" rsrp="-105" sinr="10" rsrq="-8"/>
      </extensions>
    </trkpt>
    <trkpt lat="45.5956923" lon="10.4423826">
      <ele>256.20001220703125</ele>
      <time>2026-08-10T17:10:19.057+02:00</time>
      <extensions>
        <activity type="UNKNOWN" conf="40" state="unknown" tsMs="1786374615586"/>
        <radio op="vodafone IT" rat="LTE" q="12.00" rsrp="-113" sinr="5" rsrq="-10"/>
        <radio op="I TIM" rat="LTE" q="11.00" rsrp="-115" sinr="6" rsrq="-11"/>
      </extensions>
    </trkpt>
    <trkpt lat="45.5956336" lon="10.4424225">
      <ele>256.29998779296875</ele>
      <time>2026-08-10T17:10:50.504+02:00</time>
      <extensions>
        <activity type="UNKNOWN" conf="40" state="unknown" tsMs="1786374646915"/>
        <radio op="vodafone IT" rat="LTE" q="15.00" rsrp="-110" sinr="5" rsrq="-9"/>
        <radio op="I TIM" rat="LTE" q="15.00" rsrp="-115" sinr="10" rsrq="-10"/>
      </extensions>
    </trkpt>
    <trkpt lat="45.5956834" lon="10.4424022">
      <ele>256.20001220703125</ele>
      <time>2026-08-10T17:11:21.752+02:00</time>
      <extensions>
        <activity type="UNKNOWN" conf="40" state="unknown" tsMs="1786374678120"/>
        <radio op="vodafone IT" rat="LTE" q="8.00" rsrp="-115" sinr="3" rsrq="-13"/>
        <radio op="I TIM" rat="LTE" q="15.40" rsrp="-114" sinr="9" rsrq="-9"/>
      </extensions>
    </trkpt>
    <trkpt lat="45.5956835" lon="10.4424007">
      <ele>256.20001220703125</ele>
      <time>2026-08-10T17:11:44.474+02:00</time>
      <extensions>
        <activity type="UNKNOWN" conf="40" state="unknown" tsMs="1786374703801"/>
        <radio op="vodafone IT" rat="LTE" q="18.00" rsrp="-110" sinr="7" rsrq="-8"/>
        <radio op="I TIM" rat="LTE" q="14.30" rsrp="-114" sinr="8" rsrq="-11"/>
      </extensions>
    </trkpt>
    <trkpt lat="45.5957112" lon="10.4423919">
      <ele>256.20001220703125</ele>
      <time>2026-08-10T17:12:23.157+02:00</time>
      <extensions>
        <activity type="ON_FOOT" conf="82" state="moving" tsMs="1786374740562"/>
        <radio op="vodafone IT" rat="LTE" q="14.40" rsrp="-109" sinr="4" rsrq="-9"/>
        <radio op="I TIM" rat="LTE" q="17.60" rsrp="-114" sinr="11" rsrq="-9"/>
      </extensions>
    </trkpt>
    <trkpt lat="45.5956691" lon="10.442402">
      <ele>256.20001220703125</ele>
      <time>2026-08-10T17:12:54.281+02:00</time>
      <extensions>
        <activity type="STILL" conf="46" state="still" tsMs="1786374773841"/>
        <radio op="vodafone IT" rat="LTE" q="11.70" rsrp="-112" sinr="4" rsrq="-13"/>
        <radio op="I TIM" rat="LTE" q="12.10" rsrp="-114" sinr="6" rsrq="-12"/>
      </extensions>
    </trkpt>
    <trkpt lat="45.5956875" lon="10.4424056">
      <ele>256.20001220703125</ele>
      <time>2026-08-10T17:13:25.469+02:00</time>
      <extensions>
        <activity type="STILL" conf="54" state="still" tsMs="1786374804989"/>
        <radio op="vodafone IT" rat="LTE" q="16.80" rsrp="-111" sinr="7" rsrq="-11"/>
        <radio op="I TIM" rat="LTE" q="9.90" rsrp="-116" sinr="6" rsrq="-12"/>
      </extensions>
    </trkpt>
    <trkpt lat="45.5956925" lon="10.4423982">
      <ele>256.20001220703125</ele>
      <time>2026-08-10T17:13:56.64+02:00</time>
      <extensions>
        <activity type="UNKNOWN" conf="40" state="unknown" tsMs="1786374836118"/>
        <radio op="vodafone IT" rat="LTE" q="10.80" rsrp="-113" sinr="4" rsrq="-12"/>
        <radio op="I TIM" rat="LTE" q="23.80" rsrp="-111" sinr="12" rsrq="-10"/>
      </extensions>
    </trkpt>
    <trkpt lat="45.5956718" lon="10.4424147">
      <ele>256.20001220703125</ele>
      <time>2026-08-10T17:14:27.78+02:00</time>
      <extensions>
        <activity type="UNKNOWN" conf="40" state="unknown" tsMs="1786374867302"/>
        <radio op="vodafone IT" rat="LTE" q="21.60" rsrp="-107" sinr="7" rsrq="-8"/>
        <radio op="I TIM" rat="LTE" q="13.20" rsrp="-113" sinr="6" rsrq="-8"/>
      </extensions>
    </trkpt>
    <trkpt lat="45.5956879" lon="10.4424095">
      <ele>254.55936548134025</ele>
      <time>2026-08-10T17:14:59.408+02:00</time>
      <extensions>
        <activity type="UNKNOWN" conf="40" state="unknown" tsMs="1786374898459"/>
        <radio op="vodafone IT" rat="LTE" q="9.00" rsrp="-110" sinr="1" rsrq="-12"/>
        <radio op="I TIM" rat="LTE" q="18.20" rsrp="-112" sinr="9" rsrq="-9"/>
      </extensions>
    </trkpt>
    <trkpt lat="45.5956399" lon="10.4424143">
      <ele>256.20001220703125</ele>
      <time>2026-08-10T17:15:30.354+02:00</time>
      <extensions>
        <activity type="UNKNOWN" conf="40" state="unknown" tsMs="1786374930043"/>
        <radio op="vodafone IT" rat="LTE" q="17.00" rsrp="-108" sinr="5" rsrq="-13"/>
        <radio op="I TIM" rat="LTE" q="34.20" rsrp="-106" sinr="13" rsrq="-11"/>
      </extensions>
    </trkpt>
    <trkpt lat="45.5955911" lon="10.4424172">
      <ele>256.20001220703125</ele>
      <time>2026-08-10T17:17:04.044+02:00</time>
      <extensions>
        <activity type="UNKNOWN" conf="40" state="unknown" tsMs="1786375023736"/>
        <radio op="vodafone IT" rat="LTE" q="10.50" rsrp="-104" sinr="0" rsrq="-11"/>
        <radio op="I TIM" rat="LTE" q="31.50" rsrp="-104" sinr="10" rsrq="-7"/>
      </extensions>
    </trkpt>
    <trkpt lat="45.5957146" lon="10.4423893">
      <ele>256.20001220703125</ele>
      <time>2026-08-10T17:17:35.126+02:00</time>
      <extensions>
        <activity type="ON_FOOT" conf="84" state="moving" tsMs="1786375054940"/>
        <radio op="vodafone IT" rat="LTE" rsrp="-112" rsrq="-10"/>
        <radio op="I TIM" rat="LTE" q="12.10" rsrp="-114" sinr="6" rsrq="-11"/>
      </extensions>
    </trkpt>
    <trkpt lat="45.5957068" lon="10.4423918">
      <ele>256.20001220703125</ele>
      <time>2026-08-10T17:18:08.199+02:00</time>
      <extensions>
        <activity type="ON_FOOT" conf="84" state="moving" tsMs="1786375086210"/>
        <radio op="vodafone IT" rat="LTE" q="13.00" rsrp="-112" sinr="5" rsrq="-12"/>
        <radio op="I TIM" rat="LTE" q="12.60" rsrp="-111" sinr="4" rsrq="-11"/>
      </extensions>
    </trkpt>
    <trkpt lat="45.5957017" lon="10.4424">
      <ele>256.20001220703125</ele>
      <time>2026-08-10T17:18:39.432+02:00</time>
      <extensions>
        <activity type="UNKNOWN" conf="40" state="unknown" tsMs="1786375116097"/>
        <radio op="vodafone IT" rat="LTE" rsrp="-112" rsrq="-12"/>
        <radio op="I TIM" rat="LTE" q="14.30" rsrp="-114" sinr="8" rsrq="-10"/>
      </extensions>
    </trkpt>
    <trkpt lat="45.5957017" lon="10.442401">
      <ele>256.20001220703125</ele>
      <time>2026-08-10T17:19:10.664+02:00</time>
      <extensions>
        <activity type="UNKNOWN" conf="40" state="unknown" tsMs="1786375145068"/>
        <radio op="vodafone IT" rat="LTE" q="24.70" rsrp="-112" sinr="14" rsrq="-12"/>
        <radio op="I TIM" rat="LTE" q="19.60" rsrp="-111" sinr="9" rsrq="-8"/>
      </extensions>
    </trkpt>
    <trkpt lat="45.5957047" lon="10.4423925">
      <ele>256.20001220703125</ele>
      <time>2026-08-10T17:19:42.001+02:00</time>
      <extensions>
        <activity type="UNKNOWN" conf="40" state="unknown" tsMs="1786375176273"/>
        <radio op="vodafone IT" rat="LTE" q="18.00" rsrp="-110" sinr="7" rsrq="-9"/>
        <radio op="I TIM" rat="LTE" q="20.80" rsrp="-109" sinr="8" rsrq="-8"/>
      </extensions>
    </trkpt>
    <trkpt lat="45.5957007" lon="10.4423815">
      <ele>256.20001220703125</ele>
      <time>2026-08-10T17:19:47.792+02:00</time>
      <extensions>
        <activity type="UNKNOWN" conf="40" state="unknown" tsMs="1786375181707"/>
        <radio op="vodafone IT" rat="LTE" q="32.30" rsrp="-106" sinr="12" rsrq="-6"/>
        <radio op="I TIM" rat="LTE" q="30.00" rsrp="-110" sinr="15" rsrq="-11"/>
      </extensions>
    </trkpt>
    <trkpt lat="45.5956821" lon="10.4423933">
      <ele>256.20001220703125</ele>
      <time>2026-08-10T17:20:23.334+02:00</time>
      <extensions>
        <activity type="UNKNOWN" conf="40" state="unknown" tsMs="1786375221209"/>
        <radio op="vodafone IT" rat="LTE" q="21.00" rsrp="-110" sinr="9" rsrq="-11"/>
        <radio op="I TIM" rat="LTE" q="35.00" rsrp="-111" sinr="20" rsrq="-12"/>
      </extensions>
    </trkpt>
    <trkpt lat="45.5956809" lon="10.4423765">
      <ele>256.20001220703125</ele>
      <time>2026-08-10T17:20:54.601+02:00</time>
      <extensions>
        <activity type="UNKNOWN" conf="40" state="unknown" tsMs="1786375254288"/>
        <radio op="vodafone IT" rat="LTE" rsrp="-110" rsrq="-14"/>
        <radio op="I TIM" rat="LTE" q="27.30" rsrp="-112" sinr="16" rsrq="-13"/>
      </extensions>
    </trkpt>
    <trkpt lat="45.5955753" lon="10.4425006">
      <ele>256.20001220703125</ele>
      <time>2026-08-10T17:21:25.868+02:00</time>
      <extensions>
        <activity type="UNKNOWN" conf="40" state="unknown" tsMs="1786375285580"/>
        <radio op="vodafone IT" rat="LTE" q="20.90" rsrp="-106" sinr="6" rsrq="-8"/>
        <radio op="I TIM" rat="LTE" q="44.10" rsrp="-104" sinr="16" rsrq="-7"/>
      </extensions>
    </trkpt>
    <trkpt lat="45.5956324" lon="10.4424118">
      <ele>256.20001220703125</ele>
      <time>2026-08-10T17:21:57.168+02:00</time>
      <extensions>
        <activity type="UNKNOWN" conf="40" state="unknown" tsMs="1786375311430"/>
        <radio op="vodafone IT" rat="LTE" q="5.00" rsrp="-115" sinr="0" rsrq="-14"/>
        <radio op="I TIM" rat="LTE" q="17.60" rsrp="-109" sinr="6" rsrq="-11"/>
      </extensions>
    </trkpt>
    <trkpt lat="45.595608" lon="10.4424395">
      <ele>256.20001220703125</ele>
      <time>2026-08-10T17:22:28.486+02:00</time>
      <extensions>
        <activity type="UNKNOWN" conf="40" state="unknown" tsMs="1786375348201"/>
        <radio op="vodafone IT" rat="LTE" q="32.20" rsrp="-111" sinr="18" rsrq="-11"/>
        <radio op="I TIM" rat="LTE" q="34.20" rsrp="-107" sinr="14" rsrq="-11"/>
      </extensions>
    </trkpt>
    <trkpt lat="45.5956001" lon="10.4424558">
      <ele>256.20001220703125</ele>
      <time>2026-08-10T17:22:59.738+02:00</time>
      <extensions>
        <activity type="UNKNOWN" conf="40" state="unknown" tsMs="1786375374008"/>
        <radio op="vodafone IT" rat="LTE" q="19.50" rsrp="-110" sinr="8" rsrq="-9"/>
        <radio op="I TIM" rat="LTE" q="31.50" rsrp="-104" sinr="10" rsrq="-9"/>
      </extensions>
    </trkpt>
    <trkpt lat="45.5955553" lon="10.4424534">
      <ele>256.20001220703125</ele>
      <time>2026-08-10T17:23:31.071+02:00</time>
      <extensions>
        <activity type="UNKNOWN" conf="40" state="unknown" tsMs="1786375410724"/>
        <radio op="vodafone IT" rat="LTE" q="30.60" rsrp="-108" sinr="13" rsrq="-9"/>
        <radio op="I TIM" rat="LTE" q="25.20" rsrp="-107" sinr="9" rsrq="-11"/>
      </extensions>
    </trkpt>
    <trkpt lat="45.5956231" lon="10.4424309">
      <ele>256.20001220703125</ele>
      <time>2026-08-10T17:24:02.405+02:00</time>
      <extensions>
        <activity type="UNKNOWN" conf="40" state="unknown" tsMs="1786375438897"/>
        <radio op="vodafone IT" rat="LTE" q="25.60" rsrp="-109" sinr="11" rsrq="-6"/>
        <radio op="I TIM" rat="LTE" q="22.10" rsrp="-108" sinr="8" rsrq="-9"/>
      </extensions>
    </trkpt>
    <trkpt lat="45.595635" lon="10.4424135">
      <ele>256.20001220703125</ele>
      <time>2026-08-10T17:24:33.633+02:00</time>
      <extensions>
        <activity type="UNKNOWN" conf="40" state="unknown" tsMs="1786375470048"/>
        <radio op="vodafone IT" rat="LTE" q="25.50" rsrp="-108" sinr="10" rsrq="-6"/>
        <radio op="I TIM" rat="LTE" q="36.00" rsrp="-107" sinr="15" rsrq="-11"/>
      </extensions>
    </trkpt>
    <trkpt lat="45.5954702" lon="10.4425581">
      <ele>256.29998779296875</ele>
      <time>2026-08-10T17:25:04.923+02:00</time>
      <extensions>
        <activity type="ON_FOOT" conf="81" state="moving" tsMs="1786375510927"/>
        <radio op="vodafone IT" rat="LTE" q="19.60" rsrp="-111" sinr="9" rsrq="-9"/>
        <radio op="I TIM" rat="LTE" q="22.00" rsrp="-105" sinr="6" rsrq="-11"/>
      </extensions>
    </trkpt>
    <trkpt lat="45.5954824" lon="10.4425383">
      <ele>256.29998779296875</ele>
      <time>2026-08-10T17:25:36.253+02:00</time>
      <extensions>
        <activity type="UNKNOWN" conf="40" state="unknown" tsMs="1786375532599"/>
        <radio op="vodafone IT" rat="LTE" q="14.40" rsrp="-113" sinr="7" rsrq="-8"/>
        <radio op="I TIM" rat="LTE" q="27.20" rsrp="-109" sinr="12" rsrq="-8"/>
      </extensions>
    </trkpt>
    <trkpt lat="45.5954316" lon="10.4425926">
      <ele>256.29998779296875</ele>
      <time>2026-08-10T17:26:07.591+02:00</time>
      <extensions>
        <activity type="UNKNOWN" conf="40" state="unknown" tsMs="1786375563938"/>
        <radio op="vodafone IT" rat="LTE" q="32.30" rsrp="-106" sinr="12" rsrq="-8"/>
        <radio op="I TIM" rat="LTE" q="20.00" rsrp="-105" sinr="5" rsrq="-11"/>
      </extensions>
    </trkpt>
    <trkpt lat="45.5954511" lon="10.4425092">
      <ele>256.29998779296875</ele>
      <time>2026-08-10T17:26:53.449+02:00</time>
      <extensions>
        <activity type="ON_FOOT" conf="84" state="moving" tsMs="1786375607800"/>
        <radio op="vodafone IT" rat="LTE" q="30.60" rsrp="-107" sinr="12" rsrq="-8"/>
        <radio op="I TIM" rat="LTE" q="50.60" rsrp="-103" sinr="18" rsrq="-8"/>
      </extensions>
    </trkpt>
    <trkpt lat="45.5954491" lon="10.4426131">
      <ele>256.20001220703125</ele>
      <time>2026-08-10T17:27:39.394+02:00</time>
      <extensions>
        <activity type="UNKNOWN" conf="40" state="unknown" tsMs="1786375659254"/>
        <radio op="vodafone IT" rat="LTE" q="26.60" rsrp="-106" sinr="9" rsrq="-7"/>
        <radio op="I TIM" rat="LTE" q="20.80" rsrp="-109" sinr="8" rsrq="-9"/>
      </extensions>
    </trkpt>
    <trkpt lat="45.5955757" lon="10.4424193">
      <ele>256.20001220703125</ele>
      <time>2026-08-10T17:28:31.857+02:00</time>
      <extensions>
        <activity type="UNKNOWN" conf="40" state="unknown" tsMs="1786375707181"/>
        <radio op="vodafone IT" rat="LTE" q="11.20" rsrp="-109" sinr="2" rsrq="-8"/>
        <radio op="I TIM" rat="LTE" q="38.00" rsrp="-106" sinr="15" rsrq="-10"/>
      </extensions>
    </trkpt>
    <trkpt lat="45.5954867" lon="10.4424685">
      <ele>256.20001220703125</ele>
      <time>2026-08-10T17:29:05.617+02:00</time>
      <extensions>
        <activity type="ON_FOOT" conf="82" state="moving" tsMs="1786375739866"/>
        <radio op="vodafone IT" rat="LTE" q="40.00" rsrp="-100" sinr="11" rsrq="-10"/>
        <radio op="I TIM" rat="LTE" q="50.60" rsrp="-102" sinr="17" rsrq="-7"/>
      </extensions>
    </trkpt>
    <trkpt lat="45.5954655" lon="10.442496">
      <ele>256.29998779296875</ele>
      <time>2026-08-10T17:29:42.563+02:00</time>
      <extensions>
        <activity type="UNKNOWN" conf="40" state="unknown" tsMs="1786375776848"/>
        <radio op="vodafone IT" rat="LTE" q="69.00" rsrp="-95" sinr="18" rsrq="-9"/>
        <radio op="I TIM" rat="LTE" q="36.40" rsrp="-97" sinr="8" rsrq="-8"/>
      </extensions>
    </trkpt>
    <trkpt lat="45.5954485" lon="10.442495">
      <ele>256.29998779296875</ele>
      <time>2026-08-10T17:30:25.169+02:00</time>
      <extensions>
        <activity type="ON_FOOT" conf="82" state="moving" tsMs="1786375819450"/>
        <radio op="vodafone IT" rat="LTE" q="22.10" rsrp="-108" sinr="8" rsrq="-8"/>
        <radio op="I TIM" rat="LTE" q="52.00" rsrp="-99" sinr="15" rsrq="-9"/>
      </extensions>
    </trkpt>
    <trkpt lat="45.5956218" lon="10.4424915">
      <ele>256.20001220703125</ele>
      <time>2026-08-10T17:30:57.133+02:00</time>
      <extensions>
        <activity type="UNKNOWN" conf="40" state="unknown" tsMs="1786375856864"/>
        <radio op="vodafone IT" rat="LTE" q="19.80" rsrp="-107" sinr="6" rsrq="-8"/>
        <radio op="I TIM" rat="LTE" q="15.40" rsrp="-111" sinr="6" rsrq="-11"/>
      </extensions>
    </trkpt>
    <trkpt lat="45.5954376" lon="10.4426174">
      <ele>256.20001220703125</ele>
      <time>2026-08-10T17:31:30.343+02:00</time>
      <extensions>
        <activity type="ON_FOOT" conf="86" state="moving" tsMs="1786375885019"/>
        <radio op="vodafone IT" rat="LTE" q="33.60" rsrp="-104" sinr="11" rsrq="-12"/>
        <radio op="I TIM" rat="LTE" q="37.80" rsrp="-104" sinr="13" rsrq="-10"/>
      </extensions>
    </trkpt>
    <trkpt lat="45.5954614" lon="10.4425663">
      <ele>256.29998779296875</ele>
      <time>2026-08-10T17:32:01.612+02:00</time>
      <extensions>
        <activity type="UNKNOWN" conf="40" state="unknown" tsMs="1786375918029"/>
        <radio op="vodafone IT" rat="LTE" q="21.60" rsrp="-107" sinr="7" rsrq="-8"/>
        <radio op="I TIM" rat="LTE" q="19.80" rsrp="-107" sinr="6" rsrq="-10"/>
      </extensions>
    </trkpt>
    <trkpt lat="45.5954498" lon="10.4425685">
      <ele>256.29998779296875</ele>
      <time>2026-08-10T17:33:02.667+02:00</time>
      <extensions>
        <activity type="UNKNOWN" conf="40" state="unknown" tsMs="1786375981883"/>
        <radio op="vodafone IT" rat="LTE" q="21.00" rsrp="-104" sinr="5" rsrq="-10"/>
        <radio op="I TIM" rat="LTE" q="38.40" rsrp="-101" sinr="11" rsrq="-12"/>
      </extensions>
    </trkpt>
    <trkpt lat="45.5954401" lon="10.4426089">
      <ele>256.20001220703125</ele>
      <time>2026-08-10T17:33:35.054+02:00</time>
      <extensions>
        <activity type="UNKNOWN" conf="40" state="unknown" tsMs="1786376013548"/>
        <radio op="vodafone IT" rat="LTE" q="23.80" rsrp="-108" sinr="9" rsrq="-8"/>
        <radio op="I TIM" rat="LTE" q="27.50" rsrp="-100" sinr="6" rsrq="-13"/>
      </extensions>
    </trkpt>
    <trkpt lat="45.5951109" lon="10.4428677">
      <ele>256.29998779296875</ele>
      <time>2026-08-10T17:34:06.335+02:00</time>
      <extensions>
        <activity type="ON_FOOT" conf="85" state="moving" tsMs="1786376040624"/>
        <radio op="vodafone IT" rat="LTE" q="75.90" rsrp="-92" sinr="18" rsrq="-11"/>
        <radio op="I TIM" rat="LTE" q="92.00" rsrp="-80" sinr="18" rsrq="-9"/>
      </extensions>
    </trkpt>
    <trkpt lat="45.5940839" lon="10.4426201">
      <ele>256.1000061035156</ele>
      <time>2026-08-10T17:34:37.673+02:00</time>
      <extensions>
        <activity type="ON_FOOT" conf="89" state="moving" tsMs="1786376077284"/>
        <radio op="vodafone IT" rat="LTE" q="81.90" rsrp="-86" sinr="16" rsrq="-11"/>
        <radio op="I TIM" rat="LTE" q="95.00" rsrp="-87" sinr="24" rsrq="-10"/>
      </extensions>
    </trkpt>
    <trkpt lat="45.595083" lon="10.4428445">
      <ele>256.1000061035156</ele>
      <time>2026-08-10T17:34:46.129+02:00</time>
      <extensions>
        <activity type="UNKNOWN" conf="40" state="unknown" tsMs="1786376103264"/>
        <radio op="vodafone IT" rat="LTE" q="63.00" rsrp="-95" sinr="16" rsrq="-10"/>
        <radio op="I TIM" rat="LTE" q="66.60" rsrp="-88" sinr="13" rsrq="-11"/>
      </extensions>
    </trkpt>
    <trkpt lat="45.5950054" lon="10.4428472">
      <ele>256.1000061035156</ele>
      <time>2026-08-10T17:35:22.13+02:00</time>
      <extensions>
        <activity type="UNKNOWN" conf="40" state="unknown" tsMs="1786376127555"/>
        <radio op="vodafone IT" rat="LTE" q="64.40" rsrp="-97" sinr="18" rsrq="-7"/>
        <radio op="I TIM" rat="LTE" q="66.00" rsrp="-95" sinr="17" rsrq="-10"/>
      </extensions>
    </trkpt>
    <trkpt lat="45.5952008" lon="10.442729">
      <ele>256.1000061035156</ele>
      <time>2026-08-10T17:35:41.129+02:00</time>
      <extensions>
        <activity type="IN_VEHICLE" conf="82" state="moving" tsMs="1786376138420"/>
        <radio op="vodafone IT" rat="LTE" q="63.80" rsrp="-96" sinr="17" rsrq="-7"/>
        <radio op="I TIM" rat="LTE" q="87.50" rsrp="-90" sinr="20" rsrq="-7"/>
      </extensions>
    </trkpt>
    <trkpt lat="45.5952246" lon="10.4431676">
      <ele>256.1000061035156</ele>
      <time>2026-08-10T17:35:51.129+02:00</time>
      <extensions>
        <activity type="IN_VEHICLE" conf="82" state="moving" tsMs="1786376138420"/>
        <radio op="vodafone IT" rat="LTE" q="28.60" rsrp="-103" sinr="8" rsrq="-13"/>
        <radio op="I TIM" rat="LTE" q="47.60" rsrp="-91" sinr="9" rsrq="-9"/>
      </extensions>
    </trkpt>
    <trkpt lat="45.5952498" lon="10.4434933">
      <ele>256.1000061035156</ele>
      <time>2026-08-10T17:36:01.129+02:00</time>
      <extensions>
        <activity type="UNKNOWN" conf="40" state="unknown" tsMs="1786376143149"/>
        <radio op="vodafone IT" rat="LTE" q="63.80" rsrp="-96" sinr="17" rsrq="-9"/>
        <radio op="I TIM" rat="LTE" q="59.50" rsrp="-90" sinr="12" rsrq="-7"/>
      </extensions>
    </trkpt>
    <trkpt lat="45.595232" lon="10.4435417">
      <ele>256.1000061035156</ele>
      <time>2026-08-10T17:36:11.129+02:00</time>
      <extensions>
        <activity type="UNKNOWN" conf="40" state="unknown" tsMs="1786376170955"/>
        <radio op="vodafone IT" rat="LTE" q="64.00" rsrp="-93" sinr="15" rsrq="-8"/>
        <radio op="I TIM" rat="LTE" q="35.10" rsrp="-98" sinr="8" rsrq="-9"/>
      </extensions>
    </trkpt>
    <trkpt lat="45.5952245" lon="10.4435334">
      <ele>256.1000061035156</ele>
      <time>2026-08-10T17:36:22.129+02:00</time>
      <extensions>
        <activity type="IN_VEHICLE" conf="85" state="moving" tsMs="1786376181839"/>
        <radio op="vodafone IT" rat="LTE" q="69.00" rsrp="-95" sinr="18" rsrq="-8"/>
        <radio op="I TIM" rat="LTE" q="54.40" rsrp="-93" sinr="12" rsrq="-9"/>
      </extensions>
    </trkpt>
    <trkpt lat="45.5952049" lon="10.4438431">
      <ele>256.1000061035156</ele>
      <time>2026-08-10T17:36:32.129+02:00</time>
      <extensions>
        <activity type="UNKNOWN" conf="40" state="unknown" tsMs="1786376187267"/>
        <radio op="vodafone IT" rat="LTE" q="39.20" rsrp="-97" sinr="9" rsrq="-13"/>
        <radio op="I TIM" rat="LTE" q="28.00" rsrp="-97" sinr="5" rsrq="-10"/>
      </extensions>
    </trkpt>
    <trkpt lat="45.5957812" lon="10.4447501">
      <ele>256.1000061035156</ele>
      <time>2026-08-10T17:36:42.129+02:00</time>
      <extensions>
        <activity type="UNKNOWN" conf="40" state="unknown" tsMs="1786376198161"/>
        <radio op="vodafone IT" rat="LTE" q="19.60" rsrp="-111" sinr="9" rsrq="-14"/>
        <radio op="I TIM" rat="LTE" q="14.00" rsrp="-105" sinr="2" rsrq="-10"/>
      </extensions>
    </trkpt>
    <trkpt lat="45.5962098" lon="10.4453975">
      <ele>256.1000061035156</ele>
      <time>2026-08-10T17:36:47.129+02:00</time>
      <extensions>
        <activity type="IN_VEHICLE" conf="83" state="moving" tsMs="1786376203579"/>
        <radio op="vodafone IT" rat="LTE" q="33.60" rsrp="-101" sinr="9" rsrq="-10"/>
        <radio op="I TIM" rat="LTE" q="46.40" rsrp="-96" sinr="11" rsrq="-12"/>
      </extensions>
    </trkpt>
    <trkpt lat="45.5985829" lon="10.4498954">
      <ele>258.0</ele>
      <time>2026-08-10T17:37:18.606+02:00</time>
      <extensions>
        <activity type="IN_VEHICLE" conf="80" state="moving" tsMs="1786376208321"/>
        <radio op="vodafone IT" rat="LTE" q="31.20" rsrp="-101" sinr="8" rsrq="-10"/>
        <radio op="I TIM" rat="LTE" q="51.00" rsrp="-95" sinr="12" rsrq="-11"/>
      </extensions>
    </trkpt>
    <trkpt lat="45.599448" lon="10.4505735">
      <ele>258.0</ele>
      <time>2026-08-10T17:37:27.13+02:00</time>
      <extensions>
        <activity type="IN_VEHICLE" conf="90" state="moving" tsMs="1786376229667"/>
        <radio op="vodafone IT" rat="LTE" q="19.20" rsrp="-109" sinr="7" rsrq="-7"/>
        <radio op="I TIM" rat="LTE" q="40.80" rsrp="-101" sinr="12" rsrq="-11"/>
      </extensions>
    </trkpt>
    <trkpt lat="45.6022147" lon="10.4532639">
      <ele>259.72324393318047</ele>
      <time>2026-08-10T17:38:17.433+02:00</time>
      <extensions>
        <activity type="IN_VEHICLE" conf="91" state="moving" tsMs="1786376296462"/>
        <radio op="vodafone IT" rat="LTE" q="19.00" rsrp="-106" sinr="5" rsrq="-10"/>
        <radio op="I TIM" rat="LTE" q="22.00" rsrp="-105" sinr="6" rsrq="-12"/>
      </extensions>
    </trkpt>
    <trkpt lat="45.6022793" lon="10.4534574">
      <ele>261.6000061035156</ele>
      <time>2026-08-10T17:38:57.22+02:00</time>
      <extensions>
        <activity type="UNKNOWN" conf="40" state="unknown" tsMs="1786376334392"/>
        <radio op="vodafone IT" rat="LTE" q="36.00" rsrp="-105" sinr="13" rsrq="-11"/>
        <radio op="I TIM" rat="LTE" q="58.80" rsrp="-97" sinr="16" rsrq="-11"/>
      </extensions>
    </trkpt>
    <trkpt lat="45.6020733" lon="10.4532235">
      <ele>261.6000061035156</ele>
      <time>2026-08-10T17:39:03.129+02:00</time>
      <extensions>
        <activity type="UNKNOWN" conf="40" state="unknown" tsMs="1786376334392"/>
        <radio op="vodafone IT" rat="LTE" q="23.40" rsrp="-107" sinr="8" rsrq="-10"/>
        <radio op="I TIM" rat="LTE" q="8.50" rsrp="-108" sinr="0" rsrq="-14"/>
      </extensions>
    </trkpt>
    <trkpt lat="45.6020733" lon="10.4532235">
      <ele>261.6000061035156</ele>
      <time>2026-08-10T17:39:38.696+02:00</time>
      <extensions>
        <activity type="ON_FOOT" conf="92" state="moving" tsMs="1786376373734"/>
        <radio op="vodafone IT" rat="LTE" q="15.00" rsrp="-110" sinr="5" rsrq="-11"/>
        <radio op="I TIM" rat="LTE" q="20.90" rsrp="-106" sinr="6" rsrq="-12"/>
      </extensions>
    </trkpt>
    <trkpt lat="45.6025808" lon="10.4534868">
      <ele>261.6000061035156</ele>
      <time>2026-08-10T17:39:57.128+02:00</time>
      <extensions>
        <activity type="ON_FOOT" conf="89" state="moving" tsMs="1786376390049"/>
        <radio op="vodafone IT" rat="LTE" q="6.00" rsrp="-115" sinr="1" rsrq="-12"/>
        <radio op="I TIM" rat="LTE" q="23.40" rsrp="-107" sinr="8" rsrq="-11"/>
      </extensions>
    </trkpt>
    <trkpt lat="45.6025443" lon="10.4536838">
      <ele>261.6000061035156</ele>
      <time>2026-08-10T17:40:30.246+02:00</time>
      <extensions>
        <activity type="UNKNOWN" conf="40" state="unknown" tsMs="1786376426920"/>
        <radio op="vodafone IT" rat="LTE" q="2.40" rsrp="-121" sinr="1" rsrq="-11"/>
        <radio op="I TIM" rat="LTE" rsrp="-116" rsrq="-14"/>
      </extensions>
    </trkpt>
    <trkpt lat="45.6025427" lon="10.45368">
      <ele>261.6000061035156</ele>
      <time>2026-08-10T17:41:01.963+02:00</time>
      <extensions>
        <activity type="UNKNOWN" conf="40" state="unknown" tsMs="1786376461207"/>
        <radio op="vodafone IT" rat="LTE" q="2.10" rsrp="-122" sinr="2" rsrq="-12"/>
        <radio op="I TIM" rat="LTE" rsrp="-121" rsrq="-11"/>
      </extensions>
    </trkpt>
    <trkpt lat="45.6025465" lon="10.4536899">
      <ele>261.6000061035156</ele>
      <time>2026-08-10T17:41:33.555+02:00</time>
      <extensions>
        <activity type="UNKNOWN" conf="40" state="unknown" tsMs="1786376492892"/>
        <radio op="vodafone IT" rat="LTE" rsrp="-116" rsrq="-11"/>
        <radio op="I TIM" rat="LTE" q="13.20" rsrp="-113" sinr="6" rsrq="-12"/>
      </extensions>
    </trkpt>
    <trkpt lat="45.6025491" lon="10.4536963">
      <ele>261.6000061035156</ele>
      <time>2026-08-10T17:42:05.075+02:00</time>
      <extensions>
        <activity type="UNKNOWN" conf="40" state="unknown" tsMs="1786376524569"/>
        <radio op="vodafone IT" rat="LTE" q="4.50" rsrp="-116" sinr="0" rsrq="-10"/>
        <radio op="I TIM" rat="LTE" rsrp="-116" rsrq="-13"/>
      </extensions>
    </trkpt>
    <trkpt lat="45.6025434" lon="10.4536807">
      <ele>261.6000061035156</ele>
      <time>2026-08-10T17:42:36.813+02:00</time>
      <extensions>
        <activity type="UNKNOWN" conf="40" state="unknown" tsMs="1786376556069"/>
        <radio op="vodafone IT" rat="LTE" rsrp="-121" rsrq="-11"/>
        <radio op="I TIM" rat="LTE" rsrp="-124" rsrq="-12"/>
      </extensions>
    </trkpt>
    <trkpt lat="45.602546" lon="10.4536951">
      <ele>261.6000061035156</ele>
      <time>2026-08-10T17:43:08.492+02:00</time>
      <extensions>
        <activity type="STILL" conf="77" state="still" tsMs="1786376584677"/>
        <radio op="vodafone IT" rat="LTE" q="3.00" rsrp="-119" sinr="0" rsrq="-15"/>
        <radio op="I TIM" rat="LTE" rsrp="-118" rsrq="-11"/>
      </extensions>
    </trkpt>
  </trkseg></trk>
</gpx>
